datetime<>metar
2026-01-01 00:00:00<>METAR SBGL 010000Z 12006KT CAVOK 29/22 Q1010=
2026-01-01 01:00:00<>METAR SBGL 010100Z 09002KT CAVOK 28/23 Q1011=
2026-01-01 02:00:00<>METAR SBGL 010200Z 16001KT CAVOK 28/23 Q1010=
2026-01-01 03:00:00<>METAR SBGL 010300Z 01001KT CAVOK 27/23 Q1010=
2026-01-01 04:00:00<>METAR SBGL 010400Z 29002KT CAVOK 27/24 Q1009=
2026-01-01 05:00:00<>METAR SBGL 010500Z 28005KT CAVOK 28/23 Q1009=
2026-01-01 06:00:00<>METAR SBGL 010600Z 28006KT CAVOK 27/23 Q1008=
2026-01-01 07:00:00<>METAR SBGL 010700Z 28006KT CAVOK 27/24 Q1008=
2026-01-01 08:00:00<>METAR SBGL 010800Z 31003KT 8000 NSC 27/23 Q1008=
2026-01-01 09:00:00<>METAR SBGL 010900Z 33004KT 6000 NSC 27/24 Q1008=
2026-01-01 10:00:00<>METAR SBGL 011000Z 34004KT 7000 NSC 28/24 Q1009=
2026-01-01 11:00:00<>METAR SBGL 011100Z 36005KT 340V040 8000 NSC 29/24 Q1009=
2026-01-01 12:00:00<>METAR SBGL 011200Z 06002KT CAVOK 33/23 Q1008=
2026-01-01 13:00:00<>METAR SBGL 011300Z 04005KT 340V100 CAVOK 34/24 Q1008=
2026-01-01 14:00:00<>METAR SBGL 011400Z 02003KT CAVOK 35/22 Q1008=
2026-01-01 15:00:00<>METAR SBGL 011500Z 13007KT CAVOK 36/24 Q1007=
2026-01-01 16:00:00<>METAR SBGL 011600Z 12011KT CAVOK 34/24 Q1006=
2026-01-01 17:00:00<>METAR SBGL 011700Z 12012KT CAVOK 34/24 Q1005=
2026-01-01 18:00:00<>METAR SBGL 011800Z 14014KT CAVOK 32/23 Q1005=
2026-01-01 19:00:00<>METAR SBGL 011900Z 08011KT CAVOK 31/23 Q1005=
2026-01-01 20:00:00<>METAR COR SBGL 012000Z 14010KT 9999 FEW025TCU SCT080 31/23 Q1005=
2026-01-01 21:00:00<>METAR SBGL 012100Z 11007KT 9000 FEW025TCU BKN100 30/23 Q1005=
2026-01-01 22:00:00<>METAR SBGL 012200Z 06008KT 9999 FEW025TCU BKN100 29/24 Q1006=
2026-01-01 23:00:00<>METAR SBGL 012300Z 07006KT 9999 VCTS FEW025CB BKN100 29/23 Q1006=
2026-01-02 00:00:00<>METAR SBGL 020000Z 32002KT 9999 VCTS FEW025CB BKN100 29/23 Q1007=
2026-01-02 01:00:00<>METAR SBGL 020100Z 08005KT 9999 VCTS FEW025CB BKN100 28/25 Q1007=
2026-01-02 02:00:00<>METAR SBGL 020200Z 06008KT 9999 VCTS FEW025CB BKN100 28/25 Q1006=
2026-01-02 03:00:00<>METAR SBGL 020300Z 09005KT 9999 FEW025 BKN100 28/24 Q1006=
2026-01-02 04:00:00<>METAR SBGL 020400Z 06005KT 9999 FEW025 BKN100 27/24 Q1005=
2026-01-02 05:00:00<>METAR SBGL 020500Z 09005KT 9999 FEW025 BKN100 27/24 Q1005=
2026-01-02 06:00:00<>METAR SBGL 020600Z 15004KT 9999 FEW025 BKN100 26/23 Q1005=
2026-01-02 07:00:00<>METAR COR SBGL 020700Z 19005KT 8000 FEW025 BKN100 26/23 Q1004=
2026-01-02 08:00:00<>METAR SBGL 020800Z 27010KT 8000 FEW025 BKN100 27/23 Q1005=
2026-01-02 09:00:00<>METAR SBGL 020900Z 28006KT 8000 FEW025 BKN100 27/23 Q1005=
2026-01-02 10:00:00<>METAR SBGL 021000Z 27005KT 250V330 9999 FEW025 BKN100 28/23 Q1006=
2026-01-02 11:00:00<>METAR SBGL 021100Z 34003KT 290V050 9999 FEW025 BKN100 30/23 Q1005=
2026-01-02 12:00:00<>METAR SBGL 021200Z VRB02KT 9999 FEW025 BKN100 30/23 Q1006=
2026-01-02 13:00:00<>METAR SBGL 021300Z 02004KT 340V050 9999 FEW025 BKN100 32/23 Q1005=
2026-01-02 14:00:00<>METAR COR SBGL 021400Z 04007KT 360V060 9999 FEW025 BKN100 31/24 Q1005=
2026-01-02 15:00:00<>METAR SBGL 021500Z 03006KT 9999 FEW025 BKN100 32/24 Q1004=
2026-01-02 16:00:00<>METAR SBGL 021600Z VRB04KT 9999 FEW025 BKN100 36/21 Q1003=
2026-01-02 17:00:00<>METAR SBGL 021700Z VRB04KT 9999 SCT025 BKN100 37/20 Q1002=
2026-01-02 18:00:00<>METAR SBGL 021800Z 13010KT 9999 SCT025 SCT100 34/22 Q1002=
2026-01-02 19:00:00<>METAR SBGL 021900Z 13011KT 9999 VCSH BKN025 BKN100 32/23 Q1001=
2026-01-02 20:00:00<>METAR SBGL 022000Z 21013KT 9999 VCSH BKN025 FEW030TCU BKN100 33/19 Q1002=
2026-01-02 21:00:00<>METAR SBGL 022100Z 22009KT 9999 VCSH BKN025 FEW030TCU BKN100 32/19 Q1003=
2026-01-02 22:00:00<>METAR SBGL 022200Z 05008KT 9999 VCSH BKN025 FEW030TCU BKN100 27/23 Q1004=
2026-01-02 23:00:00<>METAR SBGL 022300Z 34003KT 300V030 7000 -TSRA BKN025 FEW030CB BKN100 28/23 Q1005=
2026-01-02 23:27:00<>SPECI SBGL 022327Z 31005KT 4000 -TSRA BR BKN025 FEW031CB OVC070 26/23 Q1006=
2026-01-03 00:00:00<>METAR SBGL 030000Z 27006KT 5000 -RA BR FEW025TCU BKN050 OVC070 26/23 Q1006 RETS=
2026-01-03 01:00:00<>METAR SBGL 030100Z 04003KT 360V080 5000 -RA BR FEW024TCU SCT035 OVC045 25/24 Q1006=
2026-01-03 02:00:00<>METAR SBGL 030200Z 16002KT 7000 -RA FEW040 OVC100 25/24 Q1005=
2026-01-03 03:00:00<>METAR SBGL 030300Z 10002KT 7000 -RA FEW008 OVC100 25/24 Q1005=
2026-01-03 04:00:00<>METAR SBGL 030400Z 16002KT 7000 FEW008 OVC100 25/24 Q1004=
2026-01-03 05:00:00<>METAR SBGL 030500Z 27002KT 7000 BKN009 OVC100 25/24 Q1004=
2026-01-03 06:00:00<>METAR SBGL 030600Z 26001KT 7000 BKN009 OVC100 26/24 Q1004=
2026-01-03 07:00:00<>METAR SBGL 030700Z 33003KT 7000 BKN009 OVC100 26/24 Q1003=
2026-01-03 07:07:00<>SPECI SBGL 030707Z 31004KT 7000 FEW009 OVC100 26/24 Q1005=
2026-01-03 08:00:00<>METAR SBGL 030800Z 31004KT 7000 FEW009 OVC100 25/23 Q1005=
2026-01-03 09:00:00<>METAR SBGL 030900Z 34005KT 8000 FEW009 BKN100 25/23 Q1005=
2026-01-03 10:00:00<>METAR SBGL 031000Z 36003KT 340V040 9999 SCT035 BKN100 26/24 Q1005=
2026-01-03 11:00:00<>METAR SBGL 031100Z VRB02KT 9999 FEW030 BKN100 27/24 Q1005=
2026-01-03 12:00:00<>METAR SBGL 031200Z VRB03KT 9999 FEW030 BKN100 29/24 Q1005=
2026-01-03 13:00:00<>METAR SBGL 031300Z 34004KT 300V030 9999 FEW030 BKN100 30/24 Q1005=
2026-01-03 14:00:00<>METAR SBGL 031400Z 07005KT 020V120 9999 FEW030 BKN100 32/23 Q1005=
2026-01-03 15:00:00<>METAR SBGL 031500Z 13008KT 070V150 9999 SCT030 BKN100 31/24 Q1005=
2026-01-03 16:00:00<>METAR SBGL 031600Z 11005KT 020V140 9999 SCT030 33/23 Q1004=
2026-01-03 17:00:00<>METAR SBGL 031700Z 13011KT 9999 SCT030 33/23 Q1003=
2026-01-03 18:00:00<>METAR SBGL 031800Z 12015KT 9999 SCT030 30/24 Q1003=
2026-01-03 19:00:00<>METAR SBGL 031900Z 13011KT 9999 VCSH FEW025 SCT040 BKN080 29/24 Q1003=
2026-01-03 20:00:00<>METAR SBGL 032000Z 08010KT 9000 TS SCT020 FEW030CB BKN040 28/24 Q1005=
2026-01-03 21:00:00<>METAR SBGL 032100Z 11006KT 9999 VCSH FEW015 SCT030 BKN040 28/24 Q1005 RETS=
2026-01-03 22:00:00<>METAR SBGL 032200Z 09008KT 9999 FEW030 SCT040 BKN060 28/24 Q1006=
2026-01-03 23:00:00<>METAR SBGL 032300Z 05005KT 9999 FEW030 SCT040 BKN060 27/24 Q1007=
2026-01-04 00:00:00<>METAR SBGL 040000Z 07005KT 9999 FEW030 SCT040 BKN060 27/24 Q1007=
2026-01-04 01:00:00<>METAR SBGL 040100Z 10004KT 9999 FEW015 SCT040 BKN060 26/24 Q1007=
2026-01-04 02:00:00<>METAR SBGL 040200Z VRB02KT 9999 FEW015 SCT040 BKN060 26/24 Q1007=
2026-01-04 03:00:00<>METAR SBGL 040300Z 01003KT 340V040 9999 FEW015 SCT040 BKN060 26/24 Q1007=
2026-01-04 04:00:00<>METAR SBGL 040400Z VRB02KT 9999 FEW015 SCT040 BKN060 26/24 Q1007=
2026-01-04 05:00:00<>METAR SBGL 040500Z VRB02KT 9999 FEW015 SCT040 BKN060 26/24 Q1006=
2026-01-04 06:00:00<>METAR SBGL 040600Z 25006KT 9999 FEW015 SCT040 BKN060 27/22 Q1006=
2026-01-04 07:00:00<>METAR SBGL 040700Z 29003KT 9999 FEW015 SCT040 BKN060 27/21 Q1006=
2026-01-04 08:00:00<>METAR SBGL 040800Z 36005KT 330V080 8000 FEW015 SCT040 BKN060 26/23 Q1007=
2026-01-04 09:00:00<>METAR SBGL 040900Z VRB02KT 9999 FEW015 SCT040 BKN060 26/23 Q1007=
2026-01-04 10:00:00<>METAR SBGL 041000Z VRB02KT 9999 FEW015 SCT030 BKN050 27/23 Q1008=
2026-01-04 11:00:00<>METAR SBGL 041100Z 01005KT 9999 SCT018 BKN030 27/22 Q1009=
2026-01-04 12:00:00<>METAR SBGL 041200Z 12005KT 9999 SCT018 BKN022 27/22 Q1010=
2026-01-04 13:00:00<>METAR SBGL 041300Z 13009KT 9999 SCT018 BKN025 29/23 Q1010=
2026-01-04 14:00:00<>METAR SBGL 041400Z 13012KT 9999 FEW018 BKN025 BKN070 28/23 Q1010=
2026-01-04 15:00:00<>METAR SBGL 041500Z 14012KT 9000 SCT018 SCT070 28/24 Q1010=
2026-01-04 16:00:00<>METAR SBGL 041600Z 15015KT 9999 SCT020 SCT070 29/21 Q1010=
2026-01-04 17:00:00<>METAR SBGL 041700Z 14016KT 9999 SCT020 BKN050 28/20 Q1010=
2026-01-04 18:00:00<>METAR SBGL 041800Z 15016KT 9000 VCSH SCT020 BKN040 27/21 Q1010=
2026-01-04 19:00:00<>METAR SBGL 041900Z 15015KT 9999 VCSH BKN022 BKN040 26/19 Q1010=
2026-01-04 20:00:00<>METAR SBGL 042000Z 15013KT 9000 BKN022 BKN040 26/20 Q1011=
2026-01-04 21:00:00<>METAR SBGL 042100Z 15011KT 9999 BKN022 OVC040 25/19 Q1012=
2026-01-04 22:00:00<>METAR SBGL 042200Z 15010KT 9999 BKN022 OVC035 25/19 Q1013=
2026-01-04 23:00:00<>METAR SBGL 042300Z 15008KT 9000 -DZ FEW010 BKN020 OVC030 23/20 Q1014=
2026-01-05 00:00:00<>METAR SBGL 050000Z 15010KT 9999 FEW010 SCT020 BKN035 23/19 Q1014=
2026-01-05 01:00:00<>METAR SBGL 050100Z 15010KT 9999 FEW012 BKN020 OVC025 23/19 Q1015=
2026-01-05 02:00:00<>METAR SBGL 050200Z 16010KT 9999 FEW012 BKN025 OVC035 23/19 Q1015=
2026-01-05 02:42:00<>SPECI SBGL 050242Z 16004KT 4000 -RA SCT010 BKN020 OVC026 22/19 Q1015=
2026-01-05 03:00:00<>METAR SBGL 050300Z 16007KT 4000 -RA BKN008 OVC025 22/20 Q1015=
2026-01-05 04:00:00<>METAR SBGL 050400Z 14008KT 8000 BKN010 OVC025 22/20 Q1015=
2026-01-05 04:17:00<>SPECI SBGL 050417Z 14008KT 2500 -RA SCT008 BKN010 OVC025 22/20 Q1014=
2026-01-05 05:00:00<>METAR SBGL 050500Z 14007KT 5000 BR SCT004 BKN006 OVC020 21/20 Q1014=
2026-01-05 06:00:00<>METAR SBGL 050600Z 16006KT 9999 SCT012 BKN014 OVC030 21/19 Q1014=
2026-01-05 07:00:00<>METAR SBGL 050700Z 16005KT 9999 BKN020 OVC030 22/18 Q1014=
2026-01-05 08:00:00<>METAR SBGL 050800Z 14005KT 5000 BR BKN015 OVC030 21/18 Q1015=
2026-01-05 08:14:00<>SPECI SBGL 050814Z 12005KT 2000 -RA BKN011 OVC025 21/19 Q1005=
2026-01-05 09:00:00<>METAR SBGL 050900Z 12005KT 6000 BKN015 OVC030 21/19 Q1015=
2026-01-05 09:35:00<>SPECI SBGL 050935Z 12005KT 4000 -RA BR SCT006 BKN010 OVC025 21/20 Q1016=
2026-01-05 10:00:00<>METAR SBGL 051000Z 12006KT 9999 FEW006 BKN020 OVC040 21/19 Q1016=
2026-01-05 11:00:00<>METAR SBGL 051100Z 08007KT 9000 VCSH FEW012 BKN023 OVC040 22/18 Q1016=
2026-01-05 12:00:00<>METAR SBGL 051200Z 03007KT 9999 SCT023 OVC046 23/18 Q1017=
2026-01-05 13:00:00<>METAR SBGL 051300Z 36008KT 9999 SCT013 SCT040 OVC070 23/19 Q1017=
2026-01-05 14:00:00<>METAR SBGL 051400Z 01007KT 9999 SCT023 SCT036 OVC070 24/17 Q1017=
2026-01-05 15:00:00<>METAR SBGL 051500Z 04009KT 9999 BKN030 OVC043 25/17 Q1017=
2026-01-05 16:00:00<>METAR SBGL 051600Z 10013KT 9000 VCSH BKN026 OVC043 24/17 Q1017=
2026-01-05 17:00:00<>METAR SBGL 051700Z 03006KT 8000 VCSH BKN026 OVC050 24/17 Q1016=
2026-01-05 18:00:00<>METAR SBGL 051800Z 04005KT 9999 BKN026 OVC050 25/17 Q1016=
2026-01-05 19:00:00<>METAR SBGL 051900Z 10010KT 9999 BKN033 OVC050 24/17 Q1016=
2026-01-05 20:00:00<>METAR SBGL 052000Z 06006KT 9999 BKN033 OVC050 23/18 Q1016=
2026-01-05 21:00:00<>METAR SBGL 052100Z 09005KT 9999 FEW008 BKN033 OVC050 24/18 Q1017=
2026-01-05 22:00:00<>METAR SBGL 052200Z 06010KT 8000 VCSH FEW011 BKN030 OVC050 24/17 Q1017=
2026-01-05 23:00:00<>METAR SBGL 052300Z 09007KT 9999 FEW011 BKN030 OVC050 24/17 Q1018=
2026-01-06 00:00:00<>METAR SBGL 060000Z 09006KT 9999 BKN030 OVC050 24/17 Q1018=
2026-01-06 01:00:00<>METAR SBGL 060100Z 09006KT 9999 SCT030 BKN050 24/18 Q1018=
2026-01-06 02:00:00<>METAR SBGL 060200Z 10005KT 9999 SCT030 BKN050 23/18 Q1018=
2026-01-06 03:00:00<>METAR SBGL 060300Z 10005KT 9999 SCT035 BKN050 23/18 Q1017=
2026-01-06 04:00:00<>METAR SBGL 060400Z 10004KT 9999 FEW035 BKN050 22/18 Q1017=
2026-01-06 05:00:00<>METAR SBGL 060500Z 12003KT 9999 FEW035 BKN050 22/18 Q1017=
2026-01-06 06:00:00<>METAR SBGL 060600Z 10003KT CAVOK 22/17 Q1016=
2026-01-06 07:00:00<>METAR SBGL 060700Z 09004KT 9999 FEW020 BKN070 22/17 Q1017=
2026-01-06 08:00:00<>METAR SBGL 060800Z 09004KT 9999 SCT020 BKN070 22/18 Q1017=
2026-01-06 09:00:00<>METAR SBGL 060900Z 10003KT 9999 FEW020 BKN070 22/19 Q1017=
2026-01-06 10:00:00<>METAR SBGL 061000Z 09005KT 9999 FEW020 BKN070 23/19 Q1018=
2026-01-06 11:00:00<>METAR SBGL 061100Z 09006KT 9999 FEW020 BKN070 25/17 Q1018=
2026-01-06 12:00:00<>METAR SBGL 061200Z 07005KT 9999 FEW025 BKN070 25/18 Q1018=
2026-01-06 13:00:00<>METAR SBGL 061300Z 06007KT 9999 FEW028 BKN083 26/17 Q1019=
2026-01-06 14:00:00<>METAR SBGL 061400Z 05008KT 9999 FEW032 BKN079 26/18 Q1018=
2026-01-06 15:00:00<>METAR SBGL 061500Z 06008KT 9999 FEW035 BKN075 26/18 Q1018=
2026-01-06 16:00:00<>METAR SBGL 061600Z 03011KT 9999 SCT045 BKN067 BKN082 27/18 Q1018=
2026-01-06 17:00:00<>METAR SBGL 061700Z 06011KT 9999 SCT046 BKN064 BKN082 26/18 Q1017=
2026-01-06 18:00:00<>METAR SBGL 061800Z 07010KT 9999 SCT032 BKN070 BKN079 26/18 Q1017=
2026-01-06 19:00:00<>METAR COR SBGL 061900Z 08009KT 9999 FEW026 BKN036 BKN068 27/17 Q1017=
2026-01-06 20:00:00<>METAR SBGL 062000Z 05010KT 9999 FEW036 BKN059 BKN070 27/17 Q1016=
2026-01-06 21:00:00<>METAR SBGL 062100Z 06011KT 9999 FEW036 BKN055 BKN068 26/17 Q1017=
2026-01-06 22:00:00<>METAR SBGL 062200Z 10007KT CAVOK 25/18 Q1016=
2026-01-06 23:00:00<>METAR SBGL 062300Z 11009KT 9999 FEW033 SCT070 24/19 Q1017=
2026-01-07 00:00:00<>METAR SBGL 070000Z 11009KT 9999 SCT046 BKN100 24/18 Q1017=
2026-01-07 01:00:00<>METAR SBGL 070100Z 10006KT 9999 SCT046 BKN100 24/19 Q1018=
2026-01-07 02:00:00<>METAR SBGL 070200Z 09007KT 9999 SCT046 BKN100 23/19 Q1017=
2026-01-07 03:00:00<>METAR SBGL 070300Z 10007KT 9999 FEW046 SCT100 23/19 Q1017=
2026-01-07 04:00:00<>METAR SBGL 070400Z 11006KT 9999 FEW046 SCT100 23/19 Q1016=
2026-01-07 05:00:00<>METAR SBGL 070500Z 15005KT 9999 FEW046 BKN100 22/19 Q1016=
2026-01-07 06:00:00<>METAR SBGL 070600Z 18005KT 9999 FEW046 BKN100 22/19 Q1015=
2026-01-07 07:00:00<>METAR SBGL 070700Z 21004KT 8000 FEW046 BKN100 22/18 Q1015=
2026-01-07 08:00:00<>METAR SBGL 070800Z 07003KT 8000 FEW046 BKN100 23/19 Q1015=
2026-01-07 09:00:00<>METAR SBGL 070900Z 14004KT 8000 FEW046 BKN100 23/19 Q1016=
2026-01-07 10:00:00<>METAR SBGL 071000Z 09006KT 9999 FEW046 BKN080 23/19 Q1016=
2026-01-07 11:00:00<>METAR SBGL 071100Z VRB02KT 9999 FEW045 BKN100 24/20 Q1016=
2026-01-07 12:00:00<>METAR SBGL 071200Z 04005KT 360V070 9999 FEW025 BKN100 25/20 Q1017=
2026-01-07 13:00:00<>METAR SBGL 071300Z VRB02KT 9999 FEW025 BKN100 26/20 Q1017=
2026-01-07 14:00:00<>METAR SBGL 071400Z 04005KT 010V090 9999 FEW025 SCT085 27/19 Q1017=
2026-01-07 15:00:00<>METAR SBGL 071500Z 04006KT 9999 -RA BKN030 BKN080 25/22 Q1017=
2026-01-07 16:00:00<>METAR SBGL 071600Z 06005KT 8000 -RA BKN045 BKN080 24/22 Q1017=
2026-01-07 17:00:00<>METAR SBGL 071700Z 14003KT 9999 -RA BKN045 BKN070 24/21 Q1016=
2026-01-07 18:00:00<>METAR SBGL 071800Z 09005KT 060V120 9999 FEW010 SCT070 BKN100 24/22 Q1015=
2026-01-07 19:00:00<>METAR SBGL 071900Z 08008KT 9999 FEW010 SCT085 24/22 Q1014=
2026-01-07 20:00:00<>METAR SBGL 072000Z 06006KT 9999 -RA FEW008 SCT085 25/22 Q1015=
2026-01-07 21:00:00<>METAR SBGL 072100Z 05003KT 010V080 9999 FEW015 25/21 Q1014=
2026-01-07 22:00:00<>METAR SBGL 072200Z 13004KT 9999 FEW008 24/22 Q1014=
2026-01-07 23:00:00<>METAR SBGL 072300Z VRB02KT 9999 FEW015 25/22 Q1015=
2026-01-08 00:00:00<>METAR SBGL 080000Z 11002KT 9999 FEW015 24/22 Q1015=
2026-01-08 01:00:00<>METAR SBGL 080100Z 13006KT 9999 FEW015 24/22 Q1015=
2026-01-08 02:00:00<>METAR SBGL 080200Z 33005KT 9999 FEW015 25/22 Q1015=
2026-01-08 03:00:00<>METAR SBGL 080300Z VRB02KT 9999 FEW015 24/22 Q1014=
2026-01-08 04:00:00<>METAR SBGL 080400Z 08002KT 9999 FEW015 24/22 Q1014=
2026-01-08 05:00:00<>METAR SBGL 080500Z 13003KT 9999 FEW015 23/22 Q1014=
2026-01-08 06:00:00<>METAR SBGL 080600Z 12002KT 9999 FEW015 23/22 Q1014=
2026-01-08 07:00:00<>METAR SBGL 080700Z 07005KT 9999 FEW015 23/22 Q1014=
2026-01-08 08:00:00<>METAR SBGL 080800Z 02002KT 9999 FEW015 23/22 Q1014=
2026-01-08 09:00:00<>METAR SBGL 080900Z VRB02KT 9999 FEW015 23/22 Q1014=
2026-01-08 10:00:00<>METAR SBGL 081000Z VRB02KT 9999 FEW015 24/23 Q1015=
2026-01-08 11:00:00<>METAR SBGL 081100Z 02005KT 9999 FEW020 25/22 Q1015=
2026-01-08 12:00:00<>METAR SBGL 081200Z 35004KT CAVOK 27/22 Q1015=
2026-01-08 13:00:00<>METAR SBGL 081300Z 35005KT 9999 FEW020 30/22 Q1015=
2026-01-08 14:00:00<>METAR SBGL 081400Z 01006KT 9999 FEW020 32/21 Q1015=
2026-01-08 15:00:00<>METAR SBGL 081500Z 04005KT 9999 FEW020 32/21 Q1014=
2026-01-08 16:00:00<>METAR SBGL 081600Z 23005KT 9999 FEW048 24/20 Q1014=
2026-01-08 17:00:00<>METAR SBGL 081700Z 33005KT 9999 FEW048 33/19 Q1013=
2026-01-08 18:00:00<>METAR SBGL 081800Z 13008KT 9999 FEW032 33/20 Q1013=
2026-01-08 19:00:00<>METAR SBGL 081900Z 13009KT 9999 FEW048 31/20 Q1013=
2026-01-08 20:00:00<>METAR SBGL 082000Z 14005KT 9999 FEW048 33/20 Q1013=
2026-01-08 21:00:00<>METAR SBGL 082100Z 15007KT 9999 FEW048 31/19 Q1013=
2026-01-08 22:00:00<>METAR SBGL 082200Z 14006KT CAVOK 29/20 Q1013=
2026-01-08 23:00:00<>METAR SBGL 082300Z 14005KT CAVOK 28/21 Q1013=
2026-01-09 00:00:00<>METAR SBGL 090000Z 09006KT CAVOK 27/22 Q1013=
2026-01-09 01:00:00<>METAR SBGL 090100Z 28003KT 220V360 CAVOK 27/22 Q1014=
2026-01-09 02:00:00<>METAR SBGL 090200Z 10003KT CAVOK 26/22 Q1015=
2026-01-09 03:00:00<>METAR SBGL 090300Z 06004KT CAVOK 26/23 Q1014=
2026-01-09 04:00:00<>METAR SBGL 090400Z 04002KT CAVOK 26/23 Q1014=
2026-01-09 05:00:00<>METAR SBGL 090500Z 05004KT CAVOK 25/23 Q1014=
2026-01-09 06:00:00<>METAR SBGL 090600Z VRB02KT CAVOK 25/22 Q1014=
2026-01-09 07:00:00<>METAR SBGL 090700Z 10003KT CAVOK 24/22 Q1014=
2026-01-09 08:00:00<>METAR SBGL 090800Z 04005KT CAVOK 25/23 Q1015=
2026-01-09 09:00:00<>METAR SBGL 090900Z 01003KT 340V050 8000 NSC 25/23 Q1015=
2026-01-09 10:00:00<>METAR SBGL 091000Z 04004KT 010V080 CAVOK 26/22 Q1015=
2026-01-09 11:00:00<>METAR SBGL 091100Z VRB02KT CAVOK 29/23 Q1015=
2026-01-09 12:00:00<>METAR SBGL 091200Z VRB03KT CAVOK 31/22 Q1015=
2026-01-09 13:00:00<>METAR SBGL 091300Z 31007KT 9999 FEW030 30/23 Q1015=
2026-01-09 14:00:00<>METAR SBGL 091400Z 01007KT 340V050 9999 FEW030 34/21 Q1015=
2026-01-09 15:00:00<>METAR SBGL 091500Z 03006KT 340V100 9999 FEW030 35/21 Q1014=
2026-01-09 16:00:00<>METAR SBGL 091600Z 15005KT 050V200 9999 FEW030 36/20 Q1014=
2026-01-09 17:00:00<>METAR SBGL 091700Z 13012KT 9999 FEW030 34/21 Q1013=
2026-01-09 18:00:00<>METAR SBGL 091800Z 12012KT 9999 SCT030 34/21 Q1012=
2026-01-09 19:00:00<>METAR SBGL 091900Z 13013KT 110V170 9999 SCT030 34/20 Q1012=
2026-01-09 20:00:00<>METAR SBGL 092000Z 14011KT 110V170 9999 SCT030 34/21 Q1012=
2026-01-09 21:00:00<>METAR SBGL 092100Z 15009KT 9999 SCT030 34/21 Q1012=
2026-01-09 22:00:00<>METAR SBGL 092200Z 06006KT 9999 SCT030 32/21 Q1013=
2026-01-09 23:00:00<>METAR SBGL 092300Z 04003KT 9999 FEW030 30/22 Q1013=
2026-01-10 00:00:00<>METAR SBGL 100000Z 03003KT 330V070 9999 FEW030 29/22 Q1014=
2026-01-10 01:00:00<>METAR SBGL 100100Z 04005KT CAVOK 28/23 Q1014=
2026-01-10 02:00:00<>METAR SBGL 100200Z 08006KT CAVOK 27/22 Q1014=
2026-01-10 03:00:00<>METAR SBGL 100300Z 07005KT CAVOK 27/22 Q1014=
2026-01-10 04:00:00<>METAR SBGL 100400Z 09004KT CAVOK 26/22 Q1013=
2026-01-10 05:00:00<>METAR SBGL 100500Z 06004KT CAVOK 26/22 Q1013=
2026-01-10 06:00:00<>METAR SBGL 100600Z 07005KT CAVOK 25/22 Q1013=
2026-01-10 07:00:00<>METAR SBGL 100700Z 08010KT CAVOK 25/22 Q1013=
2026-01-10 08:00:00<>METAR SBGL 100800Z 07007KT CAVOK 24/21 Q1013=
2026-01-10 09:00:00<>METAR SBGL 100900Z 08006KT CAVOK 25/22 Q1014=
2026-01-10 10:00:00<>METAR SBGL 101000Z 08006KT CAVOK 27/22 Q1014=
2026-01-10 11:00:00<>METAR SBGL 101100Z 08005KT 9999 FEW030 28/22 Q1014=
2026-01-10 12:00:00<>METAR SBGL 101200Z 18004KT 9999 FEW030 29/23 Q1014=
2026-01-10 13:00:00<>METAR SBGL 101300Z 02003KT 9999 FEW030 32/22 Q1014=
2026-01-10 14:00:00<>METAR SBGL 101400Z 35003KT 9999 FEW035 33/21 Q1014=
2026-01-10 15:00:00<>METAR SBGL 101500Z 34003KT 9999 FEW035 35/18 Q1013=
2026-01-10 16:00:00<>METAR SBGL 101600Z 05008KT 9999 FEW040 36/19 Q1012=
2026-01-10 17:00:00<>METAR SBGL 101700Z 05008KT 9999 FEW040 36/18 Q1011=
2026-01-10 18:00:00<>METAR SBGL 101800Z 07007KT 9999 FEW040 38/16 Q1010=
2026-01-10 19:00:00<>METAR SBGL 101900Z 09010KT 9999 FEW040 37/17 Q1009=
2026-01-10 20:00:00<>METAR SBGL 102000Z 14007KT CAVOK 36/19 Q1009=
2026-01-10 21:00:00<>METAR SBGL 102100Z 12005KT CAVOK 35/19 Q1009=
2026-01-10 22:00:00<>METAR SBGL 102200Z 11006KT CAVOK 32/20 Q1009=
2026-01-10 23:00:00<>METAR SBGL 102300Z 08009KT CAVOK 30/20 Q1010=
2026-01-11 00:00:00<>METAR SBGL 110000Z 07009KT CAVOK 28/21 Q1011=
2026-01-11 01:00:00<>METAR SBGL 110100Z 11004KT 080V150 CAVOK 27/20 Q1012=
2026-01-11 02:00:00<>METAR SBGL 110200Z 12004KT 070V170 CAVOK 26/21 Q1012=
2026-01-11 03:00:00<>METAR SBGL 110300Z 13004KT CAVOK 25/20 Q1011=
2026-01-11 04:00:00<>METAR SBGL 110400Z VRB02KT CAVOK 25/20 Q1011=
2026-01-11 05:00:00<>METAR SBGL 110500Z VRB02KT CAVOK 24/21 Q1010=
2026-01-11 06:00:00<>METAR SBGL 110600Z VRB02KT CAVOK 24/21 Q1010=
2026-01-11 07:00:00<>METAR SBGL 110700Z VRB02KT CAVOK 23/20 Q1011=
2026-01-11 08:00:00<>METAR SBGL 110800Z 06002KT CAVOK 23/20 Q1011=
2026-01-11 09:00:00<>METAR SBGL 110900Z 09002KT CAVOK 23/20 Q1012=
2026-01-11 10:00:00<>METAR SBGL 111000Z 09004KT CAVOK 27/21 Q1012=
2026-01-11 11:00:00<>METAR SBGL 111100Z 04007KT CAVOK 28/21 Q1012=
2026-01-11 12:00:00<>METAR SBGL 111200Z 06005KT CAVOK 31/20 Q1012=
2026-01-11 13:00:00<>METAR SBGL 111300Z 33004KT CAVOK 33/19 Q1012=
2026-01-11 14:00:00<>METAR SBGL 111400Z 01007KT CAVOK 35/18 Q1012=
2026-01-11 15:00:00<>METAR SBGL 111500Z 31007KT CAVOK 36/16 Q1011=
2026-01-11 16:00:00<>METAR SBGL 111600Z 05010KT CAVOK 37/26 Q1010=
2026-01-11 17:00:00<>METAR SBGL 111700Z 05011KT CAVOK 38/15 Q1009=
2026-01-11 18:00:00<>METAR SBGL 111800Z 04008KT CAVOK 38/13 Q1009=
2026-01-11 19:00:00<>METAR SBGL 111900Z 13013KT CAVOK 36/19 Q1008=
2026-01-11 20:00:00<>METAR SBGL 112000Z 14013KT 9999 FEW040 35/19 Q1008=
2026-01-11 21:00:00<>METAR SBGL 112100Z 14012KT 9999 FEW040 34/21 Q1008=
2026-01-11 22:00:00<>METAR SBGL 112200Z 14007KT CAVOK 32/21 Q1009=
2026-01-11 23:00:00<>METAR SBGL 112300Z 09006KT CAVOK 30/21 Q1009=
2026-01-12 00:00:00<>METAR SBGL 120000Z 07010KT CAVOK 29/21 Q1010=
2026-01-12 01:00:00<>METAR SBGL 120100Z 20001KT CAVOK 28/20 Q1010=
2026-01-12 02:00:00<>METAR SBGL 120200Z 05002KT CAVOK 27/20 Q1010=
2026-01-12 03:00:00<>METAR SBGL 120300Z 06004KT CAVOK 27/21 Q1010=
2026-01-12 04:00:00<>METAR SBGL 120400Z 07003KT CAVOK 26/22 Q1010=
2026-01-12 05:00:00<>METAR SBGL 120500Z 09002KT CAVOK 25/21 Q1009=
2026-01-12 06:00:00<>METAR SBGL 120600Z 07004KT CAVOK 25/21 Q1009=
2026-01-12 07:00:00<>METAR SBGL 120700Z 09004KT CAVOK 25/20 Q1010=
2026-01-12 08:00:00<>METAR SBGL 120800Z 07004KT CAVOK 24/20 Q1010=
2026-01-12 09:00:00<>METAR SBGL 120900Z 08002KT CAVOK 25/20 Q1011=
2026-01-12 10:00:00<>METAR SBGL 121000Z 20002KT CAVOK 29/21 Q1011=
2026-01-12 11:00:00<>METAR SBGL 121100Z 36004KT 310V030 CAVOK 30/19 Q1012=
2026-01-12 12:00:00<>METAR SBGL 121200Z 02005KT 350V060 CAVOK 33/19 Q1012=
2026-01-12 13:00:00<>METAR SBGL 121300Z 02006KT 350V060 CAVOK 34/18 Q1012=
2026-01-12 14:00:00<>METAR SBGL 121400Z 01005KT 330V080 CAVOK 36/17 Q1011=
2026-01-12 15:00:00<>METAR SBGL 121500Z 02005KT 330V090 9999 FEW030 37/16 Q1011=
2026-01-12 16:00:00<>METAR SBGL 121600Z 03007KT 360V060 9999 FEW030 38/16 Q1010=
2026-01-12 17:00:00<>METAR SBGL 121700Z 04008KT 010V070 9999 FEW035 39/14 Q1009=
2026-01-12 18:00:00<>METAR SBGL 121800Z 13014KT 9999 FEW035 37/17 Q1009=
2026-01-12 19:00:00<>METAR SBGL 121900Z 14011KT 110V170 9999 FEW035 37/17 Q1008=
2026-01-12 20:00:00<>METAR SBGL 122000Z 14011KT 110V170 9999 FEW035 36/16 Q1008=
2026-01-12 21:00:00<>METAR SBGL 122100Z 15011KT 9999 FEW035 34/17 Q1008=
2026-01-12 22:00:00<>METAR SBGL 122200Z 13006KT CAVOK 33/20 Q1009=
2026-01-12 23:00:00<>METAR SBGL 122300Z 10010KT CAVOK 31/21 Q1010=
2026-01-13 00:00:00<>METAR SBGL 130000Z 11007KT CAVOK 30/22 Q1011=
2026-01-13 01:00:00<>METAR SBGL 130100Z 06007KT CAVOK 29/23 Q1011=
2026-01-13 02:00:00<>METAR SBGL 130200Z 06006KT CAVOK 29/22 Q1011=
2026-01-13 03:00:00<>METAR SBGL 130300Z 07007KT CAVOK 27/23 Q1011=
2026-01-13 04:00:00<>METAR SBGL 130400Z 08006KT CAVOK 27/22 Q1010=
2026-01-13 05:00:00<>METAR SBGL 130500Z 05005KT CAVOK 27/22 Q1010=
2026-01-13 06:00:00<>METAR SBGL 130600Z 03004KT CAVOK 26/22 Q1010=
2026-01-13 07:00:00<>METAR SBGL 130700Z 01004KT CAVOK 26/22 Q1009=
2026-01-13 08:00:00<>METAR SBGL 130800Z 08003KT CAVOK 26/22 Q1010=
2026-01-13 09:00:00<>METAR SBGL 130900Z 07005KT CAVOK 26/23 Q1012=
2026-01-13 10:00:00<>METAR SBGL 131000Z 09006KT CAVOK 29/23 Q1012=
2026-01-13 11:00:00<>METAR SBGL 131100Z 32004KT CAVOK 30/24 Q1013=
2026-01-13 12:00:00<>METAR SBGL 131200Z 02005KT CAVOK 32/24 Q1013=
2026-01-13 13:00:00<>METAR SBGL 131300Z 05003KT CAVOK 34/23 Q1013=
2026-01-13 14:00:00<>METAR SBGL 131400Z 13012KT CAVOK 34/23 Q1013=
2026-01-13 15:00:00<>METAR SBGL 131500Z 18011KT 9999 FEW030 35/23 Q1013=
2026-01-13 16:00:00<>METAR SBGL 131600Z 22016KT 9999 FEW030 34/22 Q1014=
2026-01-13 17:00:00<>METAR SBGL 131700Z 36009KT 9999 FEW026 32/22 Q1013=
2026-01-13 18:00:00<>METAR SBGL 131800Z 10012KT 9999 SCT020 31/23 Q1013=
2026-01-13 19:00:00<>METAR SBGL 131900Z 10014KT 9999 SCT020 29/22 Q1013=
2026-01-13 20:00:00<>METAR SBGL 132000Z 06007KT 9999 SCT020 29/21 Q1013=
2026-01-13 21:00:00<>METAR SBGL 132100Z 07013KT 9999 FEW020 28/21 Q1013=
2026-01-13 22:00:00<>METAR SBGL 132200Z 06007KT 9999 FEW030 28/22 Q1013=
2026-01-13 22:29:00<>SPECI SBGL 132229Z 07008KT 9999 VCTS FEW030 FEW035CB 27/22 Q1014=
2026-01-13 23:00:00<>METAR SBGL 132300Z 08007KT 9999 VCTS FEW030 FEW035CB 27/22 Q1014=
2026-01-14 00:00:00<>METAR SBGL 140000Z 11003KT 9999 VCTS FEW030 FEW035CB 27/22 Q1015=
2026-01-14 01:00:00<>METAR SBGL 140100Z 09004KT 9999 VCTS FEW030 FEW035CB 26/22 Q1015=
2026-01-14 02:00:00<>METAR SBGL 140200Z 06004KT 9999 VCTS FEW030 FEW035CB 26/22 Q1016=
2026-01-14 03:00:00<>METAR SBGL 140300Z 11003KT 9999 FEW030 26/22 Q1015 RETS=
2026-01-14 04:00:00<>METAR SBGL 140400Z 07003KT CAVOK 26/21 Q1014=
2026-01-14 05:00:00<>METAR SBGL 140500Z 07010KT CAVOK 25/21 Q1013=
2026-01-14 06:00:00<>METAR SBGL 140600Z 07008KT CAVOK 25/21 Q1013=
2026-01-14 07:00:00<>METAR SBGL 140700Z VRB02KT CAVOK 24/21 Q1013=
2026-01-14 08:00:00<>METAR SBGL 140800Z 07003KT 040V110 CAVOK 24/22 Q1014=
2026-01-14 09:00:00<>METAR SBGL 140900Z 08004KT CAVOK 25/22 Q1014=
2026-01-14 10:00:00<>METAR SBGL 141000Z 32005KT 300V360 CAVOK 26/21 Q1015=
2026-01-14 11:00:00<>METAR SBGL 141100Z 15002KT CAVOK 29/21 Q1015=
2026-01-14 12:00:00<>METAR SBGL 141200Z 04006KT CAVOK 30/22 Q1015=
2026-01-14 13:00:00<>METAR SBGL 141300Z 01004KT 9999 FEW030 32/21 Q1015=
2026-01-14 14:00:00<>METAR SBGL 141400Z 01004KT 9999 FEW030 33/20 Q1015=
2026-01-14 15:00:00<>METAR SBGL 141500Z 11004KT 9999 FEW030 34/20 Q1014=
2026-01-14 16:00:00<>METAR SBGL 141600Z 01007KT 9999 FEW030 35/20 Q1013=
2026-01-14 17:00:00<>METAR SBGL 141700Z 01007KT 9999 SCT030 FEW035TCU 36/19 Q1012=
2026-01-14 18:00:00<>METAR SBGL 141800Z 13014KT 9999 SCT030 FEW035TCU 34/21 Q1011=
2026-01-14 19:00:00<>METAR SBGL 141900Z 07023KT 9999 VCSH SCT030 FEW035TCU SCT070 28/21 Q1011=
2026-01-14 20:00:00<>METAR SBGL 142000Z 02007KT 9999 VCSH SCT030 FEW035TCU SCT070 29/21 Q1012=
2026-01-14 21:00:00<>METAR SBGL 142100Z 33003KT 9999 FEW030 FEW035TCU SCT070 29/21 Q1012=
2026-01-14 22:00:00<>METAR SBGL 142200Z 32004KT 9999 FEW030 FEW035TCU SCT080 28/21 Q1012=
2026-01-14 23:00:00<>METAR SBGL 142300Z VRB01KT 9999 FEW030 SCT080 28/21 Q1013=
2026-01-15 00:00:00<>METAR SBGL 150000Z 33004KT 320V030 9999 FEW030 BKN080 28/22 Q1014=
2026-01-15 01:00:00<>METAR SBGL 150100Z 36005KT 310V050 9999 FEW030 BKN080 27/23 Q1014=
2026-01-15 02:00:00<>METAR SBGL 150200Z 33004KT 290V030 9999 FEW030 BKN070 27/22 Q1014=
2026-01-15 03:00:00<>METAR SBGL 150300Z 34004KT 310V060 9999 FEW030 BKN070 27/22 Q1014=
2026-01-15 04:00:00<>METAR SBGL 150400Z 32003KT 9999 FEW030 BKN070 27/22 Q1004=
2026-01-15 05:00:00<>METAR SBGL 150500Z VRB02KT 9999 FEW030 BKN070 26/22 Q1013=
2026-01-15 06:00:00<>METAR SBGL 150600Z 11005KT CAVOK 25/21 Q1013=
2026-01-15 07:00:00<>METAR SBGL 150700Z 07005KT CAVOK 25/21 Q1013=
2026-01-15 08:00:00<>METAR SBGL 150800Z 09002KT 9999 FEW030 25/22 Q1013=
2026-01-15 09:00:00<>METAR SBGL 150900Z 09002KT 9999 FEW030 25/22 Q1014=
2026-01-15 10:00:00<>METAR SBGL 151000Z 09006KT 9999 FEW030 27/21 Q1015=
2026-01-15 11:00:00<>METAR SBGL 151100Z 08006KT 9999 FEW030 28/21 Q1015=
2026-01-15 12:00:00<>METAR SBGL 151200Z 05004KT 9999 FEW030 30/21 Q1015=
2026-01-15 13:00:00<>METAR SBGL 151300Z 07004KT CAVOK 32/20 Q1015=
2026-01-15 14:00:00<>METAR SBGL 151400Z 05008KT 9999 FEW025 33/19 Q1015=
2026-01-15 15:00:00<>METAR SBGL 151500Z 35005KT 9999 FEW030 33/19 Q1015=
2026-01-15 16:00:00<>METAR SBGL 151600Z 08003KT 9999 FEW030 35/18 Q1014=
2026-01-15 17:00:00<>METAR SBGL 151700Z 13010KT 9999 SCT030 34/19 Q1013=
2026-01-15 18:00:00<>METAR COR SBGL 151800Z 14014KT 9999 VCSH SCT030 FEW035TCU 35/18 Q1012=
2026-01-15 19:00:00<>METAR SBGL 151900Z 14011KT 9999 VCSH SCT030 FEW035TCU 33/18 Q1012=
2026-01-15 20:00:00<>METAR SBGL 152000Z 12004KT 9999 VCSH SCT030 FEW035TCU SCT100 33/19 Q1012=
2026-01-15 21:00:00<>METAR SBGL 152100Z 25018KT 6000 -TSRA SCT025 FEW030CB SCT080 29/21 Q1013=
2026-01-15 22:00:00<>METAR SBGL 152200Z 25005KT 8000 3000W VCSH SCT020 FEW025TCU BKN080 26/22 Q1014 RETS=
2026-01-15 23:00:00<>METAR SBGL 152300Z 30006KT 9999 FEW020 FEW025TCU SCT080 26/23 Q1015=
2026-01-16 00:00:00<>METAR SBGL 160000Z 20003KT 9999 FEW020 FEW025TCU SCT080 26/22 Q1015=
2026-01-16 01:00:00<>METAR SBGL 160100Z 17003KT 9999 FEW030 SCT080 26/22 Q1016=
2026-01-16 02:00:00<>METAR SBGL 160200Z 14002KT 9999 FEW030 26/21 Q1016=
2026-01-16 03:00:00<>METAR SBGL 160300Z 05002KT 9999 FEW030 26/21 Q1015=
2026-01-16 04:00:00<>METAR SBGL 160400Z 10004KT 9999 FEW030 25/20 Q1014=
2026-01-16 05:00:00<>METAR SBGL 160500Z 09003KT CAVOK 25/21 Q1014=
2026-01-16 06:00:00<>METAR SBGL 160600Z 05004KT CAVOK 25/21 Q1014=
2026-01-16 07:00:00<>METAR SBGL 160700Z 10007KT CAVOK 24/21 Q1014=
2026-01-16 08:00:00<>METAR SBGL 160800Z 08003KT CAVOK 24/20 Q1014=
2026-01-16 09:00:00<>METAR SBGL 160900Z 07004KT CAVOK 24/21 Q1014=
2026-01-16 10:00:00<>METAR SBGL 161000Z 05006KT CAVOK 26/21 Q1015=
2026-01-16 11:00:00<>METAR SBGL 161100Z 05005KT CAVOK 27/21 Q1015=
2026-01-16 12:00:00<>METAR SBGL 161200Z 10005KT CAVOK 29/21 Q1015=
2026-01-16 13:00:00<>METAR SBGL 161300Z 02006KT CAVOK 31/20 Q1015=
2026-01-16 14:00:00<>METAR SBGL 161400Z 03004KT 9999 FEW025 33/20 Q1014=
2026-01-16 15:00:00<>METAR SBGL 161500Z 15004KT 9999 FEW025 34/19 Q1014=
2026-01-16 16:00:00<>METAR SBGL 161600Z 03005KT 9999 FEW030 35/18 Q1013=
2026-01-16 17:00:00<>METAR SBGL 161700Z 15007KT 9999 FEW030 34/19 Q1012=
2026-01-16 18:00:00<>METAR SBGL 161800Z 13014KT 9999 FEW030 34/19 Q1012=
2026-01-16 19:00:00<>METAR SBGL 161900Z 13013KT 9999 FEW030 SCT100 34/19 Q1011=
2026-01-16 20:00:00<>METAR SBGL 162000Z 15010KT 9999 FEW030 SCT100 33/19 Q1011=
2026-01-16 21:00:00<>METAR SBGL 162100Z 14006KT 9999 FEW030 32/20 Q1011=
2026-01-16 22:00:00<>METAR SBGL 162200Z 13005KT 9000 FEW030 31/21 Q1011=
2026-01-16 23:00:00<>METAR SBGL 162300Z 09005KT 9999 FEW030 30/21 Q1012=
2026-01-17 00:00:00<>METAR SBGL 170000Z 10005KT 9999 FEW030 29/21 Q1012=
2026-01-17 01:00:00<>METAR SBGL 170100Z 06004KT 9999 FEW030 28/21 Q1013=
2026-01-17 02:00:00<>METAR SBGL 170200Z 05004KT 9999 FEW030 28/21 Q1013=
2026-01-17 03:00:00<>METAR SBGL 170300Z 06006KT 9999 FEW030 27/22 Q1012=
2026-01-17 04:00:00<>METAR SBGL 170400Z 09006KT 9999 FEW030 27/22 Q1012=
2026-01-17 05:00:00<>METAR SBGL 170500Z 07007KT 9999 FEW030 26/22 Q1011=
2026-01-17 06:00:00<>METAR SBGL 170600Z 08007KT 9999 FEW030 26/22 Q1010=
2026-01-17 07:00:00<>METAR SBGL 170700Z 09003KT 060V120 9999 FEW030 25/21 Q1010=
2026-01-17 08:00:00<>METAR SBGL 170800Z 11004KT 9999 FEW030 25/21 Q1011=
2026-01-17 09:00:00<>METAR SBGL 170900Z 12003KT 090V150 9999 FEW030 25/21 Q1011=
2026-01-17 10:00:00<>METAR SBGL 171000Z 07003KT 020V120 9999 FEW030 28/21 Q1011=
2026-01-17 11:00:00<>METAR SBGL 171100Z 11004KT 050V210 9999 FEW025 28/21 Q1012=
2026-01-17 12:00:00<>METAR SBGL 171200Z 01005KT 330V040 9999 FEW025 30/22 Q1012=
2026-01-17 13:00:00<>METAR SBGL 171300Z 04004KT 340V090 9999 FEW025 31/21 Q1012=
2026-01-17 14:00:00<>METAR SBGL 171400Z VRB03KT 9999 FEW025 33/21 Q1011=
2026-01-17 15:00:00<>METAR SBGL 171500Z 04005KT 340V080 9999 FEW025 34/19 Q1011=
2026-01-17 16:00:00<>METAR SBGL 171600Z 04008KT 360V080 9999 SCT030 35/19 Q1010=
2026-01-17 17:00:00<>METAR SBGL 171700Z 05006KT 350V110 9999 FEW030 36/19 Q1009=
2026-01-17 18:00:00<>METAR SBGL 171800Z 13012KT 9999 FEW030 FEW031TCU 33/20 Q1008=
2026-01-17 19:00:00<>METAR SBGL 171900Z 14013KT 9999 FEW030 FEW031TCU 33/20 Q1008=
2026-01-17 20:00:00<>METAR SBGL 172000Z 15010KT 9999 VCTS FEW030 FEW031CB 33/20 Q1008=
2026-01-17 21:00:00<>METAR SBGL 172100Z 27009KT 9999 FEW030 FEW031TCU SCT050 30/21 Q1009=
2026-01-17 22:00:00<>METAR SBGL 172200Z 30008KT 9999 FEW030 FEW031TCU SCT050 28/21 Q1009=
2026-01-17 23:00:00<>METAR SBGL 172300Z 33006KT 9999 SCT040 27/21 Q1009=
2026-01-18 00:00:00<>METAR SBGL 180000Z 35006KT 9999 SCT040 27/21 Q1010=
2026-01-18 01:00:00<>METAR SBGL 180100Z VRB02KT 9999 FEW040 26/21 Q1010=
2026-01-18 02:00:00<>METAR SBGL 180200Z 33005KT 280V010 9999 FEW040 26/20 Q1010=
2026-01-18 03:00:00<>METAR SBGL 180300Z 34001KT CAVOK 27/19 Q1010=
2026-01-18 04:00:00<>METAR SBGL 180400Z 01007KT CAVOK 26/21 Q1009=
2026-01-18 05:00:00<>METAR SBGL 180500Z 06004KT 9999 FEW030 25/21 Q1008=
2026-01-18 06:00:00<>METAR SBGL 180600Z 05003KT 9999 FEW030 26/21 Q1008=
2026-01-18 07:00:00<>METAR SBGL 180700Z 05004KT 9999 FEW025 25/21 Q1008=
2026-01-18 08:00:00<>METAR SBGL 180800Z 06005KT 9999 SCT035 25/22 Q1008=
2026-01-18 09:00:00<>METAR SBGL 180900Z 07003KT 9999 FEW030 SCT060 BKN100 25/22 Q1008=
2026-01-18 10:00:00<>METAR SBGL 181000Z 07003KT 9999 FEW030 SCT060 BKN100 26/22 Q1009=
2026-01-18 11:00:00<>METAR SBGL 181100Z 33003KT 260V040 9999 SCT048 BKN100 28/22 Q1009=
2026-01-18 12:00:00<>METAR SBGL 181200Z 35005KT 280V080 9999 SCT045 BKN100 30/20 Q1009=
2026-01-18 13:00:00<>METAR SBGL 181300Z 33007KT 9999 SCT045 BKN100 31/19 Q1009=
2026-01-18 14:00:00<>METAR SBGL 181400Z 31010KT 9999 FEW045 31/19 Q1009=
2026-01-18 15:00:00<>METAR SBGL 181500Z 32012KT 9999 FEW008 BKN100 31/18 Q1009=
2026-01-18 16:00:00<>METAR SBGL 181600Z 32011KT 9999 FEW008 BKN100 33/18 Q1009=
2026-01-18 17:00:00<>METAR SBGL 181700Z 33011KT 9999 FEW008 BKN100 33/19 Q1008=
2026-01-18 18:00:00<>METAR SBGL 181800Z 35011KT 9999 FEW008 BKN100 33/18 Q1007=
2026-01-18 19:00:00<>METAR SBGL 181900Z 03008KT 360V060 9999 FEW008 BKN100 33/17 Q1006=
2026-01-18 20:00:00<>METAR SBGL 182000Z 03007KT 9999 FEW008 BKN100 33/18 Q1006=
2026-01-18 21:00:00<>METAR SBGL 182100Z 36011KT 9999 FEW008 BKN100 31/18 Q1006=
2026-01-18 22:00:00<>METAR SBGL 182200Z 36007KT 9999 FEW008 BKN100 30/19 Q1006=
2026-01-18 23:00:00<>METAR SBGL 182300Z 01009KT CAVOK 29/19 Q1006=
2026-01-19 00:00:00<>METAR SBGL 190000Z 33005KT 290V030 CAVOK 28/19 Q1006=
2026-01-19 01:00:00<>METAR SBGL 190100Z 34005KT 310V030 CAVOK 28/18 Q1006=
2026-01-19 02:00:00<>METAR SBGL 190200Z 02006KT 350V050 CAVOK 28/18 Q1007=
2026-01-19 03:00:00<>METAR SBGL 190300Z 29005KT 260V010 9999 FEW025 28/18 Q1007=
2026-01-19 04:00:00<>METAR SBGL 190400Z 34005KT 9999 FEW025 28/18 Q1006=
2026-01-19 05:00:00<>METAR SBGL 190500Z 01011KT 9999 FEW025 29/18 Q1005=
2026-01-19 06:00:00<>METAR SBGL 190600Z 01011KT 9999 FEW025 28/19 Q1004=
2026-01-19 07:00:00<>METAR SBGL 190700Z 01007KT 9999 FEW025 28/19 Q1004=
2026-01-19 08:00:00<>METAR SBGL 190800Z 00000KT 9999 FEW025 26/19 Q1005=
2026-01-19 09:00:00<>METAR SBGL 190900Z 25005KT 9999 FEW030 27/19 Q1005=
2026-01-19 10:00:00<>METAR SBGL 191000Z VRB02KT 9999 FEW030 29/19 Q1005=
2026-01-19 11:00:00<>METAR SBGL 191100Z 36005KT 9999 FEW030 31/18 Q1005=
2026-01-19 12:00:00<>METAR SBGL 191200Z 01009KT 350V060 9999 FEW030 31/19 Q1005=
2026-01-19 13:00:00<>METAR SBGL 191300Z 01009KT 9999 FEW030 BKN100 31/19 Q1005=
2026-01-19 14:00:00<>METAR SBGL 191400Z 33011KT 9999 FEW030 BKN100 32/19 Q1006=
2026-01-19 15:00:00<>METAR SBGL 191500Z 32013KT 9999 FEW030 BKN100 32/20 Q1005=
2026-01-19 16:00:00<>METAR SBGL 191600Z 34011KT 9999 FEW030 BKN100 33/19 Q1005=
2026-01-19 17:00:00<>METAR SBGL 191700Z 35007KT 310V050 9999 FEW030 BKN100 34/19 Q1004=
2026-01-19 17:32:00<>SPECI SBGL 191732Z 02007KT 5000 RA FEW026 BKN063 32/20 Q1004=
2026-01-19 17:35:00<>SPECI SBGL 191735Z 06006KT 3000 RA FEW026 BKN063 32/20 Q1004=
2026-01-19 18:00:00<>METAR COR SBGL 191800Z 22012KT 1000 RA VCTS FEW026CB BKN050 BKN066 26/23 Q1004=
2026-01-19 18:24:00<>SPECI SBGL 191824Z 18013KT 6000 FEW025 BKN050 BKN066 25/22 Q1004 RERA=
2026-01-19 19:00:00<>METAR SBGL 191900Z 18009KT 7000 FEW025 BKN063 26/22 Q1004=
2026-01-19 20:00:00<>METAR SBGL 192000Z VRB04KT 9999 FEW025 BKN063 28/23 Q1004=
2026-01-19 21:00:00<>METAR SBGL 192100Z VRB06KT 9999 FEW025 BKN100 26/23 Q1004=
2026-01-19 22:00:00<>METAR SBGL 192200Z 35003KT 9999 -RA FEW025TCU BKN089 26/23 Q1005=
2026-01-19 23:00:00<>METAR SBGL 192300Z 07004KT 9000 -RA BKN020 OVC060 25/23 Q1006=
2026-01-19 23:31:00<>SPECI COR SBGL 192331Z 32017KT 0500 R33/0100D R10/0100D R28/0100D R15/0100D +TSRA BKN010 FEW025CB OVC040 24/21 Q1007=
2026-01-20 00:00:00<>METAR SBGL 200000Z 27014KT 0800 R28/1500N R33/1500N R15/1500N R10/1700N +TSRA BKN006 FEW020CB OVC025 22/20 Q1007=
2026-01-20 00:16:00<>SPECI SBGL 200016Z 29007KT 2000 TSRA BKN007 FEW020CB OVC025 22/21 Q1008 RERA=
2026-01-20 01:00:00<>METAR SBGL 200100Z 20004KT 140V250 4500 -TSRA BKN013 FEW030CB OVC040 22/21 Q1008 RERA=
2026-01-20 02:00:00<>METAR SBGL 200200Z 17005KT 150V220 4000 -TSRA BKN013 FEW030CB OVC040 22/21 Q1008=
2026-01-20 03:00:00<>METAR SBGL 200300Z 00000KT 5000 -RA BKN015 OVC040 23/21 Q1008 RETS=
2026-01-20 04:00:00<>METAR SBGL 200400Z 25004KT 5000 -RA BKN015 OVC040 23/21 Q1008=
2026-01-20 05:00:00<>METAR SBGL 200500Z 28005KT 6000 BKN020 OVC040 24/22 Q1008=
2026-01-20 06:00:00<>METAR SBGL 200600Z 24013KT 4000 -RA FEW006 BKN010 OVC030 23/20 Q1008=
2026-01-20 07:00:00<>METAR SBGL 200700Z 23013KT 4500 -RA FEW006 BKN011 OVC030 23/20 Q1008=
2026-01-20 08:00:00<>METAR SBGL 200800Z 23005KT 9999 FEW010 BKN015 OVC030 23/20 Q1009=
2026-01-20 09:00:00<>METAR SBGL 200900Z VRB02KT 4000 -RA FEW010 BKN015 OVC030 23/20 Q1010=
2026-01-20 10:00:00<>METAR SBGL 201000Z 28004KT 230V310 3500 -RA FEW006 BKN010 OVC025 22/21 Q1011=
2026-01-20 11:00:00<>METAR SBGL 201100Z 05003KT 3500 BR FEW006 BKN010 OVC025 22/21 Q1012=
2026-01-20 12:00:00<>METAR COR SBGL 201200Z 35003KT 3500 RA BR FEW006 BKN013 OVC025 22/21 Q1012=
2026-01-20 13:00:00<>METAR SBGL 201300Z 20003KT 4000 -RA BR FEW010 BKN013 OVC025 22/21 Q1013 RERA=
2026-01-20 14:00:00<>METAR SBGL 201400Z 28003KT 5000 BR FEW010 BKN014 24/20 Q1013=
2026-01-20 15:00:00<>METAR SBGL 201500Z 32006KT 6000 FEW010 BKN016 23/21 Q1013=
2026-01-20 16:00:00<>METAR SBGL 201600Z 02004KT 6000 FEW010 OVC016 23/21 Q1013=
2026-01-20 17:00:00<>METAR SBGL 201700Z 04005KT 6000 FEW010 OVC015 24/21 Q1013=
2026-01-20 18:00:00<>METAR SBGL 201800Z 02004KT 8000 FEW010 OVC015 23/21 Q1013=
2026-01-20 19:00:00<>METAR SBGL 201900Z 11003KT 8000 FEW010 OVC015 23/19 Q1013=
2026-01-20 20:00:00<>METAR SBGL 202000Z 03004KT 8000 FEW010 OVC015 24/20 Q1013=
2026-01-20 21:00:00<>METAR SBGL 202100Z 07004KT 9999 FEW010 BKN026 23/20 Q1014=
2026-01-20 22:00:00<>METAR SBGL 202200Z 10003KT 9999 FEW015 BKN026 23/19 Q1014=
2026-01-20 23:00:00<>METAR SBGL 202300Z 31003KT 9999 FEW016 OVC030 23/19 Q1015=
2026-01-21 00:00:00<>METAR SBGL 210000Z 32005KT 9999 FEW016 BKN030 22/20 Q1015=
2026-01-21 01:00:00<>METAR SBGL 210100Z 32005KT 9999 FEW018 BKN030 23/20 Q1015=
2026-01-21 02:00:00<>METAR SBGL 210200Z 33004KT 9999 FEW018 BKN030 22/20 Q1015=
2026-01-21 03:00:00<>METAR SBGL 210300Z 32005KT 8000 -RA SCT015 OVC025 22/20 Q1015=
2026-01-21 04:00:00<>METAR SBGL 210400Z 27005KT 9000 -RA FEW015 OVC025 21/19 Q1014=
2026-01-21 05:00:00<>METAR SBGL 210500Z 32006KT 8000 -RA FEW015 OVC025 21/19 Q1014=
2026-01-21 06:00:00<>METAR SBGL 210600Z 31006KT 9999 FEW015 BKN025 21/19 Q1013=
2026-01-21 07:00:00<>METAR SBGL 210700Z 24002KT 9999 FEW015 BKN025 21/18 Q1013=
2026-01-21 08:00:00<>METAR SBGL 210800Z 31004KT 9999 BKN030 21/18 Q1013=
2026-01-21 09:00:00<>METAR SBGL 210900Z 32006KT 7000 -RA SCT018 OVC030 21/19 Q1014=
2026-01-21 09:24:00<>SPECI SBGL 210924Z 33007KT 5000 -RA BR BKN010 OVC030 21/19 Q1014=
2026-01-21 10:00:00<>METAR SBGL 211000Z 32007KT 5000 -RA BR BKN010 OVC030 20/19 Q1014=
2026-01-21 10:21:00<>SPECI SBGL 211021Z 32006KT 2000 -RA BKN008 OVC030 21/19 Q1015=
2026-01-21 11:00:00<>METAR SBGL 211100Z 32005KT 2000 -RA BKN008 OVC030 20/19 Q1015=
2026-01-21 12:00:00<>METAR SBGL 211200Z 35005KT 320V020 3000 -RA BR BKN008 OVC025 21/20 Q1015=
2026-01-21 13:00:00<>METAR SBGL 211300Z 35005KT 8000 FEW010 BKN020 OVC040 22/20 Q1015=
2026-01-21 14:00:00<>METAR SBGL 211400Z 36006KT 9999 BKN020 OVC040 23/20 Q1016=
2026-01-21 15:00:00<>METAR SBGL 211500Z 03007KT 9999 4000SW -RA BKN020 OVC040 23/19 Q1015=
2026-01-21 16:00:00<>METAR SBGL 211600Z 35012KT 4500 -RA BR BKN015 OVC030 21/20 Q1015=
2026-01-21 17:00:00<>METAR SBGL 211700Z 36007KT 3000 -RA BR BKN015 OVC030 21/19 Q1015=
2026-01-21 18:00:00<>METAR SBGL 211800Z 36004KT 3000 -RA BR BKN010 OVC025 21/19 Q1015=
2026-01-21 19:00:00<>METAR SBGL 211900Z 02004KT 330V060 4500 -RA BR BKN010 OVC020 21/19 Q1014=
2026-01-21 20:00:00<>METAR SBGL 212000Z 36003KT 4500 -RA BR BKN010 OVC020 21/19 Q1015=
2026-01-21 21:00:00<>METAR SBGL 212100Z 34006KT 4500 -RA BR BKN010 OVC030 21/20 Q1015=
2026-01-21 22:00:00<>METAR SBGL 212200Z 36006KT 6000 BKN010 OVC030 21/19 Q1015=
2026-01-21 23:00:00<>METAR SBGL 212300Z 32005KT 7000 BKN010 OVC030 21/19 Q1016=
2026-01-21 23:23:00<>SPECI SBGL 212323Z 31004KT 7000 SCT035 OVC100 21/19 Q1016=
2026-01-22 00:00:00<>METAR SBGL 220000Z VRB02KT 7000 FEW029 OVC035 21/19 Q1016=
2026-01-22 01:00:00<>METAR SBGL 220100Z 32006KT 6000 -RA FEW028 OVC040 21/19 Q1016=
2026-01-22 02:00:00<>METAR SBGL 220200Z 30002KT 7000 -RA FEW040 OVC100 21/19 Q1016=
2026-01-22 03:00:00<>METAR SBGL 220300Z 29002KT 7000 FEW029 SCT035 OVC100 21/19 Q1015=
2026-01-22 04:00:00<>METAR SBGL 220400Z 31004KT 7000 FEW028 OVC100 21/19 Q1015=
2026-01-22 05:00:00<>METAR SBGL 220500Z 32004KT 7000 FEW045 OVC100 20/18 Q1010=
2026-01-22 06:00:00<>METAR SBGL 220600Z 31003KT 8000 FEW045 OVC100 21/19 Q1014=
2026-01-22 07:00:00<>METAR SBGL 220700Z 35002KT 9999 FEW045 OVC100 20/19 Q1013=
2026-01-22 08:00:00<>METAR SBGL 220800Z 34003KT 310V020 8000 FEW007 BKN070 20/19 Q1014=
2026-01-22 09:00:00<>METAR SBGL 220900Z 32002KT 8000 FEW007 BKN070 21/19 Q1014=
2026-01-22 10:00:00<>METAR SBGL 221000Z 33004KT 9999 BKN045 OVC100 21/19 Q1015=
2026-01-22 11:00:00<>METAR SBGL 221100Z 01003KT 340V100 9999 FEW030 BKN045 OVC100 22/19 Q1015=
2026-01-22 12:00:00<>METAR SBGL 221200Z 35003KT 300V070 9999 FEW021 BKN040 OVC100 22/19 Q1015=
2026-01-22 13:00:00<>METAR SBGL 221300Z 05005KT 9000 -RA FEW020 BKN040 OVC100 22/19 Q1016=
2026-01-22 14:00:00<>METAR SBGL 221400Z 02004KT 330V060 9999 -RA FEW009 SCT019 BKN040 22/19 Q1016=
2026-01-22 15:00:00<>METAR SBGL 221500Z VRB02KT 9000 -RA FEW009 SCT019 BKN030 22/19 Q1016=
2026-01-22 15:21:00<>SPECI SBGL 221521Z 29005KT 4000 -RA SCT009 BKN020 BKN030 22/19 Q1016=
2026-01-22 16:00:00<>METAR SBGL 221600Z VRB02KT 8000 -RA FEW009 SCT020 BKN030 21/19 Q1016=
2026-01-22 17:00:00<>METAR COR SBGL 221700Z VRB03KT 9999 -RA SCT009 SCT020 BKN040 22/19 Q1015=
2026-01-22 18:00:00<>METAR SBGL 221800Z 33003KT 300V030 9999 FEW009 SCT020 BKN040 22/19 Q1014=
2026-01-22 19:00:00<>METAR SBGL 221900Z 03004KT 350V070 9999 FEW011 SCT023 BKN050 24/20 Q1014=
2026-01-22 20:00:00<>METAR SBGL 222000Z 04004KT 9999 FEW011 BKN023 BKN050 23/20 Q1014=
2026-01-22 21:00:00<>METAR SBGL 222100Z 06005KT 9000 FEW013 BKN020 BKN030 23/20 Q1014=
2026-01-22 22:00:00<>METAR SBGL 222200Z 05004KT 9000 -RA BKN017 OVC025 22/20 Q1015=
2026-01-22 23:00:00<>METAR SBGL 222300Z 03003KT 9000 -RA BKN017 OVC025 22/19 Q1015=
2026-01-23 00:00:00<>METAR SBGL 230000Z 04003KT 020V080 9000 FEW010 BKN025 23/19 Q1015=
2026-01-23 01:00:00<>METAR SBGL 230100Z 01003KT 330V090 9000 FEW010 BKN020 23/19 Q1015=
2026-01-23 02:00:00<>METAR SBGL 230200Z 01004KT 350V050 9000 -DZ FEW010 BKN020 22/20 Q1015=
2026-01-23 03:00:00<>METAR SBGL 230300Z 33004KT 310V010 9000 -DZ FEW010 BKN020 22/20 Q1015=
2026-01-23 04:00:00<>METAR SBGL 230400Z 26002KT 9000 -DZ FEW010 BKN020 21/20 Q1014=
2026-01-23 05:00:00<>METAR SBGL 230500Z VRB02KT 9000 FEW010 BKN020 21/20 Q1013=
2026-01-23 06:00:00<>METAR SBGL 230600Z VRB02KT 9000 FEW010 BKN020 21/20 Q1013=
2026-01-23 07:00:00<>METAR SBGL 230700Z 36002KT 9000 FEW010 SCT020 21/20 Q1013=
2026-01-23 08:00:00<>METAR SBGL 230800Z 06002KT 9000 FEW006 SCT030 21/20 Q1013=
2026-01-23 08:38:00<>SPECI SBGL 230838Z 05003KT 3500 -RA BR FEW006 BKN014 OVC060 22/20 Q1014=
2026-01-23 09:00:00<>METAR SBGL 230900Z 04003KT 340V070 3500 -RA BR FEW006 BKN014 OVC060 22/20 Q1014=
2026-01-23 09:40:00<>SPECI SBGL 230940Z 34005KT 320V030 1800 R10/2000U R28/2000U R15/2000U R33/2000U -RA BR FEW006 OVC028 21/20 Q1015=
2026-01-23 10:00:00<>METAR SBGL 231000Z 36004KT 2000 R10/1900D R28/1900D R15/2000U R33/2000U -RA BR FEW006 OVC030 21/20 Q1015=
2026-01-23 11:00:00<>METAR SBGL 231100Z 36003KT 340V040 2500 RA BR FEW007 OVC040 21/20 Q1015=
2026-01-23 12:00:00<>METAR SBGL 231200Z VRB02KT 2500 RA BR BKN004 OVC020 22/20 Q1015=
2026-01-23 13:00:00<>METAR SBGL 231300Z 02003KT 340V060 3000 -RA BR BKN005 OVC020 22/20 Q1015 RERA=
2026-01-23 14:00:00<>METAR SBGL 231400Z 05003KT 7000 -RA BKN007 OVC020 22/20 Q1015=
2026-01-23 15:00:00<>METAR SBGL 231500Z 04004KT 6000 -RA BKN007 OVC020 22/20 Q1015=
2026-01-23 15:05:00<>SPECI SBGL 231505Z 03002KT 3000 -RA BR BKN006 SCT018 22/20 Q1015=
2026-01-23 16:00:00<>METAR SBGL 231600Z VRB02KT 4000 -RA BR BKN006 BKN050 22/20 Q1015=
2026-01-23 17:00:00<>METAR SBGL 231700Z 32004KT 2000 R10/1600D R28/2000U R15/2000U R33/2000U RA BR BKN006 OVC028 22/20 Q1015=
2026-01-23 18:00:00<>METAR SBGL 231800Z VRB02KT 2500 RA BR BKN004 OVC028 22/20 Q1014=
2026-01-23 19:00:00<>METAR SBGL 231900Z 04002KT 8000 RA BKN006 OVC040 22/21 Q1014=
2026-01-23 20:00:00<>METAR SBGL 232000Z 15004KT 6000 -RA BKN005 OVC050 22/21 Q1014 RERA=
2026-01-23 21:00:00<>METAR SBGL 232100Z 10003KT 3000 -RA BR BKN007 OVC050 22/21 Q1014=
2026-01-23 22:00:00<>METAR SBGL 232200Z VRB02KT 6000 -RA BKN007 OVC050 22/21 Q1014=
2026-01-23 23:00:00<>METAR SBGL 232300Z 00000KT 9000 FEW008 BKN020 OVC040 22/20 Q1014=
2026-01-24 00:00:00<>METAR SBGL 240000Z 30002KT 4500 -RA BR BKN008 OVC020 22/21 Q1015=
2026-01-24 01:00:00<>METAR SBGL 240100Z 17002KT 6000 BKN008 OVC020 22/21 Q1015=
2026-01-24 02:00:00<>METAR SBGL 240200Z 21003KT 4000 -RA BR BKN008 OVC020 22/21 Q1015=
2026-01-24 03:00:00<>METAR SBGL 240300Z 24001KT 3500 -RA BR BKN006 OVC020 22/21 Q1015=
2026-01-24 04:00:00<>METAR SBGL 240400Z 20002KT 4000 -RA BR BKN008 OVC020 22/21 Q1014=
2026-01-24 05:00:00<>METAR SBGL 240500Z 32002KT 6000 BKN008 OVC020 22/21 Q1014=
2026-01-24 06:00:00<>METAR SBGL 240600Z 30003KT 4000 -RA BR BKN006 OVC018 22/21 Q1013=
2026-01-24 07:00:00<>METAR SBGL 240700Z 28003KT 4500 BR BKN006 OVC018 22/21 Q1013=
2026-01-24 08:00:00<>METAR SBGL 240800Z 31004KT 4000 BR BKN006 OVC018 22/21 Q1013=
2026-01-24 08:43:00<>SPECI SBGL 240843Z 30004KT 2000 BR BKN006 OVC015 22/21 Q1014=
2026-01-24 09:00:00<>METAR SBGL 240900Z 30003KT 2000 BR BKN006 OVC015 22/21 Q1014=
2026-01-24 10:00:00<>METAR SBGL 241000Z 28004KT 2500 BR BKN006 OVC020 22/21 Q1014=
2026-01-24 11:00:00<>METAR SBGL 241100Z 30004KT 3500 BR SCT004 BKN006 OVC020 23/21 Q1015=
2026-01-24 12:00:00<>METAR SBGL 241200Z 01005KT 5000 BR FEW009 BKN011 OVC023 24/21 Q1016=
2026-01-24 13:00:00<>METAR SBGL 241300Z 35005KT 5000 BR BKN011 BKN023 OVC080 25/22 Q1016=
2026-01-24 14:00:00<>METAR SBGL 241400Z 05009KT 6000 SCT011 BKN023 BKN080 25/22 Q1015=
2026-01-24 15:00:00<>METAR SBGL 241500Z 14010KT 6000 FEW011 BKN019 BKN046 26/21 Q1015=
2026-01-24 16:00:00<>METAR SBGL 241600Z 12009KT 5000 HZ FEW011 BKN020 BKN080 27/22 Q1015=
2026-01-24 17:00:00<>METAR SBGL 241700Z 11009KT 7000 FEW011 BKN020 BKN080 26/21 Q1014=
2026-01-24 18:00:00<>METAR SBGL 241800Z 06005KT 7000 -RA FEW012 BKN020 OVC070 25/22 Q1014=
2026-01-24 19:00:00<>METAR SBGL 241900Z 15003KT 8000 FEW012 SCT020 BKN070 25/22 Q1014=
2026-01-24 20:00:00<>METAR SBGL 242000Z 12005KT 6000 -RA FEW012 SCT020 OVC070 24/22 Q1013=
2026-01-24 21:00:00<>METAR SBGL 242100Z 14006KT 6000 FEW009 SCT019 BKN070 24/22 Q1013=
2026-01-24 22:00:00<>METAR SBGL 242200Z 14005KT 8000 FEW009 BKN019 OVC070 24/22 Q1015=
2026-01-24 23:00:00<>METAR SBGL 242300Z 15006KT 9999 SCT019 BKN030 OVC070 24/22 Q1015=
2026-01-25 00:00:00<>METAR SBGL 250000Z VRB02KT 9999 FEW015 SCT019 BKN030 25/22 Q1016=
2026-01-25 00:20:00<>SPECI SBGL 250020Z 11003KT 070V140 4000 -RA FEW011 SCT015 BKN030 24/22 Q1016=
2026-01-25 01:00:00<>METAR SBGL 250100Z VRB02KT 8000 -TSRA SCT009 SCT015 BKN030 FEW031CB 24/22 Q1016=
2026-01-25 02:00:00<>METAR SBGL 250200Z 01003KT 340V060 9000 -RA SCT009 BKN019 BKN030 24/22 Q1016 RETS=
2026-01-25 02:32:00<>SPECI SBGL 250232Z 28003KT 9000 BKN009 BKN019 BKN030 24/23 Q1016=
2026-01-25 03:00:00<>METAR SBGL 250300Z 27003KT 240V310 8000 -RA BKN007 BKN019 BKN030 24/22 Q1016=
2026-01-25 04:00:00<>METAR SBGL 250400Z 27006KT 9000 -RA BKN007 BKN011 BKN017 24/22 Q1016=
2026-01-25 05:00:00<>METAR SBGL 250500Z 26009KT 230V300 4500 -RA BR BKN007 BKN017 BKN030 22/20 Q1016=
2026-01-25 06:00:00<>METAR SBGL 250600Z 29010KT 1200 R10/P2000 R28/P2000 R15/P2000 R33/P2000 +RA FEW004 BKN006 OVC040 22/20 Q1016=
2026-01-25 06:23:00<>SPECI SBGL 250623Z VRB02KT 7000 -RA FEW004 BKN006 OVC040 21/20 Q1015 RERA=
2026-01-25 07:00:00<>METAR SBGL 250700Z 07006KT 9999 FEW005 SCT040 BKN083 21/20 Q1015=
2026-01-25 08:00:00<>METAR SBGL 250800Z VRB02KT 9999 FEW005 BKN083 21/20 Q1015=
2026-01-25 09:00:00<>METAR SBGL 250900Z 16005KT 9999 FEW005 BKN083 22/20 Q1016=
2026-01-25 10:00:00<>METAR SBGL 251000Z VRB02KT 9999 FEW009 SCT083 23/21 Q1016=
2026-01-25 11:00:00<>METAR SBGL 251100Z VRB03KT 9999 FEW009 SCT070 24/21 Q1017=
2026-01-25 12:00:00<>METAR SBGL 251200Z 34006KT 9999 FEW020 SCT070 25/21 Q1017=
2026-01-25 13:00:00<>METAR SBGL 251300Z 36004KT 9999 FEW020 SCT070 27/21 Q1017=
2026-01-25 14:00:00<>METAR SBGL 251400Z 02005KT 330V050 9999 FEW020 BKN100 28/21 Q1016=
2026-01-25 15:00:00<>METAR SBGL 251500Z 35006KT 9999 FEW020 BKN100 29/21 Q1016=
2026-01-25 16:00:00<>METAR SBGL 251600Z 11010KT 9999 FEW030 BKN100 28/22 Q1016=
2026-01-25 17:00:00<>METAR SBGL 251700Z 13011KT 9999 VCSH FEW030 BKN100 27/22 Q1015=
2026-01-25 18:00:00<>METAR SBGL 251800Z 13009KT 9999 VCSH SCT025 BKN100 26/22 Q1015=
2026-01-25 19:00:00<>METAR SBGL 251900Z 13010KT 9999 VCSH SCT025 BKN100 26/22 Q1015=
2026-01-25 20:00:00<>METAR SBGL 252000Z 13008KT 7000 -RA BKN020 BKN040 BKN100 26/22 Q1015=
2026-01-25 20:22:00<>SPECI SBGL 252022Z 06014KT 5000 -RA BR BKN012 FEW030TCU BKN045 24/21 Q1016=
2026-01-25 21:00:00<>METAR SBGL 252100Z 04009KT 2000 R10/1200U R28/1200U R15/1800U R33/1800U TSRA BR BKN007 FEW030CB OVC040 23/22 Q1016=
2026-01-25 21:17:00<>SPECI SBGL 252117Z 18006KT 6000 -TSRA BKN014 FEW030CB OVC050 23/21 Q1017 RERA=
2026-01-25 22:00:00<>METAR SBGL 252200Z 11004KT 060V160 8000 -TSRA BKN015 FEW030CB BKN050 23/21 Q1017 RERA=
2026-01-25 23:00:00<>METAR SBGL 252300Z 11003KT 7000 -RA BKN015 FEW030TCU BKN050 23/21 Q1017 RETS=
2026-01-26 00:00:00<>METAR SBGL 260000Z 20003KT 8000 SCT016 FEW030TCU BKN035 24/22 Q1017=
2026-01-26 01:00:00<>METAR SBGL 260100Z 13002KT 8000 SCT016 BKN035 BKN100 23/22 Q1017=
2026-01-26 02:00:00<>METAR SBGL 260200Z 31005KT 6000 VCSH FEW007 BKN018 BKN080 23/22 Q1017=
2026-01-26 03:00:00<>METAR SBGL 260300Z 29001KT 9000 FEW007 BKN018 BKN080 23/21 Q1016=
2026-01-26 04:00:00<>METAR SBGL 260400Z 08002KT 9000 FEW007 BKN019 BKN090 23/22 Q1016=
2026-01-26 05:00:00<>METAR SBGL 260500Z 05003KT 9000 FEW006 BKN012 BKN090 23/22 Q1015=
2026-01-26 06:00:00<>METAR SBGL 260600Z 05004KT 7000 SCT005 BKN009 OVC090 23/22 Q1015=
2026-01-26 07:00:00<>METAR SBGL 260700Z 27002KT 7000 SCT005 BKN008 OVC090 23/22 Q1015=
2026-01-26 08:00:00<>METAR SBGL 260800Z 13001KT 8000 SCT005 SCT015 BKN090 23/21 Q1015=
2026-01-26 09:00:00<>METAR SBGL 260900Z 07003KT 6000 FEW005 SCT012 BKN090 23/21 Q1016=
2026-01-26 10:00:00<>METAR SBGL 261000Z 05004KT 6000 FEW005 BKN009 BKN100 23/22 Q1016=
2026-01-26 11:00:00<>METAR SBGL 261100Z 05003KT 010V110 7000 FEW008 BKN010 BKN100 25/22 Q1017=
2026-01-26 12:00:00<>METAR SBGL 261200Z 15003KT 090V190 7000 BKN012 BKN080 26/22 Q1017=
2026-01-26 13:00:00<>METAR SBGL 261300Z 04006KT 010V070 9000 SCT020 SCT080 27/22 Q1017=
2026-01-26 14:00:00<>METAR SBGL 261400Z 07007KT 020V120 9999 SCT020 SCT030 29/23 Q1017=
2026-01-26 15:00:00<>METAR SBGL 261500Z 13006KT 090V170 9999 SCT020 SCT030 30/20 Q1016=
2026-01-26 16:00:00<>METAR SBGL 261600Z 13006KT 090V160 9999 FEW015 FEW030TCU BKN045 30/22 Q1016=
2026-01-26 17:00:00<>METAR SBGL 261700Z 11009KT 9999 VCTS FEW015 FEW030CB BKN045 BKN080 30/23 Q1016=
2026-01-26 18:00:00<>METAR SBGL 261800Z 14005KT 9000 VCTS FEW015 FEW030CB BKN045 BKN080 28/23 Q1016=
2026-01-26 19:00:00<>METAR SBGL 261900Z 11007KT 080V140 9999 VCSH FEW015 FEW030TCU BKN045 BKN080 28/22 Q1015=
2026-01-26 20:00:00<>METAR SBGL 262000Z 11004KT 9999 VCSH FEW015 FEW030TCU BKN045 BKN080 27/23 Q1015=
2026-01-26 21:00:00<>METAR SBGL 262100Z 12004KT 070V160 9999 VCSH FEW015 FEW030TCU BKN045 BKN080 27/23 Q1015=
2026-01-26 22:00:00<>METAR SBGL 262200Z 10002KT 9999 VCSH FEW015 FEW030TCU BKN045 BKN080 27/21 Q1015=
2026-01-26 23:00:00<>METAR SBGL 262300Z 07005KT 9999 FEW015 FEW030TCU BKN045 BKN080 26/22 Q1016=
2026-01-27 00:00:00<>METAR SBGL 270000Z 07005KT 8000 -RA FEW015 FEW021TCU BKN045 BKN080 26/22 Q1017=
2026-01-27 01:00:00<>METAR SBGL 270100Z 16003KT 7000 -RA FEW015 FEW021TCU BKN045 BKN080 25/23 Q1016=
2026-01-27 02:00:00<>METAR SBGL 270200Z 14002KT 7000 FEW013 FEW021TCU BKN045 BKN080 25/23 Q1016=
2026-01-27 03:00:00<>METAR SBGL 270300Z VRB02KT 7000 FEW013 BKN028 25/22 Q1016=
2026-01-27 04:00:00<>METAR SBGL 270400Z 12004KT 7000 FEW013 BKN028 24/22 Q1016=
2026-01-27 05:00:00<>METAR SBGL 270500Z 12005KT 7000 FEW013 BKN028 24/22 Q1015=
2026-01-27 06:00:00<>METAR SBGL 270600Z 12005KT 7000 FEW013 BKN028 24/22 Q1015=
2026-01-27 07:00:00<>METAR SBGL 270700Z 10003KT 7000 FEW008 24/22 Q1015=
2026-01-27 08:00:00<>METAR SBGL 270800Z 12003KT 7000 FEW008 BKN025 24/22 Q1015=
2026-01-27 09:00:00<>METAR SBGL 270900Z 12003KT 7000 SCT008 BKN100 24/22 Q1016=
2026-01-27 10:00:00<>METAR SBGL 271000Z 07008KT 9000 SCT008 SCT100 25/22 Q1016=
2026-01-27 11:00:00<>METAR SBGL 271100Z 06009KT 9000 SCT008 SCT100 26/23 Q1016=
2026-01-27 12:00:00<>METAR SBGL 271200Z 03006KT 9999 SCT014 SCT100 27/23 Q1017=
2026-01-27 13:00:00<>METAR SBGL 271300Z 02006KT 9999 FEW010 28/22 Q1016=
2026-01-27 14:00:00<>METAR SBGL 271400Z VRB05KT 9999 FEW022 29/22 Q1016=
2026-01-27 15:00:00<>METAR SBGL 271500Z 06006KT 360V150 9999 FEW003 31/22 Q1015=
2026-01-27 16:00:00<>METAR SBGL 271600Z 08006KT 020V140 9999 FEW030TCU 32/22 Q1015=
2026-01-27 17:00:00<>METAR SBGL 271700Z 12011KT 100V160 9999 FEW030TCU SCT100 31/22 Q1014=
2026-01-27 18:00:00<>METAR SBGL 271800Z 13011KT 9999 VCTS FEW030CB FEW033TCU SCT100 31/22 Q1014=
2026-01-27 19:00:00<>METAR SBGL 271900Z 13011KT 9999 VCTS FEW030CB FEW033TCU BKN100 29/21 Q1014=
2026-01-27 20:00:00<>METAR SBGL 272000Z VRB06KT 9999 VCTS FEW030CB FEW033TCU BKN080 29/22 Q1014=
2026-01-27 20:39:00<>SPECI SBGL 272039Z 05017KT 6000 RA SCT025 BKN034 25/20 Q1015=
2026-01-27 21:00:00<>METAR COR SBGL 272100Z 05016KT 5000 2000S TSRA SCT023 FEW030CB BKN050 24/20 Q1015=
2026-01-27 21:10:00<>SPECI SBGL 272110Z 06008KT 6000 -TSRA SCT023 FEW030CB BKN050 24/20 Q1015 RERA=
2026-01-27 22:00:00<>METAR SBGL 272200Z 22004KT 160V270 9999 FEW030 BKN100 24/20 Q1014 RETS=
2026-01-27 23:00:00<>METAR SBGL 272300Z 14004KT 9999 SCT046 BKN100 24/21 Q1015=
2026-01-28 00:00:00<>METAR SBGL 280000Z 12005KT 9999 SCT046 SCT100 23/21 Q1015=
2026-01-28 01:00:00<>METAR SBGL 280100Z 14004KT 9999 SCT046 SCT100 23/21 Q1015=
2026-01-28 02:00:00<>METAR SBGL 280200Z 11005KT 9999 FEW046 SCT100 23/21 Q1015=
2026-01-28 03:00:00<>METAR SBGL 280300Z 09001KT 9999 FEW046 SCT100 23/21 Q1015=
2026-01-28 04:00:00<>METAR SBGL 280400Z 12004KT 9999 FEW046 23/21 Q1014=
2026-01-28 05:00:00<>METAR SBGL 280500Z 15004KT 9999 FEW046 22/21 Q1014=
2026-01-28 06:00:00<>METAR SBGL 280600Z 18003KT 9999 FEW046 22/20 Q1014=
2026-01-28 07:00:00<>METAR SBGL 280700Z 19003KT 8000 FEW046 22/20 Q1013=
2026-01-28 08:00:00<>METAR SBGL 280800Z 00000KT 8000 FEW046 22/20 Q1014=
2026-01-28 09:00:00<>METAR SBGL 280900Z 07003KT 9999 FEW009 22/21 Q1015=
2026-01-28 10:00:00<>METAR SBGL 281000Z 03003KT 8000 FEW008 23/21 Q1015=
2026-01-28 11:00:00<>METAR SBGL 281100Z VRB02KT 9000 FEW020 25/21 Q1016=
2026-01-28 12:00:00<>METAR SBGL 281200Z 05003KT 350V100 9999 FEW030 27/22 Q1016=
2026-01-28 13:00:00<>METAR SBGL 281300Z VRB04KT 9999 FEW030 29/22 Q1016=
2026-01-28 14:00:00<>METAR SBGL 281400Z 05005KT 360V090 9999 FEW040 30/21 Q1015=
2026-01-28 15:00:00<>METAR SBGL 281500Z 04005KT 350V080 9999 FEW040 32/19 Q1015=
2026-01-28 16:00:00<>METAR SBGL 281600Z VRB04KT 9999 FEW040 33/19 Q1014=
2026-01-28 17:00:00<>METAR SBGL 281700Z 25004KT 9999 SCT030 FEW035TCU 34/19 Q1013=
2026-01-28 18:00:00<>METAR SBGL 281800Z 13009KT 9999 SCT030 FEW035TCU 33/20 Q1012=
2026-01-28 19:00:00<>METAR SBGL 281900Z 14011KT 9999 SCT030 FEW035TCU 33/21 Q1012=
2026-01-28 20:00:00<>METAR SBGL 282000Z 15010KT 9000 TS BKN030 FEW035CB 31/20 Q1012=
2026-01-28 21:00:00<>METAR SBGL 282100Z 15010KT 9999 FEW030 BKN070 31/21 Q1012 RETS=
2026-01-28 22:00:00<>METAR SBGL 282200Z 14004KT 100V170 9999 FEW030 BKN070 30/22 Q1013=
2026-01-28 22:28:00<>SPECI SBGL 282228Z 12004KT 9999 TS FEW030 FEW035CB BKN070 29/22 Q1013=
2026-01-28 23:00:00<>METAR SBGL 282300Z 04005KT 010V070 9999 TS FEW030 FEW035CB SCT050 BKN066 29/22 Q1014=
2026-01-29 00:00:00<>METAR SBGL 290000Z 32005KT 280V350 9999 FEW030 SCT050 28/22 Q1014 RETS=
2026-01-29 01:00:00<>METAR SBGL 290100Z 30003KT 190V340 9999 FEW030 SCT083 28/22 Q1014=
2026-01-29 02:00:00<>METAR SBGL 290200Z 31003KT 9999 FEW030 BKN100 27/23 Q1014=
2026-01-29 03:00:00<>METAR SBGL 290300Z 35003KT 320V050 9999 FEW025 BKN100 27/23 Q1013=
2026-01-29 04:00:00<>METAR SBGL 290400Z 05005KT 9999 FEW025 26/22 Q1013=
2026-01-29 05:00:00<>METAR SBGL 290500Z 04006KT CAVOK 25/22 Q1013=
2026-01-29 06:00:00<>METAR SBGL 290600Z 08003KT CAVOK 25/22 Q1012=
2026-01-29 07:00:00<>METAR SBGL 290700Z 07003KT CAVOK 24/22 Q1012=
2026-01-29 08:00:00<>METAR SBGL 290800Z 13003KT CAVOK 24/22 Q1013=
2026-01-29 09:00:00<>METAR SBGL 290900Z VRB02KT CAVOK 25/22 Q1013=
2026-01-29 10:00:00<>METAR SBGL 291000Z VRB02KT CAVOK 26/22 Q1013=
2026-01-29 11:00:00<>METAR SBGL 291100Z 09003KT CAVOK 28/22 Q1013=
2026-01-29 12:00:00<>METAR SBGL 291200Z 01006KT CAVOK 28/22 Q1013=
2026-01-29 13:00:00<>METAR SBGL 291300Z 06003KT CAVOK 31/21 Q1013=
2026-01-29 14:00:00<>METAR SBGL 291400Z 01004KT 9999 FEW035 32/22 Q1013=
2026-01-29 15:00:00<>METAR SBGL 291500Z 35004KT 9999 FEW035 34/21 Q1012=
2026-01-29 16:00:00<>METAR SBGL 291600Z 35006KT 9999 SCT030 FEW035TCU 34/20 Q1011=
2026-01-29 17:00:00<>METAR SBGL 291700Z 13010KT 9999 BKN030 FEW035TCU 32/22 Q1011=
2026-01-29 18:00:00<>METAR SBGL 291800Z 12011KT 9999 SCT030 FEW035TCU 31/22 Q1010=
2026-01-29 19:00:00<>METAR SBGL 291900Z 13011KT 9999 VCTS SCT030 FEW035CB SCT100 30/20 Q1010=
2026-01-29 20:00:00<>METAR SBGL 292000Z 34015KT 9999 VCSH VCTS SCT030 FEW035CB SCT080 25/21 Q1012=
2026-01-29 21:00:00<>METAR SBGL 292100Z 06017KT 9999 VCSH FEW008 SCT030 FEW035TCU BKN080 24/21 Q1012=
2026-01-29 22:00:00<>METAR SBGL 292200Z 09008KT 9999 VCSH FEW008 SCT030 FEW035TCU BKN070 24/21 Q1012=
2026-01-29 23:00:00<>METAR SBGL 292300Z 06006KT 9000 -RA FEW020 BKN070 24/21 Q1011=
2026-01-30 00:00:00<>METAR SBGL 300000Z 12004KT 9999 FEW030 SCT060 24/21 Q1011=
2026-01-30 01:00:00<>METAR SBGL 300100Z VRB02KT 9999 FEW030 24/21 Q1012=
2026-01-30 02:00:00<>METAR SBGL 300200Z 33005KT 280V050 9999 FEW030 24/21 Q1011=
2026-01-30 03:00:00<>METAR SBGL 300300Z 33006KT 9999 FEW030 24/21 Q1011=
2026-01-30 04:00:00<>METAR SBGL 300400Z 08002KT 9999 SCT040 23/21 Q1010=
2026-01-30 05:00:00<>METAR SBGL 300500Z 35002KT 9999 SCT040 24/21 Q1009=
2026-01-30 06:00:00<>METAR SBGL 300600Z 07004KT 9999 SCT030 23/21 Q1009=
2026-01-30 07:00:00<>METAR SBGL 300700Z 02003KT 9999 FEW020 SCT040 23/21 Q1009=
2026-01-30 08:00:00<>METAR SBGL 300800Z 05004KT 9999 FEW015 SCT040 23/21 Q1009=
2026-01-30 09:00:00<>METAR SBGL 300900Z 05004KT 9999 FEW030 23/21 Q1009=
2026-01-30 10:00:00<>METAR SBGL 301000Z VRB02KT 9999 FEW030 SCT060 BKN080 24/22 Q1010=
2026-01-30 11:00:00<>METAR SBGL 301100Z 31004KT 260V360 9999 FEW030 SCT080 25/22 Q1010=
2026-01-30 12:00:00<>METAR SBGL 301200Z 32003KT 290V010 9999 FEW030 SCT080 26/21 Q1010=
2026-01-30 13:00:00<>METAR SBGL 301300Z VRB02KT 9999 FEW030 SCT100 28/20 Q1010=
2026-01-30 14:00:00<>METAR SBGL 301400Z 05005KT 9999 FEW030 SCT100 28/22 Q1010=
2026-01-30 15:00:00<>METAR SBGL 301500Z 06006KT 9999 FEW030 SCT100 28/21 Q1010=
2026-01-30 16:00:00<>METAR SBGL 301600Z 06010KT 9999 FEW030 SCT100 29/21 Q1009=
2026-01-30 17:00:00<>METAR SBGL 301700Z 06010KT CAVOK 29/21 Q1008=
2026-01-30 18:00:00<>METAR SBGL 301800Z 06008KT CAVOK 30/20 Q1007=
2026-01-30 19:00:00<>METAR SBGL 301900Z 06007KT CAVOK 30/21 Q1006=
2026-01-30 20:00:00<>METAR SBGL 302000Z 06006KT CAVOK 29/23 Q1006=
2026-01-30 21:00:00<>METAR SBGL 302100Z 25009KT 7000 -RA FEW025TCU SCT060 BKN090 26/23 Q1007=
2026-01-30 22:00:00<>METAR SBGL 302200Z 17005KT 7000 -RA FEW025TCU SCT050 BKN090 26/23 Q1007=
2026-01-30 23:00:00<>METAR SBGL 302300Z 27005KT 9999 SCT030 BKN080 26/23 Q1008=
2026-01-31 00:00:00<>METAR SBGL 310000Z 33004KT 9999 FEW030 BKN080 25/22 Q1008=
2026-01-31 01:00:00<>METAR SBGL 310100Z 32005KT 9999 FEW040 BKN080 25/22 Q1009=
2026-01-31 02:00:00<>METAR SBGL 310200Z 31003KT 9999 FEW040 BKN080 25/22 Q1008=
2026-01-31 03:00:00<>METAR SBGL 310300Z 31002KT 9999 FEW040 BKN080 25/22 Q1007=
2026-01-31 04:00:00<>METAR SBGL 310400Z 31002KT 9999 FEW019 BKN080 25/22 Q1007=
2026-01-31 05:00:00<>METAR SBGL 310500Z 05001KT 9999 FEW020 BKN080 24/22 Q1006=
2026-01-31 06:00:00<>METAR SBGL 310600Z 33005KT 9999 FEW020 BKN080 24/23 Q1005=
2026-01-31 07:00:00<>METAR SBGL 310700Z 30003KT 7000 FEW020 SCT080 24/23 Q1005=
2026-01-31 08:00:00<>METAR SBGL 310800Z 23002KT 9000 FEW025 SCT080 24/22 Q1006=
2026-01-31 09:00:00<>METAR SBGL 310900Z 24001KT 9999 FEW030 SCT100 24/22 Q1006=
2026-01-31 10:00:00<>METAR SBGL 311000Z 26003KT 9999 FEW030 SCT100 26/22 Q1006=
2026-01-31 11:00:00<>METAR SBGL 311100Z 26008KT 230V310 9999 FEW030 SCT083 29/21 Q1007=
2026-01-31 12:00:00<>METAR SBGL 311200Z 24009KT 210V280 9999 FEW030 30/21 Q1007=
2026-01-31 13:00:00<>METAR SBGL 311300Z 30007KT 270V330 9999 FEW030 32/21 Q1007=
2026-01-31 14:00:00<>METAR SBGL 311400Z 27010KT 230V330 9999 FEW035 33/19 Q1007=
2026-01-31 15:00:00<>METAR SBGL 311500Z 32009KT 300V360 9999 SCT040 34/19 Q1006=
2026-01-31 16:00:00<>METAR SBGL 311600Z 12014KT 9999 VCSH SCT045 FEW050TCU 31/23 Q1006=
2026-01-31 16:28:00<>SPECI SBGL 311628Z 10011KT 050V130 9999 2500NE TSRA SCT045 FEW050CB 29/22 Q1007=
2026-01-31 17:00:00<>METAR SBGL 311700Z 16007KT 120V190 9999 TS VCSH SCT045 FEW050CB 29/23 Q1006 RERA=
2026-01-31 18:00:00<>METAR SBGL 311800Z 11011KT 9999 TS FEW045 FEW050CB 30/23 Q1005=
2026-01-31 19:00:00<>METAR SBGL 311900Z 11011KT 9999 VCSH SCT035 FEW040TCU 28/23 Q1006 RETS=
2026-01-31 20:00:00<>METAR SBGL 312000Z 12010KT 9999 VCSH BKN035 FEW040TCU 27/22 Q1006=
2026-01-31 21:00:00<>METAR SBGL 312100Z 11008KT 080V140 9999 FEW020 SCT030 FEW035TCU BKN083 27/22 Q1007=
2026-01-31 22:00:00<>METAR SBGL 312200Z 13007KT 9999 FEW020 SCT033 BKN083 27/22 Q1007=
2026-01-31 23:00:00<>METAR SBGL 312300Z 12005KT 9999 FEW048 BKN100 26/22 Q1008=
2026-02-01 00:00:00<>METAR SBGL 010000Z 11005KT 9999 FEW048 BKN100 26/21 Q1008=
2026-02-01 01:00:00<>METAR SBGL 010100Z 11004KT 9999 FEW048 BKN100 26/21 Q1008=
2026-02-01 02:00:00<>METAR SBGL 010200Z 10003KT 9999 FEW048 BKN100 26/22 Q1008=
2026-02-01 03:00:00<>METAR SBGL 010300Z 11003KT 9999 FEW030 BKN100 25/22 Q1008=
2026-02-01 04:00:00<>METAR SBGL 010400Z 11003KT 9999 FEW008 25/22 Q1007=
2026-02-01 05:00:00<>METAR SBGL 010500Z 11003KT 9999 FEW008 24/22 Q1006=
2026-02-01 06:00:00<>METAR SBGL 010600Z 11003KT 9999 FEW008 24/22 Q1006=
2026-02-01 07:00:00<>METAR SBGL 010700Z 06003KT CAVOK 24/22 Q1006=
2026-02-01 08:00:00<>METAR SBGL 010800Z 06003KT CAVOK 24/23 Q1006=
2026-02-01 09:00:00<>METAR COR SBGL 010900Z 06003KT CAVOK 24/22 Q1006=
2026-02-01 10:00:00<>METAR SBGL 011000Z 01002KT CAVOK 26/23 Q1006=
2026-02-01 11:00:00<>METAR SBGL 011100Z VRB02KT CAVOK 28/22 Q1007=
2026-02-01 12:00:00<>METAR SBGL 011200Z 35003KT 260V040 CAVOK 30/23 Q1007=
2026-02-01 13:00:00<>METAR SBGL 011300Z 01005KT 330V050 9999 FEW025 31/23 Q1007=
2026-02-01 14:00:00<>METAR SBGL 011400Z 33010KT 290V020 9999 FEW030 35/21 Q1006=
2026-02-01 15:00:00<>METAR SBGL 011500Z 34012KT 9999 FEW040 35/22 Q1005=
2026-02-01 16:00:00<>METAR SBGL 011600Z 33011KT 290V350 9999 FEW040 36/20 Q1004=
2026-02-01 17:00:00<>METAR SBGL 011700Z 36009KT 320V030 9999 FEW045 37/21 Q1003=
2026-02-01 18:00:00<>METAR SBGL 011800Z 04007KT 350V060 9999 FEW045 SCT066 36/21 Q1003=
2026-02-01 19:00:00<>METAR SBGL 011900Z 14009KT 9999 VCSH SCT035 FEW040TCU SCT066 31/23 Q1003=
2026-02-01 20:00:00<>METAR SBGL 012000Z 14008KT 9999 SCT035 FEW040TCU 31/22 Q1003=
2026-02-01 21:00:00<>METAR SBGL 012100Z 09005KT 9999 SCT035 FEW040TCU 31/23 Q1004=
2026-02-01 21:33:00<>SPECI SBGL 012133Z 13009KT 9999 -TSRA SCT035 FEW040CB BKN066 28/23 Q1005=
2026-02-01 22:00:00<>METAR SBGL 012200Z 36013G35KT 330V060 9999 1500N R10/2000D R28/P2000 R15/P2000 R33/P2000 +TSRA SCT035 FEW040CB BKN066 27/23 Q1006=
2026-02-01 23:00:00<>METAR SBGL 012300Z VRB03KT 9999 VCTS FEW009 SCT035 FEW040CB BKN066 25/21 Q1007 RETSRA=
2026-02-02 00:00:00<>METAR SBGL 020000Z 19011KT 3000 R28/1900U R33/1900U R10/P2000N R15/P2000N TSRA BR BKN009 FEW030CB BKN050 23/21 Q1009=
2026-02-02 01:00:00<>METAR SBGL 020100Z 04003KT 340V100 9000 -RA VCTS FEW009 FEW030CB SCT050 BKN080 23/22 Q1010 RETSRA=
2026-02-02 02:00:00<>METAR SBGL 020200Z 04007KT 9999 FEW009 SCT050 BKN080 24/22 Q1009=
2026-02-02 03:00:00<>METAR SBGL 020300Z 07009KT 9999 FEW013 24/21 Q1008=
2026-02-02 04:00:00<>METAR SBGL 020400Z 13005KT 9999 FEW013 SCT050 23/22 Q1007=
2026-02-02 05:00:00<>METAR SBGL 020500Z VRB02KT 9999 FEW013 SCT050 23/22 Q1007=
2026-02-02 06:00:00<>METAR SBGL 020600Z 22003KT 190V250 9999 FEW013 SCT050 24/22 Q1007=
2026-02-02 07:00:00<>METAR SBGL 020700Z 28003KT 9999 FEW013 SCT050 24/22 Q1007=
2026-02-02 08:00:00<>METAR SBGL 020800Z 33004KT 9999 FEW013 SCT050 24/22 Q1007=
2026-02-02 09:00:00<>METAR SBGL 020900Z 34004KT 9999 FEW020 SCT050 BKN080 24/22 Q1007=
2026-02-02 10:00:00<>METAR SBGL 021000Z 32003KT 9999 FEW020 SCT050 BKN080 25/22 Q1007=
2026-02-02 11:00:00<>METAR SBGL 021100Z 29004KT 240V330 9999 FEW020 SCT050 BKN080 28/22 Q1007=
2026-02-02 12:00:00<>METAR SBGL 021200Z 02003KT 310V050 9999 FEW022 BKN070 29/23 Q1008=
2026-02-02 13:00:00<>METAR SBGL 021300Z 04003KT 330V040 9999 FEW022 BKN070 30/22 Q1008=
2026-02-02 14:00:00<>METAR SBGL 021400Z 32005KT 270V010 9999 FEW022 BKN067 32/22 Q1008=
2026-02-02 15:00:00<>METAR SBGL 021500Z 29006KT 9999 FEW022 BKN050 BKN070 32/22 Q1008=
2026-02-02 16:00:00<>METAR SBGL 021600Z 28006KT 9999 FEW023 BKN040 BKN050 32/22 Q1007=
2026-02-02 17:00:00<>METAR SBGL 021700Z 14005KT 100V200 9999 FEW015 BKN040 BKN050 31/24 Q1007=
2026-02-02 18:00:00<>METAR SBGL 021800Z 21009KT 9999 FEW015 BKN040 BKN050 30/21 Q1007=
2026-02-02 19:00:00<>METAR SBGL 021900Z 21011KT 9999 FEW015 BKN050 BKN070 30/21 Q1007=
2026-02-02 20:00:00<>METAR SBGL 022000Z 22009KT 9999 SCT015 BKN050 BKN070 29/21 Q1007=
2026-02-02 21:00:00<>METAR SBGL 022100Z 06004KT 020V160 9999 SCT015 BKN050 BKN070 29/22 Q1008=
2026-02-02 22:00:00<>METAR SBGL 022200Z 10006KT 9999 SCT015 BKN050 BKN070 27/23 Q1008=
2026-02-02 23:00:00<>METAR SBGL 022300Z 11004KT 9999 FEW025 BKN046 27/23 Q1009=
2026-02-03 00:00:00<>METAR SBGL 030000Z 12003KT 9999 FEW020 BKN046 27/23 Q1010=
2026-02-03 01:00:00<>METAR SBGL 030100Z 10002KT 9999 FEW020 BKN046 27/23 Q1010=
2026-02-03 02:00:00<>METAR SBGL 030200Z VRB01KT 9999 FEW020 SCT046 BKN100 27/23 Q1010=
2026-02-03 03:00:00<>METAR SBGL 030300Z 00000KT 9999 FEW020 BKN100 27/23 Q1009=
2026-02-03 04:00:00<>METAR SBGL 030400Z 00000KT 9999 FEW020 SCT050 BKN100 26/24 Q1009=
2026-02-03 05:00:00<>METAR SBGL 030500Z 36002KT 9000 -RA FEW020 BKN050 OVC100 26/24 Q1008=
2026-02-03 06:00:00<>METAR SBGL 030600Z 33004KT 9000 FEW020 SCT050 OVC100 26/24 Q1008=
2026-02-03 07:00:00<>METAR SBGL 030700Z 31004KT 9000 FEW020 OVC100 26/24 Q1008=
2026-02-03 08:00:00<>METAR SBGL 030800Z 32004KT 9000 FEW020 BKN100 26/23 Q1008=
2026-02-03 09:00:00<>METAR SBGL 030900Z 33003KT 9999 FEW020 BKN100 26/23 Q1009=
2026-02-03 10:00:00<>METAR SBGL 031000Z 36003KT 320V030 9999 FEW020 SCT100 27/23 Q1009=
2026-02-03 11:00:00<>METAR SBGL 031100Z 01003KT 9999 FEW020 28/23 Q1009=
2026-02-03 12:00:00<>METAR SBGL 031200Z 22002KT 9999 FEW025 30/23 Q1009=
2026-02-03 13:00:00<>METAR SBGL 031300Z 05005KT 9999 FEW025 31/23 Q1009=
2026-02-03 14:00:00<>METAR SBGL 031400Z 04007KT 9999 SCT030 32/22 Q1009=
2026-02-03 15:00:00<>METAR SBGL 031500Z 12008KT 9999 FEW030 32/22 Q1008=
2026-02-03 16:00:00<>METAR SBGL 031600Z 13009KT 9999 FEW030 31/24 Q1007=
2026-02-03 17:00:00<>METAR SBGL 031700Z 12012KT 9999 FEW030 SCT070 31/24 Q1007=
2026-02-03 18:00:00<>METAR SBGL 031800Z 14010KT 9999 VCSH VCTS FEW030 FEW035CB SCT070 29/23 Q1006=
2026-02-03 18:14:00<>SPECI SBGL 031814Z 30017G27KT 3000 -TSRA BR SCT020 FEW030CB BKN070 26/22 Q1007=
2026-02-03 18:24:00<>SPECI SBGL 031824Z 29019KT 1000 R10/1000D R15/1800D R28/2000N R33/2000N +TSRA SCT020 FEW030CB BKN070 24/22 Q1008=
2026-02-03 18:42:00<>SPECI SBGL 031842Z 24009KT 4000 R10/1800U R15/2000N R33/2000N R28/2000N -TSRA SCT020 FEW030CB BKN070 24/23 Q1007 RERA=
2026-02-03 19:00:00<>METAR SBGL 031900Z 16006KT 5000 -TSRA FEW006 SCT020 FEW030CB BKN070 24/23 Q1007 RERA=
2026-02-03 20:00:00<>METAR SBGL 032000Z 13002KT 8000 VCTS SCT020 FEW030CB BKN070 25/23 Q1007 RETS=
2026-02-03 21:00:00<>METAR SBGL 032100Z 05002KT 9999 SCT030 FEW035TCU BKN070 25/23 Q1007=
2026-02-03 22:00:00<>METAR SBGL 032200Z 07005KT 9999 FEW030 FEW035TCU BKN070 25/23 Q1008=
2026-02-03 23:00:00<>METAR SBGL 032300Z 09003KT 9999 FEW030 BKN070 25/23 Q1008=
2026-02-04 00:00:00<>METAR SBGL 040000Z 13003KT 9999 BKN030 BKN070 26/23 Q1009=
2026-02-04 01:00:00<>METAR SBGL 040100Z 13002KT 9999 BKN030 BKN070 26/23 Q1009=
2026-02-04 02:00:00<>METAR SBGL 040200Z 00000KT 9999 BKN030 BKN070 26/23 Q1009=
2026-02-04 03:00:00<>METAR SBGL 040300Z 34008KT 8000 -RA BKN015 OVC030 26/24 Q1009=
2026-02-04 04:00:00<>METAR SBGL 040400Z 29001KT 9999 SCT025 BKN040 25/23 Q1007=
2026-02-04 05:00:00<>METAR SBGL 040500Z 09001KT 9999 SCT025 BKN040 25/23 Q1007=
2026-02-04 06:00:00<>METAR SBGL 040600Z 08002KT 9999 SCT025 BKN040 25/24 Q1006=
2026-02-04 07:00:00<>METAR SBGL 040700Z 12002KT 9999 SCT030 25/23 Q1006=
2026-02-04 08:00:00<>METAR SBGL 040800Z 02001KT 9999 SCT030 25/23 Q1006=
2026-02-04 09:00:00<>METAR SBGL 040900Z VRB01KT 9999 FEW020 SCT100 24/23 Q1006=
2026-02-04 10:00:00<>METAR SBGL 041000Z VRB01KT 9999 FEW020 SCT040 BKN100 26/24 Q1007=
2026-02-04 11:00:00<>METAR SBGL 041100Z 23003KT 9999 FEW020 BKN050 BKN100 28/24 Q1007=
2026-02-04 12:00:00<>METAR SBGL 041200Z 30007KT 250V010 9999 FEW020 SCT050 30/22 Q1007=
2026-02-04 13:00:00<>METAR SBGL 041300Z 31009KT 280V350 9999 FEW020 SCT050 32/22 Q1008=
2026-02-04 14:00:00<>METAR SBGL 041400Z 33008KT 300V360 9999 FEW022 SCT060 33/21 Q1007=
2026-02-04 15:00:00<>METAR SBGL 041500Z 27005KT 230V360 9999 SCT016 SCT060 33/21 Q1007=
2026-02-04 16:00:00<>METAR SBGL 041600Z 17007KT 120V240 9999 VCSH SCT016 FEW025TCU BKN033 31/24 Q1007=
2026-02-04 17:00:00<>METAR SBGL 041700Z 14007KT 110V170 9999 VCSH SCT016 FEW025TCU BKN033 31/25 Q1007=
2026-02-04 18:00:00<>METAR SBGL 041800Z 22011KT 8000 -RA SCT016 FEW025TCU BKN033 30/22 Q1007=
2026-02-04 19:00:00<>METAR SBGL 041900Z 21008KT 8000 -RA SCT015 BKN021 BKN025 28/24 Q1007=
2026-02-04 20:00:00<>METAR SBGL 042000Z 09004KT 350V130 9999 FEW016 SCT025 BKN070 29/23 Q1007 RERA=
2026-02-04 21:00:00<>METAR SBGL 042100Z 04005KT 9999 FEW025 BKN080 28/24 Q1008=
2026-02-04 22:00:00<>METAR SBGL 042200Z 06004KT 9999 SCT025 SCT030 BKN080 27/24 Q1009=
2026-02-04 23:00:00<>METAR SBGL 042300Z 09005KT 9999 SCT030 BKN080 27/24 Q1009=
2026-02-05 00:00:00<>METAR SBGL 050000Z 15002KT 9999 SCT025 BKN080 27/24 Q1010=
2026-02-05 01:00:00<>METAR SBGL 050100Z 17002KT 6000 -RA BKN025 BKN080 27/24 Q1011=
2026-02-05 01:36:00<>SPECI SBGL 050136Z 24007KT 4000 RA FEW007 BKN010 OVC020 25/24 Q1011=
2026-02-05 02:00:00<>METAR SBGL 050200Z 22007KT 4000 RA FEW007 BKN010 OVC018 25/23 Q1011=
2026-02-05 03:00:00<>METAR SBGL 050300Z 30013KT 2000 +RA SCT006 BKN009 OVC018 23/22 Q1011 RERA=
2026-02-05 04:00:00<>METAR SBGL 050400Z 35009KT 3000 RA SCT004 BKN009 OVC020 23/22 Q1010 RERA=
2026-02-05 05:00:00<>METAR SBGL 050500Z 32005KT 7000 -RA FEW004 BKN011 OVC020 23/22 Q1009 RERA=
2026-02-05 06:00:00<>METAR SBGL 050600Z 20005KT 8000 SCT011 BKN035 23/22 Q1009=
2026-02-05 07:00:00<>METAR SBGL 050700Z 28003KT 9000 FEW007 SCT011 BKN035 23/22 Q1009=
2026-02-05 08:00:00<>METAR SBGL 050800Z 27001KT 9999 FEW008 BKN040 24/22 Q1009=
2026-02-05 09:00:00<>METAR SBGL 050900Z 31001KT 9999 FEW007 BKN070 24/22 Q1009=
2026-02-05 10:00:00<>METAR SBGL 051000Z 36003KT 9999 FEW007 BKN080 24/22 Q1009=
2026-02-05 11:00:00<>METAR SBGL 051100Z 35005KT 9999 FEW007 BKN100 25/22 Q1010=
2026-02-05 12:00:00<>METAR SBGL 051200Z VRB02KT 9999 FEW007 SCT050 27/20 Q1010=
2026-02-05 13:00:00<>METAR SBGL 051300Z VRB04KT 9999 FEW009 SCT050 28/23 Q1010=
2026-02-05 14:00:00<>METAR SBGL 051400Z VRB05KT 9999 FEW009 SCT030 30/23 Q1010=
2026-02-05 15:00:00<>METAR SBGL 051500Z 04005KT 9999 FEW010 SCT046 31/24 Q1010=
2026-02-05 16:00:00<>METAR SBGL 051600Z 11007KT 9999 FEW046 BKN083 30/23 Q1009=
2026-02-05 17:00:00<>METAR SBGL 051700Z 12008KT 9999 FEW030 BKN083 30/23 Q1009=
2026-02-05 18:00:00<>METAR SBGL 051800Z 11008KT 9999 FEW030TCU SCT036 30/24 Q1008=
2026-02-05 19:00:00<>METAR SBGL 051900Z 19005KT 7000 -TSRA FEW026 FEW035CB SCT050 29/23 Q1008=
2026-02-05 20:00:00<>METAR SBGL 052000Z 28004KT 9999 TS SCT023 FEW035CB BKN100 26/24 Q1008 RERA=
2026-02-05 21:00:00<>METAR SBGL 052100Z 30005KT 9999 FEW013 SCT017 BKN030 27/25 Q1009 RETS=
2026-02-05 22:00:00<>METAR SBGL 052200Z 29007KT 9999 -RA SCT013 BKN015 26/23 Q1010=
2026-02-05 23:00:00<>METAR SBGL 052300Z 27006KT 7000 -RA FEW009 BKN015 OVC048 25/24 Q1010=
2026-02-06 00:00:00<>METAR SBGL 060000Z 32004KT 290V010 9999 -RA FEW007 BKN033 BKN080 25/24 Q1011=
2026-02-06 01:00:00<>METAR SBGL 060100Z 29004KT 7000 FEW007 OVC040 25/24 Q1011=
2026-02-06 02:00:00<>METAR SBGL 060200Z 32004KT 7000 FEW010 OVC040 25/24 Q1011=
2026-02-06 03:00:00<>METAR SBGL 060300Z 34005KT 7000 FEW004 BKN031 OVC080 25/23 Q1011=
2026-02-06 04:00:00<>METAR SBGL 060400Z 32004KT 6000 -RA FEW005 BKN013 BKN025 25/23 Q1011=
2026-02-06 05:00:00<>METAR SBGL 060500Z 32005KT 6000 -RA BKN008 OVC100 24/23 Q1011=
2026-02-06 06:00:00<>METAR SBGL 060600Z 26005KT 5000 -RA BR BKN008 OVC100 24/23 Q1010=
2026-02-06 07:00:00<>METAR COR SBGL 060700Z 23004KT 6000 -RA FEW008 OVC100 25/23 Q1010=
2026-02-06 08:00:00<>METAR SBGL 060800Z 23004KT 6000 FEW008 OVC100 25/23 Q1010=
2026-02-06 09:00:00<>METAR SBGL 060900Z 32005KT 8000 FEW010 25/23 Q1010=
2026-02-06 10:00:00<>METAR SBGL 061000Z 31003KT 9999 FEW015 BKN030 25/24 Q1010=
2026-02-06 11:00:00<>METAR SBGL 061100Z 26006KT 230V290 9999 FEW013 27/23 Q1011=
2026-02-06 12:00:00<>METAR SBGL 061200Z 28004KT 9999 FEW013 SCT015 29/23 Q1012=
2026-02-06 13:00:00<>METAR SBGL 061300Z 31004KT 9999 FEW015 SCT020 30/23 Q1012=
2026-02-06 14:00:00<>METAR SBGL 061400Z 31005KT 9999 BKN030 30/22 Q1012=
2026-02-06 15:00:00<>METAR SBGL 061500Z 15007KT 9999 BKN030 30/23 Q1011=
2026-02-06 16:00:00<>METAR SBGL 061600Z 14006KT 9999 FEW033 SCT050 31/24 Q1011=
2026-02-06 17:00:00<>METAR SBGL 061700Z 16011KT 9999 FEW025 SCT050 31/24 Q1010=
2026-02-06 18:00:00<>METAR SBGL 061800Z 15011KT 9999 FEW025 SCT050 30/24 Q1009=
2026-02-06 19:00:00<>METAR SBGL 061900Z 13011KT 100V160 9999 VCSH FEW025 SCT030 FEW035TCU 29/23 Q1009=
2026-02-06 20:00:00<>METAR SBGL 062000Z 13008KT 9999 TS VCSH FEW025 SCT035 FEW035CB 28/23 Q1009=
2026-02-06 21:00:00<>METAR SBGL 062100Z 14006KT 9999 -RA FEW025 BKN035 FEW035TCU 27/23 Q1010 RETS=
2026-02-06 22:00:00<>METAR SBGL 062200Z 14003KT 100V170 9999 SCT020 BKN030 FEW030TCU 27/23 Q1011=
2026-02-06 23:00:00<>METAR SBGL 062300Z 12003KT 9999 SCT020 BKN030 FEW030TCU 27/23 Q1012=
2026-02-07 00:00:00<>METAR SBGL 070000Z 14010KT 2000 TSRA BR BKN008 BKN030 FEW030CB 23/22 Q1012=
2026-02-07 00:36:00<>SPECI SBGL 070036Z 14004KT 110V180 9999 -TSRA BKN015 BKN030 FEW030CB 23/22 Q1012 RERA=
2026-02-07 01:00:00<>METAR COR SBGL 070100Z VRB02KT 9999 -TSRA SCT015 SCT030 FEW030CB BKN050 24/22 Q1012 RERA=
2026-02-07 02:00:00<>METAR SBGL 070200Z 26003KT 220V320 9999 -RA FEW008 SCT015 FEW030TCU BKN050 24/22 Q1012 RETS=
2026-02-07 03:00:00<>METAR SBGL 070300Z 05004KT 9999 FEW008 SCT015 BKN050 25/23 Q1011=
2026-02-07 04:00:00<>METAR SBGL 070400Z 08005KT 9999 FEW013 SCT025 BKN050 25/23 Q1011=
2026-02-07 05:00:00<>METAR SBGL 070500Z 04003KT 9999 FEW013 SCT025 BKN050 25/23 Q1011=
2026-02-07 06:00:00<>METAR SBGL 070600Z VRB02KT 9999 FEW013 SCT025 BKN050 25/23 Q1010=
2026-02-07 07:00:00<>METAR SBGL 070700Z VRB02KT 9999 FEW013 SCT025 BKN050 25/23 Q1010=
2026-02-07 08:00:00<>METAR SBGL 070800Z VRB02KT 9999 FEW013 SCT025 BKN050 24/23 Q1010=
2026-02-07 09:00:00<>METAR SBGL 070900Z 28003KT 240V300 8000 FEW013 SCT025 BKN050 25/23 Q1011=
2026-02-07 10:00:00<>METAR SBGL 071000Z 02003KT 9999 SCT025 BKN050 BKN080 25/24 Q1011=
2026-02-07 10:40:00<>SPECI SBGL 071040Z 35004KT 7000 BKN005 BKN070 25/23 Q1012=
2026-02-07 11:00:00<>METAR SBGL 071100Z 34003KT 7000 BKN005 BKN070 26/23 Q1012=
2026-02-07 12:00:00<>METAR SBGL 071200Z 20002KT 8000 SCT008 BKN070 27/24 Q1011=
2026-02-07 13:00:00<>METAR SBGL 071300Z 06003KT 9999 FEW006 SCT022 BKN070 28/24 Q1012=
2026-02-07 14:00:00<>METAR SBGL 071400Z 35004KT 7000 FEW006 SCT022 BKN070 29/24 Q1012=
2026-02-07 15:00:00<>METAR SBGL 071500Z 13003KT 9999 SCT022 BKN070 30/24 Q1011=
2026-02-07 16:00:00<>METAR SBGL 071600Z 13007KT 9999 SCT025 SCT080 31/24 Q1010=
2026-02-07 17:00:00<>METAR SBGL 071700Z 12012KT 9999 SCT030 30/24 Q1009=
2026-02-07 18:00:00<>METAR SBGL 071800Z 12013KT 9999 VCSH SCT030 FEW035TCU SCT080 30/24 Q1008=
2026-02-07 19:00:00<>METAR SBGL 071900Z 10005KT 5000 -TSRA BKN030 FEW035CB BKN070 28/25 Q1009=
2026-02-07 20:00:00<>METAR SBGL 072000Z 23008KT 6000 -TSRA FEW010 BKN020 FEW035CB BKN070 25/22 Q1010=
2026-02-07 21:00:00<>METAR SBGL 072100Z 03001KT 7000 -TSRA FEW010 BKN020 FEW035CB BKN070 25/23 Q1011=
2026-02-07 22:00:00<>METAR SBGL 072200Z 33001KT 8000 -TSRA SCT025 FEW035CB BKN070 25/22 Q1012=
2026-02-07 23:00:00<>METAR SBGL 072300Z 25005KT 9999 -RA FEW015 SCT025 BKN030 25/22 Q1012 RETS=
2026-02-08 00:00:00<>METAR SBGL 080000Z 29006KT 9999 FEW015 SCT025 25/23 Q1011=
2026-02-08 01:00:00<>METAR SBGL 080100Z 27003KT 210V310 9999 FEW007 24/23 Q1011=
2026-02-08 02:00:00<>METAR SBGL 080200Z 23003KT 9999 FEW007 25/23 Q1012=
2026-02-08 03:00:00<>METAR SBGL 080300Z 29003KT 9999 FEW007 25/23 Q1012=
2026-02-08 04:00:00<>METAR SBGL 080400Z 32004KT 9999 FEW007 BKN100 25/23 Q1011=
2026-02-08 05:00:00<>METAR SBGL 080500Z 30003KT 9999 FEW012 BKN100 25/23 Q1011=
2026-02-08 06:00:00<>METAR SBGL 080600Z 35003KT 9999 FEW007 BKN100 25/23 Q1010=
2026-02-08 07:00:00<>METAR SBGL 080700Z 31003KT 280V340 9999 FEW007 BKN100 25/23 Q1010=
2026-02-08 07:38:00<>SPECI SBGL 080738Z 24015KT 9999 3100W -RA FEW007 BKN011 BKN050 24/22 Q1011=
2026-02-08 08:00:00<>METAR SBGL 080800Z 25011KT 8000 -RA FEW007 SCT011 BKN030 24/22 Q1011=
2026-02-08 09:00:00<>METAR SBGL 080900Z 29005KT 250V310 9999 FEW011 BKN050 24/22 Q1012=
2026-02-08 10:00:00<>METAR SBGL 081000Z 30003KT 9999 FEW015 BKN050 25/22 Q1013=
2026-02-08 11:00:00<>METAR SBGL 081100Z 25004KT 9999 FEW017 BKN066 25/21 Q1013=
2026-02-08 12:00:00<>METAR SBGL 081200Z 28004KT 9999 FEW013 SCT050 BKN066 26/22 Q1013=
2026-02-08 13:00:00<>METAR SBGL 081300Z 30004KT 9999 FEW015 SCT046 29/22 Q1013=
2026-02-08 14:00:00<>METAR SBGL 081400Z VRB02KT 9999 FEW015 SCT046 30/22 Q1012=
2026-02-08 15:00:00<>METAR SBGL 081500Z 04006KT 030V200 9999 FEW015 SCT046 30/22 Q1011=
2026-02-08 15:25:00<>SPECI SBGL 081525Z 13005KT 5000 -TSRA FEW015 FEW030CB BKN050 26/23 Q1010=
2026-02-08 16:00:00<>METAR SBGL 081600Z 03005KT 350V070 9999 FEW015 SCT046 30/22 Q1011=
2026-02-08 17:00:00<>METAR SBGL 081700Z 12008KT 9999 FEW030TCU SCT050 29/22 Q1010=
2026-02-08 17:30:00<>SPECI SBGL 081730Z 13005KT 5000 R10/1100N -TSRA FEW015 FEW030CB BKN050 26/23 Q1010=
2026-02-08 17:39:00<>SPECI SBGL 081739Z VRB05KT 1000 R10/1100D +TSRA SCT015 BKN020 FEW030CB BKN050 25/23 Q1010=
2026-02-08 18:00:00<>METAR SBGL 081800Z 12006KT 060V220 6000 -TSRA FEW015 SCT020 FEW030CB BKN050 25/23 Q1010 RERA=
2026-02-08 19:00:00<>METAR SBGL 081900Z 12005KT 070V180 5000 R10/1500U -RA SCT015 BKN026 BKN050 26/24 Q1010 RETS=
2026-02-08 20:00:00<>METAR SBGL 082000Z 16009KT 5000 2000SW R10/1600D -RA SCT013 BKN015 BKN050 25/23 Q1011=
2026-02-08 21:00:00<>METAR SBGL 082100Z 15004KT 5000 R10/1800N -RA BR SCT013 BKN015 BKN050 24/23 Q1011=
2026-02-08 22:00:00<>METAR SBGL 082200Z 09002KT 5000 -RA BR SCT013 BKN015 BKN019 24/22 Q1012=
2026-02-08 23:00:00<>METAR SBGL 082300Z 34007KT 3000 -RA BR FEW008 BKN017 OVC055 24/22 Q1013=
2026-02-09 00:00:00<>METAR SBGL 090000Z 34007KT 320V040 3000 -RA BR FEW004 OVC035 24/23 Q1014=
2026-02-09 01:00:00<>METAR SBGL 090100Z 36007KT 330V050 4000 -RA BR BKN006 SCT016 OVC035 24/23 Q1014=
2026-02-09 02:00:00<>METAR SBGL 090200Z 35009KT 330V040 3000 -RA BR BKN006 SCT020 OVC035 23/22 Q1014=
2026-02-09 03:00:00<>METAR SBGL 090300Z 02005KT 2000 RA BR BKN006 SCT020 OVC035 22/21 Q1014=
2026-02-09 04:00:00<>METAR SBGL 090400Z 02005KT 3000 RA BR BKN006 SCT020 OVC035 22/21 Q1014=
2026-02-09 05:00:00<>METAR SBGL 090500Z 02007KT 6000 -RA FEW004 SCT020 OVC100 22/21 Q1012=
2026-02-09 06:00:00<>METAR SBGL 090600Z 31003KT 6000 FEW004 SCT020 OVC100 23/21 Q1012=
2026-02-09 07:00:00<>METAR SBGL 090700Z 28002KT 7000 FEW005 SCT060 OVC100 23/22 Q1012=
2026-02-09 08:00:00<>METAR SBGL 090800Z 20003KT 7000 FEW005 OVC100 23/22 Q1012=
2026-02-09 09:00:00<>METAR SBGL 090900Z 19002KT 8000 FEW005 BKN100 23/21 Q1012=
2026-02-09 10:00:00<>METAR SBGL 091000Z VRB02KT 9999 FEW030 BKN070 24/22 Q1012=
2026-02-09 11:00:00<>METAR SBGL 091100Z 02003KT 340V060 9999 FEW030 BKN100 24/21 Q1013=
2026-02-09 12:00:00<>METAR SBGL 091200Z 03003KT 350V070 9999 FEW030 BKN100 24/22 Q1013=
2026-02-09 13:00:00<>METAR SBGL 091300Z 05004KT 320V030 9999 FEW030 BKN100 25/22 Q1014=
2026-02-09 13:20:00<>SPECI SBGL 091320Z 35003KT 320V050 4500 -RA BR FEW020 BKN060 25/22 Q1014=
2026-02-09 14:00:00<>METAR SBGL 091400Z 01003KT 330V060 4500 -RA BR FEW010 BKN035 25/22 Q1014=
2026-02-09 15:00:00<>METAR SBGL 091500Z 01004KT 7000 -RA FEW015 BKN030 26/23 Q1014=
2026-02-09 15:29:00<>SPECI SBGL 091529Z 03004KT 6000 -RA BKN013 BKN040 25/23 Q1013=
2026-02-09 16:00:00<>METAR SBGL 091600Z 03004KT 4500 -RA BR BKN013 BKN040 25/23 Q1013=
2026-02-09 17:00:00<>METAR SBGL 091700Z 02003KT 320V080 6000 -RA BKN013 OVC040 26/23 Q1013=
2026-02-09 18:00:00<>METAR SBGL 091800Z 01003KT 330V050 6000 -RA BKN013 OVC040 26/22 Q1013=
2026-02-09 19:00:00<>METAR SBGL 091900Z 04004KT 350V070 6000 -RA BKN015 OVC040 26/23 Q1012=
2026-02-09 20:00:00<>METAR SBGL 092000Z 06006KT 3500 -RA BR BKN012 OVC040 25/23 Q1012=
2026-02-09 21:00:00<>METAR SBGL 092100Z 10005KT 3500 -RA BR BKN010 FEW030TCU OVC040 24/23 Q1013=
2026-02-09 21:28:00<>SPECI SBGL 092128Z 25010KT 0500 R15/0500D R28/0500D R33/0500D R10/0500D RA BKN006 OVC015 23/22 Q1013=
2026-02-09 22:00:00<>METAR SBGL 092200Z 19005KT 3500 -RA BR FEW006 BKN013 OVC020 23/22 Q1014 RERA=
2026-02-09 23:00:00<>METAR SBGL 092300Z VRB02KT 6000 -RA FEW007 BKN014 OVC035 23/22 Q1014=
2026-02-10 00:00:00<>METAR SBGL 100000Z VRB02KT 9999 -RA FEW007 BKN030 BKN060 23/22 Q1015=
2026-02-10 01:00:00<>METAR SBGL 100100Z 24004KT 6000 FEW006 BKN010 BKN025 24/22 Q1015=
2026-02-10 02:00:00<>METAR SBGL 100200Z 22004KT 190V250 5000 -RA BR FEW006 BKN010 BKN030 24/22 Q1015=
2026-02-10 03:00:00<>METAR SBGL 100300Z VRB02KT 6000 -RA FEW007 BKN010 BKN040 23/22 Q1014=
2026-02-10 04:00:00<>METAR SBGL 100400Z 28003KT 230V350 6000 -RA FEW005 BKN010 BKN040 23/22 Q1014=
2026-02-10 05:00:00<>METAR SBGL 100500Z 10002KT 6000 -RA FEW006 BKN014 BKN040 24/22 Q1013=
2026-02-10 06:00:00<>METAR SBGL 100600Z 07002KT 6000 -RA FEW006 BKN014 BKN040 24/23 Q1012=
2026-02-10 07:00:00<>METAR SBGL 100700Z 16002KT 6000 -RA FEW006 BKN014 BKN040 24/23 Q1012=
2026-02-10 08:00:00<>METAR SBGL 100800Z 31003KT 6000 -RA FEW006 BKN014 BKN040 24/23 Q1013=
2026-02-10 09:00:00<>METAR SBGL 100900Z VRB02KT 6000 -RA FEW006 BKN014 BKN040 24/23 Q1014=
2026-02-10 10:00:00<>METAR SBGL 101000Z 08004KT 7000 FEW007 BKN014 BKN050 24/23 Q1014=
2026-02-10 11:00:00<>METAR SBGL 101100Z 05004KT 9000 FEW006 BKN030 OVC060 25/23 Q1014=
2026-02-10 12:00:00<>METAR SBGL 101200Z 03004KT 9000 SCT006 BKN030 OVC060 25/23 Q1015=
2026-02-10 13:00:00<>METAR SBGL 101300Z 01004KT 340V050 9999 SCT006 BKN030 OVC060 26/23 Q1015=
2026-02-10 14:00:00<>METAR SBGL 101400Z VRB04KT 9999 SCT010 BKN060 27/23 Q1014=
2026-02-10 15:00:00<>METAR SBGL 101500Z 04004KT 9999 SCT020 BKN060 27/22 Q1014=
2026-02-10 16:00:00<>METAR SBGL 101600Z 01003KT 9999 SCT020 BKN060 28/21 Q1014=
2026-02-10 17:00:00<>METAR SBGL 101700Z VRB02KT 9999 SCT025 BKN060 29/21 Q1013=
2026-02-10 18:00:00<>METAR SBGL 101800Z 36007KT 9000 -RA SCT025 BKN060 28/22 Q1013=
2026-02-10 19:00:00<>METAR SBGL 101900Z 03002KT 9999 FEW030 BKN060 29/21 Q1012=
2026-02-10 20:00:00<>METAR SBGL 102000Z 06006KT 9999 FEW030 BKN060 28/23 Q1012=
2026-02-10 21:00:00<>METAR SBGL 102100Z 08009KT 9999 FEW030 BKN060 27/23 Q1012=
2026-02-10 22:00:00<>METAR SBGL 102200Z 10005KT 9999 FEW030 BKN060 27/22 Q1012=
2026-02-10 23:00:00<>METAR COR SBGL 102300Z 08005KT 9999 FEW030 BKN060 27/22 Q1012=
2026-02-11 00:00:00<>METAR SBGL 110000Z VRB02KT 9999 FEW030 SCT100 26/23 Q1013=
2026-02-11 01:00:00<>METAR SBGL 110100Z 09002KT 9999 FEW030 SCT100 26/23 Q1013=
2026-02-11 02:00:00<>METAR SBGL 110200Z 17002KT 8000 FEW030 SCT100 26/23 Q1013=
2026-02-11 03:00:00<>METAR SBGL 110300Z 27002KT 8000 FEW030 SCT100 26/24 Q1013=
2026-02-11 04:00:00<>METAR SBGL 110400Z 08002KT 9999 FEW030 SCT100 25/24 Q1013=
2026-02-11 05:00:00<>METAR COR SBGL 110500Z 36001KT 9999 FEW030 SCT100 25/23 Q1011=
2026-02-11 06:00:00<>METAR SBGL 110600Z 24002KT CAVOK 25/24 Q1011=
2026-02-11 07:00:00<>METAR SBGL 110700Z 03002KT CAVOK 25/24 Q1011=
2026-02-11 08:00:00<>METAR SBGL 110800Z 06003KT CAVOK 25/24 Q1011=
2026-02-11 09:00:00<>METAR SBGL 110900Z 30002KT 8000 NSC 25/24 Q1012=
2026-02-11 10:00:00<>METAR SBGL 111000Z 25002KT 8000 NSC 27/25 Q1013=
2026-02-11 11:00:00<>METAR SBGL 111100Z 13004KT 9999 FEW020 BKN100 28/24 Q1013=
2026-02-11 12:00:00<>METAR SBGL 111200Z 33006KT 9999 FEW020 30/23 Q1014=
2026-02-11 13:00:00<>METAR SBGL 111300Z 04003KT 360V070 9999 FEW020 30/22 Q1014=
2026-02-11 14:00:00<>METAR SBGL 111400Z 33006KT 280V030 9999 FEW030 32/22 Q1013=
2026-02-11 15:00:00<>METAR SBGL 111500Z 05006KT 9999 FEW040 33/22 Q1013=
2026-02-11 16:00:00<>METAR SBGL 111600Z VRB02KT 9999 FEW040 34/21 Q1012=
2026-02-11 17:00:00<>METAR SBGL 111700Z 12007KT 9999 FEW040 33/23 Q1012=
2026-02-11 18:00:00<>METAR SBGL 111800Z 12007KT 9999 FEW040 33/23 Q1012=
2026-02-11 19:00:00<>METAR SBGL 111900Z 14005KT 9999 FEW035 FEW035TCU 32/23 Q1012=
2026-02-11 20:00:00<>METAR SBGL 112000Z 14006KT 9999 VCSH FEW035 FEW035TCU 31/24 Q1012=
2026-02-11 21:00:00<>METAR SBGL 112100Z 12005KT 020V150 9999 TS VCSH FEW035 FEW035CB BKN100 31/24 Q1012=
2026-02-11 22:00:00<>METAR SBGL 112200Z 07010KT 9999 TS VCSH BKN035 FEW035CB SCT050 BKN100 28/22 Q1013=
2026-02-11 23:00:00<>METAR SBGL 112300Z 28004KT 240V340 9000 TS VCSH BKN035 FEW035CB SCT050 BKN100 27/22 Q1015=
2026-02-12 00:00:00<>METAR SBGL 120000Z 15003KT 9999 TS VCSH SCT035 FEW035CB SCT060 BKN100 26/23 Q1015=
2026-02-12 01:00:00<>METAR SBGL 120100Z VRB02KT 9999 -RA TS FEW035 FEW035CB SCT060 BKN100 27/22 Q1015=
2026-02-12 02:00:00<>METAR SBGL 120200Z 30003KT 240V350 7000 -RA FEW030 SCT060 BKN100 26/23 Q1015 RETS=
2026-02-12 03:00:00<>METAR SBGL 120300Z VRB02KT 9999 FEW030 SCT060 BKN100 25/23 Q1014=
2026-02-12 04:00:00<>METAR SBGL 120400Z VRB02KT 9999 FEW030 SCT060 BKN100 25/23 Q1014=
2026-02-12 05:00:00<>METAR SBGL 120500Z 09002KT 9999 FEW030 SCT060 BKN100 25/23 Q1013=
2026-02-12 06:00:00<>METAR SBGL 120600Z 19002KT 9999 FEW030 SCT060 BKN100 25/23 Q1013=
2026-02-12 07:00:00<>METAR SBGL 120700Z 05004KT 9999 FEW030 SCT060 BKN100 25/23 Q1013=
2026-02-12 08:00:00<>METAR SBGL 120800Z 07004KT 7000 FEW030 BKN100 25/23 Q1013=
2026-02-12 09:00:00<>METAR SBGL 120900Z 09004KT 9999 FEW030 BKN100 25/24 Q1014=
2026-02-12 10:00:00<>METAR SBGL 121000Z 07004KT 9999 FEW030 BKN100 26/24 Q1015=
2026-02-12 11:00:00<>METAR SBGL 121100Z 07004KT 9999 FEW030 BKN100 27/24 Q1015=
2026-02-12 12:00:00<>METAR SBGL 121200Z VRB02KT 9999 FEW030 BKN100 29/24 Q1016=
2026-02-12 13:00:00<>METAR SBGL 121300Z VRB02KT 9999 FEW030 BKN100 31/23 Q1015=
2026-02-12 14:00:00<>METAR SBGL 121400Z 08005KT 9999 FEW030 SCT100 32/24 Q1015=
2026-02-12 15:00:00<>METAR SBGL 121500Z VRB02KT 9999 FEW030 SCT100 32/23 Q1014=
2026-02-12 16:00:00<>METAR SBGL 121600Z 06004KT 010V100 9999 FEW030 SCT100 34/22 Q1014=
2026-02-12 17:00:00<>METAR SBGL 121700Z 04003KT 9999 FEW030 SCT100 35/20 Q1013=
2026-02-12 18:00:00<>METAR SBGL 121800Z 11010KT 9999 FEW030 SCT100 33/21 Q1012=
2026-02-12 19:00:00<>METAR SBGL 121900Z 17010KT 9999 FEW030 FEW035TCU SCT100 33/23 Q1012=
2026-02-12 20:00:00<>METAR SBGL 122000Z 14010KT 110V180 9999 FEW030 FEW035TCU SCT100 33/24 Q1012=
2026-02-12 21:00:00<>METAR SBGL 122100Z 16007KT 9999 FEW030 SCT100 33/23 Q1012=
2026-02-12 22:00:00<>METAR SBGL 122200Z 13008KT 9999 FEW040 31/23 Q1013=
2026-02-12 23:00:00<>METAR SBGL 122300Z 11007KT CAVOK 30/23 Q1014=
2026-02-13 00:00:00<>METAR SBGL 130000Z 09008KT CAVOK 28/22 Q1014=
2026-02-13 01:00:00<>METAR SBGL 130100Z 09006KT CAVOK 28/21 Q1015=
2026-02-13 02:00:00<>METAR SBGL 130200Z 10006KT CAVOK 26/21 Q1015=
2026-02-13 03:00:00<>METAR SBGL 130300Z 13002KT CAVOK 27/21 Q1015=
2026-02-13 04:00:00<>METAR SBGL 130400Z 09003KT 070V140 CAVOK 25/22 Q1015=
2026-02-13 05:00:00<>METAR SBGL 130500Z VRB02KT CAVOK 25/22 Q1015=
2026-02-13 06:00:00<>METAR SBGL 130600Z 11003KT CAVOK 25/21 Q1015=
2026-02-13 07:00:00<>METAR SBGL 130700Z 08003KT 050V120 CAVOK 24/21 Q1015=
2026-02-13 08:00:00<>METAR SBGL 130800Z 12004KT CAVOK 24/21 Q1015=
2026-02-13 09:00:00<>METAR SBGL 130900Z VRB01KT CAVOK 23/21 Q1016=
2026-02-13 10:00:00<>METAR SBGL 131000Z 10003KT 070V160 CAVOK 26/23 Q1016=
2026-02-13 11:00:00<>METAR SBGL 131100Z 08003KT CAVOK 28/21 Q1017=
2026-02-13 12:00:00<>METAR SBGL 131200Z 06005KT CAVOK 28/23 Q1017=
2026-02-13 13:00:00<>METAR SBGL 131300Z 07006KT CAVOK 31/23 Q1017=
2026-02-13 14:00:00<>METAR SBGL 131400Z 06005KT CAVOK 32/21 Q1016=
2026-02-13 15:00:00<>METAR SBGL 131500Z 07007KT 9999 FEW025 33/22 Q1015=
2026-02-13 16:00:00<>METAR SBGL 131600Z 07007KT 9999 FEW030 34/22 Q1014=
2026-02-13 17:00:00<>METAR SBGL 131700Z 06003KT 9999 FEW030 34/18 Q1013=
2026-02-13 18:00:00<>METAR SBGL 131800Z 17006KT 9999 FEW030 34/20 Q1012=
2026-02-13 19:00:00<>METAR SBGL 131900Z 18007KT 9999 FEW040 35/20 Q1012=
2026-02-13 20:00:00<>METAR SBGL 132000Z 17008KT 9999 FEW040 34/21 Q1011=
2026-02-13 21:00:00<>METAR SBGL 132100Z 17006KT 9999 FEW040 32/23 Q1011=
2026-02-13 22:00:00<>METAR SBGL 132200Z 11007KT 9999 FEW040 30/23 Q1012=
2026-02-13 23:00:00<>METAR SBGL 132300Z 10010KT CAVOK 30/22 Q1012=
2026-02-14 00:00:00<>METAR SBGL 140000Z 10008KT CAVOK 29/22 Q1013=
2026-02-14 01:00:00<>METAR SBGL 140100Z 08004KT 030V120 CAVOK 29/22 Q1014=
2026-02-14 02:00:00<>METAR SBGL 140200Z 05004KT 350V120 CAVOK 28/21 Q1014=
2026-02-14 03:00:00<>METAR SBGL 140300Z 05003KT CAVOK 28/22 Q1014=
2026-02-14 04:00:00<>METAR SBGL 140400Z 06005KT CAVOK 27/22 Q1014=
2026-02-14 05:00:00<>METAR SBGL 140500Z 08004KT CAVOK 26/21 Q1013=
2026-02-14 06:00:00<>METAR SBGL 140600Z 05004KT CAVOK 25/21 Q1013=
2026-02-14 07:00:00<>METAR SBGL 140700Z 02002KT CAVOK 26/21 Q1013=
2026-02-14 08:00:00<>METAR SBGL 140800Z 05004KT CAVOK 25/21 Q1014=
2026-02-14 09:00:00<>METAR SBGL 140900Z 05004KT 020V100 9999 FEW020 25/21 Q1014=
2026-02-14 10:00:00<>METAR SBGL 141000Z VRB02KT 9999 FEW020 26/21 Q1015=
2026-02-14 11:00:00<>METAR SBGL 141100Z 01004KT 9999 FEW020 SCT055 27/23 Q1016=
2026-02-14 12:00:00<>METAR SBGL 141200Z 04003KT 9999 FEW020 SCT055 30/21 Q1016=
2026-02-14 13:00:00<>METAR SBGL 141300Z 04004KT 9999 FEW020 SCT060 31/22 Q1016=
2026-02-14 14:00:00<>METAR SBGL 141400Z 07005KT 030V110 9999 FEW020 SCT060 30/23 Q1016=
2026-02-14 15:00:00<>METAR SBGL 141500Z 08007KT 9999 FEW020 SCT060 32/23 Q1015=
2026-02-14 16:00:00<>METAR SBGL 141600Z 19007KT 9999 FEW030 BKN060 32/23 Q1015=
2026-02-14 16:06:00<>SPECI SBGL 141606Z 19007KT 9999 -TSRA FEW030 FEW035CB BKN060 32/23 Q1015=
2026-02-14 17:00:00<>METAR COR SBGL 141700Z 22006KT 9999 FEW030 32/23 Q1013 RETS=
2026-02-14 18:00:00<>METAR SBGL 141800Z 22011KT 9999 FEW030 32/21 Q1013=
2026-02-14 19:00:00<>METAR SBGL 141900Z 24014KT 9999 FEW030 31/21 Q1013=
2026-02-14 20:00:00<>METAR SBGL 142000Z 19007KT 9999 FEW030 31/20 Q1013=
2026-02-14 21:00:00<>METAR SBGL 142100Z 15008KT 9999 FEW030 30/21 Q1013=
2026-02-14 22:00:00<>METAR SBGL 142200Z 13004KT CAVOK 29/20 Q1014=
2026-02-14 23:00:00<>METAR SBGL 142300Z 12006KT CAVOK 28/22 Q1015=
2026-02-15 00:00:00<>METAR SBGL 150000Z 14003KT 9999 SCT030 28/24 Q1015=
2026-02-15 01:00:00<>METAR SBGL 150100Z 13003KT 9999 SCT030 27/24 Q1015=
2026-02-15 02:00:00<>METAR SBGL 150200Z 25003KT 9999 FEW030 27/23 Q1015=
2026-02-15 03:00:00<>METAR SBGL 150300Z 26007KT 9999 FEW030 27/23 Q1015=
2026-02-15 04:00:00<>METAR SBGL 150400Z 26007KT 9999 FEW030 SCT080 27/23 Q1014=
2026-02-15 05:00:00<>METAR SBGL 150500Z 25004KT 9999 FEW030 SCT080 26/23 Q1014=
2026-02-15 06:00:00<>METAR SBGL 150600Z 28005KT 9999 FEW030 SCT070 26/22 Q1014=
2026-02-15 07:00:00<>METAR SBGL 150700Z 25004KT 9999 FEW030 SCT070 26/22 Q1014=
2026-02-15 08:00:00<>METAR SBGL 150800Z 28003KT 9999 FEW030 SCT070 26/22 Q1014=
2026-02-15 09:00:00<>METAR SBGL 150900Z 28002KT 8000 SCT020 SCT070 26/22 Q1015=
2026-02-15 10:00:00<>METAR SBGL 151000Z 30002KT 7000 SCT020 SCT080 27/23 Q1015=
2026-02-15 11:00:00<>METAR SBGL 151100Z 31003KT 260V020 7000 SCT020 SCT080 28/23 Q1016=
2026-02-15 12:00:00<>METAR SBGL 151200Z 36003KT 320V050 7000 BKN020 28/22 Q1016=
2026-02-15 13:00:00<>METAR SBGL 151300Z 06006KT 020V100 7000 BKN020 30/23 Q1016=
2026-02-15 14:00:00<>METAR SBGL 151400Z 35005KT 310V010 7000 BKN027 31/23 Q1016=
2026-02-15 15:00:00<>METAR SBGL 151500Z 08006KT 030V130 9999 SCT030 32/22 Q1015=
2026-02-15 16:00:00<>METAR SBGL 151600Z 15007KT 110V190 9999 SCT030 32/24 Q1014=
2026-02-15 17:00:00<>METAR SBGL 151700Z 16010KT 9999 SCT030 31/23 Q1014=
2026-02-15 18:00:00<>METAR SBGL 151800Z 17011KT 140V200 9999 SCT030 31/23 Q1013=
2026-02-15 19:00:00<>METAR SBGL 151900Z 17013KT 150V210 9999 SCT030 30/22 Q1013=
2026-02-15 20:00:00<>METAR SBGL 152000Z 17012KT 140V200 9999 SCT030 29/21 Q1013=
2026-02-15 21:00:00<>METAR SBGL 152100Z 17009KT 140V200 9999 SCT030 29/21 Q1014=
2026-02-15 22:00:00<>METAR SBGL 152200Z 17007KT 140V200 9999 FEW030 SCT060 28/22 Q1014=
2026-02-15 23:00:00<>METAR SBGL 152300Z 16004KT 9999 SCT040 28/22 Q1015=
2026-02-16 00:00:00<>METAR SBGL 160000Z 17004KT 9999 BKN040 28/23 Q1015=
2026-02-16 01:00:00<>METAR SBGL 160100Z 18003KT 9999 BKN040 28/23 Q1015=
2026-02-16 02:00:00<>METAR SBGL 160200Z 11005KT 9999 FEW022 27/23 Q1015=
2026-02-16 03:00:00<>METAR SBGL 160300Z 08002KT 9999 FEW022 BKN025 27/23 Q1015=
2026-02-16 04:00:00<>METAR SBGL 160400Z 09003KT 9999 FEW022 BKN025 27/22 Q1015=
2026-02-16 05:00:00<>METAR SBGL 160500Z 12002KT 9999 FEW022 BKN025 26/23 Q1015=
2026-02-16 06:00:00<>METAR SBGL 160600Z 06002KT 9999 FEW022 BKN025 26/23 Q1014=
2026-02-16 07:00:00<>METAR SBGL 160700Z 12002KT 9999 FEW022 BKN025 26/23 Q1014=
2026-02-16 08:00:00<>METAR SBGL 160800Z 11003KT 9999 FEW013 26/23 Q1014=
2026-02-16 09:00:00<>METAR SBGL 160900Z 10004KT 9999 FEW010 25/23 Q1014=
2026-02-16 10:00:00<>METAR SBGL 161000Z 08006KT 9999 FEW008 27/23 Q1015=
2026-02-16 11:00:00<>METAR SBGL 161100Z VRB03KT 9999 FEW010 28/24 Q1016=
2026-02-16 12:00:00<>METAR SBGL 161200Z 13003KT 070V210 9999 FEW015 29/24 Q1016=
2026-02-16 13:00:00<>METAR SBGL 161300Z 10007KT 9999 FEW030 30/22 Q1016=
2026-02-16 14:00:00<>METAR SBGL 161400Z 10005KT 9999 FEW030 31/19 Q1015=
2026-02-16 15:00:00<>METAR SBGL 161500Z 09007KT 9999 FEW030 32/22 Q1015=
2026-02-16 16:00:00<>METAR SBGL 161600Z 12007KT 9999 FEW030 32/21 Q1014=
2026-02-16 17:00:00<>METAR SBGL 161700Z 12008KT 9999 FEW040 32/21 Q1013=
2026-02-16 18:00:00<>METAR SBGL 161800Z 17012KT 9999 FEW040 33/22 Q1012=
2026-02-16 19:00:00<>METAR SBGL 161900Z 12010KT 9999 FEW040 32/21 Q1012=
2026-02-16 20:00:00<>METAR SBGL 162000Z 14010KT 9999 FEW040 31/22 Q1012=
2026-02-16 21:00:00<>METAR SBGL 162100Z 13010KT 9999 FEW040 31/22 Q1012=
2026-02-16 22:00:00<>METAR SBGL 162200Z 13007KT 9999 FEW040 30/23 Q1013=
2026-02-16 23:00:00<>METAR SBGL 162300Z 10009KT CAVOK 29/22 Q1013=
2026-02-17 00:00:00<>METAR SBGL 170000Z 10008KT CAVOK 28/23 Q1014=
2026-02-17 01:00:00<>METAR SBGL 170100Z 11003KT 070V170 9999 FEW030 27/23 Q1014=
2026-02-17 02:00:00<>METAR SBGL 170200Z 09003KT 070V140 CAVOK 27/23 Q1015=
2026-02-17 03:00:00<>METAR SBGL 170300Z 10003KT CAVOK 27/23 Q1014=
2026-02-17 04:00:00<>METAR SBGL 170400Z 11003KT CAVOK 26/23 Q1014=
2026-02-17 05:00:00<>METAR SBGL 170500Z 11003KT CAVOK 26/23 Q1013=
2026-02-17 06:00:00<>METAR SBGL 170600Z 10003KT CAVOK 26/23 Q1013=
2026-02-17 07:00:00<>METAR SBGL 170700Z 10005KT 9999 FEW020 26/23 Q1012=
2026-02-17 08:00:00<>METAR SBGL 170800Z 10004KT 9999 FEW020 26/23 Q1012=
2026-02-17 09:00:00<>METAR SBGL 170900Z 11003KT 9999 FEW020 25/23 Q1013=
2026-02-17 10:00:00<>METAR SBGL 171000Z VRB02KT 9000 FEW020 27/23 Q1013=
2026-02-17 11:00:00<>METAR SBGL 171100Z 07005KT CAVOK 29/23 Q1013=
2026-02-17 12:00:00<>METAR SBGL 171200Z 34002KT CAVOK 30/22 Q1014=
2026-02-17 13:00:00<>METAR SBGL 171300Z 03004KT CAVOK 32/22 Q1014=
2026-02-17 14:00:00<>METAR SBGL 171400Z 10005KT CAVOK 33/21 Q1013=
2026-02-17 15:00:00<>METAR SBGL 171500Z 08003KT 9999 FEW040 34/21 Q1012=
2026-02-17 16:00:00<>METAR SBGL 171600Z 07006KT 9999 FEW040 35/19 Q1012=
2026-02-17 17:00:00<>METAR SBGL 171700Z 07009KT 9999 FEW040 35/20 Q1010=
2026-02-17 18:00:00<>METAR SBGL 171800Z 07008KT 9999 FEW040 35/20 Q1010=
2026-02-17 19:00:00<>METAR SBGL 171900Z 15008KT 9999 FEW040 34/20 Q1009=
2026-02-17 20:00:00<>METAR SBGL 172000Z 18009KT 9999 FEW040 33/21 Q1009=
2026-02-17 21:00:00<>METAR SBGL 172100Z 11009KT 9999 FEW040 32/21 Q1009=
2026-02-17 22:00:00<>METAR SBGL 172200Z 17007KT 9999 FEW040 30/22 Q1009=
2026-02-17 23:00:00<>METAR SBGL 172300Z 11004KT 9999 FEW040 29/23 Q1010=
2026-02-18 00:00:00<>METAR SBGL 180000Z VRB01KT 9999 FEW040 29/23 Q1010=
2026-02-18 01:00:00<>METAR SBGL 180100Z 29005KT 9999 FEW040 29/22 Q1011=
2026-02-18 02:00:00<>METAR SBGL 180200Z 30005KT 9999 FEW040 29/22 Q1011=
2026-02-18 03:00:00<>METAR SBGL 180300Z VRB02KT 9999 FEW040 29/22 Q1010=
2026-02-18 04:00:00<>METAR SBGL 180400Z 31004KT 280V340 9999 FEW040 28/23 Q1010=
2026-02-18 05:00:00<>METAR SBGL 180500Z 28004KT 9999 FEW040 29/21 Q1010=
2026-02-18 06:00:00<>METAR SBGL 180600Z 29004KT 9999 FEW040 28/22 Q1009=
2026-02-18 07:00:00<>METAR SBGL 180700Z 29003KT 9999 FEW040 28/22 Q1009=
2026-02-18 08:00:00<>METAR SBGL 180800Z 28005KT 9999 FEW040 28/22 Q1009=
2026-02-18 09:00:00<>METAR SBGL 180900Z 35003KT 300V050 CAVOK 27/23 Q1009=
2026-02-18 10:00:00<>METAR SBGL 181000Z VRB01KT CAVOK 29/22 Q1010=
2026-02-18 11:00:00<>METAR SBGL 181100Z 27003KT CAVOK 31/21 Q1010=
2026-02-18 12:00:00<>METAR SBGL 181200Z 29004KT CAVOK 32/21 Q1011=
2026-02-18 13:00:00<>METAR SBGL 181300Z 34003KT CAVOK 33/21 Q1010=
2026-02-18 14:00:00<>METAR SBGL 181400Z 05009KT 9999 FEW026 34/21 Q1010=
2026-02-18 15:00:00<>METAR SBGL 181500Z 12014KT 9999 FEW026 35/21 Q1009=
2026-02-18 16:00:00<>METAR SBGL 181600Z 11013KT 9999 FEW030 34/22 Q1008=
2026-02-18 17:00:00<>METAR SBGL 181700Z 10017KT 9999 FEW030 FEW033TCU 33/24 Q1008=
2026-02-18 18:00:00<>METAR COR SBGL 181800Z 13014KT 9000 VCSH FEW030 FEW033TCU 33/24 Q1007=
2026-02-18 19:00:00<>METAR SBGL 181900Z 35014KT 9000 VCSH SCT033 FEW040TCU 31/21 Q1009=
2026-02-18 20:00:00<>METAR SBGL 182000Z 35014KT 8000 VCSH VCTS SCT023 FEW033CB BKN040 28/20 Q1009=
2026-02-18 21:00:00<>METAR SBGL 182100Z 08007KT 8000 TS VCSH BKN023 FEW033CB BKN040 26/21 Q1009=
2026-02-18 22:00:00<>METAR SBGL 182200Z 29013KT 7000 -TSRA BKN023 FEW033CB BKN040 25/22 Q1010=
2026-02-18 23:00:00<>METAR SBGL 182300Z 33003KT 9999 BKN023 BKN040 26/22 Q1009 RETS=
2026-02-19 00:00:00<>METAR SBGL 190000Z 32005KT 9999 SCT025 BKN070 24/22 Q1009=
2026-02-19 01:00:00<>METAR SBGL 190100Z 30003KT 9999 FEW025 BKN080 25/21 Q1010=
2026-02-19 02:00:00<>METAR SBGL 190200Z 32005KT 9999 FEW030 25/22 Q1010=
2026-02-19 03:00:00<>METAR SBGL 190300Z 32004KT CAVOK 25/21 Q1010=
2026-02-19 04:00:00<>METAR SBGL 190400Z 30002KT CAVOK 24/21 Q1009=
2026-02-19 05:00:00<>METAR SBGL 190500Z 34003KT CAVOK 24/22 Q1009=
2026-02-19 06:00:00<>METAR COR SBGL 190600Z 27002KT CAVOK 23/21 Q1008=
2026-02-19 07:00:00<>METAR SBGL 190700Z 31001KT CAVOK 24/21 Q1008=
2026-02-19 08:00:00<>METAR SBGL 190800Z 01004KT CAVOK 24/21 Q1008=
2026-02-19 09:00:00<>METAR SBGL 190900Z 34002KT CAVOK 24/21 Q1008=
2026-02-19 10:00:00<>METAR SBGL 191000Z 32002KT CAVOK 25/22 Q1009=
2026-02-19 11:00:00<>METAR SBGL 191100Z 02003KT 330V060 CAVOK 26/22 Q1010=
2026-02-19 12:00:00<>METAR SBGL 191200Z 04004KT 360V070 CAVOK 28/21 Q1010=
2026-02-19 13:00:00<>METAR SBGL 191300Z VRB05KT CAVOK 30/23 Q1010=
2026-02-19 14:00:00<>METAR SBGL 191400Z 06005KT 360V090 9999 FEW035 31/22 Q1010=
2026-02-19 15:00:00<>METAR SBGL 191500Z 07006KT 9999 FEW035 32/21 Q1009=
2026-02-19 16:00:00<>METAR SBGL 191600Z 06006KT CAVOK 32/22 Q1008=
2026-02-19 17:00:00<>METAR SBGL 191700Z 15008KT 100V180 9999 FEW035 32/22 Q1008=
2026-02-19 18:00:00<>METAR SBGL 191800Z 19009KT 9999 FEW035 29/23 Q1008=
2026-02-19 19:00:00<>METAR SBGL 191900Z 15009KT 9999 FEW035 31/24 Q1008=
2026-02-19 20:00:00<>METAR SBGL 192000Z 17009KT 9999 VCSH FEW040 BKN100 31/23 Q1008=
2026-02-19 20:05:00<>SPECI SBGL 192005Z 17008KT 9999 TS VCSH FEW025CB BKN040 BKN100 30/22 Q1008=
2026-02-19 21:00:00<>METAR SBGL 192100Z 30005KT 8000 VCSH FEW025TCU BKN040 BKN100 29/22 Q1008 RETS=
2026-02-19 21:33:00<>SPECI SBGL 192133Z 13004KT 8000 TS VCSH FEW025CB SCT035 BKN100 29/23 Q1008=
2026-02-19 22:00:00<>METAR SBGL 192200Z 03003KT 340V100 8000 TS VCSH SCT022 FEW025CB BKN040 BKN100 28/23 Q1009=
2026-02-19 22:25:00<>SPECI SBGL 192225Z 09022G32KT 3500 -TSRA BKN011 BKN017 FEW025CB BKN100 26/23 Q1010=
2026-02-19 23:00:00<>METAR SBGL 192300Z 11022KT 3000 TSRA BKN009 SCT020CB BKN023 24/22 Q1011=
2026-02-20 00:00:00<>METAR SBGL 200000Z 13007KT 4000 -TSRA SCT009 FEW020CB BKN023 BKN083 22/21 Q1011 RERA=
2026-02-20 01:00:00<>METAR SBGL 200100Z 16003KT 8000 VCSH VCTS FEW017 FEW020CB BKN023 BKN100 24/21 Q1011 RETS=
2026-02-20 02:00:00<>METAR SBGL 200200Z 27004KT 8000 VCTS FEW017 FEW020CB SCT023 BKN100 23/21 Q1012=
2026-02-20 03:00:00<>METAR SBGL 200300Z 25003KT 8000 FEW011 SCT013 BKN100 24/22 Q1011=
2026-02-20 04:00:00<>METAR SBGL 200400Z 26004KT 8000 FEW013 BKN080 24/22 Q1011=
2026-02-20 05:00:00<>METAR SBGL 200500Z 28005KT 8000 FEW013 BKN080 24/22 Q1011=
2026-02-20 06:00:00<>METAR SBGL 200600Z 29005KT 8000 FEW013 BKN080 24/22 Q1010=
2026-02-20 07:00:00<>METAR SBGL 200700Z 31005KT 6000 FEW013 BKN080 23/22 Q1010=
2026-02-20 08:00:00<>METAR SBGL 200800Z 06003KT 7000 SCT040 BKN080 24/22 Q1010=
2026-02-20 09:00:00<>METAR SBGL 200900Z 31007KT 7000 FEW008 BKN100 25/23 Q1010=
2026-02-20 10:00:00<>METAR SBGL 201000Z 35003KT 8000 FEW020 SCT050 BKN100 25/23 Q1010=
2026-02-20 11:00:00<>METAR SBGL 201100Z 04004KT 340V090 8000 FEW009 SCT050 BKN100 27/23 Q1010=
2026-02-20 12:00:00<>METAR SBGL 201200Z 06004KT 340V080 8000 FEW013 SCT050 28/23 Q1010=
2026-02-20 13:00:00<>METAR SBGL 201300Z 09004KT 030V170 9999 FEW015 29/23 Q1010=
2026-02-20 14:00:00<>METAR SBGL 201400Z 15006KT 9999 FEW019 SCT050 29/22 Q1010=
2026-02-20 15:00:00<>METAR SBGL 201500Z 14008KT 9999 FEW026 30/23 Q1009=
2026-02-20 16:00:00<>METAR SBGL 201600Z 12009KT 9999 FEW027 31/24 Q1008=
2026-02-20 17:00:00<>METAR SBGL 201700Z 14012KT 9999 FEW027 FEW035TCU 31/23 Q1007=
2026-02-20 18:00:00<>METAR SBGL 201800Z 13014KT 9999 FEW027 FEW035TCU 30/23 Q1007=
2026-02-20 19:00:00<>METAR SBGL 201900Z 13014KT 9999 FEW030TCU SCT046 29/23 Q1007=
2026-02-20 20:00:00<>METAR SBGL 202000Z 13015KT 9999 FEW033TCU BKN046 28/23 Q1008=
2026-02-20 21:00:00<>METAR SBGL 202100Z 13011KT 9999 FEW013 FEW030TCU BKN050 28/23 Q1008=
2026-02-20 22:00:00<>METAR SBGL 202200Z 31005KT 9999 -RA BKN017 BKN026 26/24 Q1009=
2026-02-20 23:00:00<>METAR SBGL 202300Z 12003KT 7000 -RA BKN022 BKN070 26/23 Q1009=
2026-02-21 00:00:00<>METAR SBGL 210000Z VRB02KT 8000 -RA SCT015 OVC026 27/24 Q1010=
2026-02-21 01:00:00<>METAR SBGL 210100Z 36003KT 320V060 5000 -TSRA BR BKN015 FEW025CB OVC050 26/23 Q1011=
2026-02-21 01:21:00<>SPECI SBGL 210121Z VRB03KT 6000 -RA BKN013 FEW025TCU OVC050 26/23 Q1011 RETS=
2026-02-21 02:00:00<>METAR SBGL 210200Z 35003KT 7000 -RA FEW025TCU SCT030 OVC070 26/23 Q1011=
2026-02-21 03:00:00<>METAR SBGL 210300Z 29004KT 8000 SCT030 OVC076 26/23 Q1010=
2026-02-21 04:00:00<>METAR SBGL 210400Z 36003KT 330V030 8000 FEW013 SCT017 OVC076 26/24 Q1010=
2026-02-21 05:00:00<>METAR SBGL 210500Z 30003KT 7000 FEW013 SCT017 OVC076 26/24 Q1010=
2026-02-21 06:00:00<>METAR SBGL 210600Z 32003KT 9999 FEW013 SCT017 OVC076 26/23 Q1009=
2026-02-21 07:00:00<>METAR SBGL 210700Z 32005KT 8000 FEW013 SCT017 OVC076 25/23 Q1009=
2026-02-21 08:00:00<>METAR SBGL 210800Z 34005KT 9999 SCT017 SCT060 OVC076 25/23 Q1009=
2026-02-21 09:00:00<>METAR SBGL 210900Z 33003KT 9999 FEW035 OVC076 25/23 Q1009=
2026-02-21 10:00:00<>METAR SBGL 211000Z 30004KT 9999 FEW035 BKN076 26/22 Q1010=
2026-02-21 11:00:00<>METAR SBGL 211100Z VRB02KT 9999 FEW025 SCT060 BKN080 27/23 Q1011=
2026-02-21 12:00:00<>METAR SBGL 211200Z 07003KT 330V130 9999 SCT030 BKN080 28/23 Q1011=
2026-02-21 13:00:00<>METAR SBGL 211300Z 11005KT 060V150 9999 SCT030 BKN080 29/23 Q1011=
2026-02-21 14:00:00<>METAR SBGL 211400Z 13004KT 070V180 9999 SCT030 BKN080 30/23 Q1011=
2026-02-21 15:00:00<>METAR SBGL 211500Z 12007KT 9999 SCT025 BKN100 31/23 Q1011=
2026-02-21 16:00:00<>METAR SBGL 211600Z 12010KT 9999 SCT025 BKN100 30/24 Q1010=
2026-02-21 17:00:00<>METAR SBGL 211700Z 12010KT 9999 SCT030 FEW035TCU BKN100 30/23 Q1009=
2026-02-21 18:00:00<>METAR SBGL 211800Z 15010KT 9999 SCT030 FEW035TCU BKN100 29/23 Q1009=
2026-02-21 19:00:00<>METAR SBGL 211900Z 13011KT 9999 SCT030 FEW035TCU BKN100 29/22 Q1009=
2026-02-21 20:00:00<>METAR SBGL 212000Z 12012KT 8000 TS VCSH FEW020 FEW030CB BKN060 28/23 Q1010=
2026-02-21 20:07:00<>SPECI SBGL 212007Z 10016KT 8000 3500E -TSRA FEW015 FEW030CB OVC040 27/22 Q1010=
2026-02-21 20:26:00<>SPECI SBGL 212026Z 09015KT 9999 TSRA SCT010 FEW025CB OVC030 25/23 Q1010=
2026-02-21 20:37:00<>SPECI SBGL 212037Z 07013KT 1000 R28/1000N R10/1000N R15/1000N R33/1000N +TSRA SCT010 FEW025CB OVC030 24/22 Q1011 RERA=
2026-02-21 21:00:00<>METAR SBGL 212100Z 05010KT 1500 R10/1500N R28/1500N R15/1500N R33/1500N TSRA BKN008 FEW020CB OVC030 23/22 Q1011 RERA=
2026-02-21 21:32:00<>SPECI SBGL 212132Z 17005KT 4500 -TSRA BKN012 FEW020CB OVC030 23/22 Q1011 RERA=
2026-02-21 22:00:00<>METAR SBGL 212200Z 16005KT 110V200 7000 -TSRA BKN010 FEW030CB 24/22 Q1011=
2026-02-21 23:00:00<>METAR SBGL 212300Z VRB02KT 9000 -TSRA BKN010 FEW030CB BKN035 23/21 Q1012=
2026-02-22 00:00:00<>METAR SBGL 220000Z 07007KT 9000 -RA VCTS SCT010 FEW030CB BKN035 BKN070 24/21 Q1013 RETS=
2026-02-22 01:00:00<>METAR SBGL 220100Z 09004KT 050V140 9999 FEW010 SCT035 BKN070 24/22 Q1013=
2026-02-22 02:00:00<>METAR SBGL 220200Z 30003KT 190V350 9999 FEW010 SCT035 BKN070 24/22 Q1012=
2026-02-22 03:00:00<>METAR SBGL 220300Z 28004KT 250V340 9999 FEW010 SCT035 BKN070 24/22 Q1012=
2026-02-22 04:00:00<>METAR SBGL 220400Z 30005KT 9999 FEW010 SCT035 BKN070 24/22 Q1012=
2026-02-22 05:00:00<>METAR SBGL 220500Z 28003KT 9999 FEW010 SCT035 BKN070 23/22 Q1012=
2026-02-22 06:00:00<>METAR SBGL 220600Z VRB02KT 9999 FEW010 SCT035 BKN070 24/22 Q1011=
2026-02-22 07:00:00<>METAR SBGL 220700Z 33005KT 9999 FEW010 SCT035 BKN070 24/22 Q1011=
2026-02-22 08:00:00<>METAR SBGL 220800Z 33003KT 9999 FEW010 SCT035 BKN070 24/22 Q1011=
2026-02-22 09:00:00<>METAR SBGL 220900Z 34003KT 7000 FEW010 SCT035 BKN070 24/22 Q1011=
2026-02-22 10:00:00<>METAR SBGL 221000Z VRB02KT 7000 FEW010 SCT035 BKN070 24/22 Q1012=
2026-02-22 11:00:00<>METAR SBGL 221100Z 31005KT 7000 FEW008 SCT011 BKN070 26/22 Q1012=
2026-02-22 12:00:00<>METAR SBGL 221200Z 01003KT 7000 FEW008 SCT017 BKN100 27/22 Q1013=
2026-02-22 13:00:00<>METAR SBGL 221300Z 03005KT 7000 SCT021 BKN100 29/22 Q1013=
2026-02-22 14:00:00<>METAR SBGL 221400Z 07006KT 8000 SCT023 BKN100 30/23 Q1012=
2026-02-22 15:00:00<>METAR SBGL 221500Z 07006KT 8000 SCT023 BKN100 29/22 Q1012=
2026-02-22 16:00:00<>METAR SBGL 221600Z 05010KT 9999 SCT026 SCT050 30/22 Q1011=
2026-02-22 17:00:00<>METAR SBGL 221700Z 14009KT 9999 SCT030 FEW035TCU SCT050 29/23 Q1010=
2026-02-22 18:00:00<>METAR SBGL 221800Z 15008KT 9999 VCSH SCT030 FEW035TCU BKN050 29/22 Q1010=
2026-02-22 19:00:00<>METAR SBGL 221900Z 15010KT 9999 VCSH SCT030 FEW035TCU BKN050 29/22 Q1009=
2026-02-22 20:00:00<>METAR SBGL 222000Z 15009KT 9999 SCT030 FEW035TCU BKN050 28/22 Q1009=
2026-02-22 21:00:00<>METAR SBGL 222100Z 14007KT 9999 SCT030 FEW035TCU BKN050 28/23 Q1010=
2026-02-22 22:00:00<>METAR SBGL 222200Z 06006KT 9999 FEW015 SCT030 FEW035TCU BKN070 27/23 Q1010=
2026-02-22 23:00:00<>METAR SBGL 222300Z 35004KT 320V020 9999 FEW020 BKN040 26/22 Q1011=
2026-02-23 00:00:00<>METAR SBGL 230000Z VRB02KT 9999 FEW020 BKN040 26/22 Q1011=
2026-02-23 01:00:00<>METAR SBGL 230100Z VRB01KT 9999 FEW020 BKN040 OVC070 25/23 Q1011=
2026-02-23 02:00:00<>METAR SBGL 230200Z VRB01KT 9999 FEW015 BKN040 OVC070 25/24 Q1012=
2026-02-23 03:00:00<>METAR SBGL 230300Z 36004KT 9999 FEW015 BKN070 26/24 Q1011=
2026-02-23 04:00:00<>METAR SBGL 230400Z VRB02KT 9999 FEW015 SCT100 25/23 Q1011=
2026-02-23 05:00:00<>METAR SBGL 230500Z 31001KT 9999 FEW015 SCT100 25/23 Q1010=
2026-02-23 06:00:00<>METAR SBGL 230600Z 33003KT 9999 FEW015 SCT040 25/24 Q1010=
2026-02-23 07:00:00<>METAR SBGL 230700Z 03004KT 9999 FEW015 SCT040 25/24 Q1010=
2026-02-23 08:00:00<>METAR SBGL 230800Z 33004KT 290V360 9999 BKN008 OVC040 25/23 Q1010=
2026-02-23 09:00:00<>METAR SBGL 230900Z 33005KT 9999 BKN010 BKN030 25/23 Q1010=
2026-02-23 10:00:00<>METAR SBGL 231000Z 30004KT 9000 SCT010 BKN040 26/23 Q1011=
2026-02-23 11:00:00<>METAR SBGL 231100Z 35003KT 9999 FEW018 26/23 Q1010=
2026-02-23 12:00:00<>METAR SBGL 231200Z 03006KT 360V070 9999 FEW016 SCT020 BKN100 28/23 Q1010=
2026-02-23 13:00:00<>METAR SBGL 231300Z 06005KT 9999 FEW023 29/23 Q1010=
2026-02-23 14:00:00<>METAR SBGL 231400Z 04005KT 360V080 9999 FEW023 31/23 Q1010=
2026-02-23 15:00:00<>METAR SBGL 231500Z 04005KT 360V080 9999 FEW023 SCT025 30/23 Q1010=
2026-02-23 15:34:00<>SPECI SBGL 231534Z 16009KT 7000 TS VCSH FEW024CB SCT031 30/24 Q1009=
2026-02-23 16:00:00<>METAR SBGL 231600Z 16010KT 8000 TS VCSH FEW025CB SCT031 BKN050 28/22 Q1009=
2026-02-23 16:26:00<>SPECI SBGL 231626Z 24009KT 4000 -TSRA BR FEW018CB SCT028 BKN050 25/23 Q1009=
2026-02-23 17:00:00<>METAR SBGL 231700Z 26013KT 3000 -TSRA BR FEW021CB SCT026 BKN045 24/23 Q1009=
2026-02-23 17:31:00<>SPECI SBGL 231731Z 23005KT 8000 -RA FEW021TCU BKN040 25/23 Q1008 RETS=
2026-02-23 18:00:00<>METAR SBGL 231800Z 23004KT 8000 -RA FEW021TCU BKN040 25/24 Q1008=
2026-02-23 19:00:00<>METAR SBGL 231900Z VRB02KT 8000 -RA FEW017TCU BKN050 26/24 Q1008=
2026-02-23 20:00:00<>METAR SBGL 232000Z VRB03KT 8000 -RA SCT016TCU BKN080 25/24 Q1008=
2026-02-23 21:00:00<>METAR SBGL 232100Z 34004KT 9999 -RA SCT018TCU SCT032 BKN100 25/24 Q1008=
2026-02-23 22:00:00<>METAR SBGL 232200Z VRB02KT 5000 BR FEW010 BKN019 BKN100 25/23 Q1009=
2026-02-23 23:00:00<>METAR SBGL 232300Z 09004KT 6000 -RA SCT009 BKN019 BKN100 25/24 Q1010=
2026-02-24 00:00:00<>METAR SBGL 240000Z 12003KT 9999 FEW009 SCT020 26/23 Q1010=
2026-02-24 01:00:00<>METAR SBGL 240100Z 12003KT 9999 SCT010 BKN025 25/23 Q1010=
2026-02-24 02:00:00<>METAR SBGL 240200Z 10005KT 9999 SCT010 BKN025 25/23 Q1009=
2026-02-24 03:00:00<>METAR SBGL 240300Z 11003KT 9999 -RA SCT010 BKN030 25/23 Q1009=
2026-02-24 04:00:00<>METAR SBGL 240400Z 13003KT 9999 SCT011 BKN030 25/23 Q1008=
2026-02-24 05:00:00<>METAR SBGL 240500Z 21001KT 9999 SCT009 BKN030 24/23 Q1008=
2026-02-24 06:00:00<>METAR SBGL 240600Z 24001KT 9999 SCT009 BKN030 24/23 Q1008=
2026-02-24 07:00:00<>METAR SBGL 240700Z 25002KT 9999 SCT009 BKN035 24/23 Q1007=
2026-02-24 08:00:00<>METAR SBGL 240800Z 22002KT 9999 FEW009 SCT020 24/22 Q1007=
2026-02-24 09:00:00<>METAR SBGL 240900Z 02004KT 5000 BR FEW004 BKN008 BKN100 25/24 Q1008=
2026-02-24 09:26:00<>SPECI SBGL 240926Z 35003KT 4000 BR FEW004 SCT008 BKN100 25/23 Q1008=
2026-02-24 10:00:00<>METAR SBGL 241000Z 30001KT 4000 BR FEW004 SCT009 BKN100 25/23 Q1008=
2026-02-24 11:00:00<>METAR SBGL 241100Z VRB02KT 7000 FEW004 SCT009 BKN100 26/23 Q1008=
2026-02-24 12:00:00<>METAR SBGL 241200Z VRB02KT 6000 FEW007 SCT010 BKN100 27/24 Q1008=
2026-02-24 13:00:00<>METAR SBGL 241300Z 05004KT 350V080 7000 FEW010 BKN013 BKN100 27/24 Q1009=
2026-02-24 14:00:00<>METAR SBGL 241400Z 04006KT 010V080 6000 FEW010 BKN014 BKN100 28/24 Q1008=
2026-02-24 15:00:00<>METAR SBGL 241500Z 07005KT 040V100 7000 FEW010 BKN014 FEW030TCU BKN100 29/23 Q1007=
2026-02-24 16:00:00<>METAR SBGL 241600Z 06006KT 010V100 9000 BKN014 FEW030TCU BKN070 30/22 Q1007=
2026-02-24 17:00:00<>METAR SBGL 241700Z 15005KT 120V190 9000 BKN014 FEW030TCU BKN070 30/23 Q1006=
2026-02-24 17:14:00<>SPECI SBGL 241714Z 18007KT 140V220 9999 BKN019 FEW030TCU BKN070 30/23 Q1006=
2026-02-24 18:00:00<>METAR SBGL 241800Z 16009KT 9999 BKN019 FEW030TCU BKN070 30/23 Q1005=
2026-02-24 19:00:00<>METAR SBGL 241900Z 16010KT 130V190 9999 BKN019 FEW030TCU BKN070 29/23 Q1005=
2026-02-24 20:00:00<>METAR SBGL 242000Z 09013KT 9999 BKN019 FEW030TCU BKN070 29/22 Q1005=
2026-02-24 21:00:00<>METAR SBGL 242100Z 08009KT 9999 VCSH BKN019 FEW030TCU BKN070 27/22 Q1005=
2026-02-24 22:00:00<>METAR SBGL 242200Z 10008KT 9999 VCTS BKN019 FEW030CB BKN070 27/23 Q1005=
2026-02-24 23:00:00<>METAR SBGL 242300Z 09009KT 9999 VCTS BKN020 FEW030CB BKN100 27/23 Q1006=
2026-02-25 00:00:00<>METAR SBGL 250000Z 10011KT 9999 SCT023 BKN100 26/22 Q1006=
2026-02-25 01:00:00<>METAR SBGL 250100Z 07009KT 9999 FEW013 SCT015 BKN100 26/23 Q1006=
2026-02-25 02:00:00<>METAR SBGL 250200Z 08007KT 8000 FEW013 SCT015 BKN100 26/23 Q1006=
2026-02-25 03:00:00<>METAR SBGL 250300Z 08004KT 8000 SCT011 BKN100 26/23 Q1005=
2026-02-25 04:00:00<>METAR SBGL 250400Z 13005KT 8000 SCT011 SCT013 25/23 Q1005=
2026-02-25 05:00:00<>METAR SBGL 250500Z 15005KT 8000 SCT011 SCT013 25/23 Q1005=
2026-02-25 06:00:00<>METAR SBGL 250600Z 18004KT 7000 SCT011 SCT013 25/23 Q1005=
2026-02-25 07:00:00<>METAR SBGL 250700Z 22004KT 7000 SCT011 SCT080 24/22 Q1004=
2026-02-25 08:00:00<>METAR SBGL 250800Z 09003KT 8000 FEW015 SCT080 25/23 Q1004=
2026-02-25 09:00:00<>METAR SBGL 250900Z 01003KT 8000 FEW008 BKN080 25/23 Q1005=
2026-02-25 10:00:00<>METAR SBGL 251000Z 06004KT 8000 BKN007 BKN080 26/23 Q1005=
2026-02-25 11:00:00<>METAR SBGL 251100Z 06007KT 8000 SCT006 BKN008 BKN080 27/24 Q1006=
2026-02-25 12:00:00<>METAR SBGL 251200Z 06004KT 8000 SCT009 BKN015 BKN080 28/24 Q1005=
2026-02-25 13:00:00<>METAR SBGL 251300Z 06006KT 9999 SCT017 SCT090 29/25 Q1006=
2026-02-25 14:00:00<>METAR SBGL 251400Z 05007KT 9999 SCT020 SCT090 30/24 Q1005=
2026-02-25 15:00:00<>METAR SBGL 251500Z 06005KT 9999 SCT020 32/23 Q1004=
2026-02-25 16:00:00<>METAR SBGL 251600Z 06006KT 9999 SCT020 BKN070 32/23 Q1003=
2026-02-25 17:00:00<>METAR SBGL 251700Z 16010KT 9999 SCT023 SCT070 32/23 Q1003=
2026-02-25 18:00:00<>METAR SBGL 251800Z 16012KT 9999 SCT030 32/23 Q1003=
2026-02-25 19:00:00<>METAR SBGL 251900Z 15012KT 9999 SCT030 FEW033TCU 31/23 Q1002=
2026-02-25 20:00:00<>METAR SBGL 252000Z 15011KT 9999 VCSH SCT030 FEW033TCU 30/23 Q1001=
2026-02-25 21:00:00<>METAR SBGL 252100Z 16010KT 9999 VCSH BKN030 FEW033TCU BKN070 28/23 Q1002=
2026-02-25 22:00:00<>METAR SBGL 252200Z 17007KT 9999 SCT026 FEW033TCU SCT070 28/23 Q1003=
2026-02-25 23:00:00<>METAR SBGL 252300Z 15005KT 100V190 9999 FEW035TCU SCT036 BKN070 28/23 Q1003=
2026-02-26 00:00:00<>METAR SBGL 260000Z VRB02KT 9999 BKN040 BKN070 27/23 Q1003=
2026-02-26 01:00:00<>METAR SBGL 260100Z VRB02KT 9999 BKN040 BKN070 28/23 Q1003=
2026-02-26 02:00:00<>METAR SBGL 260200Z VRB02KT 9999 SCT040 BKN070 27/24 Q1002=
2026-02-26 03:00:00<>METAR SBGL 260300Z 28005KT 9999 SCT040 BKN070 28/23 Q1002=
2026-02-26 04:00:00<>METAR SBGL 260400Z 27005KT 9999 SCT040 BKN070 28/23 Q1002=
2026-02-26 05:00:00<>METAR SBGL 260500Z 29005KT 9999 SCT040 BKN070 28/23 Q1002=
2026-02-26 06:00:00<>METAR COR SBGL 260600Z 28006KT 9999 SCT040 BKN070 27/23 Q1001=
2026-02-26 07:00:00<>METAR SBGL 260700Z 31008KT 9999 SCT040 BKN070 26/23 Q1001=
2026-02-26 08:00:00<>METAR SBGL 260800Z 35005KT 310V010 9999 SCT040 BKN070 26/23 Q1001=
2026-02-26 09:00:00<>METAR SBGL 260900Z 31003KT 280V340 9000 FEW020 SCT040 BKN070 26/23 Q1001=
2026-02-26 10:00:00<>METAR SBGL 261000Z 32004KT 9999 FEW020 SCT040 BKN090 27/23 Q1002=
2026-02-26 11:00:00<>METAR SBGL 261100Z 26006KT 9999 SCT020 SCT040 BKN090 27/22 Q1003=
2026-02-26 12:00:00<>METAR SBGL 261200Z 25004KT 9999 SCT023 SCT040 BKN090 29/22 Q1003=
2026-02-26 13:00:00<>METAR SBGL 261300Z 28007KT 9999 BKN025 BKN090 28/22 Q1004=
2026-02-26 14:00:00<>METAR SBGL 261400Z 28007KT 9999 BKN030 BKN090 29/22 Q1003=
2026-02-26 15:00:00<>METAR SBGL 261500Z 29007KT 9999 SCT023 BKN040 BKN090 29/22 Q1003=
2026-02-26 16:00:00<>METAR SBGL 261600Z 28007KT 9999 SCT023 BKN040 BKN090 30/22 Q1003=
2026-02-26 17:00:00<>METAR SBGL 261700Z 29009KT 9999 SCT023 BKN050 BKN090 30/22 Q1002=
2026-02-26 18:00:00<>METAR SBGL 261800Z 23006KT 9999 BKN030 BKN090 29/22 Q1003=
2026-02-26 19:00:00<>METAR COR SBGL 261900Z 24010KT 9999 SCT016 BKN026 BKN080 27/22 Q1002=
2026-02-26 20:00:00<>METAR SBGL 262000Z 22008KT 9999 SCT016 BKN026 BKN080 28/22 Q1002=
2026-02-26 20:39:00<>SPECI SBGL 262039Z 24009KT 5000 -RA SCT016 BKN026 BKN080 26/23 Q1003=
2026-02-26 21:00:00<>METAR SBGL 262100Z 23010KT 5000 -RA BR BKN016 BKN026 BKN080 26/23 Q1003=
2026-02-26 22:00:00<>METAR SBGL 262200Z 17003KT 8000 BKN016 BKN026 BKN080 26/23 Q1004=
2026-02-26 23:00:00<>METAR COR SBGL 262300Z VRB02KT 4000 -RA BR BKN026 SCT040 BKN080 25/23 Q1004=
2026-02-27 00:00:00<>METAR SBGL 270000Z VRB02KT 4000 -RA BR FEW020 SCT030 OVC080 25/24 Q1005=
2026-02-27 01:00:00<>METAR SBGL 270100Z 05005KT 3000 -RA BR BKN008 OVC070 25/23 Q1006=
2026-02-27 02:00:00<>METAR SBGL 270200Z VRB01KT 4000 -RA BR BKN008 BKN017 OVC024 24/23 Q1006=
2026-02-27 03:00:00<>METAR SBGL 270300Z 30004KT 4000 -RA BR FEW006 BKN021 OVC030 24/23 Q1006=
2026-02-27 04:00:00<>METAR SBGL 270400Z 27005KT 3000 -RA BR BKN006 BKN012 OVC021 24/23 Q1005=
2026-02-27 05:00:00<>METAR SBGL 270500Z 27004KT 3000 -RA BR FEW005 BKN012 OVC040 24/23 Q1004=
2026-02-27 06:00:00<>METAR SBGL 270600Z 26006KT 2500 RA BR FEW004 BKN009 OVC026 24/23 Q1004=
2026-02-27 07:00:00<>METAR SBGL 270700Z 30008KT 2500 RA BR FEW004 BKN009 OVC015 24/23 Q1004=
2026-02-27 08:00:00<>METAR SBGL 270800Z 30008KT 3000 -RA BR SCT005 BKN008 OVC015 24/23 Q1004 RERA=
2026-02-27 09:00:00<>METAR SBGL 270900Z 30008KT 4000 -RA BR BKN007 OVC015 25/23 Q1005=
2026-02-27 09:09:00<>SPECI SBGL 270909Z 24007KT 1500 R33/2000U R15/2000U R28/2000U R10/2000U RA BR BKN007 OVC015 24/23 Q1005=
2026-02-27 10:00:00<>METAR SBGL 271000Z 27008KT 4000 -RA BR BKN007 OVC015 24/23 Q1006 RERA=
2026-02-27 11:00:00<>METAR SBGL 271100Z 15002KT 8000 VCSH BKN010 BKN020 OVC040 26/22 Q1007=
2026-02-27 12:00:00<>METAR SBGL 271200Z 13001KT 9000 SCT012 BKN023 BKN040 27/21 Q1008=
2026-02-27 13:00:00<>METAR SBGL 271300Z 16004KT 9999 VCSH SCT012 BKN023 BKN060 26/21 Q1008=
2026-02-27 14:00:00<>METAR SBGL 271400Z 20004KT 9999 VCSH FEW012 BKN026 BKN060 26/21 Q1008=
2026-02-27 14:27:00<>SPECI SBGL 271427Z 18006KT 5000 -RA SCT010 BKN023 BKN060 27/22 Q1009=
2026-02-27 15:00:00<>METAR SBGL 271500Z 17004KT 6000 -RA SCT010 BKN023 BKN060 26/22 Q1008=
2026-02-27 16:00:00<>METAR SBGL 271600Z 23006KT 9999 VCSH FEW013 BKN026 BKN060 28/21 Q1008=
2026-02-27 17:00:00<>METAR SBGL 271700Z 22011KT 9999 VCSH BKN030 BKN060 28/20 Q1008=
2026-02-27 18:00:00<>METAR SBGL 271800Z 25013KT 9999 BKN030 BKN070 28/21 Q1008=
2026-02-27 19:00:00<>METAR SBGL 271900Z 21010KT 9999 VCSH BKN030 BKN070 28/21 Q1007=
2026-02-27 20:00:00<>METAR SBGL 272000Z 23013KT 9999 VCSH BKN030 BKN070 27/20 Q1008=
2026-02-27 21:00:00<>METAR SBGL 272100Z 26010KT 8000 VCSH BKN026 BKN070 26/21 Q1008=
2026-02-27 22:00:00<>METAR SBGL 272200Z 21011KT 9000 VCSH FEW020 BKN026 BKN060 24/19 Q1009=
2026-02-27 23:00:00<>METAR SBGL 272300Z 22004KT 160V260 9999 SCT020 BKN030 OVC060 25/19 Q1010=
2026-02-28 00:00:00<>METAR SBGL 280000Z 24012KT 6000 -RA BKN020 OVC040 23/20 Q1011=
2026-02-28 01:00:00<>METAR SBGL 280100Z 24004KT 180V280 9000 BKN020 OVC040 24/20 Q1011=
2026-02-28 02:00:00<>METAR SBGL 280200Z 28004KT 9000 BKN020 OVC040 23/20 Q1011=
2026-02-28 03:00:00<>METAR SBGL 280300Z 30003KT 8000 BKN020 OVC040 22/20 Q1011=
2026-02-28 04:00:00<>METAR SBGL 280400Z 30006KT 9999 BKN020 OVC040 22/20 Q1010=
2026-02-28 05:00:00<>METAR SBGL 280500Z 27004KT 9999 FEW020 BKN040 23/20 Q1010=
2026-02-28 06:00:00<>METAR SBGL 280600Z 29004KT 9999 FEW020 BKN040 22/20 Q1009=
2026-02-28 07:00:00<>METAR SBGL 280700Z 30005KT 9999 FEW020 BKN040 22/20 Q1009=
2026-02-28 08:00:00<>METAR SBGL 280800Z 32006KT 9000 FEW020 BKN040 22/20 Q1009=
2026-02-28 09:00:00<>METAR SBGL 280900Z 31008KT 9999 FEW015 SCT040 BKN070 22/20 Q1009=
2026-02-28 10:00:00<>METAR SBGL 281000Z 28006KT 9999 FEW010 SCT020 BKN060 22/21 Q1010=
2026-02-28 11:00:00<>METAR SBGL 281100Z 31007KT 280V340 9999 FEW008 SCT020 BKN040 22/20 Q1010=
2026-02-28 12:00:00<>METAR SBGL 281200Z 32008KT 9999 FEW009 SCT020 BKN040 24/21 Q1011=
2026-02-28 13:00:00<>METAR SBGL 281300Z 31007KT 9999 FEW013 SCT021 BKN040 25/20 Q1011=
2026-02-28 14:00:00<>METAR SBGL 281400Z 24012KT 9999 VCSH FEW015 BKN021 BKN040 25/18 Q1011=
2026-02-28 15:00:00<>METAR SBGL 281500Z 29008KT 9999 FEW021 BKN040 25/19 Q1011=
2026-02-28 16:00:00<>METAR SBGL 281600Z 30006KT 250V340 9999 FEW021 SCT033 BKN050 26/16 Q1010=
2026-02-28 17:00:00<>METAR SBGL 281700Z 24012KT 9999 FEW021 BKN066 27/15 Q1010=
2026-02-28 18:00:00<>METAR SBGL 281800Z 23010KT 200V260 9999 FEW020 BKN066 27/15 Q1010=
2026-02-28 19:00:00<>METAR SBGL 281900Z 23011KT 200V260 9999 FEW020 SCT040 BKN066 27/17 Q1010=
2026-02-28 20:00:00<>METAR SBGL 282000Z 23009KT 9999 FEW020 SCT066 27/17 Q1010=
2026-02-28 21:00:00<>METAR SBGL 282100Z 24010KT 9999 FEW020 BKN066 26/17 Q1010=
2026-02-28 22:00:00<>METAR SBGL 282200Z 22006KT 180V250 9999 FEW020 BKN066 25/18 Q1011=
2026-02-28 23:00:00<>METAR SBGL 282300Z 19001KT 9999 FEW030 BKN066 25/18 Q1011=
2026-03-01 00:00:00<>METAR SBGL 010000Z 17003KT 9999 FEW030 BKN070 25/18 Q1012=
2026-03-01 01:00:00<>METAR SBGL 010100Z 28006KT 9999 FEW030 BKN070 23/19 Q1012=
2026-03-01 02:00:00<>METAR SBGL 010200Z 27003KT 9999 FEW035 BKN070 24/20 Q1012=
2026-03-01 03:00:00<>METAR SBGL 010300Z 31008KT 9999 FEW035 BKN070 23/20 Q1012=
2026-03-01 04:00:00<>METAR SBGL 010400Z 32008KT 9999 FEW035 BKN070 22/19 Q1011=
2026-03-01 05:00:00<>METAR SBGL 010500Z 30005KT 9999 FEW020 BKN070 22/20 Q1011=
2026-03-01 06:00:00<>METAR SBGL 010600Z 26010KT 9999 FEW020 BKN070 22/19 Q1010=
2026-03-01 07:00:00<>METAR SBGL 010700Z 32006KT 9999 FEW007 SCT020 BKN070 22/20 Q1010=
2026-03-01 08:00:00<>METAR SBGL 010800Z 32006KT 9999 FEW007 SCT020 BKN070 22/20 Q1011=
2026-03-01 09:00:00<>METAR SBGL 010900Z 30005KT 9999 FEW007 BKN025 BKN070 21/19 Q1011=
2026-03-01 10:00:00<>METAR SBGL 011000Z 30007KT 9999 FEW007 SCT025 BKN070 22/19 Q1011=
2026-03-01 11:00:00<>METAR SBGL 011100Z 33008KT 9999 FEW007 BKN070 24/20 Q1012=
2026-03-01 12:00:00<>METAR SBGL 011200Z 32007KT 9999 FEW003 BKN070 25/19 Q1012=
2026-03-01 13:00:00<>METAR SBGL 011300Z 31009KT 9999 FEW025 SCT031 BKN060 26/19 Q1012=
2026-03-01 14:00:00<>METAR SBGL 011400Z 27006KT 9999 FEW030 BKN035 BKN070 26/19 Q1012=
2026-03-01 15:00:00<>METAR SBGL 011500Z 31010KT 9999 VCSH FEW030 BKN035 BKN070 27/19 Q1011=
2026-03-01 16:00:00<>METAR SBGL 011600Z 25008KT 9999 VCSH FEW026 BKN040 BKN070 25/19 Q1011=
2026-03-01 16:45:00<>SPECI SBGL 011645Z 23013KT 4000 -RA BR FEW025TCU BKN040 BKN070 23/19 Q1011=
2026-03-01 17:00:00<>METAR SBGL 011700Z 24014KT 6000 -RA VCSH FEW025TCU BKN035 BKN070 23/20 Q1011=
2026-03-01 18:00:00<>METAR SBGL 011800Z 25012KT 6000 -RA FEW025TCU BKN035 BKN070 22/19 Q1011=
2026-03-01 19:00:00<>METAR SBGL 011900Z 25012KT 6000 -RA FEW025TCU BKN035 BKN070 22/19 Q1011=
2026-03-01 20:00:00<>METAR COR SBGL 012000Z 08004KT 6000 -RA FEW025TCU BKN035 BKN070 22/19 Q1011=
2026-03-01 21:00:00<>METAR SBGL 012100Z 08004KT 8000 FEW040 BKN080 24/20 Q1011=
2026-03-01 22:00:00<>METAR SBGL 012200Z 36004KT 8000 FEW040 BKN080 23/19 Q1012=
2026-03-01 23:00:00<>METAR SBGL 012300Z VRB02KT 9999 FEW020 SCT040 23/19 Q1012=
2026-03-02 00:00:00<>METAR SBGL 020000Z 00000KT 9999 FEW020 SCT033 BKN080 23/19 Q1013=
2026-03-02 01:00:00<>METAR SBGL 020100Z 30004KT 270V330 9999 VCSH FEW015 BKN060 23/19 Q1013=
2026-03-02 02:00:00<>METAR SBGL 020200Z VRB02KT 9999 VCSH FEW015 BKN066 22/19 Q1012=
2026-03-02 03:00:00<>METAR SBGL 020300Z VRB02KT 9999 FEW015 SCT066 22/19 Q1012=
2026-03-02 04:00:00<>METAR SBGL 020400Z 31005KT 9999 FEW011 22/19 Q1012=
2026-03-02 05:00:00<>METAR SBGL 020500Z VRB03KT 9999 FEW015 21/19 Q1011=
2026-03-02 06:00:00<>METAR SBGL 020600Z 28004KT 230V300 9999 FEW015 21/18 Q1011=
2026-03-02 07:00:00<>METAR SBGL 020700Z 33004KT 9999 FEW015 20/18 Q1011=
2026-03-02 08:00:00<>METAR SBGL 020800Z 31004KT 9999 FEW025 20/18 Q1011=
2026-03-02 09:00:00<>METAR SBGL 020900Z 31005KT 9999 FEW025 21/18 Q1011=
2026-03-02 10:00:00<>METAR SBGL 021000Z 33006KT 280V080 9999 FEW015 22/19 Q1012=
2026-03-02 11:00:00<>METAR SBGL 021100Z VRB04KT 9999 FEW015 BKN030 23/19 Q1012=
2026-03-02 12:00:00<>METAR SBGL 021200Z VRB04KT 9999 FEW015 BKN030 25/19 Q1013=
2026-03-02 13:00:00<>METAR SBGL 021300Z 06006KT 030V090 9999 FEW015 BKN030 26/19 Q1013=
2026-03-02 14:00:00<>METAR SBGL 021400Z 06005KT 020V080 9999 SCT015 BKN030 BKN050 26/18 Q1012=
2026-03-02 15:00:00<>METAR SBGL 021500Z 07005KT 040V110 9999 SCT015 BKN030 BKN065 27/19 Q1012=
2026-03-02 16:00:00<>METAR SBGL 021600Z VRB04KT 9999 SCT015 BKN030 BKN043 26/19 Q1012=
2026-03-02 17:00:00<>METAR SBGL 021700Z 17007KT 130V200 9999 VCSH SCT015 BKN030 BKN047 26/18 Q1011=
2026-03-02 18:00:00<>METAR SBGL 021800Z 16006KT 120V210 9999 VCSH SCT015 BKN040 BKN080 27/17 Q1011=
2026-03-02 19:00:00<>METAR SBGL 021900Z 16008KT 9999 FEW015 BKN040 BKN087 27/18 Q1011=
2026-03-02 20:00:00<>METAR SBGL 022000Z 15008KT 110V180 9999 FEW015 BKN045 26/20 Q1011=
2026-03-02 21:00:00<>METAR SBGL 022100Z 15007KT 120V190 9999 SCT034 25/19 Q1011=
2026-03-02 22:00:00<>METAR SBGL 022200Z 16005KT 130V190 9999 SCT034 SCT080 25/19 Q1012=
2026-03-02 23:00:00<>METAR SBGL 022300Z 16008KT 9999 SCT033 BKN080 25/19 Q1012=
2026-03-03 00:00:00<>METAR SBGL 030000Z 13006KT 9999 SCT033 BKN080 24/19 Q1013=
2026-03-03 01:00:00<>METAR SBGL 030100Z 12005KT 9999 SCT023 BKN080 24/19 Q1013=
2026-03-03 02:00:00<>METAR SBGL 030200Z 14005KT 9999 SCT046 SCT080 24/19 Q1013=
2026-03-03 03:00:00<>METAR SBGL 030300Z 11003KT 9999 FEW023 SCT050 23/19 Q1013=
2026-03-03 04:00:00<>METAR SBGL 030400Z 11003KT 9999 FEW023 BKN050 24/19 Q1012=
2026-03-03 05:00:00<>METAR SBGL 030500Z 18004KT 9999 FEW023 BKN050 23/19 Q1012=
2026-03-03 06:00:00<>METAR SBGL 030600Z 21003KT 9999 FEW023 BKN050 23/19 Q1012=
2026-03-03 07:00:00<>METAR SBGL 030700Z 31003KT 8000 FEW023 BKN050 22/18 Q1011=
2026-03-03 08:00:00<>METAR SBGL 030800Z 33004KT 8000 FEW011 BKN050 23/20 Q1011=
2026-03-03 09:00:00<>METAR SBGL 030900Z 35003KT 8000 FEW011 BKN050 23/20 Q1012=
2026-03-03 10:00:00<>METAR SBGL 031000Z 35003KT 8000 FEW015 BKN050 23/20 Q1012=
2026-03-03 11:00:00<>METAR SBGL 031100Z 33002KT 9000 FEW015 BKN050 24/20 Q1013=
2026-03-03 12:00:00<>METAR SBGL 031200Z 05004KT 9999 SCT017 SCT050 26/21 Q1013=
2026-03-03 13:00:00<>METAR SBGL 031300Z 14003KT 9999 SCT020 SCT070 27/18 Q1014=
2026-03-03 14:00:00<>METAR SBGL 031400Z 05007KT 9999 FEW020 SCT070 28/17 Q1013=
2026-03-03 15:00:00<>METAR SBGL 031500Z 05005KT 9999 FEW030 SCT070 28/18 Q1013=
2026-03-03 16:00:00<>METAR SBGL 031600Z 18006KT 9999 FEW030 SCT070 28/19 Q1012=
2026-03-03 17:00:00<>METAR SBGL 031700Z 16007KT 9999 FEW030 SCT080 28/20 Q1012=
2026-03-03 18:00:00<>METAR SBGL 031800Z 16008KT 9999 FEW030 SCT080 28/19 Q1011=
2026-03-03 19:00:00<>METAR SBGL 031900Z 16009KT 9999 FEW035 28/19 Q1011=
2026-03-03 20:00:00<>METAR SBGL 032000Z 17009KT 9999 SCT035 26/19 Q1011=
2026-03-03 21:00:00<>METAR SBGL 032100Z 17008KT 9999 FEW030 BKN050 26/19 Q1011=
2026-03-03 22:00:00<>METAR SBGL 032200Z 17007KT 9999 FEW030 BKN050 26/19 Q1012=
2026-03-03 23:00:00<>METAR SBGL 032300Z 13006KT 090V170 9999 FEW030 BKN050 25/19 Q1012=
2026-03-04 00:00:00<>METAR SBGL 040000Z 13005KT 100V160 9999 FEW030 BKN050 25/19 Q1013=
2026-03-04 01:00:00<>METAR SBGL 040100Z 09007KT 9999 SCT040 BKN080 25/19 Q1013=
2026-03-04 02:00:00<>METAR SBGL 040200Z 11006KT 080V150 9999 BKN040 25/19 Q1013=
2026-03-04 03:00:00<>METAR SBGL 040300Z 11003KT 070V150 9999 SCT040 24/20 Q1013=
2026-03-04 04:00:00<>METAR SBGL 040400Z 15002KT 9999 SCT040 24/20 Q1013=
2026-03-04 05:00:00<>METAR SBGL 040500Z 16002KT 9999 SCT040 23/20 Q1013=
2026-03-04 06:00:00<>METAR SBGL 040600Z VRB02KT 9999 SCT040 23/20 Q1012=
2026-03-04 07:00:00<>METAR SBGL 040700Z 16002KT 9999 SCT040 22/20 Q1012=
2026-03-04 08:00:00<>METAR SBGL 040800Z VRB02KT 9999 SCT040 23/20 Q1012=
2026-03-04 09:00:00<>METAR SBGL 040900Z VRB02KT 9999 FEW013 SCT040 BKN070 24/21 Q1012=
2026-03-04 10:00:00<>METAR SBGL 041000Z 10005KT 070V130 9999 FEW013 SCT040 BKN070 24/21 Q1013=
2026-03-04 11:00:00<>METAR SBGL 041100Z 10003KT 9999 FEW020 BKN070 25/20 Q1013=
2026-03-04 12:00:00<>METAR SBGL 041200Z 12002KT 9999 FEW020 BKN070 25/19 Q1014=
2026-03-04 13:00:00<>METAR SBGL 041300Z 07005KT 9999 FEW020 BKN070 26/20 Q1014=
2026-03-04 14:00:00<>METAR SBGL 041400Z 05005KT 9999 FEW020 SCT070 28/19 Q1013=
2026-03-04 15:00:00<>METAR SBGL 041500Z 04005KT 9999 FEW020 SCT070 28/20 Q1013=
2026-03-04 16:00:00<>METAR SBGL 041600Z 18007KT 9999 FEW020 SCT070 29/20 Q1012=
2026-03-04 17:00:00<>METAR SBGL 041700Z 15007KT 9999 FEW020 SCT070 29/21 Q1012=
2026-03-04 18:00:00<>METAR SBGL 041800Z 17011KT 9999 FEW020 SCT070 29/20 Q1011=
2026-03-04 19:00:00<>METAR SBGL 041900Z 17011KT 9999 FEW020 SCT070 28/21 Q1011=
2026-03-04 20:00:00<>METAR SBGL 042000Z 19010KT 9999 FEW020 SCT070 27/20 Q1012=
2026-03-04 21:00:00<>METAR SBGL 042100Z 17008KT 9999 FEW030 SCT070 26/20 Q1012=
2026-03-04 22:00:00<>METAR SBGL 042200Z 16008KT 9999 FEW030 BKN070 26/19 Q1012=
2026-03-04 23:00:00<>METAR SBGL 042300Z 15006KT 9999 FEW030 BKN070 26/19 Q1013=
2026-03-05 00:00:00<>METAR SBGL 050000Z 15004KT 9999 FEW030 BKN070 25/20 Q1014=
2026-03-05 01:00:00<>METAR SBGL 050100Z 11008KT 9999 FEW030 BKN070 25/19 Q1014=
2026-03-05 02:00:00<>METAR SBGL 050200Z 11006KT 9999 FEW040 SCT070 25/19 Q1014=
2026-03-05 03:00:00<>METAR SBGL 050300Z 11006KT CAVOK 24/20 Q1013=
2026-03-05 04:00:00<>METAR SBGL 050400Z 12003KT CAVOK 24/20 Q1013=
2026-03-05 05:00:00<>METAR SBGL 050500Z 13004KT CAVOK 24/20 Q1013=
2026-03-05 06:00:00<>METAR SBGL 050600Z 12002KT CAVOK 24/20 Q1013=
2026-03-05 07:00:00<>METAR SBGL 050700Z 08003KT CAVOK 24/20 Q1013=
2026-03-05 08:00:00<>METAR SBGL 050800Z 24001KT CAVOK 23/20 Q1013=
2026-03-05 09:00:00<>METAR SBGL 050900Z 00000KT CAVOK 23/21 Q1013=
2026-03-05 10:00:00<>METAR SBGL 051000Z 01002KT 9999 FEW020 25/21 Q1014=
2026-03-05 11:00:00<>METAR SBGL 051100Z VRB01KT 9999 FEW020 27/20 Q1014=
2026-03-05 12:00:00<>METAR SBGL 051200Z 05004KT 010V080 9999 FEW020 28/21 Q1014=
2026-03-05 13:00:00<>METAR SBGL 051300Z 06007KT 040V120 9999 FEW023 28/21 Q1014=
2026-03-05 14:00:00<>METAR SBGL 051400Z 07006KT 030V110 9999 FEW025 29/20 Q1014=
2026-03-05 15:00:00<>METAR SBGL 051500Z 15006KT 100V190 9999 FEW030 29/21 Q1014=
2026-03-05 16:00:00<>METAR SBGL 051600Z 17007KT 130V210 9999 FEW030 30/21 Q1013=
2026-03-05 17:00:00<>METAR SBGL 051700Z 17009KT 9999 FEW030 SCT066 30/21 Q1012=
2026-03-05 18:00:00<>METAR SBGL 051800Z 17010KT 150V210 9999 FEW030 30/22 Q1012=
2026-03-05 19:00:00<>METAR SBGL 051900Z 18011KT 150V210 9999 SCT025 29/21 Q1012=
2026-03-05 20:00:00<>METAR SBGL 052000Z 17009KT 140V210 9999 FEW025 SCT030 28/21 Q1012=
2026-03-05 21:00:00<>METAR SBGL 052100Z 18007KT 150V210 9999 FEW025 BKN050 27/21 Q1012=
2026-03-05 22:00:00<>METAR SBGL 052200Z 17007KT 140V210 9999 FEW025 SCT050 27/21 Q1013=
2026-03-05 23:00:00<>METAR SBGL 052300Z 12010KT 9999 FEW025 SCT050 26/22 Q1013=
2026-03-06 00:00:00<>METAR SBGL 060000Z 12014KT 9999 FEW025 SCT043 27/19 Q1014=
2026-03-06 01:00:00<>METAR SBGL 060100Z 10014KT 9999 FEW025 SCT036 26/20 Q1015=
2026-03-06 02:00:00<>METAR SBGL 060200Z 09010KT 9999 FEW036 SCT100 26/21 Q1014=
2026-03-06 03:00:00<>METAR SBGL 060300Z 10006KT 9999 FEW036 SCT100 25/21 Q1014=
2026-03-06 04:00:00<>METAR SBGL 060400Z 16004KT 9999 FEW036 SCT100 24/21 Q1014=
2026-03-06 05:00:00<>METAR SBGL 060500Z 16004KT 9999 FEW036 BKN100 24/21 Q1013=
2026-03-06 06:00:00<>METAR SBGL 060600Z 19003KT 9999 FEW036 BKN100 24/21 Q1013=
2026-03-06 07:00:00<>METAR SBGL 060700Z 14004KT 9999 FEW036 SCT100 24/21 Q1013=
2026-03-06 08:00:00<>METAR SBGL 060800Z 12003KT 9999 FEW013 SCT100 24/21 Q1013=
2026-03-06 09:00:00<>METAR SBGL 060900Z 01003KT 9999 FEW013 SCT100 24/22 Q1013=
2026-03-06 10:00:00<>METAR SBGL 061000Z 36002KT 9999 FEW013 SCT100 26/22 Q1014=
2026-03-06 11:00:00<>METAR SBGL 061100Z 07004KT 030V120 9999 FEW011 26/22 Q1014=
2026-03-06 12:00:00<>METAR SBGL 061200Z 04004KT 340V080 9999 FEW013 27/22 Q1015=
2026-03-06 13:00:00<>METAR SBGL 061300Z 06006KT 010V100 9999 FEW021 28/22 Q1014=
2026-03-06 14:00:00<>METAR SBGL 061400Z VRB03KT 9999 FEW025 29/22 Q1014=
2026-03-06 15:00:00<>METAR SBGL 061500Z 15008KT 110V190 9999 FEW025 30/23 Q1013=
2026-03-06 16:00:00<>METAR SBGL 061600Z 17010KT 130V190 9999 FEW025 SCT035 30/23 Q1013=
2026-03-06 17:00:00<>METAR SBGL 061700Z 17012KT 9999 FEW025 SCT040 FEW040TCU 30/23 Q1012=
2026-03-06 18:00:00<>METAR SBGL 061800Z 18012KT 130V200 9999 FEW025 SCT040 FEW040TCU 30/22 Q1011=
2026-03-06 19:00:00<>METAR SBGL 061900Z 19011KT 160V220 9999 FEW025 SCT040 FEW040TCU 28/22 Q1011=
2026-03-06 20:00:00<>METAR SBGL 062000Z 17008KT 140V200 9999 VCSH FEW025 SCT040 FEW040TCU 28/22 Q1011=
2026-03-06 21:00:00<>METAR SBGL 062100Z 16006KT 130V210 9999 VCSH FEW020 SCT050 27/22 Q1011=
2026-03-06 22:00:00<>METAR SBGL 062200Z 17006KT 130V200 9999 VCTS FEW020 FEW040CB BKN050 27/22 Q1012=
2026-03-06 23:00:00<>METAR SBGL 062300Z 17006KT 130V200 9999 VCTS FEW020 FEW040CB BKN050 27/22 Q1012=
2026-03-07 00:00:00<>METAR SBGL 070000Z 12008KT 9999 FEW022 27/22 Q1013=
2026-03-07 01:00:00<>METAR SBGL 070100Z 11007KT 9999 FEW010 27/22 Q1012=
2026-03-07 02:00:00<>METAR SBGL 070200Z 13004KT 9999 FEW010 26/22 Q1013=
2026-03-07 03:00:00<>METAR SBGL 070300Z 13004KT 9999 FEW010 26/22 Q1013=
2026-03-07 04:00:00<>METAR SBGL 070400Z 13005KT 9999 FEW010 26/22 Q1012=
2026-03-07 05:00:00<>METAR COR SBGL 070500Z 13005KT 9999 FEW010 26/22 Q1012=
2026-03-07 06:00:00<>METAR SBGL 070600Z 13002KT 9999 FEW013 BKN050 OVC100 25/23 Q1012=
2026-03-07 07:00:00<>METAR SBGL 070700Z 12003KT 9999 FEW013 SCT100 25/23 Q1011=
2026-03-07 08:00:00<>METAR SBGL 070800Z 09003KT 9999 FEW020 SCT060 25/22 Q1011=
2026-03-07 09:00:00<>METAR SBGL 070900Z 09003KT 9999 FEW020 25/22 Q1012=
2026-03-07 10:00:00<>METAR SBGL 071000Z 09005KT 9999 FEW021 SCT100 26/23 Q1012=
2026-03-07 11:00:00<>METAR SBGL 071100Z 07003KT 9999 FEW014 SCT100 27/23 Q1012=
2026-03-07 12:00:00<>METAR SBGL 071200Z VRB03KT 9999 FEW015 27/22 Q1012=
2026-03-07 13:00:00<>METAR SBGL 071300Z 05005KT 360V070 9999 FEW018 30/22 Q1012=
2026-03-07 14:00:00<>METAR SBGL 071400Z 04007KT CAVOK 30/24 Q1012=
2026-03-07 15:00:00<>METAR SBGL 071500Z 06005KT 010V110 CAVOK 31/23 Q1010=
2026-03-07 16:00:00<>METAR SBGL 071600Z 05005KT 020V100 CAVOK 33/23 Q1009=
2026-03-07 17:00:00<>METAR SBGL 071700Z 16006KT 130V210 9999 FEW015 33/23 Q1008=
2026-03-07 18:00:00<>METAR SBGL 071800Z 16010KT 9999 FEW017 33/24 Q1008=
2026-03-07 19:00:00<>METAR SBGL 071900Z 17010KT 140V200 9999 SCT020 SCT100 30/23 Q1008=
2026-03-07 19:45:00<>SPECI SBGL 071945Z 20006KT 160V290 8000 TS FEW040CB SCT050 BKN100 30/22 Q1009=
2026-03-07 20:00:00<>METAR SBGL 072000Z 31018G32KT 250V350 5000 +TSRA HZ BKN030 FEW040CB 27/19 Q1009=
2026-03-07 20:35:00<>SPECI SBGL 072035Z 34010KT 260V040 6000 -TSRA BKN022 FEW050CB BKN100 26/19 Q1009 RERA=
2026-03-07 21:00:00<>METAR SBGL 072100Z 27007KT 6000 -TSRA SCT035 FEW050CB BKN097 24/22 Q1009=
2026-03-07 22:00:00<>METAR SBGL 072200Z 07011KT 7000 -TSRA SCT018 BKN042 FEW050CB 25/23 Q1011=
2026-03-07 23:00:00<>METAR SBGL 072300Z 07007KT 9999 FEW018 SCT050 24/22 Q1011 RETS=
2026-03-08 00:00:00<>METAR SBGL 080000Z 11002KT 9999 FEW009 BKN070 24/22 Q1011=
2026-03-08 01:00:00<>METAR SBGL 080100Z 07005KT 9999 FEW008 BKN070 25/23 Q1011=
2026-03-08 02:00:00<>METAR SBGL 080200Z 15004KT 9999 BKN010 BKN070 24/22 Q1011=
2026-03-08 03:00:00<>METAR SBGL 080300Z 08001KT 9999 FEW010 BKN070 25/22 Q1010=
2026-03-08 04:00:00<>METAR SBGL 080400Z 09004KT 9999 FEW011 BKN090 25/22 Q1010=
2026-03-08 05:00:00<>METAR SBGL 080500Z 03004KT 9999 FEW011 BKN100 24/23 Q1010=
2026-03-08 06:00:00<>METAR SBGL 080600Z 01003KT 9999 FEW011 BKN100 25/22 Q1008=
2026-03-08 07:00:00<>METAR SBGL 080700Z 28002KT CAVOK 24/22 Q1008=
2026-03-08 08:00:00<>METAR SBGL 080800Z 09002KT 9999 FEW020 BKN100 24/22 Q1008=
2026-03-08 09:00:00<>METAR SBGL 080900Z 13001KT 9999 FEW020 24/22 Q1008=
2026-03-08 10:00:00<>METAR SBGL 081000Z 07002KT 9000 NSC 25/23 Q1008=
2026-03-08 11:00:00<>METAR SBGL 081100Z 01003KT 330V050 9999 FEW020 SCT100 26/23 Q1009=
2026-03-08 12:00:00<>METAR SBGL 081200Z VRB03KT 9999 FEW020 SCT100 28/23 Q1010=
2026-03-08 13:00:00<>METAR SBGL 081300Z VRB03KT 9999 FEW030 30/22 Q1010=
2026-03-08 14:00:00<>METAR SBGL 081400Z 32004KT 230V010 9999 FEW030 32/22 Q1010=
2026-03-08 15:00:00<>METAR SBGL 081500Z 32003KT 240V030 9999 FEW030 33/22 Q1009=
2026-03-08 16:00:00<>METAR SBGL 081600Z 17008KT 9999 FEW030 SCT100 34/21 Q1009=
2026-03-08 17:00:00<>METAR SBGL 081700Z 17008KT 9999 FEW030 SCT100 33/23 Q1008=
2026-03-08 18:00:00<>METAR SBGL 081800Z 18007KT 9999 SCT035 FEW040TCU 33/21 Q1008=
2026-03-08 19:00:00<>METAR SBGL 081900Z 23015KT 9999 SCT030 FEW035TCU 30/22 Q1009=
2026-03-08 20:00:00<>METAR SBGL 082000Z 23012KT 9999 FEW025 SCT030 FEW035TCU 29/22 Q1009=
2026-03-08 21:00:00<>METAR SBGL 082100Z 25011KT 9999 FEW025 FEW035TCU BKN070 29/21 Q1010=
2026-03-08 22:00:00<>METAR SBGL 082200Z 25005KT 9999 FEW025 FEW035TCU BKN070 28/22 Q1011=
2026-03-08 23:00:00<>METAR SBGL 082300Z VRB02KT 9999 FEW025 FEW035TCU BKN070 28/22 Q1011=
2026-03-09 00:00:00<>METAR SBGL 090000Z 29003KT 260V010 9999 VCTS FEW025 FEW030CB BKN045 28/22 Q1012=
2026-03-09 01:00:00<>METAR SBGL 090100Z VRB02KT 9999 VCTS FEW025 FEW030CB BKN050 28/22 Q1012=
2026-03-09 02:00:00<>METAR SBGL 090200Z VRB02KT 9999 -DZ FEW022 FEW030TCU BKN050 27/23 Q1012=
2026-03-09 03:00:00<>METAR SBGL 090300Z 28010KT 9999 -DZ FEW023 FEW030TCU BKN050 26/23 Q1012=
2026-03-09 04:00:00<>METAR SBGL 090400Z 27009KT 9999 FEW030 SCT050 BKN080 25/22 Q1012=
2026-03-09 05:00:00<>METAR SBGL 090500Z 27007KT 9999 FEW030 SCT050 BKN080 25/22 Q1012=
2026-03-09 06:00:00<>METAR SBGL 090600Z 27009KT 9999 FEW030 SCT050 BKN080 25/22 Q1012=
2026-03-09 07:00:00<>METAR SBGL 090700Z 29006KT 9999 FEW022 SCT030 BKN070 25/22 Q1012=
2026-03-09 08:00:00<>METAR SBGL 090800Z 30007KT 9999 FEW022 SCT030 BKN070 24/22 Q1012=
2026-03-09 09:00:00<>METAR SBGL 090900Z 29005KT 9999 BKN022 BKN035 25/21 Q1013=
2026-03-09 10:00:00<>METAR SBGL 091000Z 29006KT 9999 BKN022 BKN035 OVC058 25/22 Q1013=
2026-03-09 11:00:00<>METAR SBGL 091100Z VRB05KT 9999 BKN013 BKN022 BKN066 26/22 Q1015=
2026-03-09 12:00:00<>METAR SBGL 091200Z 31005KT 270V360 9999 BKN014 BKN022 BKN066 27/22 Q1015=
2026-03-09 13:00:00<>METAR SBGL 091300Z 17006KT 130V220 9999 BKN014 BKN022 BKN070 27/22 Q1016=
2026-03-09 14:00:00<>METAR SBGL 091400Z 16008KT 9999 BKN015 BKN025 BKN070 27/23 Q1016=
2026-03-09 15:00:00<>METAR SBGL 091500Z 17007KT 140V200 9999 VCSH BKN017 BKN030 FEW034TCU BKN070 27/22 Q1015=
2026-03-09 16:00:00<>METAR SBGL 091600Z 19006KT 140V230 9999 VCSH BKN017 BKN030 FEW034TCU BKN070 27/21 Q1015=
2026-03-09 16:05:00<>SPECI SBGL 091605Z 18005KT 140V220 3000 -RA BR BKN017 BKN030 FEW034TCU BKN070 25/22 Q1015=
2026-03-09 17:00:00<>METAR SBGL 091700Z VRB01KT 9000 BKN017 BKN030 FEW034TCU BKN070 26/22 Q1015=
2026-03-09 17:25:00<>SPECI SBGL 091725Z VRB03KT 4000 -RA BR BKN017 BKN030 FEW034TCU BKN070 25/21 Q1015=
2026-03-09 18:00:00<>METAR SBGL 091800Z 31004KT 290V350 6000 -RA SCT017 BKN030 FEW034TCU BKN070 25/22 Q1015=
2026-03-09 19:00:00<>METAR SBGL 091900Z VRB01KT 7000 SCT017 BKN027 FEW034TCU BKN070 26/21 Q1015=
2026-03-09 20:00:00<>METAR SBGL 092000Z 17002KT 9999 VCSH BKN017 BKN025 FEW033TCU BKN070 25/22 Q1015=
2026-03-09 21:00:00<>METAR SBGL 092100Z 03005KT 350V090 9999 SCT013 BKN023 FEW030TCU BKN070 25/22 Q1015=
2026-03-09 22:00:00<>METAR SBGL 092200Z 36005KT 330V030 9999 BKN012 BKN023 FEW025TCU BKN070 24/22 Q1016=
2026-03-09 23:00:00<>METAR SBGL 092300Z VRB02KT 9999 FEW012 BKN020 BKN070 24/22 Q1016=
2026-03-10 00:00:00<>METAR SBGL 100000Z 31004KT 9999 FEW015 BKN020 BKN070 24/22 Q1016=
2026-03-10 01:00:00<>METAR SBGL 100100Z 28003KT 9999 FEW015 BKN020 BKN070 24/22 Q1017=
2026-03-10 02:00:00<>METAR SBGL 100200Z 06005KT 020V100 8000 -RA FEW010 BKN020 OVC070 24/22 Q1017=
2026-03-10 03:00:00<>METAR SBGL 100300Z 34001KT 9999 FEW010 BKN020 OVC070 23/22 Q1017=
2026-03-10 04:00:00<>METAR SBGL 100400Z 22002KT 9999 FEW010 BKN020 OVC070 23/22 Q1016=
2026-03-10 05:00:00<>METAR SBGL 100500Z 25003KT 9999 FEW010 BKN020 OVC070 24/22 Q1015=
2026-03-10 06:00:00<>METAR SBGL 100600Z 01003KT 9999 FEW008 BKN010 OVC030 24/22 Q1015=
2026-03-10 06:35:00<>SPECI SBGL 100635Z 01002KT 3500 -RA FEW008 BKN010 OVC030 23/22 Q1015=
2026-03-10 07:00:00<>METAR SBGL 100700Z 01003KT 4000 -RA BR FEW006 BKN008 OVC030 23/22 Q1015=
2026-03-10 08:00:00<>METAR SBGL 100800Z 04004KT 3500 -RA BR FEW006 BKN008 OVC030 23/22 Q1015=
2026-03-10 09:00:00<>METAR SBGL 100900Z 36001KT 9000 FEW010 BKN015 OVC030 23/22 Q1016=
2026-03-10 10:00:00<>METAR SBGL 101000Z VRB02KT 9999 FEW010 BKN025 OVC040 23/21 Q1016=
2026-03-10 11:00:00<>METAR SBGL 101100Z 07003KT 040V110 9999 FEW008 BKN025 OVC040 24/22 Q1017=
2026-03-10 12:00:00<>METAR SBGL 101200Z VRB02KT 9999 FEW008 BKN030 OVC040 24/22 Q1017=
2026-03-10 13:00:00<>METAR SBGL 101300Z 07003KT 020V130 9999 FEW009 BKN030 OVC040 26/22 Q1017=
2026-03-10 14:00:00<>METAR SBGL 101400Z 07003KT 040V150 9999 SCT012 BKN020 BKN030 25/21 Q1017=
2026-03-10 15:00:00<>METAR SBGL 101500Z 06004KT 020V090 9999 FEW012 SCT020 BKN030 26/21 Q1017=
2026-03-10 16:00:00<>METAR SBGL 101600Z 06004KT 9999 FEW015 SCT020 OVC040 27/21 Q1016=
2026-03-10 17:00:00<>METAR SBGL 101700Z 17010KT 140V200 9999 -RA FEW015 BKN026 OVC040 25/21 Q1016=
2026-03-10 18:00:00<>METAR SBGL 101800Z 16009KT 130V190 9000 -RA FEW009 SCT025 BKN030 24/21 Q1015=
2026-03-10 19:00:00<>METAR SBGL 101900Z 14006KT 110V170 9999 VCSH FEW011 SCT025 BKN030 24/21 Q1015=
2026-03-10 20:00:00<>METAR SBGL 102000Z 11007KT 9999 VCSH FEW013 SCT025 OVC040 24/20 Q1015=
2026-03-10 21:00:00<>METAR SBGL 102100Z 08010KT 9999 -RA FEW008 BKN015 OVC040 24/22 Q1015=
2026-03-10 21:09:00<>SPECI SBGL 102109Z 07010KT 9999 -RA FEW009 BKN011 OVC040 24/21 Q1015=
2026-03-10 22:00:00<>METAR COR SBGL 102200Z 09010KT 8000 -RA FEW009 BKN011 BKN033 23/21 Q1015=
2026-03-10 23:00:00<>METAR SBGL 102300Z 10008KT 9999 -RA SCT008 BKN040 23/21 Q1016=
2026-03-11 00:00:00<>METAR SBGL 110000Z 10008KT 9999 SCT013 BKN040 24/20 Q1016=
2026-03-11 01:00:00<>METAR SBGL 110100Z 10011KT 9999 SCT013 BKN040 24/20 Q1016=
2026-03-11 02:00:00<>METAR SBGL 110200Z 10011KT 8000 SCT013 BKN070 24/20 Q1015=
2026-03-11 03:00:00<>METAR SBGL 110300Z 11007KT 9999 SCT025 BKN070 24/20 Q1015=
2026-03-11 04:00:00<>METAR SBGL 110400Z 11007KT 9999 SCT025 BKN070 24/20 Q1015=
2026-03-11 05:00:00<>METAR SBGL 110500Z 11006KT 9999 FEW014 BKN050 23/20 Q1014=
2026-03-11 06:00:00<>METAR SBGL 110600Z 11006KT 9999 FEW014 BKN050 23/20 Q1014=
2026-03-11 07:00:00<>METAR SBGL 110700Z 11006KT 9999 FEW014 BKN025 23/21 Q1013=
2026-03-11 08:00:00<>METAR SBGL 110800Z 12006KT 9999 FEW014 BKN021 23/20 Q1013=
2026-03-11 09:00:00<>METAR SBGL 110900Z 12005KT 9999 FEW013 BKN020 23/21 Q1014=
2026-03-11 10:00:00<>METAR SBGL 111000Z 13003KT 8000 -RA SCT014 BKN024 OVC040 23/21 Q1014=
2026-03-11 11:00:00<>METAR SBGL 111100Z 13002KT 9999 SCT012 BKN020 OVC035 24/21 Q1015=
2026-03-11 12:00:00<>METAR SBGL 111200Z 13003KT 9999 -RA SCT012 BKN020 OVC035 24/21 Q1015=
2026-03-11 13:00:00<>METAR SBGL 111300Z 17004KT 7000 -RA SCT012 BKN020 OVC035 24/21 Q1016=
2026-03-11 14:00:00<>METAR SBGL 111400Z 17005KT 9000 SCT012 BKN022 OVC040 24/20 Q1015=
2026-03-11 15:00:00<>METAR SBGL 111500Z 19005KT 3000 -RA BR SCT015 BKN022 OVC040 23/21 Q1015=
2026-03-11 16:00:00<>METAR SBGL 111600Z 17005KT 3000 -RA BR SCT007 BKN022 OVC040 23/21 Q1014=
2026-03-11 17:00:00<>METAR SBGL 111700Z 16006KT 2500 -RA BR SCT007 BKN011 OVC040 22/21 Q1014=
2026-03-11 18:00:00<>METAR SBGL 111800Z 17006KT 5000 -RA BR SCT006 BKN011 OVC040 22/21 Q1014=
2026-03-11 19:00:00<>METAR SBGL 111900Z 17005KT 4000 -RA BR SCT006 BKN011 OVC040 22/21 Q1013=
2026-03-11 20:00:00<>METAR SBGL 112000Z 16003KT 4000 -RA BR BKN008 BKN011 OVC040 22/21 Q1013=
2026-03-11 21:00:00<>METAR SBGL 112100Z 14003KT 5000 -RA BR SCT008 BKN011 OVC040 22/22 Q1013=
2026-03-11 22:00:00<>METAR SBGL 112200Z 15003KT 5000 -RA BR SCT006 BKN010 OVC040 22/21 Q1013=
2026-03-11 23:00:00<>METAR SBGL 112300Z 10005KT 6000 -RA SCT006 BKN007 BKN010 22/21 Q1014=
2026-03-12 00:00:00<>METAR SBGL 120000Z 11008KT 8000 -RA SCT006 BKN007 OVC013 22/21 Q1014=
2026-03-12 01:00:00<>METAR SBGL 120100Z 11006KT 8000 -RA FEW006 BKN011 OVC021 22/20 Q1015=
2026-03-12 02:00:00<>METAR SBGL 120200Z 11005KT 8000 FEW007 SCT011 OVC021 22/20 Q1014=
2026-03-12 03:00:00<>METAR SBGL 120300Z 11007KT 8000 SCT011 BKN023 OVC040 22/21 Q1014=
2026-03-12 04:00:00<>METAR SBGL 120400Z 12003KT 8000 SCT011 BKN017 BKN050 22/21 Q1013=
2026-03-12 05:00:00<>METAR SBGL 120500Z 13004KT 8000 SCT011 BKN017 BKN050 22/20 Q1012=
2026-03-12 06:00:00<>METAR SBGL 120600Z 15004KT 7000 SCT011 BKN017 BKN050 21/20 Q1012=
2026-03-12 07:00:00<>METAR SBGL 120700Z 18004KT 7000 SCT011 BKN017 BKN050 21/20 Q1012=
2026-03-12 08:00:00<>METAR SBGL 120800Z 04003KT 7000 FEW009 SCT017 BKN050 22/21 Q1012=
2026-03-12 09:00:00<>METAR SBGL 120900Z 34003KT 8000 FEW007 SCT017 BKN043 22/21 Q1012=
2026-03-12 10:00:00<>METAR SBGL 121000Z 00000KT 8000 FEW007 SCT017 OVC100 23/21 Q1013=
2026-03-12 11:00:00<>METAR SBGL 121100Z VRB02KT 9000 FEW007 SCT050 OVC100 23/21 Q1013=
2026-03-12 12:00:00<>METAR SBGL 121200Z VRB02KT 8000 -RA SCT007 BKN033 OVC100 23/22 Q1013=
2026-03-12 12:28:00<>SPECI SBGL 121228Z 02003KT 350V060 8000 -RA BKN007 BKN030 OVC100 24/22 Q1013=
2026-03-12 13:00:00<>METAR SBGL 121300Z 00000KT 8000 -RA BKN007 BKN030 OVC100 24/23 Q1013=
2026-03-12 14:00:00<>METAR SBGL 121400Z 04003KT 010V080 7000 -RA FEW007 BKN011 BKN030 24/22 Q1012=
2026-03-12 15:00:00<>METAR SBGL 121500Z 05004KT 020V080 7000 -RA FEW007 SCT011 BKN030 24/23 Q1011=
2026-03-12 16:00:00<>METAR SBGL 121600Z 10005KT 8000 -RA FEW008 BKN030 OVC100 25/23 Q1010=
2026-03-12 17:00:00<>METAR SBGL 121700Z 07005KT 030V100 8000 FEW008 SCT011 BKN030 26/23 Q1009=
2026-03-12 18:00:00<>METAR SBGL 121800Z 12005KT 8000 -RA FEW009 SCT030 BKN100 26/23 Q1008=
2026-03-12 19:00:00<>METAR SBGL 121900Z 12003KT 080V150 9000 FEW011 SCT030 BKN100 26/23 Q1008=
2026-03-12 20:00:00<>METAR SBGL 122000Z 12003KT 090V150 9000 FEW011 SCT030 BKN100 26/23 Q1008=
2026-03-12 21:00:00<>METAR SBGL 122100Z VRB02KT 9999 BKN015 BKN100 26/23 Q1008=
2026-03-12 22:00:00<>METAR SBGL 122200Z 12002KT 9999 SCT012 BKN100 25/23 Q1008=
2026-03-12 23:00:00<>METAR SBGL 122300Z 03003KT 340V070 9999 -RA SCT011 BKN100 25/24 Q1009=
2026-03-13 00:00:00<>METAR SBGL 130000Z 34002KT 8000 -RA SCT011 BKN100 25/23 Q1009=
2026-03-13 00:20:00<>SPECI SBGL 130020Z 32003KT 4000 -RA BR SCT011 BKN100 25/24 Q1009=
2026-03-13 01:00:00<>METAR SBGL 130100Z VRB04KT 5000 -RA BR SCT009 BKN090 25/24 Q1009=
2026-03-13 02:00:00<>METAR SBGL 130200Z 31005KT 2500 -RA BR BKN007 SCT020 BKN090 25/24 Q1009=
2026-03-13 03:00:00<>METAR SBGL 130300Z 15002KT 4000 -RA BR BKN006 SCT020 BKN090 24/23 Q1008=
2026-03-13 04:00:00<>METAR SBGL 130400Z 15002KT 6000 -RA BKN004 SCT020 BKN090 24/23 Q1007=
2026-03-13 05:00:00<>METAR SBGL 130500Z 15002KT 6000 -RA SCT004 SCT020 BKN090 24/23 Q1006=
2026-03-13 06:00:00<>METAR SBGL 130600Z 12003KT 6000 -RA FEW004 SCT020 BKN090 24/23 Q1006=
2026-03-13 07:00:00<>METAR SBGL 130700Z 12003KT 6000 -RA FEW004 SCT020 BKN090 24/23 Q1006=
2026-03-13 08:00:00<>METAR SBGL 130800Z 12003KT 7000 FEW004 BKN100 25/24 Q1006=
2026-03-13 09:00:00<>METAR SBGL 130900Z 15004KT 6000 -RA FEW006 OVC100 24/23 Q1006=
2026-03-13 10:00:00<>METAR SBGL 131000Z 24002KT 8000 FEW010 OVC100 25/24 Q1006=
2026-03-13 11:00:00<>METAR SBGL 131100Z 30003KT 260V320 9999 FEW010 BKN100 26/24 Q1007=
2026-03-13 12:00:00<>METAR SBGL 131200Z 26006KT 9999 FEW015 BKN100 29/23 Q1007=
2026-03-13 13:00:00<>METAR SBGL 131300Z 25013KT 9999 FEW040 BKN100 28/22 Q1008=
2026-03-13 14:00:00<>METAR SBGL 131400Z 24015KT 9999 FEW010 SCT060 BKN100 29/22 Q1008=
2026-03-13 15:00:00<>METAR SBGL 131500Z 23015KT 9999 FEW015 SCT060 BKN100 29/23 Q1008=
2026-03-13 16:00:00<>METAR SBGL 131600Z 23016KT 9999 FEW020 SCT060 BKN100 29/23 Q1008=
2026-03-13 17:00:00<>METAR SBGL 131700Z 21018KT 9999 SCT023 BKN100 28/22 Q1007=
2026-03-13 18:00:00<>METAR SBGL 131800Z 21015KT 9999 FEW010 SCT035 BKN100 28/21 Q1007=
2026-03-13 19:00:00<>METAR SBGL 131900Z 23013KT 9999 FEW010 BKN040 BKN090 27/21 Q1007=
2026-03-13 20:00:00<>METAR SBGL 132000Z 24011KT 9999 FEW010 SCT021 OVC045 26/22 Q1008=
2026-03-13 20:26:00<>SPECI SBGL 132026Z 26014KT 3500 -RA BR BKN009 OVC035 24/22 Q1008=
2026-03-13 21:00:00<>METAR SBGL 132100Z 28006KT 240V310 6000 -RA FEW005 SCT011 OVC035 24/22 Q1009=
2026-03-13 22:00:00<>METAR SBGL 132200Z 33007KT 9999 SCT005 BKN020 OVC050 24/22 Q1009=
2026-03-13 23:00:00<>METAR SBGL 132300Z 33008KT 9000 -RA SCT009 BKN020 OVC050 23/22 Q1010=
2026-03-14 00:00:00<>METAR SBGL 140000Z 30011KT 9000 -RA SCT011 BKN015 BKN050 23/22 Q1011=
2026-03-14 01:00:00<>METAR SBGL 140100Z 30010KT 9000 FEW011 BKN050 BKN100 23/22 Q1010=
2026-03-14 02:00:00<>METAR SBGL 140200Z 29006KT 9000 FEW015 SCT026 BKN100 23/22 Q1010=
2026-03-14 03:00:00<>METAR SBGL 140300Z 31004KT 9000 FEW017 SCT026 BKN100 23/22 Q1009=
2026-03-14 04:00:00<>METAR SBGL 140400Z 34004KT 8000 FEW017 SCT026 BKN100 23/22 Q1009=
2026-03-14 05:00:00<>METAR SBGL 140500Z 35005KT 8000 FEW017 SCT026 BKN100 23/22 Q1008=
2026-03-14 06:00:00<>METAR SBGL 140600Z 32005KT 7000 FEW017 SCT026 BKN100 23/22 Q1008=
2026-03-14 07:00:00<>METAR SBGL 140700Z 36004KT 7000 FEW017 SCT026 BKN100 22/21 Q1008=
2026-03-14 08:00:00<>METAR SBGL 140800Z 36003KT 8000 FEW026 BKN100 23/21 Q1008=
2026-03-14 09:00:00<>METAR SBGL 140900Z 31005KT 8000 FEW026 BKN100 23/22 Q1009=
2026-03-14 10:00:00<>METAR SBGL 141000Z 33004KT 9000 FEW026 BKN100 23/22 Q1010=
2026-03-14 11:00:00<>METAR SBGL 141100Z 34004KT 300V040 9000 FEW025 SCT100 24/22 Q1010=
2026-03-14 12:00:00<>METAR SBGL 141200Z 01005KT 350V060 9999 FEW020 26/22 Q1010=
2026-03-14 13:00:00<>METAR SBGL 141300Z 01006KT 350V050 9999 SCT027 SCT040 28/23 Q1010=
2026-03-14 14:00:00<>METAR SBGL 141400Z VRB04KT 9999 SCT027 SCT037 29/21 Q1010=
2026-03-14 15:00:00<>METAR SBGL 141500Z VRB04KT 9999 SCT035 SCT042 29/21 Q1010=
2026-03-14 16:00:00<>METAR SBGL 141600Z VRB03KT 9999 SCT031 BKN040 28/21 Q1010=
2026-03-14 17:00:00<>METAR SBGL 141700Z 20007KT 170V250 9999 SCT036 BKN047 29/21 Q1009=
2026-03-14 18:00:00<>METAR SBGL 141800Z 20008KT 9999 FEW039 SCT063 29/20 Q1009=
2026-03-14 19:00:00<>METAR SBGL 141900Z 21013KT 9999 FEW035 SCT060 29/19 Q1009=
2026-03-14 20:00:00<>METAR SBGL 142000Z 21011KT 9999 FEW042 28/19 Q1009=
2026-03-14 21:00:00<>METAR SBGL 142100Z 22009KT CAVOK 27/19 Q1009=
2026-03-14 22:00:00<>METAR SBGL 142200Z 19003KT 160V240 CAVOK 26/20 Q1009=
2026-03-14 23:00:00<>METAR SBGL 142300Z VRB02KT CAVOK 24/20 Q1010=
2026-03-15 00:00:00<>METAR SBGL 150000Z VRB02KT CAVOK 23/20 Q1011=
2026-03-15 01:00:00<>METAR SBGL 150100Z 03003KT 330V070 CAVOK 24/21 Q1012=
2026-03-15 02:00:00<>METAR SBGL 150200Z VRB02KT CAVOK 24/21 Q1011=
2026-03-15 03:00:00<>METAR SBGL 150300Z 24003KT CAVOK 23/21 Q1011=
2026-03-15 04:00:00<>METAR SBGL 150400Z 34004KT 300V010 CAVOK 23/21 Q1010=
2026-03-15 05:00:00<>METAR SBGL 150500Z 33003KT CAVOK 22/21 Q1010=
2026-03-15 06:00:00<>METAR SBGL 150600Z VRB02KT 9999 SCT015 22/21 Q1010=
2026-03-15 07:00:00<>METAR SBGL 150700Z 01003KT 9999 SCT012 22/20 Q1009=
2026-03-15 08:00:00<>METAR SBGL 150800Z 34003KT 9999 SCT012 22/21 Q1010=
2026-03-15 09:00:00<>METAR SBGL 150900Z 06002KT 9999 SCT012 21/20 Q1010=
2026-03-15 10:00:00<>METAR SBGL 151000Z 02002KT 9999 FEW012 24/22 Q1011=
2026-03-15 10:40:00<>SPECI SBGL 151040Z 05005KT 010V080 9999 BKN006 23/22 Q1011=
2026-03-15 11:00:00<>METAR SBGL 151100Z 04004KT 360V090 9000 FEW003 BKN006 23/22 Q1011=
2026-03-15 12:00:00<>METAR SBGL 151200Z 07004KT 030V110 9000 BKN005 25/22 Q1011=
2026-03-15 12:18:00<>SPECI SBGL 151218Z VRB03KT 9999 SCT008 26/23 Q1011=
2026-03-15 13:00:00<>METAR SBGL 151300Z 03006KT 350V070 9999 FEW008 27/22 Q1011=
2026-03-15 14:00:00<>METAR SBGL 151400Z 04006KT 010V080 9999 FEW018 29/20 Q1011=
2026-03-15 15:00:00<>METAR SBGL 151500Z VRB04KT 9999 FEW020 30/22 Q1010=
2026-03-15 16:00:00<>METAR SBGL 151600Z 01006KT 350V080 9999 FEW025 31/22 Q1010=
2026-03-15 17:00:00<>METAR SBGL 151700Z 13005KT 090V170 9999 FEW030 30/22 Q1009=
2026-03-15 18:00:00<>METAR SBGL 151800Z 13011KT 9999 FEW030 30/22 Q1009=
2026-03-15 19:00:00<>METAR SBGL 151900Z 13013KT 9999 FEW030 29/22 Q1009=
2026-03-15 20:00:00<>METAR SBGL 152000Z 14011KT 9999 FEW030 28/22 Q1009=
2026-03-15 21:00:00<>METAR SBGL 152100Z 14008KT CAVOK 27/22 Q1009=
2026-03-15 22:00:00<>METAR SBGL 152200Z 14006KT CAVOK 26/22 Q1010=
2026-03-15 23:00:00<>METAR SBGL 152300Z 13004KT CAVOK 26/22 Q1011=
2026-03-16 00:00:00<>METAR SBGL 160000Z 10004KT CAVOK 26/22 Q1011=
2026-03-16 01:00:00<>METAR SBGL 160100Z 09004KT CAVOK 25/22 Q1012=
2026-03-16 02:00:00<>METAR SBGL 160200Z 09003KT CAVOK 25/22 Q1012=
2026-03-16 03:00:00<>METAR SBGL 160300Z 10002KT CAVOK 24/22 Q1012=
2026-03-16 04:00:00<>METAR SBGL 160400Z 07003KT CAVOK 24/22 Q1011=
2026-03-16 05:00:00<>METAR SBGL 160500Z 08002KT 9999 FEW010 24/22 Q1011=
2026-03-16 06:00:00<>METAR SBGL 160600Z 11002KT 9999 FEW009 23/22 Q1011=
2026-03-16 07:00:00<>METAR SBGL 160700Z 08004KT 9999 SCT009 23/22 Q1011=
2026-03-16 08:00:00<>METAR SBGL 160800Z 09002KT 9999 BKN006 23/22 Q1011=
2026-03-16 09:00:00<>METAR SBGL 160900Z 06002KT 9000 OVC008 24/22 Q1011=
2026-03-16 10:00:00<>METAR SBGL 161000Z 05002KT 4000 BR OVC007 24/23 Q1012=
2026-03-16 11:00:00<>METAR SBGL 161100Z VRB02KT 4000 BR OVC007 25/23 Q1012=
2026-03-16 12:00:00<>METAR SBGL 161200Z 19002KT 5000 BR BKN007 26/23 Q1013=
2026-03-16 13:00:00<>METAR SBGL 161300Z 05003KT 9999 SCT007 29/24 Q1013=
2026-03-16 14:00:00<>METAR SBGL 161400Z 36003KT 290V090 9999 FEW007 30/23 Q1013=
2026-03-16 15:00:00<>METAR SBGL 161500Z 12006KT 9999 FEW010 31/23 Q1012=
2026-03-16 16:00:00<>METAR SBGL 161600Z 13007KT 9999 FEW010 31/22 Q1011=
2026-03-16 17:00:00<>METAR SBGL 161700Z 12007KT 9999 FEW010 32/21 Q1011=
2026-03-16 18:00:00<>METAR SBGL 161800Z 12010KT 9999 FEW004 31/22 Q1010=
2026-03-16 19:00:00<>METAR SBGL 161900Z 13011KT CAVOK 30/22 Q1010=
2026-03-16 20:00:00<>METAR SBGL 162000Z 14012KT CAVOK 28/23 Q1010=
2026-03-16 21:00:00<>METAR SBGL 162100Z 15009KT CAVOK 27/23 Q1010=
2026-03-16 22:00:00<>METAR SBGL 162200Z 15011KT CAVOK 26/23 Q1011=
2026-03-16 23:00:00<>METAR SBGL 162300Z 13006KT CAVOK 26/23 Q1012=
2026-03-17 00:00:00<>METAR SBGL 170000Z 09007KT CAVOK 25/20 Q1013=
2026-03-17 01:00:00<>METAR SBGL 170100Z 11004KT CAVOK 25/20 Q1013=
2026-03-17 02:00:00<>METAR SBGL 170200Z 11006KT 9999 FEW013 25/20 Q1013=
2026-03-17 03:00:00<>METAR SBGL 170300Z 11003KT 9999 FEW020 24/21 Q1013=
2026-03-17 04:00:00<>METAR SBGL 170400Z VRB01KT 9999 BKN020 24/21 Q1013=
2026-03-17 05:00:00<>METAR SBGL 170500Z 12003KT 9999 FEW017 23/21 Q1012=
2026-03-17 06:00:00<>METAR SBGL 170600Z 14004KT 9999 FEW017 23/21 Q1012=
2026-03-17 07:00:00<>METAR SBGL 170700Z 13004KT 9999 FEW009 22/21 Q1011=
2026-03-17 08:00:00<>METAR SBGL 170800Z 12003KT 9999 FEW008 23/21 Q1012=
2026-03-17 09:00:00<>METAR SBGL 170900Z 08004KT 8000 FEW008 22/21 Q1012=
2026-03-17 09:40:00<>SPECI SBGL 170940Z VRB02KT 8000 BKN008 23/22 Q1013=
2026-03-17 10:00:00<>METAR SBGL 171000Z VRB02KT 8000 BKN008 23/22 Q1013=
2026-03-17 11:00:00<>METAR SBGL 171100Z 03003KT 360V070 9999 BKN009 25/23 Q1014=
2026-03-17 12:00:00<>METAR SBGL 171200Z VRB05KT 8000 BKN011 27/22 Q1014=
2026-03-17 13:00:00<>METAR SBGL 171300Z 06004KT 360V140 9000 BKN015 28/23 Q1014=
2026-03-17 14:00:00<>METAR SBGL 171400Z 12004KT 070V190 9999 FEW015 29/22 Q1013=
2026-03-17 15:00:00<>METAR SBGL 171500Z 09005KT 060V170 9999 FEW015 30/21 Q1012=
2026-03-17 16:00:00<>METAR SBGL 171600Z 11008KT 9999 FEW020 30/21 Q1012=
2026-03-17 17:00:00<>METAR SBGL 171700Z 13012KT 9999 FEW020 30/22 Q1011=
2026-03-17 18:00:00<>METAR SBGL 171800Z 13013KT 9999 FEW020 29/22 Q1010=
2026-03-17 19:00:00<>METAR SBGL 171900Z 13012KT 9999 FEW020 28/22 Q1010=
2026-03-17 20:00:00<>METAR SBGL 172000Z 14011KT 9999 FEW020 28/22 Q1010=
2026-03-17 21:00:00<>METAR SBGL 172100Z 15011KT 9999 FEW020 26/22 Q1010=
2026-03-17 22:00:00<>METAR SBGL 172200Z 14010KT 9999 FEW040 SCT060 26/22 Q1011=
2026-03-17 23:00:00<>METAR SBGL 172300Z 15009KT 9999 BKN040 26/22 Q1012=
2026-03-18 00:00:00<>METAR SBGL 180000Z 15009KT 9999 FEW045 26/22 Q1013=
2026-03-18 01:00:00<>METAR SBGL 180100Z 15005KT 9999 SCT045 25/21 Q1013=
2026-03-18 02:00:00<>METAR SBGL 180200Z 14003KT 9999 FEW045 25/22 Q1013=
2026-03-18 03:00:00<>METAR SBGL 180300Z 14003KT 9999 FEW027 24/22 Q1013=
2026-03-18 04:00:00<>METAR SBGL 180400Z 13004KT 9999 SCT025 24/22 Q1012=
2026-03-18 05:00:00<>METAR SBGL 180500Z 13002KT 9999 BKN020 24/22 Q1011=
2026-03-18 06:00:00<>METAR SBGL 180600Z 13002KT 9999 FEW020 SCT030 24/21 Q1010=
2026-03-18 07:00:00<>METAR SBGL 180700Z 12005KT 9999 FEW020 24/21 Q1010=
2026-03-18 08:00:00<>METAR SBGL 180800Z 12005KT 9999 FEW020 24/22 Q1011=
2026-03-18 09:00:00<>METAR SBGL 180900Z 13003KT 9999 FEW020 BKN040 25/22 Q1012=
2026-03-18 10:00:00<>METAR SBGL 181000Z 10002KT 9999 FEW015 OVC040 25/22 Q1012=
2026-03-18 11:00:00<>METAR SBGL 181100Z 12003KT 9999 FEW015 BKN060 26/22 Q1012=
2026-03-18 12:00:00<>METAR SBGL 181200Z 04003KT 350V110 9999 FEW015 BKN060 27/22 Q1012=
2026-03-18 13:00:00<>METAR SBGL 181300Z 13003KT 9999 FEW020 28/22 Q1012=
2026-03-18 14:00:00<>METAR SBGL 181400Z VRB04KT 9999 FEW020 30/23 Q1011=
2026-03-18 15:00:00<>METAR SBGL 181500Z 12009KT 9999 FEW030 29/23 Q1011=
2026-03-18 16:00:00<>METAR SBGL 181600Z 12009KT 9999 FEW030 29/22 Q1010=
2026-03-18 17:00:00<>METAR SBGL 181700Z 13010KT 9999 FEW030 30/22 Q1009=
2026-03-18 18:00:00<>METAR SBGL 181800Z 13011KT 9999 FEW030 29/22 Q1008=
2026-03-18 19:00:00<>METAR SBGL 181900Z 14015KT 9999 FEW030 28/22 Q1008=
2026-03-18 20:00:00<>METAR SBGL 182000Z 14011KT 9999 SCT030 27/22 Q1008=
2026-03-18 21:00:00<>METAR SBGL 182100Z 14015KT 9999 SCT030 BKN040 26/21 Q1008=
2026-03-18 22:00:00<>METAR SBGL 182200Z 14010KT 9999 SCT030 BKN040 26/21 Q1009=
2026-03-18 23:00:00<>METAR SBGL 182300Z 16008KT 9999 FEW030 BKN036 26/21 Q1010=
2026-03-19 00:00:00<>METAR SBGL 190000Z 14008KT 9999 FEW030 BKN036 25/21 Q1011=
2026-03-19 01:00:00<>METAR SBGL 190100Z 13007KT 9999 FEW023 BKN036 26/22 Q1011=
2026-03-19 02:00:00<>METAR SBGL 190200Z 14005KT 9999 SCT026 SCT036 25/21 Q1011=
2026-03-19 03:00:00<>METAR SBGL 190300Z 15004KT 9999 SCT026 SCT036 25/22 Q1010=
2026-03-19 04:00:00<>METAR SBGL 190400Z 14005KT 9999 FEW023 BKN036 25/22 Q1010=
2026-03-19 05:00:00<>METAR SBGL 190500Z 17005KT 9999 FEW023 BKN036 25/21 Q1009=
2026-03-19 06:00:00<>METAR SBGL 190600Z 19004KT 8000 FEW023 BKN036 24/21 Q1009=
2026-03-19 07:00:00<>METAR SBGL 190700Z 22004KT 8000 FEW023 BKN036 24/21 Q1009=
2026-03-19 08:00:00<>METAR SBGL 190800Z 13004KT 8000 FEW011 BKN021 24/21 Q1008=
2026-03-19 09:00:00<>METAR SBGL 190900Z 11005KT 8000 FEW013 BKN030 25/22 Q1009=
2026-03-19 10:00:00<>METAR SBGL 191000Z 10003KT 8000 FEW013 BKN100 25/22 Q1009=
2026-03-19 11:00:00<>METAR SBGL 191100Z 07004KT 9000 FEW009 BKN100 26/23 Q1009=
2026-03-19 12:00:00<>METAR SBGL 191200Z 10003KT 9000 SCT012 BKN100 27/23 Q1009=
2026-03-19 13:00:00<>METAR SBGL 191300Z 11004KT 9000 SCT015 BKN100 27/23 Q1009=
2026-03-19 14:00:00<>METAR SBGL 191400Z 11005KT 9000 FEW015 BKN100 28/23 Q1009=
2026-03-19 15:00:00<>METAR SBGL 191500Z 12007KT 9999 FEW020 BKN100 28/23 Q1008=
2026-03-19 16:00:00<>METAR SBGL 191600Z 13008KT 9999 FEW020 BKN100 29/23 Q1008=
2026-03-19 17:00:00<>METAR SBGL 191700Z 14007KT 9999 FEW030 BKN100 28/23 Q1007=
2026-03-19 18:00:00<>METAR SBGL 191800Z 14010KT 9999 FEW030 BKN100 28/22 Q1006=
2026-03-19 19:00:00<>METAR SBGL 191900Z 14008KT 9999 SCT030 BKN100 26/23 Q1006=
2026-03-19 20:00:00<>METAR SBGL 192000Z 14008KT 9999 -RA BKN030 BKN100 26/23 Q1007=
2026-03-19 21:00:00<>METAR SBGL 192100Z 15006KT 9999 BKN030 BKN100 25/23 Q1007=
2026-03-19 22:00:00<>METAR SBGL 192200Z 11005KT 8000 -RA BKN025 BKN100 25/24 Q1008=
2026-03-19 23:00:00<>METAR SBGL 192300Z 14002KT 9000 -RA BKN030 BKN100 25/24 Q1009=
2026-03-19 23:30:00<>SPECI SBGL 192330Z 27005KT 4000 -RA BR BKN008 OVC070 25/24 Q1009=
2026-03-20 00:00:00<>METAR SBGL 200000Z 20010KT 1000 R10/1000N R28/1000N R15/1000N R33/1000N RA FEW006 BKN008 OVC070 24/22 Q1010=
2026-03-20 00:06:00<>SPECI SBGL 200006Z 17004KT 120V210 4000 -RA BR FEW006 BKN010 OVC060 24/22 Q1010 RERA=
2026-03-20 01:00:00<>METAR SBGL 200100Z 05013KT 6000 FEW006 BKN012 OVC060 23/21 Q1010=
2026-03-20 02:00:00<>METAR SBGL 200200Z 05006KT 9999 FEW015 BKN030 OVC100 23/20 Q1009=
2026-03-20 03:00:00<>METAR SBGL 200300Z 26001KT 9999 FEW020 BKN035 OVC100 22/20 Q1009=
2026-03-20 04:00:00<>METAR SBGL 200400Z 15004KT 9999 FEW020 BKN035 OVC100 23/21 Q1009=
2026-03-20 05:00:00<>METAR SBGL 200500Z VRB02KT 9999 FEW020 BKN035 OVC100 23/22 Q1008=
2026-03-20 06:00:00<>METAR SBGL 200600Z VRB02KT 9999 FEW020 BKN035 OVC100 23/22 Q1008=
2026-03-20 07:00:00<>METAR SBGL 200700Z 27002KT 9999 FEW010 BKN030 OVC100 23/21 Q1008=
2026-03-20 08:00:00<>METAR SBGL 200800Z VRB02KT 9999 FEW010 BKN030 OVC100 23/21 Q1008=
2026-03-20 09:00:00<>METAR SBGL 200900Z 01002KT 9000 FEW020 BKN100 23/21 Q1008=
2026-03-20 10:00:00<>METAR SBGL 201000Z VRB02KT 5000 BR FEW010 BKN040 24/22 Q1009=
2026-03-20 10:31:00<>SPECI SBGL 201031Z VRB01KT 5000 BR FEW007 BKN011 BKN040 24/22 Q1009=
2026-03-20 11:00:00<>METAR SBGL 201100Z 11002KT 6000 FEW007 BKN011 BKN040 24/22 Q1010=
2026-03-20 12:00:00<>METAR SBGL 201200Z VRB02KT 8000 FEW007 SCT011 BKN066 27/23 Q1010=
2026-03-20 13:00:00<>METAR SBGL 201300Z 34003KT 290V040 9999 FEW013 SCT050 BKN066 26/23 Q1010=
2026-03-20 14:00:00<>METAR SBGL 201400Z 36004KT 320V040 9999 SCT017 BKN050 BKN066 27/23 Q1010=
2026-03-20 15:00:00<>METAR SBGL 201500Z 06003KT 010V130 9999 VCSH BKN019 BKN050 BKN066 27/22 Q1009=
2026-03-20 15:40:00<>SPECI SBGL 201540Z 13003KT 090V170 3000 RA SCT012 BKN015 BKN050 27/23 Q1009=
2026-03-20 16:00:00<>METAR SBGL 201600Z 26007KT 3000 R33/1700D R10/1800D R28/P2000 R15/P2000 RA BR SCT012 BKN015 BKN050 25/23 Q1009=
2026-03-20 17:00:00<>METAR SBGL 201700Z 29003KT 260V320 7000 2000NE -RA SCT012 BKN018 BKN050 24/23 Q1008 RERA=
2026-03-20 18:00:00<>METAR SBGL 201800Z VRB04KT 3000 -RA BR SCT009 BKN011 BKN050 25/23 Q1008=
2026-03-20 19:00:00<>METAR SBGL 201900Z VRB02KT 8000 BKN025 BKN050 BKN066 25/24 Q1008=
2026-03-20 20:00:00<>METAR SBGL 202000Z 12004KT 080V140 9999 BKN025 BKN050 BKN066 25/23 Q1008=
2026-03-20 21:00:00<>METAR SBGL 202100Z 14003KT 110V180 9999 FEW030 BKN050 BKN066 25/23 Q1009=
2026-03-20 22:00:00<>METAR SBGL 202200Z 14004KT 9999 FEW030 BKN050 BKN066 24/22 Q1010=
2026-03-20 23:00:00<>METAR SBGL 202300Z 14002KT 9999 BKN030 OVC070 24/23 Q1010=
2026-03-21 00:00:00<>METAR SBGL 210000Z 13003KT 9999 BKN030 BKN070 24/22 Q1010=
2026-03-21 01:00:00<>METAR SBGL 210100Z 09003KT 9999 FEW025 SCT070 24/22 Q1011=
2026-03-21 02:00:00<>METAR SBGL 210200Z 06001KT 9999 FEW013 24/22 Q1011=
2026-03-21 03:00:00<>METAR SBGL 210300Z 09002KT 9999 BKN013 BKN030 24/23 Q1011=
2026-03-21 04:00:00<>METAR SBGL 210400Z 27001KT 9999 SCT010 BKN025 24/23 Q1011=
2026-03-21 05:00:00<>METAR SBGL 210500Z 19002KT 9999 SCT010 23/22 Q1010=
2026-03-21 06:00:00<>METAR SBGL 210600Z 26003KT 9999 SCT009 23/22 Q1010=
2026-03-21 07:00:00<>METAR SBGL 210700Z 25001KT 8000 FEW009 23/22 Q1009=
2026-03-21 08:00:00<>METAR SBGL 210800Z 29003KT 5000 BR FEW009 23/22 Q1010=
2026-03-21 09:00:00<>METAR SBGL 210900Z 26003KT 3000 BR FEW005 23/22 Q1010=
2026-03-21 10:00:00<>METAR SBGL 211000Z 25002KT 3000 BR FEW013 24/22 Q1011=
2026-03-21 11:00:00<>METAR SBGL 211100Z 35002KT 9999 FEW009 25/22 Q1011=
2026-03-21 12:00:00<>METAR SBGL 211200Z 36004KT 9999 FEW012 26/22 Q1011=
2026-03-21 13:00:00<>METAR SBGL 211300Z 01004KT 9999 FEW018 27/22 Q1012=
2026-03-21 14:00:00<>METAR SBGL 211400Z 03006KT 9999 FEW020 29/22 Q1012=
2026-03-21 15:00:00<>METAR SBGL 211500Z 03007KT 9999 FEW025 30/22 Q1011=
2026-03-21 16:00:00<>METAR SBGL 211600Z 13009KT 9999 FEW030 29/20 Q1011=
2026-03-21 17:00:00<>METAR SBGL 211700Z 13012KT 9999 FEW030 29/21 Q1011=
2026-03-21 18:00:00<>METAR COR SBGL 211800Z 13012KT 9999 FEW030 29/21 Q1011=
2026-03-21 19:00:00<>METAR SBGL 211900Z 14014KT 9999 FEW030 28/21 Q1011=
2026-03-21 20:00:00<>METAR SBGL 212000Z 14011KT CAVOK 27/22 Q1010=
2026-03-21 21:00:00<>METAR SBGL 212100Z 14011KT CAVOK 26/21 Q1011=
2026-03-21 22:00:00<>METAR SBGL 212200Z 15009KT 9999 BKN048 BKN100 26/21 Q1012=
2026-03-21 23:00:00<>METAR SBGL 212300Z 06003KT 010V120 9999 FEW048 SCT100 25/21 Q1013=
2026-03-22 00:00:00<>METAR SBGL 220000Z 14002KT 9999 FEW048 24/21 Q1013=
2026-03-22 01:00:00<>METAR SBGL 220100Z 14004KT CAVOK 24/22 Q1013=
2026-03-22 02:00:00<>METAR SBGL 220200Z 15004KT CAVOK 24/21 Q1013=
2026-03-22 03:00:00<>METAR SBGL 220300Z 11004KT 9999 FEW030 24/21 Q1013=
2026-03-22 04:00:00<>METAR SBGL 220400Z 11003KT 9999 FEW009 24/21 Q1012=
2026-03-22 05:00:00<>METAR SBGL 220500Z VRB02KT 9999 FEW009 23/21 Q1012=
2026-03-22 06:00:00<>METAR SBGL 220600Z 00000KT 9999 FEW009 23/21 Q1011=
2026-03-22 07:00:00<>METAR SBGL 220700Z 07002KT 9999 FEW009 23/21 Q1011=
2026-03-22 08:00:00<>METAR SBGL 220800Z 05002KT 9000 FEW009 23/21 Q1011=
2026-03-22 09:00:00<>METAR SBGL 220900Z 33004KT 310V020 7000 FEW009 23/22 Q1012=
2026-03-22 10:00:00<>METAR SBGL 221000Z 07003KT 8000 FEW009 24/22 Q1012=
2026-03-22 11:00:00<>METAR SBGL 221100Z 06003KT 330V110 8000 SCT010 25/23 Q1012=
2026-03-22 12:00:00<>METAR SBGL 221200Z 05004KT 010V100 9999 FEW010 26/23 Q1013=
2026-03-22 13:00:00<>METAR SBGL 221300Z VRB03KT 9999 FEW010 27/23 Q1013=
2026-03-22 14:00:00<>METAR SBGL 221400Z VRB03KT 9999 FEW020 30/21 Q1012=
2026-03-22 15:00:00<>METAR SBGL 221500Z 15006KT 9999 FEW020 30/22 Q1012=
2026-03-22 16:00:00<>METAR SBGL 221600Z 13011KT 9999 FEW033 30/22 Q1011=
2026-03-22 17:00:00<>METAR SBGL 221700Z 15013KT 9999 FEW033 29/21 Q1010=
2026-03-22 18:00:00<>METAR SBGL 221800Z 15015KT 9999 FEW033 29/21 Q1010=
2026-03-22 19:00:00<>METAR SBGL 221900Z 14015KT 9999 FEW033 28/21 Q1010=
2026-03-22 20:00:00<>METAR SBGL 222000Z 15014KT 9999 FEW033 27/20 Q1010=
2026-03-22 21:00:00<>METAR SBGL 222100Z 13015KT 9999 FEW033 SCT050 26/21 Q1011=
2026-03-22 22:00:00<>METAR SBGL 222200Z 14011KT 9999 FEW033 BKN050 26/21 Q1011=
2026-03-22 23:00:00<>METAR SBGL 222300Z 14011KT 9999 FEW033 BKN050 26/21 Q1012=
2026-03-23 00:00:00<>METAR COR SBGL 230000Z 15005KT 9999 FEW033 BKN050 25/21 Q1013=
2026-03-23 01:00:00<>METAR SBGL 230100Z 14004KT 9999 FEW040 25/21 Q1013=
2026-03-23 02:00:00<>METAR SBGL 230200Z 14004KT 9999 FEW040 24/21 Q1013=
2026-03-23 03:00:00<>METAR SBGL 230300Z 14004KT 9999 FEW040 24/21 Q1013=
2026-03-23 04:00:00<>METAR SBGL 230400Z 12003KT 9999 FEW040 24/21 Q1013=
2026-03-23 05:00:00<>METAR SBGL 230500Z 11003KT 9999 FEW040 23/21 Q1012=
2026-03-23 06:00:00<>METAR SBGL 230600Z 11003KT 9999 FEW040 23/21 Q1012=
2026-03-23 07:00:00<>METAR SBGL 230700Z 35003KT 9999 FEW009 23/21 Q1012=
2026-03-23 08:00:00<>METAR SBGL 230800Z 29003KT 9999 FEW010 23/21 Q1012=
2026-03-23 09:00:00<>METAR SBGL 230900Z 35002KT 9999 FEW010 23/22 Q1013=
2026-03-23 10:00:00<>METAR SBGL 231000Z 03002KT 9999 FEW010 SCT014 24/22 Q1013=
2026-03-23 11:00:00<>METAR SBGL 231100Z VRB02KT 9999 SCT020 25/22 Q1013=
2026-03-23 12:00:00<>METAR SBGL 231200Z 08005KT 9999 SCT020 26/22 Q1013=
2026-03-23 13:00:00<>METAR SBGL 231300Z 06007KT 030V100 9999 SCT020 28/22 Q1013=
2026-03-23 14:00:00<>METAR SBGL 231400Z 02006KT 9999 SCT025 29/21 Q1012=
2026-03-23 15:00:00<>METAR SBGL 231500Z 11009KT 9999 SCT025 30/21 Q1012=
2026-03-23 16:00:00<>METAR SBGL 231600Z 13011KT 9999 SCT035 29/22 Q1011=
2026-03-23 17:00:00<>METAR SBGL 231700Z 14009KT 9999 SCT035 29/21 Q1010=
2026-03-23 18:00:00<>METAR SBGL 231800Z 14014KT 9999 SCT035 29/21 Q1010=
2026-03-23 19:00:00<>METAR SBGL 231900Z 10015KT 9999 SCT035 26/20 Q1010=
2026-03-23 20:00:00<>METAR SBGL 232000Z 05011KT 9999 FEW020 BKN060 25/21 Q1010=
2026-03-23 21:00:00<>METAR SBGL 232100Z 08006KT 9999 FEW020 BKN060 24/21 Q1010=
2026-03-23 22:00:00<>METAR SBGL 232200Z 15006KT 9999 FEW020 BKN060 24/21 Q1010=
2026-03-23 23:00:00<>METAR SBGL 232300Z 15004KT 9999 FEW020 BKN100 24/21 Q1011=
2026-03-24 00:00:00<>METAR SBGL 240000Z 10005KT 9999 FEW020 SCT100 24/20 Q1011=
2026-03-24 01:00:00<>METAR SBGL 240100Z 15003KT 9999 FEW020 24/20 Q1012=
2026-03-24 02:00:00<>METAR SBGL 240200Z 08003KT 9999 FEW020 23/20 Q1012=
2026-03-24 03:00:00<>METAR SBGL 240300Z 16002KT 9999 FEW020 23/21 Q1012=
2026-03-24 04:00:00<>METAR SBGL 240400Z 18004KT CAVOK 22/21 Q1011=
2026-03-24 05:00:00<>METAR SBGL 240500Z 21003KT CAVOK 22/20 Q1011=
2026-03-24 06:00:00<>METAR SBGL 240600Z 27003KT CAVOK 22/20 Q1011=
2026-03-24 07:00:00<>METAR SBGL 240700Z 32003KT 8000 NSC 21/20 Q1010=
2026-03-24 08:00:00<>METAR SBGL 240800Z 30003KT 8000 FEW011 22/21 Q1011=
2026-03-24 09:00:00<>METAR SBGL 240900Z 04002KT 8000 FEW011 22/20 Q1011=
2026-03-24 10:00:00<>METAR SBGL 241000Z 32004KT 9000 NSC 23/21 Q1011=
2026-03-24 11:00:00<>METAR SBGL 241100Z VRB02KT CAVOK 25/21 Q1012=
2026-03-24 12:00:00<>METAR SBGL 241200Z 14003KT CAVOK 28/21 Q1012=
2026-03-24 13:00:00<>METAR SBGL 241300Z 06007KT 030V090 CAVOK 28/22 Q1012=
2026-03-24 14:00:00<>METAR SBGL 241400Z 04007KT CAVOK 27/23 Q1011=
2026-03-24 15:00:00<>METAR SBGL 241500Z 04005KT 360V080 9999 FEW017 30/21 Q1011=
2026-03-24 16:00:00<>METAR SBGL 241600Z 05005KT 010V080 9999 FEW020 31/21 Q1010=
2026-03-24 17:00:00<>METAR SBGL 241700Z VRB05KT 9999 FEW023 32/20 Q1009=
2026-03-24 18:00:00<>METAR SBGL 241800Z 13005KT 070V170 9999 FEW025 32/20 Q1008=
2026-03-24 19:00:00<>METAR SBGL 241900Z 14006KT CAVOK 32/19 Q1008=
2026-03-24 20:00:00<>METAR SBGL 242000Z 13007KT CAVOK 30/21 Q1008=
2026-03-24 21:00:00<>METAR SBGL 242100Z 15007KT CAVOK 28/21 Q1009=
2026-03-24 22:00:00<>METAR SBGL 242200Z 13006KT CAVOK 28/22 Q1009=
2026-03-24 23:00:00<>METAR SBGL 242300Z 11005KT CAVOK 28/22 Q1010=
2026-03-25 00:00:00<>METAR SBGL 250000Z 12005KT CAVOK 27/23 Q1011=
2026-03-25 01:00:00<>METAR SBGL 250100Z VRB02KT CAVOK 26/23 Q1011=
2026-03-25 02:00:00<>METAR SBGL 250200Z 07003KT CAVOK 26/23 Q1011=
2026-03-25 03:00:00<>METAR SBGL 250300Z VRB02KT CAVOK 25/23 Q1012=
2026-03-25 04:00:00<>METAR SBGL 250400Z VRB01KT CAVOK 25/22 Q1012=
2026-03-25 05:00:00<>METAR SBGL 250500Z VRB02KT CAVOK 25/22 Q1011=
2026-03-25 06:00:00<>METAR SBGL 250600Z 07003KT CAVOK 24/22 Q1012=
2026-03-25 07:00:00<>METAR SBGL 250700Z 07002KT CAVOK 24/22 Q1012=
2026-03-25 08:00:00<>METAR SBGL 250800Z 06003KT CAVOK 24/22 Q1012=
2026-03-25 09:00:00<>METAR SBGL 250900Z 08004KT CAVOK 23/22 Q1013=
2026-03-25 10:00:00<>METAR SBGL 251000Z 12001KT CAVOK 25/23 Q1013=
2026-03-25 11:00:00<>METAR SBGL 251100Z 18004KT 9999 FEW010 27/23 Q1014=
2026-03-25 12:00:00<>METAR SBGL 251200Z 32003KT CAVOK 30/21 Q1014=
2026-03-25 13:00:00<>METAR SBGL 251300Z 36005KT CAVOK 31/22 Q1014=
2026-03-25 14:00:00<>METAR SBGL 251400Z 36005KT CAVOK 32/21 Q1014=
2026-03-25 15:00:00<>METAR SBGL 251500Z 04007KT CAVOK 33/20 Q1013=
2026-03-25 16:00:00<>METAR SBGL 251600Z 13007KT 9999 FEW035 33/22 Q1013=
2026-03-25 17:00:00<>METAR SBGL 251700Z 13009KT 9999 FEW035 33/21 Q1012=
2026-03-25 18:00:00<>METAR SBGL 251800Z 14011KT 9999 FEW035 32/22 Q1012=
2026-03-25 19:00:00<>METAR SBGL 251900Z 14011KT 9999 FEW035 31/21 Q1012=
2026-03-25 19:27:00<>SPECI SBGL 251927Z 14011KT 9999 TS VCSH FEW035 FEW035CB 31/20 Q1012=
2026-03-25 20:00:00<>METAR SBGL 252000Z 14010KT 9999 FEW035 31/21 Q1012 RETS=
2026-03-25 21:00:00<>METAR SBGL 252100Z 13004KT 9999 FEW030 29/22 Q1012=
2026-03-25 22:00:00<>METAR SBGL 252200Z 14005KT 9999 VCTS FEW030 FEW030CB 28/23 Q1013=
2026-03-25 23:00:00<>METAR SBGL 252300Z 15002KT 9999 FEW030 28/23 Q1014=
2026-03-26 00:00:00<>METAR SBGL 260000Z 16010KT CAVOK 27/22 Q1014=
2026-03-26 01:00:00<>METAR SBGL 260100Z 26004KT CAVOK 27/22 Q1015=
2026-03-26 02:00:00<>METAR SBGL 260200Z 26005KT CAVOK 27/22 Q1015=
2026-03-26 03:00:00<>METAR SBGL 260300Z 31002KT CAVOK 27/22 Q1015=
2026-03-26 04:00:00<>METAR SBGL 260400Z 10004KT CAVOK 25/22 Q1014=
2026-03-26 05:00:00<>METAR SBGL 260500Z 09002KT CAVOK 25/22 Q1014=
2026-03-26 06:00:00<>METAR SBGL 260600Z 10003KT CAVOK 25/21 Q1014=
2026-03-26 07:00:00<>METAR SBGL 260700Z 08003KT CAVOK 24/22 Q1013=
2026-03-26 08:00:00<>METAR SBGL 260800Z 10003KT CAVOK 24/22 Q1014=
2026-03-26 09:00:00<>METAR SBGL 260900Z 12001KT CAVOK 24/22 Q1014=
2026-03-26 10:00:00<>METAR SBGL 261000Z 09002KT CAVOK 26/22 Q1015=
2026-03-26 11:00:00<>METAR SBGL 261100Z 09002KT CAVOK 27/23 Q1016=
2026-03-26 12:00:00<>METAR SBGL 261200Z 16003KT 130V210 9999 FEW018 28/23 Q1016=
2026-03-26 13:00:00<>METAR SBGL 261300Z 36006KT 340V050 9999 FEW019 29/23 Q1016=
2026-03-26 14:00:00<>METAR SBGL 261400Z 35007KT 9999 FEW020 30/24 Q1016=
2026-03-26 15:00:00<>METAR COR SBGL 261500Z 09007KT 060V160 9999 SCT022 33/22 Q1015=
2026-03-26 16:00:00<>METAR SBGL 261600Z 12011KT 080V160 9999 SCT026 33/23 Q1015=
2026-03-26 17:00:00<>METAR SBGL 261700Z 12010KT 9999 FEW030 31/23 Q1014=
2026-03-26 18:00:00<>METAR SBGL 261800Z 13012KT 9999 FEW030 31/22 Q1014=
2026-03-26 19:00:00<>METAR SBGL 261900Z 13011KT 9999 FEW030 30/21 Q1014=
2026-03-26 20:00:00<>METAR SBGL 262000Z 14011KT 9999 FEW030 30/22 Q1014=
2026-03-26 21:00:00<>METAR SBGL 262100Z 14008KT 9999 SCT040 29/22 Q1014=
2026-03-26 22:00:00<>METAR SBGL 262200Z 14006KT 9999 FEW030 28/23 Q1014=
2026-03-26 23:00:00<>METAR SBGL 262300Z 11004KT 9999 FEW030 SCT050 28/23 Q1015=
2026-03-27 00:00:00<>METAR SBGL 270000Z 13004KT 9999 FEW030 SCT080 27/23 Q1016=
2026-03-27 01:00:00<>METAR SBGL 270100Z 10003KT 070V130 9999 FEW030 SCT080 27/23 Q1016=
2026-03-27 02:00:00<>METAR SBGL 270200Z 07002KT 9999 FEW030 SCT080 26/22 Q1016=
2026-03-27 03:00:00<>METAR SBGL 270300Z 07004KT 9999 FEW030 25/23 Q1016=
2026-03-27 04:00:00<>METAR SBGL 270400Z 12004KT 9999 FEW030 25/22 Q1016=
2026-03-27 05:00:00<>METAR SBGL 270500Z 11005KT CAVOK 25/22 Q1015=
2026-03-27 06:00:00<>METAR SBGL 270600Z 09003KT CAVOK 24/22 Q1015=
2026-03-27 07:00:00<>METAR SBGL 270700Z 12003KT 090V150 9999 FEW030 24/22 Q1015=
2026-03-27 08:00:00<>METAR SBGL 270800Z 10004KT 9999 FEW015 23/22 Q1015=
2026-03-27 09:00:00<>METAR SBGL 270900Z 12003KT 9999 FEW012 23/21 Q1016=
2026-03-27 10:00:00<>METAR SBGL 271000Z 11003KT 9999 FEW012 25/22 Q1017=
2026-03-27 11:00:00<>METAR SBGL 271100Z 08005KT 9999 FEW008 26/23 Q1018=
2026-03-27 12:00:00<>METAR SBGL 271200Z 36005KT 9999 FEW011 27/23 Q1018=
2026-03-27 13:00:00<>METAR SBGL 271300Z 04005KT 9999 FEW017 28/22 Q1018=
2026-03-27 14:00:00<>METAR SBGL 271400Z 14005KT 9999 FEW020 30/22 Q1018=
2026-03-27 15:00:00<>METAR SBGL 271500Z 11011KT 9999 FEW023 31/19 Q1017=
2026-03-27 16:00:00<>METAR SBGL 271600Z 11012KT 9999 FEW023 31/20 Q1016=
2026-03-27 17:00:00<>METAR SBGL 271700Z 14013KT 9999 FEW030 30/21 Q1016=
2026-03-27 18:00:00<>METAR SBGL 271800Z 13010KT 9999 FEW030 31/22 Q1016=
2026-03-27 19:00:00<>METAR SBGL 271900Z 25009KT 9999 FEW030 30/21 Q1016=
2026-03-27 20:00:00<>METAR SBGL 272000Z 15010KT 9999 FEW030 29/21 Q1016=
2026-03-27 21:00:00<>METAR SBGL 272100Z 14007KT 9999 FEW030 28/22 Q1016=
2026-03-27 22:00:00<>METAR SBGL 272200Z 13007KT 9999 SCT030 27/22 Q1017=
2026-03-27 23:00:00<>METAR SBGL 272300Z 13007KT 9999 SCT030 27/20 Q1018=
2026-03-28 00:00:00<>METAR SBGL 280000Z 10008KT 9999 FEW030 26/21 Q1018=
2026-03-28 01:00:00<>METAR SBGL 280100Z 11007KT 9999 FEW030 26/22 Q1018=
2026-03-28 02:00:00<>METAR SBGL 280200Z 11006KT CAVOK 26/22 Q1018=
2026-03-28 03:00:00<>METAR SBGL 280300Z 11006KT CAVOK 25/22 Q1018=
2026-03-28 04:00:00<>METAR SBGL 280400Z 11006KT CAVOK 25/22 Q1018=
2026-03-28 05:00:00<>METAR SBGL 280500Z 10004KT CAVOK 24/21 Q1017=
2026-03-28 06:00:00<>METAR SBGL 280600Z 10004KT CAVOK 24/21 Q1017=
2026-03-28 07:00:00<>METAR SBGL 280700Z 08002KT CAVOK 23/21 Q1017=
2026-03-28 08:00:00<>METAR SBGL 280800Z 12003KT CAVOK 23/21 Q1017=
2026-03-28 09:00:00<>METAR SBGL 280900Z 09003KT 9999 FEW013 23/21 Q1018=
2026-03-28 10:00:00<>METAR SBGL 281000Z 11002KT 9999 FEW013 25/22 Q1018=
2026-03-28 11:00:00<>METAR SBGL 281100Z 01002KT 9999 FEW013 27/23 Q1019=
2026-03-28 12:00:00<>METAR SBGL 281200Z 01005KT 9999 FEW013 27/22 Q1019=
2026-03-28 13:00:00<>METAR SBGL 281300Z 04004KT 9999 FEW020 30/23 Q1019=
2026-03-28 14:00:00<>METAR SBGL 281400Z 07008KT 9999 FEW025 30/20 Q1019=
2026-03-28 15:00:00<>METAR SBGL 281500Z 05007KT 9999 FEW025 31/21 Q1019=
2026-03-28 16:00:00<>METAR SBGL 281600Z 14007KT 9999 FEW030 30/22 Q1018=
2026-03-28 17:00:00<>METAR SBGL 281700Z 14007KT 9999 FEW030 30/22 Q1017=
2026-03-28 18:00:00<>METAR SBGL 281800Z 14011KT 9999 FEW030 30/22 Q1016=
2026-03-28 19:00:00<>METAR SBGL 281900Z 13010KT 9999 FEW030 29/22 Q1016=
2026-03-28 20:00:00<>METAR SBGL 282000Z 14008KT 9999 FEW040 29/21 Q1016=
2026-03-28 21:00:00<>METAR SBGL 282100Z 14010KT 9999 FEW040 27/21 Q1017=
2026-03-28 22:00:00<>METAR SBGL 282200Z 14007KT 9999 FEW040 26/21 Q1018=
2026-03-28 23:00:00<>METAR SBGL 282300Z 12008KT 9999 FEW040 26/21 Q1018=
2026-03-29 00:00:00<>METAR SBGL 290000Z 11012KT 9999 FEW040 26/21 Q1019=
2026-03-29 01:00:00<>METAR SBGL 290100Z 08014KT 9999 SCT040 26/22 Q1019=
2026-03-29 02:00:00<>METAR SBGL 290200Z 11011KT 9999 SCT040 25/22 Q1019=
2026-03-29 03:00:00<>METAR SBGL 290300Z 09009KT 9999 FEW015 25/22 Q1019=
2026-03-29 04:00:00<>METAR SBGL 290400Z 10008KT 9999 FEW015 25/22 Q1018=
2026-03-29 05:00:00<>METAR SBGL 290500Z 13007KT 9999 FEW015 24/22 Q1018=
2026-03-29 06:00:00<>METAR SBGL 290600Z 18006KT 9999 FEW015 24/22 Q1018=
2026-03-29 07:00:00<>METAR COR SBGL 290700Z 24005KT 8000 FEW015 24/21 Q1018=
2026-03-29 08:00:00<>METAR SBGL 290800Z 07002KT 8000 FEW015 23/21 Q1017=
2026-03-29 09:00:00<>METAR SBGL 290900Z 10002KT 9000 FEW015 22/21 Q1017=
2026-03-29 10:00:00<>METAR SBGL 291000Z 06002KT 9000 FEW007 24/22 Q1018=
2026-03-29 11:00:00<>METAR SBGL 291100Z VRB03KT 9999 FEW007 SCT009 25/22 Q1018=
2026-03-29 12:00:00<>METAR SBGL 291200Z 03003KT 320V080 9999 FEW011 27/22 Q1019=
2026-03-29 13:00:00<>METAR SBGL 291300Z VRB03KT 9999 FEW020 28/21 Q1018=
2026-03-29 14:00:00<>METAR SBGL 291400Z 16005KT 100V240 9999 FEW020 29/19 Q1018=
2026-03-29 15:00:00<>METAR SBGL 291500Z 12007KT 010V070 9999 FEW025 30/20 Q1017=
2026-03-29 16:00:00<>METAR SBGL 291600Z 14008KT 100V170 9999 FEW030 30/21 Q1016=
2026-03-29 17:00:00<>METAR SBGL 291700Z 13006KT 9999 FEW030 30/21 Q1015=
2026-03-29 18:00:00<>METAR SBGL 291800Z 13008KT 9999 FEW035 29/22 Q1015=
2026-03-29 19:00:00<>METAR SBGL 291900Z 14012KT 9999 FEW040 28/21 Q1015=
2026-03-29 20:00:00<>METAR SBGL 292000Z 13013KT 9999 FEW040 27/21 Q1015=
2026-03-29 21:00:00<>METAR SBGL 292100Z 13012KT 9999 FEW040 26/22 Q1015=
2026-03-29 22:00:00<>METAR SBGL 292200Z 15012KT CAVOK 26/22 Q1016=
2026-03-29 23:00:00<>METAR SBGL 292300Z 14011KT 9999 SCT040 26/22 Q1016=
2026-03-30 00:00:00<>METAR SBGL 300000Z 12005KT 9999 SCT040 25/22 Q1017=
2026-03-30 01:00:00<>METAR SBGL 300100Z 14004KT 9999 SCT040 25/22 Q1017=
2026-03-30 02:00:00<>METAR SBGL 300200Z 14004KT 9999 SCT040 25/22 Q1017=
2026-03-30 03:00:00<>METAR SBGL 300300Z 14004KT 9999 SCT035 25/21 Q1016=
2026-03-30 04:00:00<>METAR SBGL 300400Z 11002KT 9999 SCT035 24/22 Q1016=
2026-03-30 05:00:00<>METAR SBGL 300500Z 11003KT 9999 SCT035 25/22 Q1015=
2026-03-30 06:00:00<>METAR SBGL 300600Z 10002KT 9999 SCT040 24/22 Q1015=
2026-03-30 07:00:00<>METAR SBGL 300700Z 13001KT 9999 FEW012 SCT040 24/22 Q1014=
2026-03-30 08:00:00<>METAR SBGL 300800Z 09002KT 9999 FEW012 SCT040 24/22 Q1014=
2026-03-30 09:00:00<>METAR SBGL 300900Z 33004KT 7000 FEW012 BKN040 24/22 Q1014=
2026-03-30 10:00:00<>METAR SBGL 301000Z VRB01KT 8000 FEW012 BKN040 25/23 Q1014=
2026-03-30 11:00:00<>METAR SBGL 301100Z VRB02KT 9999 FEW012 26/22 Q1015=
2026-03-30 12:00:00<>METAR SBGL 301200Z 18002KT 9999 FEW017 28/22 Q1015=
2026-03-30 13:00:00<>METAR SBGL 301300Z 12004KT 9999 FEW018 28/23 Q1015=
2026-03-30 14:00:00<>METAR SBGL 301400Z 11007KT 9999 FEW020 30/22 Q1014=
2026-03-30 15:00:00<>METAR SBGL 301500Z 14009KT 9999 FEW020 BKN100 29/22 Q1013=
2026-03-30 16:00:00<>METAR SBGL 301600Z 13007KT 9999 FEW025 29/21 Q1013=
2026-03-30 17:00:00<>METAR SBGL 301700Z 11011KT 9999 FEW030 29/21 Q1012=
2026-03-30 18:00:00<>METAR SBGL 301800Z 13015KT 9999 FEW030 FEW030TCU 28/20 Q1012=
2026-03-30 19:00:00<>METAR SBGL 301900Z 13012KT 9999 FEW030 FEW030TCU 27/20 Q1012=
2026-03-30 20:00:00<>METAR SBGL 302000Z 13010KT 100V160 9999 FEW030 FEW030TCU 26/20 Q1012=
2026-03-30 21:00:00<>METAR SBGL 302100Z 14008KT 9999 FEW030 FEW030TCU BKN050 26/21 Q1012=
2026-03-30 22:00:00<>METAR SBGL 302200Z 13005KT 9999 FEW025 BKN050 26/22 Q1013=
2026-03-30 23:00:00<>METAR SBGL 302300Z 14005KT 9999 FEW025 BKN050 25/22 Q1013=
2026-03-31 00:00:00<>METAR SBGL 310000Z 14004KT 9999 FEW025 BKN050 26/22 Q1013=
2026-03-31 01:00:00<>METAR COR SBGL 310100Z 16005KT 9999 FEW030 25/22 Q1013=
2026-03-31 02:00:00<>METAR SBGL 310200Z 13004KT 9999 FEW030 SCT100 25/22 Q1013=
2026-03-31 03:00:00<>METAR SBGL 310300Z 13004KT 9999 FEW025 SCT100 25/22 Q1012=
2026-03-31 04:00:00<>METAR SBGL 310400Z 05003KT 9999 FEW025 SCT100 24/22 Q1012=
2026-03-31 05:00:00<>METAR SBGL 310500Z 32005KT 9999 FEW010 SCT080 24/22 Q1011=
2026-03-31 06:00:00<>METAR SBGL 310600Z 30002KT 9999 FEW010 SCT080 24/22 Q1010=
2026-03-31 07:00:00<>METAR SBGL 310700Z 06001KT 9999 FEW014 SCT100 25/22 Q1010=
2026-03-31 08:00:00<>METAR SBGL 310800Z 11001KT 9999 FEW014 SCT100 24/22 Q1010=
2026-03-31 09:00:00<>METAR SBGL 310900Z 33004KT 8000 FEW014 BKN100 24/22 Q1011=
2026-03-31 10:00:00<>METAR SBGL 311000Z 01002KT 5000 BR FEW016 BKN100 24/22 Q1011=
2026-03-31 11:00:00<>METAR SBGL 311100Z 36004KT 9999 FEW016 BKN100 26/23 Q1012=
2026-03-31 12:00:00<>METAR SBGL 311200Z 36004KT 320V050 9999 SCT016 BKN100 27/22 Q1012=
2026-03-31 13:00:00<>METAR SBGL 311300Z 12005KT 9999 FEW018 BKN100 28/22 Q1012=
2026-03-31 14:00:00<>METAR SBGL 311400Z 12007KT 9999 FEW048 BKN100 28/22 Q1012=
2026-03-31 15:00:00<>METAR SBGL 311500Z 13010KT 9999 FEW024 SCT048 BKN100 27/22 Q1011=
2026-03-31 16:00:00<>METAR SBGL 311600Z 17008KT 9999 FEW018 SCT030 BKN100 26/22 Q1011=
2026-03-31 16:21:00<>SPECI SBGL 311621Z 12008KT 8000 TS FEW018 FEW025CB SCT030 BKN100 25/22 Q1011=
2026-03-31 17:00:00<>METAR SBGL 311700Z 13008KT 8000 -RA FEW018 FEW025TCU SCT030 BKN100 24/21 Q1010 RETS=
2026-03-31 17:26:00<>SPECI SBGL 311726Z 13005KT 8000 -TSRA FEW018 FEW025CB SCT030 BKN100 23/22 Q1010=
2026-03-31 18:00:00<>METAR SBGL 311800Z 13006KT 6000 -TSRA BKN012 SCT018 FEW025CB BKN100 23/22 Q1011=
2026-03-31 19:00:00<>METAR SBGL 311900Z 30004KT 5000 -RA BR BKN012 SCT018 FEW025TCU BKN100 23/22 Q1011 RETS=
2026-03-31 20:00:00<>METAR SBGL 312000Z 09004KT 6000 -RA FEW007 FEW025TCU BKN100 23/22 Q1011=
2026-03-31 21:00:00<>METAR SBGL 312100Z 10003KT 9999 -RA FEW007 FEW025TCU BKN100 23/22 Q1012=
2026-03-31 22:00:00<>METAR SBGL 312200Z 13004KT 9999 FEW006 FEW050TCU BKN100 23/22 Q1012=
2026-03-31 22:20:00<>SPECI SBGL 312220Z 11005KT 9999 FEW006 BKN010 BKN100 23/22 Q1012=
2026-03-31 23:00:00<>METAR SBGL 312300Z 13002KT 9999 SCT006 BKN010 BKN019 23/22 Q1012=
2026-03-31 23:29:00<>SPECI SBGL 312329Z VRB01KT 9999 FEW006 SCT019 23/22 Q1012=
2026-04-01 00:00:00<>METAR SBGL 010000Z 11003KT 9999 FEW018 23/22 Q1012=
2026-04-01 01:00:00<>METAR SBGL 010100Z VRB02KT 9999 FEW016 23/22 Q1012=
2026-04-01 02:00:00<>METAR SBGL 010200Z VRB02KT 9999 FEW014 24/22 Q1012=
2026-04-01 03:00:00<>METAR SBGL 010300Z 08003KT 040V110 7000 FEW005 BKN010 23/22 Q1012=
2026-04-01 04:00:00<>METAR SBGL 010400Z 04002KT 9999 FEW007 SCT011 23/22 Q1012=
2026-04-01 05:00:00<>METAR SBGL 010500Z VRB02KT 8000 FEW008 23/22 Q1011=
2026-04-01 06:00:00<>METAR SBGL 010600Z 14005KT 9999 FEW008 23/22 Q1011=
2026-04-01 07:00:00<>METAR SBGL 010700Z 04003KT 9999 FEW008 23/22 Q1011=
2026-04-01 08:00:00<>METAR SBGL 010800Z 09002KT 9999 FEW008 23/22 Q1011=
2026-04-01 09:00:00<>METAR SBGL 010900Z 35003KT 320V030 9999 SCT010 BKN100 22/21 Q1011=
2026-04-01 10:00:00<>METAR SBGL 011000Z 27004KT 8000 FEW005 SCT010 BKN100 23/22 Q1012=
2026-04-01 11:00:00<>METAR SBGL 011100Z 28004KT 240V320 9000 FEW007 SCT015 BKN100 24/22 Q1013=
2026-04-01 12:00:00<>METAR SBGL 011200Z VRB03KT 9000 FEW010 SCT030 BKN100 26/23 Q1014=
2026-04-01 13:00:00<>METAR SBGL 011300Z 09004KT 8000 FEW012 BKN100 26/22 Q1014=
2026-04-01 14:00:00<>METAR SBGL 011400Z 05007KT 8000 FEW015 BKN100 27/22 Q1014=
2026-04-01 15:00:00<>METAR SBGL 011500Z 05005KT 8000 FEW020 BKN100 27/22 Q1013=
2026-04-01 16:00:00<>METAR SBGL 011600Z VRB03KT 8000 FEW020 BKN100 29/22 Q1012=
2026-04-01 17:00:00<>METAR SBGL 011700Z 12005KT 9999 FEW030 BKN100 29/22 Q1012=
2026-04-01 18:00:00<>METAR SBGL 011800Z 12004KT 070V180 9999 FEW030 BKN100 29/22 Q1011=
2026-04-01 19:00:00<>METAR SBGL 011900Z 10004KT 9999 FEW030 BKN100 28/22 Q1011=
2026-04-01 20:00:00<>METAR SBGL 012000Z 09001KT 9999 FEW030 BKN100 27/22 Q1011=
2026-04-01 21:00:00<>METAR SBGL 012100Z VRB02KT 9999 FEW030 BKN100 27/22 Q1012=
2026-04-01 22:00:00<>METAR SBGL 012200Z 30003KT 9999 FEW030 BKN100 27/23 Q1012=
2026-04-01 23:00:00<>METAR SBGL 012300Z 34004KT 9999 FEW030 BKN100 27/23 Q1013=
2026-04-02 00:00:00<>METAR COR SBGL 020000Z 35003KT 5000 BR FEW030 BKN100 26/23 Q1013=
2026-04-02 01:00:00<>METAR COR SBGL 020100Z 29003KT 7000 FEW030 BKN100 25/22 Q1013=
2026-04-02 02:00:00<>METAR SBGL 020200Z 05004KT 7000 NSC 25/22 Q1013=
2026-04-02 03:00:00<>METAR COR SBGL 020300Z 02003KT 6000 NSC 24/22 Q1013=
2026-04-02 04:00:00<>METAR SBGL 020400Z 36003KT 5000 BR FEW010 24/22 Q1013=
2026-04-02 05:00:00<>METAR SBGL 020500Z 09003KT 7000 NSC 23/22 Q1012=
2026-04-02 06:00:00<>METAR SBGL 020600Z 04002KT 5000 BR FEW008 BKN100 23/22 Q1012=
2026-04-02 07:00:00<>METAR SBGL 020700Z 04002KT 5000 BR FEW008 23/22 Q1012=
2026-04-02 08:00:00<>METAR SBGL 020800Z 04002KT 6000 NSC 23/21 Q1012=
2026-04-02 09:00:00<>METAR SBGL 020900Z 04002KT 7000 NSC 23/22 Q1012=
2026-04-02 10:00:00<>METAR SBGL 021000Z 12002KT CAVOK 24/22 Q1013=
2026-04-02 11:00:00<>METAR SBGL 021100Z 36004KT 9999 FEW040 SCT100 25/23 Q1013=
2026-04-02 12:00:00<>METAR SBGL 021200Z 36004KT 9999 FEW040 SCT100 26/23 Q1014=
2026-04-02 13:00:00<>METAR SBGL 021300Z 22006KT 9999 FEW040 SCT100 30/23 Q1014=
2026-04-02 14:00:00<>METAR SBGL 021400Z 04009KT 9999 FEW040 31/22 Q1013=
2026-04-02 15:00:00<>METAR SBGL 021500Z 05009KT CAVOK 33/22 Q1012=
2026-04-02 16:00:00<>METAR SBGL 021600Z 01008KT 9999 FEW046 34/22 Q1012=
2026-04-02 17:00:00<>METAR SBGL 021700Z 05010KT 9999 SCT046 34/21 Q1011=
2026-04-02 18:00:00<>METAR SBGL 021800Z 11008KT 9999 SCT046 SCT100 33/21 Q1011=
2026-04-02 19:00:00<>METAR SBGL 021900Z 13009KT 9999 FEW046 SCT100 30/23 Q1011=
2026-04-02 20:00:00<>METAR SBGL 022000Z 14008KT 7000 VCSH SCT030 FEW046TCU SCT070 29/23 Q1011=
2026-04-02 20:15:00<>SPECI SBGL 022015Z 26021KT 4000 TSRA BKN036 FEW046CB BKN070 27/23 Q1013=
2026-04-02 20:30:00<>SPECI SBGL 022030Z 24024G34KT 1500 R15/P2000 R33/P2000 R10/P2000 R28/P2000 +TSRA BKN036 FEW046CB BKN070 23/22 Q1012 RERA=
2026-04-02 21:00:00<>METAR SBGL 022100Z 22012KT 6000 -TSRA BKN036 FEW046CB BKN070 25/21 Q1012 RERA=
2026-04-02 22:00:00<>METAR SBGL 022200Z 11009KT 340V150 8000 VCSH VCTS SCT040 FEW046CB BKN070 24/22 Q1013 RETS=
2026-04-02 23:00:00<>METAR SBGL 022300Z 26005KT 9999 SCT040 BKN070 25/22 Q1014=
2026-04-03 00:00:00<>METAR SBGL 030000Z 24004KT 9999 FEW040 BKN100 25/22 Q1014=
2026-04-03 01:00:00<>METAR SBGL 030100Z 34005KT 9999 FEW040 BKN100 25/20 Q1015=
2026-04-03 02:00:00<>METAR SBGL 030200Z 34004KT 9999 FEW040 BKN100 25/21 Q1014=
2026-04-03 03:00:00<>METAR SBGL 030300Z 36004KT 9999 SCT040 BKN100 24/21 Q1014=
2026-04-03 04:00:00<>METAR SBGL 030400Z 33005KT 300V050 9999 SCT040 BKN100 24/21 Q1014=
2026-04-03 05:00:00<>METAR SBGL 030500Z 33005KT 310V020 9999 SCT040 BKN100 24/21 Q1013=
2026-04-03 06:00:00<>METAR SBGL 030600Z 33002KT 9999 SCT040 BKN100 23/21 Q1013=
2026-04-03 07:00:00<>METAR SBGL 030700Z 03003KT 9999 FEW030 BKN100 23/21 Q1013=
2026-04-03 08:00:00<>METAR SBGL 030800Z 08003KT 9999 FEW040 23/22 Q1013=
2026-04-03 09:00:00<>METAR SBGL 030900Z 09002KT 9999 SCT040 23/22 Q1013=
2026-04-03 10:00:00<>METAR SBGL 031000Z VRB02KT 9999 SCT040 25/22 Q1014=
2026-04-03 11:00:00<>METAR SBGL 031100Z 12002KT 9999 SCT040 25/22 Q1014=
2026-04-03 12:00:00<>METAR SBGL 031200Z 36002KT 9999 SCT045 26/22 Q1014=
2026-04-03 13:00:00<>METAR SBGL 031300Z 01004KT 9999 SCT045 28/23 Q1014=
2026-04-03 14:00:00<>METAR SBGL 031400Z 29003KT 9999 SCT045 31/22 Q1014=
2026-04-03 15:00:00<>METAR SBGL 031500Z 32002KT CAVOK 33/21 Q1014=
2026-04-03 16:00:00<>METAR SBGL 031600Z 05005KT CAVOK 32/23 Q1013=
2026-04-03 17:00:00<>METAR SBGL 031700Z 05005KT CAVOK 34/22 Q1012=
2026-04-03 18:00:00<>METAR SBGL 031800Z 13006KT 9999 FEW030 34/23 Q1012=
2026-04-03 19:00:00<>METAR SBGL 031900Z 13008KT 9999 FEW030 FEW035TCU 30/22 Q1011=
2026-04-03 20:00:00<>METAR SBGL 032000Z 12007KT 9999 FEW030 FEW035TCU 29/21 Q1012=
2026-04-03 21:00:00<>METAR SBGL 032100Z 09002KT 9999 SCT030 FEW035TCU BKN080 30/21 Q1013=
2026-04-03 22:00:00<>METAR SBGL 032200Z VRB02KT 9999 TS SCT030 FEW035CB BKN080 29/24 Q1013=
2026-04-03 22:15:00<>SPECI SBGL 032215Z 32010G20KT 9000 TS VCSH SCT030 FEW035CB BKN080 26/21 Q1014=
2026-04-03 23:00:00<>METAR SBGL 032300Z 27012KT 4500 TSRA BKN030 FEW035CB BKN070 24/22 Q1015=
2026-04-04 00:00:00<>METAR SBGL 040000Z 27018KT 7000 -TSRA BKN030 FEW035CB BKN100 23/21 Q1017 RERA=
2026-04-04 01:00:00<>METAR SBGL 040100Z 30011KT 7000 -TSRA FEW007 SCT023 FEW035CB BKN100 23/22 Q1017=
2026-04-04 02:00:00<>METAR SBGL 040200Z 32008KT 8000 -RA SCT023 OVC100 23/22 Q1017 RETS=
2026-04-04 03:00:00<>METAR SBGL 040300Z 30003KT 8000 SCT023 OVC100 23/21 Q1015=
2026-04-04 04:00:00<>METAR SBGL 040400Z 03009KT 9999 SCT023 BKN100 23/21 Q1014=
2026-04-04 05:00:00<>METAR SBGL 040500Z 02008KT 9999 SCT023 BKN100 23/21 Q1014=
2026-04-04 06:00:00<>METAR SBGL 040600Z 04007KT 9999 SCT023 BKN100 23/21 Q1014=
2026-04-04 07:00:00<>METAR SBGL 040700Z 01006KT 9999 SCT023 BKN100 22/21 Q1012=
2026-04-04 08:00:00<>METAR SBGL 040800Z 01008KT 9999 SCT023 BKN100 22/21 Q1012=
2026-04-04 09:00:00<>METAR SBGL 040900Z 36003KT 9999 FEW023 SCT100 22/21 Q1013=
2026-04-04 10:00:00<>METAR SBGL 041000Z 01004KT 9999 FEW023 SCT100 23/22 Q1014=
2026-04-04 11:00:00<>METAR SBGL 041100Z 33003KT 300V030 9999 FEW020 25/21 Q1014=
2026-04-04 12:00:00<>METAR SBGL 041200Z VRB02KT CAVOK 28/22 Q1015=
2026-04-04 13:00:00<>METAR SBGL 041300Z 01003KT 330V080 CAVOK 28/22 Q1015=
2026-04-04 14:00:00<>METAR SBGL 041400Z 09003KT 020V180 CAVOK 30/21 Q1015=
2026-04-04 15:00:00<>METAR SBGL 041500Z 35003KT 310V030 9999 FEW030 30/22 Q1014=
2026-04-04 16:00:00<>METAR SBGL 041600Z 05004KT 010V080 9999 FEW030 FEW030TCU 32/23 Q1013=
2026-04-04 17:00:00<>METAR SBGL 041700Z 05005KT 010V070 9999 FEW030 FEW030TCU 33/22 Q1012=
2026-04-04 18:00:00<>METAR SBGL 041800Z 13008KT 9999 VCSH FEW035TCU SCT035 28/22 Q1012=
2026-04-04 18:19:00<>SPECI SBGL 041819Z 12008KT 9999 TS VCSH FEW035CB SCT035 27/22 Q1012=
2026-04-04 19:00:00<>METAR SBGL 041900Z 13008KT 9999 TS VCSH FEW035CB SCT035 28/22 Q1012 RETS=
2026-04-04 20:00:00<>METAR SBGL 042000Z 11012KT 9999 TS VCSH FEW035CB SCT035 27/22 Q1013 RETS=
2026-04-04 21:00:00<>METAR SBGL 042100Z 06011KT 9999 VCTS FEW025 FEW030CB SCT050 26/21 Q1013 RETS=
2026-04-04 22:00:00<>METAR SBGL 042200Z 13005KT 9999 FEW025 25/21 Q1013=
2026-04-04 23:00:00<>METAR SBGL 042300Z 10004KT 9999 FEW025 25/21 Q1014=
2026-04-05 00:00:00<>METAR SBGL 050000Z 08002KT CAVOK 25/22 Q1014=
2026-04-05 01:00:00<>METAR SBGL 050100Z 04002KT CAVOK 24/22 Q1014=
2026-04-05 02:00:00<>METAR SBGL 050200Z 04005KT CAVOK 24/22 Q1014=
2026-04-05 03:00:00<>METAR SBGL 050300Z 05003KT CAVOK 24/22 Q1014=
2026-04-05 04:00:00<>METAR SBGL 050400Z 12002KT CAVOK 24/22 Q1014=
2026-04-05 05:00:00<>METAR SBGL 050500Z 01002KT CAVOK 24/23 Q1013=
2026-04-05 06:00:00<>METAR SBGL 050600Z 06003KT CAVOK 23/22 Q1013=
2026-04-05 07:00:00<>METAR SBGL 050700Z 03002KT 9999 FEW004 23/22 Q1013=
2026-04-05 08:00:00<>METAR SBGL 050800Z 06003KT 9999 FEW004 23/22 Q1013=
2026-04-05 09:00:00<>METAR SBGL 050900Z 07003KT 9999 FEW004 23/22 Q1013=
2026-04-05 10:00:00<>METAR SBGL 051000Z 06003KT 9999 FEW004 24/23 Q1014=
2026-04-05 11:00:00<>METAR SBGL 051100Z 36003KT 9999 FEW006 25/23 Q1015=
2026-04-05 12:00:00<>METAR SBGL 051200Z 36004KT CAVOK 26/23 Q1015=
2026-04-05 13:00:00<>METAR SBGL 051300Z 01003KT CAVOK 29/24 Q1015=
2026-04-05 14:00:00<>METAR SBGL 051400Z 36004KT CAVOK 31/23 Q1014=
2026-04-05 15:00:00<>METAR SBGL 051500Z 01003KT CAVOK 32/23 Q1014=
2026-04-05 16:00:00<>METAR SBGL 051600Z 12010KT 9999 FEW040 31/22 Q1013=
2026-04-05 17:00:00<>METAR SBGL 051700Z 12010KT 9999 FEW040 30/22 Q1013=
2026-04-05 18:00:00<>METAR SBGL 051800Z 12010KT 9999 FEW040 28/22 Q1013=
2026-04-05 19:00:00<>METAR SBGL 051900Z 21010KT 9999 SCT040 BKN100 29/21 Q1014=
2026-04-05 20:00:00<>METAR SBGL 052000Z 36004KT 9999 SCT045 27/22 Q1014=
2026-04-05 21:00:00<>METAR SBGL 052100Z 04004KT 9999 FEW045 SCT100 26/22 Q1014=
2026-04-05 22:00:00<>METAR SBGL 052200Z 14006KT 9999 FEW045 25/21 Q1015=
2026-04-05 23:00:00<>METAR SBGL 052300Z 09005KT 9999 SCT045 25/21 Q1015=
2026-04-06 00:00:00<>METAR SBGL 060000Z 15003KT 100V200 9999 BKN045 25/21 Q1016=
2026-04-06 01:00:00<>METAR SBGL 060100Z 19003KT 170V230 CAVOK 25/22 Q1017=
2026-04-06 02:00:00<>METAR SBGL 060200Z 27004KT 220V340 9999 FEW019 SCT100 26/22 Q1016=
2026-04-06 03:00:00<>METAR SBGL 060300Z 29005KT 9999 FEW021 25/22 Q1016=
2026-04-06 04:00:00<>METAR SBGL 060400Z 28005KT CAVOK 25/22 Q1016=
2026-04-06 05:00:00<>METAR SBGL 060500Z 28003KT 260V330 CAVOK 25/22 Q1016=
2026-04-06 06:00:00<>METAR SBGL 060600Z 35005KT 7000 NSC 24/23 Q1015=
2026-04-06 07:00:00<>METAR SBGL 060700Z 33004KT 270V050 9000 NSC 24/23 Q1015=
2026-04-06 08:00:00<>METAR SBGL 060800Z 33003KT 9000 BKN013 24/22 Q1015=
2026-04-06 09:00:00<>METAR SBGL 060900Z 34002KT 8000 FEW013 24/22 Q1016=
2026-04-06 10:00:00<>METAR SBGL 061000Z 36004KT 340V040 9999 4000SW FEW005 SCT013 24/22 Q1016=
2026-04-06 11:00:00<>METAR SBGL 061100Z 03004KT 9999 FEW006 SCT015 25/23 Q1017=
2026-04-06 12:00:00<>METAR SBGL 061200Z VRB03KT 9999 FEW010 SCT016 26/23 Q1017=
2026-04-06 13:00:00<>METAR SBGL 061300Z VRB02KT 9999 SCT020 29/22 Q1017=
2026-04-06 14:00:00<>METAR SBGL 061400Z 04004KT 300V100 9999 SCT026 29/22 Q1017=
2026-04-06 15:00:00<>METAR SBGL 061500Z 12006KT 9999 FEW026 30/23 Q1016=
2026-04-06 16:00:00<>METAR SBGL 061600Z 12008KT 9999 FEW025 30/21 Q1016=
2026-04-06 17:00:00<>METAR SBGL 061700Z 12010KT 9999 FEW025 FEW030TCU 29/21 Q1015=
2026-04-06 18:00:00<>METAR SBGL 061800Z 13012KT 9999 FEW025 FEW030TCU 28/23 Q1015=
2026-04-06 19:00:00<>METAR SBGL 061900Z 13011KT 9999 FEW025 FEW030TCU 28/23 Q1015=
2026-04-06 20:00:00<>METAR SBGL 062000Z 12012KT 9999 FEW025 FEW030TCU 26/22 Q1015=
2026-04-06 21:00:00<>METAR SBGL 062100Z 14009KT 9999 FEW026 26/22 Q1015=
2026-04-06 22:00:00<>METAR SBGL 062200Z 14008KT 9999 SCT030 26/22 Q1016=
2026-04-06 23:00:00<>METAR SBGL 062300Z 13005KT 9999 FEW030 SCT045 26/23 Q1016=
2026-04-07 00:00:00<>METAR SBGL 070000Z 13005KT 9999 FEW045 25/23 Q1016=
2026-04-07 01:00:00<>METAR SBGL 070100Z 10006KT 9999 FEW027 SCT045 26/22 Q1017=
2026-04-07 02:00:00<>METAR SBGL 070200Z 11008KT 9999 FEW025 25/22 Q1017=
2026-04-07 03:00:00<>METAR SBGL 070300Z 13005KT 9999 FEW025 24/22 Q1017=
2026-04-07 04:00:00<>METAR SBGL 070400Z 12004KT 9999 FEW020 24/22 Q1017=
2026-04-07 05:00:00<>METAR SBGL 070500Z 14004KT 9999 FEW020 24/23 Q1016=
2026-04-07 06:00:00<>METAR SBGL 070600Z 10004KT 9999 FEW020 SCT060 24/22 Q1016=
2026-04-07 07:00:00<>METAR SBGL 070700Z 15004KT 9999 FEW020 SCT060 24/22 Q1016=
2026-04-07 08:00:00<>METAR COR SBGL 070800Z 05002KT 9999 FEW020 SCT070 24/22 Q1016=
2026-04-07 09:00:00<>METAR SBGL 070900Z 11003KT 9999 FEW008 SCT070 23/22 Q1016=
2026-04-07 10:00:00<>METAR SBGL 071000Z 11003KT 9999 FEW019 24/22 Q1016=
2026-04-07 11:00:00<>METAR SBGL 071100Z 08006KT 9999 FEW015 SCT100 26/22 Q1017=
2026-04-07 12:00:00<>METAR SBGL 071200Z 06005KT 360V120 9999 FEW015 SCT100 27/23 Q1017=
2026-04-07 13:00:00<>METAR SBGL 071300Z VRB03KT 9999 FEW015 SCT100 29/23 Q1017=
2026-04-07 14:00:00<>METAR SBGL 071400Z 13004KT 090V190 9999 FEW020 SCT100 29/23 Q1016=
2026-04-07 15:00:00<>METAR SBGL 071500Z 07005KT 9999 FEW020 31/21 Q1016=
2026-04-07 16:00:00<>METAR SBGL 071600Z 14007KT 9999 FEW025 31/23 Q1015=
2026-04-07 17:00:00<>METAR SBGL 071700Z 13007KT 080V160 9999 FEW025 31/23 Q1014=
2026-04-07 18:00:00<>METAR SBGL 071800Z 12006KT 9999 FEW030 31/22 Q1013=
2026-04-07 19:00:00<>METAR SBGL 071900Z 14008KT 9999 FEW030 30/23 Q1013=
2026-04-07 20:00:00<>METAR SBGL 072000Z 13006KT 9999 FEW030 29/22 Q1013=
2026-04-07 21:00:00<>METAR SBGL 072100Z 13006KT 9999 FEW030 28/22 Q1012=
2026-04-07 22:00:00<>METAR SBGL 072200Z 10006KT CAVOK 28/23 Q1012=
2026-04-07 23:00:00<>METAR SBGL 072300Z 08008KT CAVOK 27/23 Q1013=
2026-04-08 00:00:00<>METAR SBGL 080000Z 08006KT CAVOK 26/22 Q1013=
2026-04-08 01:00:00<>METAR SBGL 080100Z 08003KT CAVOK 25/22 Q1013=
2026-04-08 02:00:00<>METAR SBGL 080200Z 07004KT CAVOK 25/22 Q1013=
2026-04-08 03:00:00<>METAR SBGL 080300Z 14002KT CAVOK 25/22 Q1013=
2026-04-08 04:00:00<>METAR SBGL 080400Z 07003KT CAVOK 24/22 Q1012=
2026-04-08 05:00:00<>METAR SBGL 080500Z 09003KT CAVOK 24/22 Q1012=
2026-04-08 06:00:00<>METAR SBGL 080600Z 15003KT CAVOK 24/22 Q1011=
2026-04-08 07:00:00<>METAR SBGL 080700Z 18003KT 8000 NSC 23/21 Q1011=
2026-04-08 08:00:00<>METAR SBGL 080800Z 10002KT 8000 NSC 23/22 Q1011=
2026-04-08 09:00:00<>METAR SBGL 080900Z 09003KT CAVOK 23/21 Q1011=
2026-04-08 10:00:00<>METAR SBGL 081000Z 04003KT CAVOK 26/22 Q1012=
2026-04-08 11:00:00<>METAR SBGL 081100Z 33003KT CAVOK 26/23 Q1012=
2026-04-08 12:00:00<>METAR SBGL 081200Z 06003KT CAVOK 30/23 Q1012=
2026-04-08 13:00:00<>METAR SBGL 081300Z 03004KT CAVOK 31/23 Q1012=
2026-04-08 14:00:00<>METAR SBGL 081400Z 34004KT CAVOK 33/22 Q1012=
2026-04-08 15:00:00<>METAR SBGL 081500Z 36008KT 9999 FEW025 34/22 Q1011=
2026-04-08 16:00:00<>METAR SBGL 081600Z 28008KT 9999 FEW030 35/21 Q1010=
2026-04-08 17:00:00<>METAR SBGL 081700Z 33006KT 9999 FEW030 35/21 Q1009=
2026-04-08 18:00:00<>METAR SBGL 081800Z 35006G16KT 9999 FEW030 SCT100 34/21 Q1009=
2026-04-08 19:00:00<>METAR SBGL 081900Z 34006KT 9999 FEW030 SCT100 35/21 Q1008=
2026-04-08 20:00:00<>METAR SBGL 082000Z 33006KT 9999 FEW030 FEW035TCU SCT100 33/22 Q1009=
2026-04-08 21:00:00<>METAR SBGL 082100Z 30007KT 9999 FEW030 FEW035TCU BKN100 32/22 Q1009=
2026-04-08 22:00:00<>METAR SBGL 082200Z 33007KT 9999 FEW030 FEW035TCU BKN100 30/24 Q1009=
2026-04-08 23:00:00<>METAR SBGL 082300Z 36004KT 330V050 9999 FEW030 BKN100 30/23 Q1010=
2026-04-09 00:00:00<>METAR SBGL 090000Z 31002KT 9999 FEW030 BKN100 29/23 Q1011=
2026-04-09 01:00:00<>METAR SBGL 090100Z 10003KT 9999 FEW030 BKN100 27/23 Q1010=
2026-04-09 02:00:00<>METAR SBGL 090200Z 03004KT 9999 FEW030 BKN100 28/22 Q1010=
2026-04-09 03:00:00<>METAR SBGL 090300Z 03005KT 9999 FEW030 BKN100 28/24 Q1010=
2026-04-09 04:00:00<>METAR SBGL 090400Z 30003KT 9999 FEW030 BKN100 28/21 Q1009=
2026-04-09 05:00:00<>METAR SBGL 090500Z 27003KT 9999 SCT030 BKN100 27/20 Q1009=
2026-04-09 06:00:00<>METAR SBGL 090600Z 30003KT 9999 SCT030 BKN100 28/20 Q1009=
2026-04-09 07:00:00<>METAR SBGL 090700Z 02004KT 9999 SCT030 BKN100 26/21 Q1009=
2026-04-09 08:00:00<>METAR SBGL 090800Z 35006KT 9999 SCT030 BKN100 26/21 Q1009=
2026-04-09 09:00:00<>METAR SBGL 090900Z 03003KT 330V100 9999 FEW030 25/21 Q1010=
2026-04-09 10:00:00<>METAR SBGL 091000Z 01004KT 340V060 9999 FEW030 26/21 Q1010=
2026-04-09 11:00:00<>METAR SBGL 091100Z 36004KT CAVOK 26/21 Q1011=
2026-04-09 12:00:00<>METAR SBGL 091200Z 36006KT 330V030 CAVOK 29/21 Q1012=
2026-04-09 13:00:00<>METAR SBGL 091300Z 02004KT 340V040 9999 FEW030 31/22 Q1012=
2026-04-09 14:00:00<>METAR SBGL 091400Z 19010KT 140V220 9999 FEW030 SCT050 33/22 Q1012=
2026-04-09 15:00:00<>METAR SBGL 091500Z 19011KT 160V220 9999 FEW030 SCT045 32/22 Q1011=
2026-04-09 16:00:00<>METAR SBGL 091600Z 21017KT 9999 FEW030 SCT045 32/21 Q1011=
2026-04-09 17:00:00<>METAR SBGL 091700Z 22018KT 9999 FEW030 SCT045 31/21 Q1011=
2026-04-09 18:00:00<>METAR SBGL 091800Z 21015KT 9999 FEW025 SCT050 30/21 Q1011=
2026-04-09 19:00:00<>METAR SBGL 091900Z 22015KT 190V250 9999 FEW025 SCT050 BKN100 29/20 Q1011=
2026-04-09 20:00:00<>METAR SBGL 092000Z 23012KT 9999 FEW025 BKN050 29/21 Q1012=
2026-04-09 21:00:00<>METAR SBGL 092100Z 22010KT 9999 FEW024 BKN050 28/22 Q1012=
2026-04-09 22:00:00<>METAR SBGL 092200Z 24006KT 9999 FEW020 BKN040 26/23 Q1013=
2026-04-09 23:00:00<>METAR SBGL 092300Z 17004KT 9999 VCSH SCT020 BKN040 27/21 Q1014=
2026-04-10 00:00:00<>METAR SBGL 100000Z 02004KT 9999 SCT020 BKN040 26/22 Q1014=
2026-04-10 01:00:00<>METAR SBGL 100100Z 10003KT 9000 -RA BKN022 OVC040 24/22 Q1015=
2026-04-10 02:00:00<>METAR SBGL 100200Z 09003KT 9999 SCT022 OVC040 24/23 Q1014=
2026-04-10 03:00:00<>METAR SBGL 100300Z 35004KT 6000 -RA BKN020 OVC040 25/23 Q1015=
2026-04-10 04:00:00<>METAR SBGL 100400Z 03005KT 5000 -RA BR FEW005 BKN013 OVC030 24/22 Q1014=
2026-04-10 05:00:00<>METAR SBGL 100500Z 35005KT 4000 -RA BR FEW005 BKN010 OVC030 23/22 Q1015=
2026-04-10 06:00:00<>METAR SBGL 100600Z 03003KT 6000 -RA FEW005 BKN010 OVC030 23/22 Q1014=
2026-04-10 07:00:00<>METAR SBGL 100700Z 35003KT 6000 FEW005 BKN010 OVC030 23/21 Q1015=
2026-04-10 08:00:00<>METAR SBGL 100800Z 35005KT 4000 -RA BR BKN007 OVC030 22/21 Q1015=
2026-04-10 09:00:00<>METAR SBGL 100900Z 34006KT 7000 BKN007 OVC030 22/21 Q1015=
2026-04-10 10:00:00<>METAR SBGL 101000Z 34003KT 9000 SCT007 BKN030 OVC080 23/21 Q1016=
2026-04-10 11:00:00<>METAR SBGL 101100Z 29003KT 9000 SCT018 BKN045 24/21 Q1017=
2026-04-10 12:00:00<>METAR SBGL 101200Z 28003KT 9000 SCT018 BKN035 25/21 Q1017=
2026-04-10 13:00:00<>METAR SBGL 101300Z 29003KT 8000 SCT033 BKN060 25/21 Q1018=
2026-04-10 14:00:00<>METAR COR SBGL 101400Z 02004KT 8000 FEW023 BKN060 25/22 Q1017=
2026-04-10 15:00:00<>METAR SBGL 101500Z 03006KT 9999 VCSH FEW022 SCT029 BKN060 25/22 Q1017=
2026-04-10 16:00:00<>METAR COR SBGL 101600Z 03006KT 9999 FEW022 BKN040 24/22 Q1017=
2026-04-10 17:00:00<>METAR SBGL 101700Z 36003KT 9999 -RA BKN045 25/21 Q1016=
2026-04-10 18:00:00<>METAR SBGL 101800Z 11003KT 9999 BKN045 25/20 Q1016=
2026-04-10 19:00:00<>METAR SBGL 101900Z 03003KT 9999 BKN045 25/20 Q1016=
2026-04-10 20:00:00<>METAR SBGL 102000Z 02004KT 9999 FEW022 BKN060 25/21 Q1017=
2026-04-10 21:00:00<>METAR SBGL 102100Z 20005KT 9999 FEW030 BKN070 25/20 Q1017=
2026-04-10 22:00:00<>METAR SBGL 102200Z 20005KT 9999 FEW030 BKN070 24/20 Q1018=
2026-04-10 23:00:00<>METAR SBGL 102300Z 22005KT 9999 FEW030 OVC070 24/20 Q1019=
2026-04-11 00:00:00<>METAR SBGL 110000Z 17009KT 9999 SCT020 OVC070 22/18 Q1019=
2026-04-11 01:00:00<>METAR SBGL 110100Z 18006KT 9999 SCT020 OVC070 22/19 Q1020=
2026-04-11 02:00:00<>METAR SBGL 110200Z 06003KT 9999 SCT020 OVC070 22/19 Q1020=
2026-04-11 03:00:00<>METAR SBGL 110300Z 05003KT 9999 SCT030 OVC070 22/18 Q1019=
2026-04-11 04:00:00<>METAR SBGL 110400Z VRB02KT 9999 SCT030 OVC070 22/19 Q1019=
2026-04-11 05:00:00<>METAR SBGL 110500Z 23004KT 9999 SCT030 OVC070 22/19 Q1019=
2026-04-11 06:00:00<>METAR SBGL 110600Z 32003KT 9999 SCT030 OVC070 22/18 Q1018=
2026-04-11 07:00:00<>METAR SBGL 110700Z 24004KT 9999 FEW030 BKN070 21/18 Q1018=
2026-04-11 08:00:00<>METAR SBGL 110800Z 28002KT 9999 FEW030 BKN070 20/18 Q1018=
2026-04-11 09:00:00<>METAR SBGL 110900Z 03002KT 9999 FEW030 BKN080 21/19 Q1019=
2026-04-11 10:00:00<>METAR SBGL 111000Z 30002KT 9999 FEW030 BKN080 21/19 Q1020=
2026-04-11 11:00:00<>METAR SBGL 111100Z 27003KT 200V350 9999 FEW030 BKN080 23/19 Q1020=
2026-04-11 12:00:00<>METAR SBGL 111200Z 01003KT 340V050 9999 FEW030 BKN080 24/17 Q1020=
2026-04-11 13:00:00<>METAR SBGL 111300Z 02005KT 9999 FEW030 BKN080 25/19 Q1021=
2026-04-11 14:00:00<>METAR COR SBGL 111400Z VRB03KT 9999 FEW030 BKN080 26/18 Q1020=
2026-04-11 15:00:00<>METAR SBGL 111500Z 03004KT 350V080 9999 FEW030 BKN080 26/19 Q1020=
2026-04-11 16:00:00<>METAR SBGL 111600Z 12006KT 090V170 9999 FEW030 BKN080 26/18 Q1019=
2026-04-11 17:00:00<>METAR SBGL 111700Z 14009KT 9999 FEW030 SCT050 BKN080 27/19 Q1019=
2026-04-11 18:00:00<>METAR SBGL 111800Z 14009KT 9999 VCSH FEW030 SCT050 BKN080 25/18 Q1019=
2026-04-11 19:00:00<>METAR SBGL 111900Z 12009KT 9999 FEW030 SCT050 BKN080 25/18 Q1019=
2026-04-11 20:00:00<>METAR SBGL 112000Z 13007KT 9999 FEW030 SCT050 BKN080 24/19 Q1020=
2026-04-11 21:00:00<>METAR SBGL 112100Z 13005KT 9999 FEW030 SCT050 BKN080 24/19 Q1020=
2026-04-11 22:00:00<>METAR SBGL 112200Z 12006KT 9999 FEW030 BKN080 23/13 Q1020=
2026-04-11 23:00:00<>METAR SBGL 112300Z 12005KT 9999 FEW030 BKN100 23/20 Q1021=
2026-04-12 00:00:00<>METAR SBGL 120000Z 09003KT 9999 FEW035 BKN100 22/19 Q1021=
2026-04-12 01:00:00<>METAR SBGL 120100Z 09004KT 9999 SCT031 BKN100 22/20 Q1021=
2026-04-12 02:00:00<>METAR SBGL 120200Z 09003KT 9999 FEW035 22/20 Q1021=
2026-04-12 03:00:00<>METAR SBGL 120300Z 09003KT 9999 FEW035 22/20 Q1021=
2026-04-12 04:00:00<>METAR SBGL 120400Z 06003KT 9999 FEW035 21/19 Q1020=
2026-04-12 05:00:00<>METAR SBGL 120500Z 04003KT 9999 FEW035 21/20 Q1020=
2026-04-12 06:00:00<>METAR COR SBGL 120600Z 28002KT 9999 FEW035 21/20 Q1019=
2026-04-12 07:00:00<>METAR SBGL 120700Z 33002KT 9999 FEW035 21/19 Q1019=
2026-04-12 08:00:00<>METAR SBGL 120800Z 33002KT 9999 FEW008 21/19 Q1020=
2026-04-12 09:00:00<>METAR SBGL 120900Z 33005KT 8000 FEW008 21/20 Q1020=
2026-04-12 10:00:00<>METAR SBGL 121000Z 33004KT 8000 FEW025 BKN048 21/20 Q1021=
2026-04-12 11:00:00<>METAR SBGL 121100Z 33003KT 310V030 9999 FEW017 BKN020 22/20 Q1021=
2026-04-12 12:00:00<>METAR SBGL 121200Z 11004KT 9999 FEW006 SCT020 25/20 Q1022=
2026-04-12 13:00:00<>METAR SBGL 121300Z 02006KT 9999 FEW020 25/21 Q1021=
2026-04-12 14:00:00<>METAR SBGL 121400Z 04006KT 010V070 9999 FEW020 26/21 Q1021=
2026-04-12 15:00:00<>METAR SBGL 121500Z 05007KT 360V100 9999 SCT025 27/21 Q1020=
2026-04-12 16:00:00<>METAR SBGL 121600Z 06007KT 030V100 9999 SCT025 28/20 Q1019=
2026-04-12 17:00:00<>METAR SBGL 121700Z 14010KT 110V180 9999 SCT030 28/20 Q1018=
2026-04-12 18:00:00<>METAR SBGL 121800Z 15011KT 9999 FEW020 SCT040 28/20 Q1017=
2026-04-12 19:00:00<>METAR SBGL 121900Z 14012KT 9999 FEW020 SCT040 27/20 Q1017=
2026-04-12 20:00:00<>METAR SBGL 122000Z 15011KT 9999 FEW020 SCT040 26/20 Q1017=
2026-04-12 21:00:00<>METAR SBGL 122100Z 14009KT 9999 FEW020 SCT040 25/20 Q1018=
2026-04-12 22:00:00<>METAR SBGL 122200Z 14008KT 110V170 9999 FEW020 BKN050 25/20 Q1018=
2026-04-12 23:00:00<>METAR SBGL 122300Z 12009KT 9999 FEW020 BKN050 25/21 Q1019=
2026-04-13 00:00:00<>METAR SBGL 130000Z 10011KT 9999 FEW033 BKN066 25/20 Q1019=
2026-04-13 01:00:00<>METAR SBGL 130100Z 09010KT 9999 FEW033 BKN070 24/20 Q1019=
2026-04-13 02:00:00<>METAR SBGL 130200Z 11009KT 9999 FEW033 SCT070 24/20 Q1018=
2026-04-13 03:00:00<>METAR SBGL 130300Z 11010KT 9999 FEW046 23/20 Q1018=
2026-04-13 04:00:00<>METAR SBGL 130400Z 09011KT 9999 FEW046 23/20 Q1017=
2026-04-13 05:00:00<>METAR SBGL 130500Z 13009KT 9999 FEW046 23/20 Q1017=
2026-04-13 06:00:00<>METAR SBGL 130600Z 15008KT 9999 FEW046 22/20 Q1017=
2026-04-13 07:00:00<>METAR SBGL 130700Z 18007KT 8000 FEW046 22/20 Q1016=
2026-04-13 08:00:00<>METAR SBGL 130800Z 06004KT 8000 FEW046 21/19 Q1016=
2026-04-13 09:00:00<>METAR SBGL 130900Z 08003KT 9999 FEW046 21/19 Q1017=
2026-04-13 10:00:00<>METAR SBGL 131000Z 08003KT 9999 FEW046 22/20 Q1017=
2026-04-13 11:00:00<>METAR SBGL 131100Z 02003KT 340V080 CAVOK 24/21 Q1018=
2026-04-13 12:00:00<>METAR SBGL 131200Z VRB02KT 9999 SCT013 25/20 Q1018=
2026-04-13 13:00:00<>METAR SBGL 131300Z 16004KT 9999 FEW013 SCT018 25/21 Q1018=
2026-04-13 14:00:00<>METAR SBGL 131400Z 08005KT 020V150 9999 SCT021 27/20 Q1017=
2026-04-13 15:00:00<>METAR SBGL 131500Z 06005KT 9999 SCT022 28/20 Q1017=
2026-04-13 16:00:00<>METAR SBGL 131600Z 12009KT 9999 SCT025 28/20 Q1016=
2026-04-13 17:00:00<>METAR SBGL 131700Z 13011KT 9999 SCT025 28/21 Q1015=
2026-04-13 18:00:00<>METAR SBGL 131800Z 13013KT 9999 SCT027 27/20 Q1015=
2026-04-13 19:00:00<>METAR SBGL 131900Z 13011KT 9999 SCT027 26/19 Q1015=
2026-04-13 20:00:00<>METAR SBGL 132000Z 14011KT 9999 FEW030 SCT100 26/19 Q1015=
2026-04-13 21:00:00<>METAR SBGL 132100Z 13008KT 9999 FEW030 24/19 Q1015=
2026-04-13 22:00:00<>METAR SBGL 132200Z 14006KT CAVOK 24/19 Q1016=
2026-04-13 23:00:00<>METAR SBGL 132300Z 15006KT 9999 FEW040 24/18 Q1016=
2026-04-14 00:00:00<>METAR SBGL 140000Z 12004KT 9999 FEW040 23/19 Q1016=
2026-04-14 01:00:00<>METAR SBGL 140100Z 13005KT 9999 FEW030 23/19 Q1016=
2026-04-14 02:00:00<>METAR SBGL 140200Z 12005KT 9999 SCT030 23/19 Q1016=
2026-04-14 03:00:00<>METAR SBGL 140300Z 10005KT 9999 SCT030 23/18 Q1015=
2026-04-14 04:00:00<>METAR SBGL 140400Z 07002KT 9999 SCT030 22/19 Q1015=
2026-04-14 05:00:00<>METAR SBGL 140500Z 12002KT 9999 SCT030 21/19 Q1015=
2026-04-14 06:00:00<>METAR SBGL 140600Z 08002KT 9999 FEW030 21/19 Q1015=
2026-04-14 07:00:00<>METAR SBGL 140700Z 06002KT 9999 FEW030 21/19 Q1015=
2026-04-14 08:00:00<>METAR SBGL 140800Z 32003KT 9999 FEW030 21/19 Q1015=
2026-04-14 09:00:00<>METAR SBGL 140900Z VRB01KT 9999 FEW012 SCT070 20/18 Q1015=
2026-04-14 10:00:00<>METAR SBGL 141000Z VRB02KT 9999 FEW020 SCT060 22/20 Q1016=
2026-04-14 11:00:00<>METAR SBGL 141100Z 36003KT 320V040 9999 FEW020 24/20 Q1017=
2026-04-14 12:00:00<>METAR SBGL 141200Z 01004KT 330V040 9999 FEW020 25/19 Q1017=
2026-04-14 13:00:00<>METAR SBGL 141300Z 36003KT 310V090 9999 FEW025 26/19 Q1017=
2026-04-14 14:00:00<>METAR SBGL 141400Z VRB03KT 9999 SCT030 28/19 Q1016=
2026-04-14 15:00:00<>METAR SBGL 141500Z 13005KT 090V180 9999 SCT035 28/18 Q1015=
2026-04-14 16:00:00<>METAR SBGL 141600Z 13008KT 090V160 9999 SCT035 28/18 Q1014=
2026-04-14 17:00:00<>METAR SBGL 141700Z 13010KT 9999 SCT035 28/17 Q1013=
2026-04-14 18:00:00<>METAR SBGL 141800Z 13010KT 090V160 9999 FEW040 27/19 Q1013=
2026-04-14 19:00:00<>METAR SBGL 141900Z 12010KT 9999 FEW040 26/19 Q1013=
2026-04-14 20:00:00<>METAR SBGL 142000Z 12009KT 9999 FEW040 25/19 Q1014=
2026-04-14 21:00:00<>METAR SBGL 142100Z 13008KT 9999 FEW040 24/19 Q1014=
2026-04-14 22:00:00<>METAR SBGL 142200Z 13006KT 9999 FEW040 24/20 Q1015=
2026-04-14 23:00:00<>METAR SBGL 142300Z 08006KT 9999 FEW040 22/20 Q1016=
2026-04-15 00:00:00<>METAR SBGL 150000Z 10004KT CAVOK 22/19 Q1016=
2026-04-15 01:00:00<>METAR SBGL 150100Z 11003KT 9999 FEW008 22/20 Q1016=
2026-04-15 02:00:00<>METAR SBGL 150200Z 13002KT CAVOK 21/19 Q1016=
2026-04-15 03:00:00<>METAR SBGL 150300Z 13002KT CAVOK 21/19 Q1016=
2026-04-15 04:00:00<>METAR SBGL 150400Z 32005KT CAVOK 22/19 Q1016=
2026-04-15 05:00:00<>METAR SBGL 150500Z 32005KT CAVOK 21/19 Q1016=
2026-04-15 06:00:00<>METAR SBGL 150600Z 32005KT CAVOK 21/19 Q1014=
2026-04-15 07:00:00<>METAR SBGL 150700Z 34005KT CAVOK 21/19 Q1014=
2026-04-15 08:00:00<>METAR COR SBGL 150800Z 34005KT 8000 FEW010 20/19 Q1015=
2026-04-15 09:00:00<>METAR SBGL 150900Z 34005KT 8000 FEW010 20/19 Q1015=
2026-04-15 10:00:00<>METAR SBGL 151000Z 34003KT 9000 FEW016 21/19 Q1016=
2026-04-15 11:00:00<>METAR SBGL 151100Z 34005KT 9000 FEW016 22/19 Q1017=
2026-04-15 12:00:00<>METAR SBGL 151200Z 34005KT 9000 SCT020 25/20 Q1017=
2026-04-15 13:00:00<>METAR SBGL 151300Z 35004KT 9999 SCT025 26/19 Q1017=
2026-04-15 14:00:00<>METAR SBGL 151400Z 36005KT 9000 VCSH SCT025 FEW030TCU 28/19 Q1017=
2026-04-15 15:00:00<>METAR SBGL 151500Z 24003KT 9999 SCT030 FEW035TCU 27/19 Q1016=
2026-04-15 16:00:00<>METAR SBGL 151600Z 23002KT 9999 SCT030 28/19 Q1015=
2026-04-15 17:00:00<>METAR SBGL 151700Z 03002KT 9999 SCT030 29/19 Q1015=
2026-04-15 18:00:00<>METAR SBGL 151800Z 12008KT 9999 SCT030 28/19 Q1014=
2026-04-15 19:00:00<>METAR SBGL 151900Z 13010KT 9999 FEW030 27/19 Q1014=
2026-04-15 20:00:00<>METAR SBGL 152000Z 13008KT 9999 FEW030 26/19 Q1013=
2026-04-15 21:00:00<>METAR SBGL 152100Z 12007KT 9999 FEW030 24/19 Q1014=
2026-04-15 22:00:00<>METAR SBGL 152200Z 14005KT 9999 FEW030 24/19 Q1014=
2026-04-15 23:00:00<>METAR SBGL 152300Z 14007KT 9999 FEW020 BKN050 24/20 Q1015=
2026-04-16 00:00:00<>METAR SBGL 160000Z 03005KT 9999 FEW020 BKN050 24/20 Q1015=
2026-04-16 01:00:00<>METAR SBGL 160100Z 05005KT 9999 FEW020 SCT050 BKN066 23/20 Q1015=
2026-04-16 02:00:00<>METAR SBGL 160200Z 08004KT 9999 FEW020 SCT066 23/20 Q1015=
2026-04-16 03:00:00<>METAR SBGL 160300Z 07003KT 9999 SCT025 SCT066 23/20 Q1015=
2026-04-16 04:00:00<>METAR SBGL 160400Z VRB01KT 9999 FEW025 SCT040 22/20 Q1015=
2026-04-16 05:00:00<>METAR SBGL 160500Z VRB02KT 9999 FEW020 22/20 Q1014=
2026-04-16 06:00:00<>METAR SBGL 160600Z 31004KT 9999 FEW020 22/20 Q1014=
2026-04-16 07:00:00<>METAR SBGL 160700Z 33003KT 300V070 9000 NSC 22/20 Q1013=
2026-04-16 08:00:00<>METAR SBGL 160800Z VRB01KT 9000 FEW020 21/19 Q1013=
2026-04-16 09:00:00<>METAR SBGL 160900Z 31003KT 8000 SCT020 21/20 Q1014=
2026-04-16 10:00:00<>METAR SBGL 161000Z 32005KT 300V010 9000 SCT020 22/20 Q1014=
2026-04-16 11:00:00<>METAR SBGL 161100Z 35004KT 310V080 9999 SCT025 23/20 Q1015=
2026-04-16 12:00:00<>METAR SBGL 161200Z 01003KT 320V060 9999 FEW030 25/20 Q1015=
2026-04-16 13:00:00<>METAR SBGL 161300Z 35003KT 280V050 9999 FEW030 26/20 Q1015=
2026-04-16 14:00:00<>METAR SBGL 161400Z 05005KT 9999 FEW030 28/21 Q1014=
2026-04-16 15:00:00<>METAR SBGL 161500Z 03008KT 9999 FEW030 29/20 Q1013=
2026-04-16 16:00:00<>METAR SBGL 161600Z 13008KT 9999 FEW030 28/21 Q1012=
2026-04-16 17:00:00<>METAR SBGL 161700Z 14009KT 9999 FEW030 28/21 Q1011=
2026-04-16 18:00:00<>METAR SBGL 161800Z 13010KT 9999 FEW030 27/21 Q1011=
2026-04-16 19:00:00<>METAR SBGL 161900Z 13010KT 9999 FEW030 26/21 Q1011=
2026-04-16 20:00:00<>METAR SBGL 162000Z 12010KT 9999 FEW030 SCT070 25/21 Q1011=
2026-04-16 21:00:00<>METAR SBGL 162100Z 13011KT 9999 FEW030 24/21 Q1011=
2026-04-16 22:00:00<>METAR SBGL 162200Z 13010KT CAVOK 24/20 Q1011=
2026-04-16 23:00:00<>METAR SBGL 162300Z 11005KT 9999 FEW040 24/20 Q1012=
2026-04-17 00:00:00<>METAR SBGL 170000Z 14003KT 9999 SCT030 24/20 Q1012=
2026-04-17 01:00:00<>METAR SBGL 170100Z 13004KT 9999 BKN030 24/20 Q1012=
2026-04-17 02:00:00<>METAR SBGL 170200Z 15004KT 9999 FEW025 23/20 Q1012=
2026-04-17 03:00:00<>METAR SBGL 170300Z 10003KT 9999 BKN021 23/20 Q1011=
2026-04-17 04:00:00<>METAR SBGL 170400Z 11004KT 9999 BKN025 23/20 Q1010=
2026-04-17 05:00:00<>METAR SBGL 170500Z 14003KT 9999 BKN021 24/21 Q1010=
2026-04-17 06:00:00<>METAR SBGL 170600Z 13004KT 9999 BKN021 23/21 Q1010=
2026-04-17 07:00:00<>METAR SBGL 170700Z 14002KT 9999 BKN021 23/21 Q1010=
2026-04-17 08:00:00<>METAR SBGL 170800Z 08002KT 9999 BKN025 23/21 Q1010=
2026-04-17 09:00:00<>METAR SBGL 170900Z 07002KT 9999 FEW008 22/21 Q1010=
2026-04-17 10:00:00<>METAR SBGL 171000Z 00000KT 9000 FEW008 23/21 Q1011=
2026-04-17 11:00:00<>METAR SBGL 171100Z 04004KT 360V090 9000 FEW010 25/21 Q1011=
2026-04-17 12:00:00<>METAR SBGL 171200Z VRB03KT 9999 SCT013 26/21 Q1012=
2026-04-17 13:00:00<>METAR SBGL 171300Z 36005KT 9999 SCT013 27/21 Q1011=
2026-04-17 14:00:00<>METAR SBGL 171400Z VRB04KT 9999 SCT013 28/20 Q1010=
2026-04-17 15:00:00<>METAR SBGL 171500Z VRB02KT 9999 SCT013 29/21 Q1010=
2026-04-17 16:00:00<>METAR SBGL 171600Z 02005KT 350V060 9999 SCT013 30/21 Q1008=
2026-04-17 17:00:00<>METAR SBGL 171700Z 07004KT 020V130 9999 SCT013 31/21 Q1007=
2026-04-17 18:00:00<>METAR SBGL 171800Z 13009KT 9999 SCT013 29/21 Q1007=
2026-04-17 19:00:00<>METAR SBGL 171900Z 13009KT 9999 SCT013 29/22 Q1007=
2026-04-17 20:00:00<>METAR SBGL 172000Z 13008KT 9999 FEW015 27/22 Q1007=
2026-04-17 21:00:00<>METAR SBGL 172100Z 13008KT 9999 FEW015 26/21 Q1007=
2026-04-17 22:00:00<>METAR SBGL 172200Z 12007KT CAVOK 26/21 Q1008=
2026-04-17 23:00:00<>METAR SBGL 172300Z 14005KT CAVOK 25/21 Q1009=
2026-04-18 00:00:00<>METAR SBGL 180000Z VRB01KT CAVOK 24/21 Q1009=
2026-04-18 01:00:00<>METAR SBGL 180100Z 11003KT CAVOK 24/21 Q1009=
2026-04-18 02:00:00<>METAR SBGL 180200Z 07003KT CAVOK 24/21 Q1009=
2026-04-18 03:00:00<>METAR SBGL 180300Z 08003KT CAVOK 24/21 Q1009=
2026-04-18 04:00:00<>METAR SBGL 180400Z 01002KT 9999 FEW040 24/22 Q1008=
2026-04-18 05:00:00<>METAR SBGL 180500Z 03002KT 9999 FEW040 23/21 Q1007=
2026-04-18 06:00:00<>METAR SBGL 180600Z 07002KT 9999 FEW040 22/21 Q1007=
2026-04-18 07:00:00<>METAR SBGL 180700Z 02004KT 9999 FEW040 23/21 Q1007=
2026-04-18 08:00:00<>METAR SBGL 180800Z 04002KT 9999 FEW040 22/21 Q1008=
2026-04-18 09:00:00<>METAR SBGL 180900Z 33003KT 320V020 6000 FEW015 22/21 Q1008=
2026-04-18 10:00:00<>METAR SBGL 181000Z 28002KT 7000 FEW010 SCT070 23/21 Q1009=
2026-04-18 11:00:00<>METAR SBGL 181100Z 26009KT 9000 NSC 26/21 Q1009=
2026-04-18 12:00:00<>METAR SBGL 181200Z 01008KT 9000 NSC 26/21 Q1009=
2026-04-18 13:00:00<>METAR SBGL 181300Z 20002KT 9000 NSC 27/20 Q1009=
2026-04-18 14:00:00<>METAR SBGL 181400Z 02005KT 8000 NSC 29/21 Q1008=
2026-04-18 15:00:00<>METAR SBGL 181500Z 03006KT 9999 FEW030 29/20 Q1007=
2026-04-18 16:00:00<>METAR SBGL 181600Z 06004KT 9000 NSC 31/20 Q1006=
2026-04-18 17:00:00<>METAR SBGL 181700Z 04006KT 9999 FEW030 31/20 Q1006=
2026-04-18 18:00:00<>METAR SBGL 181800Z 12011KT 9999 FEW030 29/22 Q1006=
2026-04-18 19:00:00<>METAR SBGL 181900Z 12010KT 9000 FEW030 27/21 Q1006=
2026-04-18 20:00:00<>METAR SBGL 182000Z 13011KT 8000 FEW030 27/20 Q1006=
2026-04-18 21:00:00<>METAR SBGL 182100Z 14008KT 8000 FEW030 26/20 Q1006=
2026-04-18 22:00:00<>METAR SBGL 182200Z 16006KT 9999 VCTS FEW030 FEW035CB 26/20 Q1006=
2026-04-18 23:00:00<>METAR SBGL 182300Z 06003KT 340V090 9999 VCTS FEW030 FEW035CB 25/20 Q1007=
2026-04-19 00:00:00<>METAR SBGL 190000Z VRB02KT 9999 VCTS FEW030 FEW035CB 24/21 Q1007=
2026-04-19 01:00:00<>METAR SBGL 190100Z VRB02KT 9999 FEW030 25/21 Q1007=
2026-04-19 02:00:00<>METAR SBGL 190200Z 35003KT 320V050 8000 FEW030 26/22 Q1008=
2026-04-19 03:00:00<>METAR SBGL 190300Z 30006KT 8000 FEW030 26/20 Q1008=
2026-04-19 04:00:00<>METAR SBGL 190400Z 26004KT 9999 FEW030 25/20 Q1008=
2026-04-19 05:00:00<>METAR SBGL 190500Z 26006KT 220V290 9999 -RA FEW030 25/22 Q1008=
2026-04-19 06:00:00<>METAR SBGL 190600Z 25007KT 9999 FEW030 25/21 Q1009=
2026-04-19 07:00:00<>METAR SBGL 190700Z 26008KT 9999 FEW030 25/21 Q1009=
2026-04-19 08:00:00<>METAR SBGL 190800Z 28004KT 9999 FEW030 24/21 Q1009=
2026-04-19 09:00:00<>METAR SBGL 190900Z 29005KT 9000 FEW030 25/21 Q1010=
2026-04-19 10:00:00<>METAR SBGL 191000Z 31004KT 280V340 9999 FEW020 SCT050 BKN066 25/21 Q1011=
2026-04-19 11:00:00<>METAR SBGL 191100Z 34004KT 300V050 9999 FEW020 SCT050 BKN066 26/22 Q1012=
2026-04-19 12:00:00<>METAR SBGL 191200Z VRB04KT 9999 FEW023 SCT050 BKN066 27/21 Q1012=
2026-04-19 13:00:00<>METAR SBGL 191300Z 23005KT 180V340 9999 SCT030 SCT050 28/20 Q1013=
2026-04-19 14:00:00<>METAR SBGL 191400Z 22006KT 180V260 9999 SCT030 BKN050 30/20 Q1012=
2026-04-19 15:00:00<>METAR SBGL 191500Z 21012KT 180V240 9999 BKN035 BKN050 28/21 Q1012=
2026-04-19 16:00:00<>METAR SBGL 191600Z 20010KT 160V240 9999 SCT035 SCT050 29/20 Q1012=
2026-04-19 17:00:00<>METAR SBGL 191700Z 20013KT 9999 FEW035 SCT050 29/20 Q1012=
2026-04-19 18:00:00<>METAR SBGL 191800Z 21014KT 9999 FEW030 SCT050 29/20 Q1012=
2026-04-19 19:00:00<>METAR SBGL 191900Z 20012KT 9999 FEW030 SCT083 28/20 Q1012=
2026-04-19 20:00:00<>METAR SBGL 192000Z 21010KT 9999 FEW030 27/18 Q1012=
2026-04-19 21:00:00<>METAR SBGL 192100Z 20006KT 9999 FEW025 26/18 Q1013=
2026-04-19 22:00:00<>METAR SBGL 192200Z 20005KT 9999 FEW020 25/19 Q1013=
2026-04-19 23:00:00<>METAR SBGL 192300Z 22005KT 9999 FEW020 24/19 Q1014=
2026-04-20 00:00:00<>METAR SBGL 200000Z 22005KT 9999 FEW030 24/20 Q1014=
2026-04-20 01:00:00<>METAR SBGL 200100Z 26003KT 9999 FEW030 24/20 Q1015=
2026-04-20 02:00:00<>METAR SBGL 200200Z 29004KT 9999 FEW030 24/20 Q1014=
2026-04-20 03:00:00<>METAR SBGL 200300Z 30004KT CAVOK 23/19 Q1015=
2026-04-20 04:00:00<>METAR SBGL 200400Z 28004KT CAVOK 22/19 Q1015=
2026-04-20 05:00:00<>METAR SBGL 200500Z 33005KT 9999 FEW022 22/20 Q1015=
2026-04-20 06:00:00<>METAR SBGL 200600Z 32004KT CAVOK 22/20 Q1015=
2026-04-20 07:00:00<>METAR SBGL 200700Z 31007KT CAVOK 21/19 Q1014=
2026-04-20 08:00:00<>METAR SBGL 200800Z 31003KT CAVOK 21/19 Q1014=
2026-04-20 09:00:00<>METAR SBGL 200900Z 03002KT CAVOK 19/18 Q1015=
2026-04-20 10:00:00<>METAR SBGL 201000Z 33004KT CAVOK 22/19 Q1016=
2026-04-20 11:00:00<>METAR SBGL 201100Z 36006KT CAVOK 22/18 Q1016=
2026-04-20 12:00:00<>METAR SBGL 201200Z 35005KT 9999 FEW020 25/19 Q1017=
2026-04-20 13:00:00<>METAR SBGL 201300Z 01006KT 9999 FEW025 27/20 Q1017=
2026-04-20 14:00:00<>METAR SBGL 201400Z 01005KT 9999 SCT035 27/18 Q1016=
2026-04-20 15:00:00<>METAR SBGL 201500Z 01006KT 9999 SCT035 29/18 Q1015=
2026-04-20 16:00:00<>METAR SBGL 201600Z 12009KT 9999 SCT035 28/19 Q1015=
2026-04-20 17:00:00<>METAR SBGL 201700Z 11006KT 9999 SCT035 28/18 Q1014=
2026-04-20 18:00:00<>METAR SBGL 201800Z 12010KT 9999 SCT035 27/18 Q1014=
2026-04-20 19:00:00<>METAR SBGL 201900Z 20010KT 9999 SCT035 28/16 Q1014=
2026-04-20 20:00:00<>METAR SBGL 202000Z 20005KT 9999 SCT035 26/18 Q1014=
2026-04-20 21:00:00<>METAR SBGL 202100Z 21012KT 9999 SCT035 25/18 Q1015=
2026-04-20 22:00:00<>METAR SBGL 202200Z 19005KT 9999 SCT035 24/19 Q1015=
2026-04-20 23:00:00<>METAR SBGL 202300Z 22007KT 9999 FEW035 24/19 Q1016=
2026-04-21 00:00:00<>METAR SBGL 210000Z 25005KT 9999 FEW025 23/19 Q1016=
2026-04-21 01:00:00<>METAR SBGL 210100Z 25005KT 9999 SCT025 23/20 Q1016=
2026-04-21 02:00:00<>METAR SBGL 210200Z 30003KT 270V360 9999 FEW020 SCT040 24/19 Q1016=
2026-04-21 03:00:00<>METAR SBGL 210300Z 33006KT 310V020 9999 FEW020 SCT045 23/19 Q1016=
2026-04-21 04:00:00<>METAR SBGL 210400Z 30003KT 9999 FEW020 BKN045 23/19 Q1016=
2026-04-21 05:00:00<>METAR SBGL 210500Z 31004KT 290V020 9999 FEW020 BKN040 23/19 Q1015=
2026-04-21 06:00:00<>METAR SBGL 210600Z VRB02KT 9999 FEW020 SCT040 22/19 Q1015=
2026-04-21 07:00:00<>METAR SBGL 210700Z 35005KT 330V050 9999 FEW020 22/19 Q1015=
2026-04-21 08:00:00<>METAR SBGL 210800Z 34005KT 9000 FEW020 BKN050 21/19 Q1015=
2026-04-21 09:00:00<>METAR SBGL 210900Z 32003KT 9999 FEW020 BKN050 22/19 Q1016=
2026-04-21 10:00:00<>METAR SBGL 211000Z 01004KT 350V050 9999 FEW020 SCT050 21/19 Q1017=
2026-04-21 11:00:00<>METAR SBGL 211100Z 36005KT 330V040 9999 FEW030 SCT050 22/19 Q1017=
2026-04-21 12:00:00<>METAR SBGL 211200Z 01004KT 9999 SCT035 24/19 Q1018=
2026-04-21 13:00:00<>METAR SBGL 211300Z 01004KT 9999 SCT035 26/19 Q1018=
2026-04-21 14:00:00<>METAR SBGL 211400Z 01005KT 340V040 9999 SCT027 27/19 Q1017=
2026-04-21 15:00:00<>METAR SBGL 211500Z 02006KT 360V060 9999 SCT027 28/19 Q1016=
2026-04-21 16:00:00<>METAR SBGL 211600Z 12010KT 9999 SCT027 28/18 Q1016=
2026-04-21 17:00:00<>METAR SBGL 211700Z 12009KT 9999 SCT027 28/18 Q1015=
2026-04-21 18:00:00<>METAR SBGL 211800Z 12011KT 090V150 9999 SCT027 27/19 Q1015=
2026-04-21 19:00:00<>METAR SBGL 211900Z 12009KT 090V150 9999 SCT027 SCT050 26/19 Q1015=
2026-04-21 20:00:00<>METAR SBGL 212000Z 13006KT 090V160 9999 FEW027 SCT050 25/18 Q1015=
2026-04-21 21:00:00<>METAR SBGL 212100Z 14007KT 9999 FEW027 BKN050 24/18 Q1015=
2026-04-21 22:00:00<>METAR SBGL 212200Z 12004KT 9999 FEW025 BKN070 24/17 Q1016=
2026-04-21 23:00:00<>METAR SBGL 212300Z 08004KT 9999 FEW025 BKN070 23/18 Q1017=
2026-04-22 00:00:00<>METAR SBGL 220000Z 08004KT 9999 FEW025 BKN070 22/19 Q1017=
2026-04-22 01:00:00<>METAR SBGL 220100Z 10003KT 9999 SCT040 22/19 Q1017=
2026-04-22 02:00:00<>METAR SBGL 220200Z 08005KT 9999 FEW040 22/19 Q1017=
2026-04-22 03:00:00<>METAR SBGL 220300Z 08005KT 9999 FEW040 21/19 Q1017=
2026-04-22 04:00:00<>METAR SBGL 220400Z 02005KT 9999 FEW040 22/19 Q1017=
2026-04-22 05:00:00<>METAR SBGL 220500Z 02005KT 9999 FEW040 21/19 Q1016=
2026-04-22 06:00:00<>METAR SBGL 220600Z 01003KT 9999 SCT040 20/19 Q1016=
2026-04-22 07:00:00<>METAR SBGL 220700Z 32003KT 9999 FEW008 22/19 Q1016=
2026-04-22 08:00:00<>METAR SBGL 220800Z 32003KT 9999 FEW040 BKN070 22/19 Q1016=
2026-04-22 09:00:00<>METAR SBGL 220900Z 35003KT 8000 BKN040 21/18 Q1017=
2026-04-22 10:00:00<>METAR SBGL 221000Z 04002KT 9000 SCT045 22/19 Q1017=
2026-04-22 11:00:00<>METAR SBGL 221100Z 04004KT 9000 NSC 23/19 Q1018=
2026-04-22 12:00:00<>METAR SBGL 221200Z 05005KT 9000 FEW011 24/20 Q1018=
2026-04-22 13:00:00<>METAR SBGL 221300Z 01005KT 9999 FEW011 25/20 Q1018=
2026-04-22 14:00:00<>METAR SBGL 221400Z 10003KT 9999 FEW013 27/18 Q1017=
2026-04-22 15:00:00<>METAR SBGL 221500Z 12006KT 9999 FEW033 28/18 Q1016=
2026-04-22 16:00:00<>METAR SBGL 221600Z 15005KT 9999 FEW033 29/17 Q1015=
2026-04-22 17:00:00<>METAR SBGL 221700Z 13009KT 9999 FEW030 28/19 Q1015=
2026-04-22 18:00:00<>METAR SBGL 221800Z 13013KT 9999 FEW030 27/18 Q1014=
2026-04-22 19:00:00<>METAR SBGL 221900Z 14012KT 9999 FEW030 26/19 Q1015=
2026-04-22 20:00:00<>METAR SBGL 222000Z 14012KT 9999 FEW030 25/19 Q1015=
2026-04-22 21:00:00<>METAR SBGL 222100Z 14011KT 9999 BKN040 24/20 Q1015=
2026-04-22 22:00:00<>METAR SBGL 222200Z 15010KT 9999 BKN040 24/20 Q1017=
2026-04-22 23:00:00<>METAR SBGL 222300Z 14007KT 9999 BKN040 24/20 Q1017=
2026-04-23 00:00:00<>METAR SBGL 230000Z 14005KT 9999 BKN040 24/19 Q1018=
2026-04-23 01:00:00<>METAR SBGL 230100Z 12003KT 9999 BKN040 24/18 Q1018=
2026-04-23 02:00:00<>METAR SBGL 230200Z 12004KT 9999 BKN040 23/18 Q1018=
2026-04-23 03:00:00<>METAR COR SBGL 230300Z 09002KT 9999 SCT040 22/18 Q1017=
2026-04-23 04:00:00<>METAR SBGL 230400Z 09002KT 9999 SCT040 22/18 Q1017=
2026-04-23 05:00:00<>METAR SBGL 230500Z 10002KT 9999 SCT040 22/18 Q1017=
2026-04-23 06:00:00<>METAR SBGL 230600Z VRB02KT 9999 FEW040 21/18 Q1017=
2026-04-23 07:00:00<>METAR SBGL 230700Z VRB02KT 9999 FEW040 21/19 Q1016=
2026-04-23 08:00:00<>METAR SBGL 230800Z 12002KT 9999 FEW040 21/19 Q1017=
2026-04-23 09:00:00<>METAR SBGL 230900Z 02003KT 350V060 9999 FEW009 BKN040 21/19 Q1017=
2026-04-23 10:00:00<>METAR SBGL 231000Z 33004KT 9000 SCT040 22/20 Q1018=
2026-04-23 11:00:00<>METAR SBGL 231100Z 32002KT 9000 FEW040 24/20 Q1018=
2026-04-23 12:00:00<>METAR SBGL 231200Z 19001KT 9000 FEW040 26/19 Q1019=
2026-04-23 13:00:00<>METAR SBGL 231300Z 34003KT 9999 FEW040 27/19 Q1019=
2026-04-23 14:00:00<>METAR SBGL 231400Z 06003KT 9999 FEW040 28/20 Q1019=
2026-04-23 15:00:00<>METAR SBGL 231500Z 13006KT 9999 FEW040 29/18 Q1018=
2026-04-23 16:00:00<>METAR SBGL 231600Z 12007KT 9999 FEW040 29/19 Q1017=
2026-04-23 17:00:00<>METAR SBGL 231700Z 13010KT 9999 FEW040 28/20 Q1016=
2026-04-23 18:00:00<>METAR SBGL 231800Z 13011KT 9999 FEW040 28/19 Q1016=
2026-04-23 19:00:00<>METAR SBGL 231900Z 13011KT 9999 FEW040 27/18 Q1016=
2026-04-23 20:00:00<>METAR SBGL 232000Z 14010KT 9999 FEW040 26/19 Q1016=
2026-04-23 21:00:00<>METAR SBGL 232100Z 14010KT 9999 FEW043 25/19 Q1016=
2026-04-23 22:00:00<>METAR SBGL 232200Z 14008KT CAVOK 24/19 Q1017=
2026-04-23 23:00:00<>METAR SBGL 232300Z 14005KT CAVOK 24/19 Q1018=
2026-04-24 00:00:00<>METAR SBGL 240000Z 13004KT CAVOK 24/19 Q1018=
2026-04-24 01:00:00<>METAR SBGL 240100Z 14005KT CAVOK 23/19 Q1018=
2026-04-24 02:00:00<>METAR SBGL 240200Z 13004KT CAVOK 23/19 Q1018=
2026-04-24 03:00:00<>METAR SBGL 240300Z 11003KT CAVOK 22/19 Q1018=
2026-04-24 04:00:00<>METAR SBGL 240400Z 12004KT CAVOK 22/19 Q1018=
2026-04-24 05:00:00<>METAR SBGL 240500Z 00000KT CAVOK 21/19 Q1017=
2026-04-24 06:00:00<>METAR SBGL 240600Z 10001KT CAVOK 20/18 Q1017=
2026-04-24 07:00:00<>METAR SBGL 240700Z 07002KT CAVOK 20/18 Q1017=
2026-04-24 08:00:00<>METAR SBGL 240800Z 03002KT CAVOK 20/18 Q1017=
2026-04-24 09:00:00<>METAR SBGL 240900Z 01003KT 7000 NSC 21/20 Q1018=
2026-04-24 10:00:00<>METAR SBGL 241000Z 33003KT 310V040 8000 NSC 21/20 Q1018=
2026-04-24 11:00:00<>METAR SBGL 241100Z 02003KT 8000 NSC 23/20 Q1019=
2026-04-24 12:00:00<>METAR SBGL 241200Z 02008KT 9999 FEW008 25/20 Q1019=
2026-04-24 13:00:00<>METAR SBGL 241300Z 36004KT 9999 FEW008 26/20 Q1019=
2026-04-24 14:00:00<>METAR COR SBGL 241400Z 35004KT 9999 FEW008 29/18 Q1018=
2026-04-24 15:00:00<>METAR SBGL 241500Z 35005KT 9999 FEW008 29/18 Q1017=
2026-04-24 16:00:00<>METAR SBGL 241600Z 03007KT 9999 FEW008 29/18 Q1016=
2026-04-24 17:00:00<>METAR SBGL 241700Z 12010KT 090V150 9999 FEW030 29/20 Q1015=
2026-04-24 18:00:00<>METAR SBGL 241800Z 13011KT 9999 FEW030 28/20 Q1014=
2026-04-24 19:00:00<>METAR SBGL 241900Z 14010KT 9999 FEW030 28/20 Q1014=
2026-04-24 20:00:00<>METAR SBGL 242000Z 14009KT 9999 FEW030 27/20 Q1014=
2026-04-24 21:00:00<>METAR SBGL 242100Z 14008KT 9999 FEW030 26/20 Q1014=
2026-04-24 22:00:00<>METAR SBGL 242200Z 14006KT CAVOK 25/20 Q1015=
2026-04-24 23:00:00<>METAR SBGL 242300Z 12006KT CAVOK 25/21 Q1015=
2026-04-25 00:00:00<>METAR SBGL 250000Z 10004KT CAVOK 24/20 Q1015=
2026-04-25 01:00:00<>METAR SBGL 250100Z 10004KT CAVOK 23/20 Q1015=
2026-04-25 02:00:00<>METAR SBGL 250200Z 10004KT CAVOK 23/20 Q1015=
2026-04-25 03:00:00<>METAR SBGL 250300Z 08002KT CAVOK 23/20 Q1014=
2026-04-25 04:00:00<>METAR SBGL 250400Z 07001KT CAVOK 22/20 Q1014=
2026-04-25 05:00:00<>METAR SBGL 250500Z 06002KT CAVOK 21/19 Q1013=
2026-04-25 06:00:00<>METAR SBGL 250600Z 07002KT CAVOK 22/20 Q1013=
2026-04-25 07:00:00<>METAR SBGL 250700Z 07004KT CAVOK 21/19 Q1013=
2026-04-25 08:00:00<>METAR SBGL 250800Z 08003KT CAVOK 22/20 Q1013=
2026-04-25 09:00:00<>METAR SBGL 250900Z 07001KT 9999 FEW007 BKN070 22/20 Q1013=
2026-04-25 10:00:00<>METAR SBGL 251000Z 09003KT 9999 FEW008 SCT100 22/21 Q1013=
2026-04-25 11:00:00<>METAR SBGL 251100Z 08002KT 9999 FEW008 SCT100 24/21 Q1014=
2026-04-25 12:00:00<>METAR SBGL 251200Z 08002KT 9999 FEW008 SCT100 24/21 Q1014=
2026-04-25 13:00:00<>METAR SBGL 251300Z 36002KT CAVOK 29/22 Q1014=
2026-04-25 14:00:00<>METAR SBGL 251400Z 36003KT CAVOK 30/20 Q1013=
2026-04-25 15:00:00<>METAR SBGL 251500Z 08002KT CAVOK 32/20 Q1012=
2026-04-25 16:00:00<>METAR SBGL 251600Z 33008KT CAVOK 33/17 Q1011=
2026-04-25 17:00:00<>METAR SBGL 251700Z 30008KT 270V340 9999 FEW025 34/16 Q1010=
2026-04-25 18:00:00<>METAR SBGL 251800Z 27007KT 240V340 9999 FEW025 34/17 Q1009=
2026-04-25 19:00:00<>METAR SBGL 251900Z 12008KT 9999 FEW025 32/20 Q1010=
2026-04-25 20:00:00<>METAR SBGL 252000Z 12007KT 9999 FEW025 30/19 Q1010=
2026-04-25 21:00:00<>METAR SBGL 252100Z 13006KT 9999 FEW025 28/19 Q1010=
2026-04-25 22:00:00<>METAR SBGL 252200Z 13007KT CAVOK 27/19 Q1010=
2026-04-25 23:00:00<>METAR SBGL 252300Z VRB02KT CAVOK 27/21 Q1011=
2026-04-26 00:00:00<>METAR SBGL 260000Z VRB01KT CAVOK 26/21 Q1011=
2026-04-26 01:00:00<>METAR SBGL 260100Z VRB02KT CAVOK 24/21 Q1011=
2026-04-26 02:00:00<>METAR SBGL 260200Z VRB02KT CAVOK 24/21 Q1011=
2026-04-26 03:00:00<>METAR SBGL 260300Z 08003KT CAVOK 24/20 Q1011=
2026-04-26 04:00:00<>METAR SBGL 260400Z 07003KT CAVOK 23/20 Q1010=
2026-04-26 05:00:00<>METAR SBGL 260500Z 07003KT CAVOK 23/20 Q1010=
2026-04-26 06:00:00<>METAR SBGL 260600Z 11003KT CAVOK 22/20 Q1010=
2026-04-26 07:00:00<>METAR SBGL 260700Z 08003KT CAVOK 22/20 Q1010=
2026-04-26 08:00:00<>METAR SBGL 260800Z 06004KT CAVOK 22/20 Q1010=
2026-04-26 09:00:00<>METAR SBGL 260900Z 06002KT CAVOK 22/20 Q1011=
2026-04-26 10:00:00<>METAR SBGL 261000Z 00000KT CAVOK 23/20 Q1011=
2026-04-26 11:00:00<>METAR SBGL 261100Z 00000KT CAVOK 26/21 Q1012=
2026-04-26 12:00:00<>METAR SBGL 261200Z VRB01KT CAVOK 29/20 Q1012=
2026-04-26 13:00:00<>METAR SBGL 261300Z 33004KT 270V010 CAVOK 30/20 Q1012=
2026-04-26 14:00:00<>METAR SBGL 261400Z VRB02KT CAVOK 33/20 Q1011=
2026-04-26 15:00:00<>METAR SBGL 261500Z VRB03KT CAVOK 34/19 Q1010=
2026-04-26 16:00:00<>METAR SBGL 261600Z 35004KT 310V060 CAVOK 35/19 Q1009=
2026-04-26 17:00:00<>METAR SBGL 261700Z 36004KT 290V050 CAVOK 34/19 Q1009=
2026-04-26 18:00:00<>METAR SBGL 261800Z 05004KT CAVOK 35/18 Q1008=
2026-04-26 19:00:00<>METAR SBGL 261900Z 12009KT CAVOK 31/19 Q1009=
2026-04-26 20:00:00<>METAR SBGL 262000Z 13009KT CAVOK 29/21 Q1009=
2026-04-26 21:00:00<>METAR SBGL 262100Z 14008KT CAVOK 28/21 Q1009=
2026-04-26 22:00:00<>METAR SBGL 262200Z 13006KT CAVOK 28/21 Q1010=
2026-04-26 23:00:00<>METAR SBGL 262300Z 14005KT CAVOK 27/21 Q1010=
2026-04-27 00:00:00<>METAR SBGL 270000Z 13002KT CAVOK 26/21 Q1011=
2026-04-27 01:00:00<>METAR SBGL 270100Z 14003KT CAVOK 26/21 Q1010=
2026-04-27 02:00:00<>METAR SBGL 270200Z 15006KT CAVOK 25/20 Q1010=
2026-04-27 03:00:00<>METAR COR SBGL 270300Z 09002KT CAVOK 23/20 Q1009=
2026-04-27 04:00:00<>METAR SBGL 270400Z 10002KT CAVOK 24/21 Q1010=
2026-04-27 05:00:00<>METAR SBGL 270500Z 07002KT CAVOK 24/20 Q1010=
2026-04-27 06:00:00<>METAR SBGL 270600Z 09002KT CAVOK 23/20 Q1009=
2026-04-27 07:00:00<>METAR SBGL 270700Z 06005KT CAVOK 22/20 Q1009=
2026-04-27 08:00:00<>METAR SBGL 270800Z 06003KT CAVOK 23/20 Q1009=
2026-04-27 09:00:00<>METAR SBGL 270900Z 03002KT 8000 FEW008 23/21 Q1010=
2026-04-27 10:00:00<>METAR SBGL 271000Z 24002KT 8000 FEW008 24/22 Q1011=
2026-04-27 11:00:00<>METAR SBGL 271100Z 25008KT 9000 FEW008 29/21 Q1012=
2026-04-27 12:00:00<>METAR SBGL 271200Z 29004KT CAVOK 31/21 Q1012=
2026-04-27 13:00:00<>METAR SBGL 271300Z 30003KT CAVOK 32/21 Q1012=
2026-04-27 14:00:00<>METAR SBGL 271400Z 32003KT 9000 NSC 33/21 Q1011=
2026-04-27 15:00:00<>METAR SBGL 271500Z 36003KT 9000 NSC 35/20 Q1010=
2026-04-27 16:00:00<>METAR SBGL 271600Z 02004KT 9999 FEW020 SCT100 35/20 Q1009=
2026-04-27 17:00:00<>METAR SBGL 271700Z 13010KT 9999 FEW020 SCT100 33/22 Q1009=
2026-04-27 18:00:00<>METAR SBGL 271800Z 23012KT 9999 FEW020 32/23 Q1010=
2026-04-27 19:00:00<>METAR SBGL 271900Z 25009KT 9999 FEW020 31/23 Q1010=
2026-04-27 20:00:00<>METAR SBGL 272000Z 12007KT 9999 FEW020 28/23 Q1011=
2026-04-27 21:00:00<>METAR SBGL 272100Z 23008KT 9999 SCT023 SCT100 28/22 Q1012=
2026-04-27 22:00:00<>METAR SBGL 272200Z 10006KT 9999 SCT025 BKN100 27/23 Q1013=
2026-04-27 23:00:00<>METAR SBGL 272300Z 13005KT 090V180 9999 BKN025 BKN070 27/23 Q1014=
2026-04-28 00:00:00<>METAR SBGL 280000Z 13007KT 9999 BKN025 BKN050 27/23 Q1014=
2026-04-28 01:00:00<>METAR SBGL 280100Z 13007KT 100V160 9999 BKN025 BKN050 26/23 Q1015=
2026-04-28 02:00:00<>METAR SBGL 280200Z 13007KT 9999 BKN025 BKN050 26/23 Q1015=
2026-04-28 03:00:00<>METAR SBGL 280300Z 13007KT 9999 BKN025 BKN050 26/23 Q1014=
2026-04-28 04:00:00<>METAR SBGL 280400Z 13005KT 110V170 9999 BKN025 BKN070 26/23 Q1014=
2026-04-28 05:00:00<>METAR SBGL 280500Z 10006KT 9999 BKN025 BKN070 26/23 Q1013=
2026-04-28 06:00:00<>METAR SBGL 280600Z 14005KT 110V170 9999 BKN025 BKN070 26/23 Q1013=
2026-04-28 07:00:00<>METAR SBGL 280700Z 12004KT 9999 BKN025 BKN070 25/23 Q1013=
2026-04-28 08:00:00<>METAR SBGL 280800Z 13004KT 9999 BKN025 BKN050 25/23 Q1013=
2026-04-28 09:00:00<>METAR SBGL 280900Z 13004KT 9999 FEW015 BKN025 BKN050 26/23 Q1014=
2026-04-28 10:00:00<>METAR SBGL 281000Z 14005KT 9999 FEW015 SCT020 BKN040 26/23 Q1015=
2026-04-28 11:00:00<>METAR SBGL 281100Z 11005KT 9999 SCT026 SCT046 26/23 Q1015=
2026-04-28 12:00:00<>METAR SBGL 281200Z 13005KT 9999 SCT020 BKN040 27/23 Q1016=
2026-04-28 12:13:00<>SPECI SBGL 281213Z 12005KT 9999 BKN010 BKN040 27/23 Q1016=
2026-04-28 13:00:00<>METAR SBGL 281300Z 13006KT 9999 SCT013 SCT040 28/23 Q1016=
2026-04-28 14:00:00<>METAR SBGL 281400Z 13009KT 9999 SCT013 BKN046 28/23 Q1016=
2026-04-28 15:00:00<>METAR SBGL 281500Z 13010KT 9999 SCT013 BKN053 28/23 Q1015=
2026-04-28 16:00:00<>METAR SBGL 281600Z 14010KT 9999 SCT020 BKN053 28/23 Q1014=
2026-04-28 17:00:00<>METAR SBGL 281700Z 14011KT 9999 SCT033 SCT053 29/23 Q1013=
2026-04-28 18:00:00<>METAR SBGL 281800Z 13012KT 9999 SCT026 28/23 Q1013=
2026-04-28 19:00:00<>METAR SBGL 281900Z 14009KT 9999 FEW033 28/23 Q1013=
2026-04-28 20:00:00<>METAR SBGL 282000Z 14008KT 9999 FEW033 27/23 Q1013=
2026-04-28 21:00:00<>METAR SBGL 282100Z 15008KT 9999 SCT033 26/23 Q1013=
2026-04-28 22:00:00<>METAR SBGL 282200Z 14006KT 9999 SCT033 26/23 Q1013=
2026-04-28 23:00:00<>METAR SBGL 282300Z 12003KT 9999 FEW020 SCT033 26/23 Q1014=
2026-04-29 00:00:00<>METAR SBGL 290000Z 13004KT 110V170 9999 SCT020 25/23 Q1014=
2026-04-29 01:00:00<>METAR SBGL 290100Z 12002KT 9999 FEW020 OVC025 26/23 Q1014=
2026-04-29 02:00:00<>METAR SBGL 290200Z 10003KT 9999 FEW020 BKN025 25/23 Q1014=
2026-04-29 03:00:00<>METAR SBGL 290300Z VRB02KT 9999 FEW017 25/23 Q1014=
2026-04-29 04:00:00<>METAR SBGL 290400Z 15003KT 9000 FEW015 24/23 Q1013=
2026-04-29 05:00:00<>METAR SBGL 290500Z VRB01KT 8000 FEW015 24/23 Q1013=
2026-04-29 06:00:00<>METAR SBGL 290600Z VRB02KT 7000 FEW015 24/22 Q1013=
2026-04-29 07:00:00<>METAR SBGL 290700Z 06004KT 5000 BR FEW015 23/22 Q1013=
2026-04-29 07:36:00<>SPECI SBGL 290736Z 35005KT 2000 BR FEW005 24/23 Q1013=
2026-04-29 08:00:00<>METAR SBGL 290800Z 33004KT 300V360 2000 BR FEW004 24/23 Q1013=
2026-04-29 08:41:00<>SPECI SBGL 290841Z 31003KT 290V360 4000 BR FEW004 24/23 Q1013=
2026-04-29 09:00:00<>METAR SBGL 290900Z VRB02KT 4000 BR FEW004 24/23 Q1013=
2026-04-29 10:00:00<>METAR SBGL 291000Z 06003KT 4000 BR FEW004 24/23 Q1014=
2026-04-29 11:00:00<>METAR SBGL 291100Z 06002KT 4000 BR FEW004 26/23 Q1014=
2026-04-29 12:00:00<>METAR SBGL 291200Z 16003KT 3000 BR FEW004 27/24 Q1014=
2026-04-29 13:00:00<>METAR SBGL 291300Z 33006KT 4000 HZ FEW004 28/24 Q1014=
2026-04-29 14:00:00<>METAR SBGL 291400Z 14005KT 5000 HZ FEW004 30/24 Q1013=
2026-04-29 15:00:00<>METAR SBGL 291500Z 03007KT 6000 NSC 30/24 Q1013=
2026-04-29 16:00:00<>METAR SBGL 291600Z 15005KT 7000 NSC 32/22 Q1012=
2026-04-29 17:00:00<>METAR SBGL 291700Z 11009KT 8000 NSC 32/25 Q1011=
2026-04-29 18:00:00<>METAR SBGL 291800Z 16007KT 9000 NSC 31/25 Q1010=
2026-04-29 19:00:00<>METAR SBGL 291900Z 13008KT CAVOK 29/23 Q1011=
2026-04-29 20:00:00<>METAR SBGL 292000Z 13008KT CAVOK 28/23 Q1012=
2026-04-29 21:00:00<>METAR SBGL 292100Z 28005KT CAVOK 27/23 Q1012=
2026-04-29 22:00:00<>METAR SBGL 292200Z 22012KT 9000 SCT013 27/23 Q1014=
2026-04-29 23:00:00<>METAR SBGL 292300Z 23011KT 8000 SCT015 BKN028 26/23 Q1014=
2026-04-30 00:00:00<>METAR SBGL 300000Z 23010KT 9999 -RA SCT022 BKN025 OVC032 26/23 Q1015=
2026-04-30 01:00:00<>METAR SBGL 300100Z 23011KT 8000 SCT022 OVC030 26/22 Q1015=
2026-04-30 02:00:00<>METAR SBGL 300200Z 23008KT 9999 SCT022 OVC040 26/22 Q1015=
2026-04-30 03:00:00<>METAR SBGL 300300Z 25007KT 9999 SCT022 OVC040 27/22 Q1015=
2026-04-30 04:00:00<>METAR SBGL 300400Z 24006KT 9999 SCT022 OVC040 26/22 Q1015=
2026-04-30 05:00:00<>METAR SBGL 300500Z 26009KT 9999 BKN018 OVC024 25/21 Q1014=
2026-04-30 06:00:00<>METAR SBGL 300600Z 26010KT 9999 SCT018 OVC035 24/21 Q1015=
2026-04-30 07:00:00<>METAR SBGL 300700Z 28007KT 9999 SCT018 OVC035 24/21 Q1015=
2026-04-30 08:00:00<>METAR SBGL 300800Z 27009KT 9999 FEW014 OVC045 24/21 Q1015=
2026-04-30 09:00:00<>METAR SBGL 300900Z 27005KT 9999 FEW014 OVC045 24/21 Q1015=
2026-04-30 10:00:00<>METAR SBGL 301000Z 31006KT 9999 FEW014 SCT080 24/21 Q1016=
2026-04-30 11:00:00<>METAR SBGL 301100Z 29004KT 9999 FEW014 26/21 Q1016=
2026-04-30 12:00:00<>METAR SBGL 301200Z 20003KT CAVOK 27/21 Q1015=
2026-04-30 13:00:00<>METAR SBGL 301300Z 33002KT CAVOK 29/21 Q1015=
2026-04-30 14:00:00<>METAR SBGL 301400Z 22005KT CAVOK 29/21 Q1015=
2026-04-30 15:00:00<>METAR SBGL 301500Z 27006KT CAVOK 31/22 Q1014=
2026-04-30 16:00:00<>METAR SBGL 301600Z 12012KT 9999 FEW022 29/22 Q1014=
2026-04-30 17:00:00<>METAR SBGL 301700Z 13013KT 9999 FEW022 28/22 Q1013=
2026-04-30 18:00:00<>METAR SBGL 301800Z 14014KT 9999 FEW022 28/21 Q1013=
2026-04-30 19:00:00<>METAR SBGL 301900Z 14012KT 9999 FEW020 27/21 Q1013=
2026-04-30 20:00:00<>METAR SBGL 302000Z 14009KT 9999 SCT020 26/21 Q1014=
2026-04-30 21:00:00<>METAR SBGL 302100Z 14009KT 9999 BKN018 26/21 Q1015=
2026-04-30 22:00:00<>METAR SBGL 302200Z 14005KT 9999 BKN017 26/21 Q1016=
2026-04-30 23:00:00<>METAR SBGL 302300Z 21003KT 150V240 9999 FEW017 BKN023 BKN036 26/22 Q1017=
2026-05-01 00:00:00<>METAR SBGL 010000Z 24004KT 200V270 9999 FEW015 BKN023 BKN040 26/22 Q1017=
2026-05-01 01:00:00<>METAR SBGL 010100Z 11004KT 070V150 9999 FEW015 BKN021 BKN033 26/22 Q1017=
2026-05-01 02:00:00<>METAR SBGL 010200Z 13006KT 9000 -RA FEW015 BKN021 BKN033 25/23 Q1018=
2026-05-01 03:00:00<>METAR SBGL 010300Z 10003KT 070V140 9000 -RA FEW015 BKN020 BKN033 25/23 Q1017=
2026-05-01 04:00:00<>METAR SBGL 010400Z 08002KT 9999 BKN017 BKN020 BKN033 25/23 Q1017=
2026-05-01 05:00:00<>METAR SBGL 010500Z 00000KT 9999 FEW011 SCT015 OVC040 25/23 Q1017=
2026-05-01 06:00:00<>METAR SBGL 010600Z 33004KT 8000 FEW005 BKN007 OVC040 24/23 Q1016=
2026-05-01 07:00:00<>METAR SBGL 010700Z 33005KT 8000 -RA SCT004 BKN007 OVC040 24/23 Q1016=
2026-05-01 08:00:00<>METAR SBGL 010800Z 33003KT 8000 FEW004 BKN007 OVC040 24/22 Q1017=
2026-05-01 08:38:00<>SPECI SBGL 010838Z VRB02KT 9000 FEW004 SCT007 OVC040 24/23 Q1017=
2026-05-01 09:00:00<>METAR SBGL 010900Z VRB02KT 9000 FEW004 SCT009 BKN040 24/23 Q1017=
2026-05-01 10:00:00<>METAR SBGL 011000Z 00000KT 9000 FEW004 SCT009 BKN040 24/23 Q1018=
2026-05-01 11:00:00<>METAR SBGL 011100Z 33002KT 9000 FEW004 BKN007 BKN040 24/23 Q1019=
2026-05-01 12:00:00<>METAR SBGL 011200Z 16002KT 8000 -RA BKN007 BKN015 BKN050 25/23 Q1019=
2026-05-01 13:00:00<>METAR SBGL 011300Z VRB02KT 8000 FEW009 SCT014 BKN050 26/23 Q1020=
2026-05-01 14:00:00<>METAR SBGL 011400Z 36002KT 9000 FEW016 BKN080 28/22 Q1019=
2026-05-01 15:00:00<>METAR SBGL 011500Z 31003KT 9999 FEW022 BKN080 29/23 Q1018=
2026-05-01 16:00:00<>METAR SBGL 011600Z 14003KT 9999 FEW024 BKN080 29/22 Q1018=
2026-05-01 17:00:00<>METAR SBGL 011700Z 13011KT 9999 FEW024 BKN080 28/23 Q1017=
2026-05-01 18:00:00<>METAR SBGL 011800Z 13011KT 9999 FEW024 BKN080 27/23 Q1016=
2026-05-01 19:00:00<>METAR SBGL 011900Z 14010KT 9999 FEW024 BKN080 26/23 Q1016=
2026-05-01 20:00:00<>METAR COR SBGL 012000Z 15008KT 9999 FEW024 BKN080 25/23 Q1017=
2026-05-01 21:00:00<>METAR SBGL 012100Z 15008KT 9999 FEW024 BKN080 25/23 Q1017=
2026-05-01 22:00:00<>METAR SBGL 012200Z 14006KT 9999 FEW008 25/23 Q1017=
2026-05-01 23:00:00<>METAR SBGL 012300Z 11003KT 9999 FEW040 25/23 Q1017=
2026-05-02 00:00:00<>METAR SBGL 020000Z 13003KT 9999 FEW030 24/23 Q1018=
2026-05-02 01:00:00<>METAR SBGL 020100Z 13004KT 9999 FEW030 24/23 Q1017=
2026-05-02 02:00:00<>METAR SBGL 020200Z 12003KT 9999 FEW030 24/22 Q1017=
2026-05-02 03:00:00<>METAR SBGL 020300Z 13002KT 9999 FEW030 24/22 Q1016=
2026-05-02 04:00:00<>METAR SBGL 020400Z 07003KT 9999 FEW030 23/22 Q1015=
2026-05-02 05:00:00<>METAR SBGL 020500Z 11002KT 9999 FEW030 24/22 Q1015=
2026-05-02 06:00:00<>METAR SBGL 020600Z VRB02KT 8000 FEW030 24/22 Q1014=
2026-05-02 07:00:00<>METAR SBGL 020700Z 14003KT 8000 FEW030 23/22 Q1014=
2026-05-02 08:00:00<>METAR SBGL 020800Z 12003KT 8000 FEW030 23/21 Q1014=
2026-05-02 09:00:00<>METAR SBGL 020900Z 09003KT 8000 FEW030 22/21 Q1015=
2026-05-02 10:00:00<>METAR SBGL 021000Z 36002KT 7000 SCT015 23/22 Q1015=
2026-05-02 11:00:00<>METAR SBGL 021100Z VRB02KT 7000 SCT015 25/22 Q1016=
2026-05-02 12:00:00<>METAR SBGL 021200Z 36005KT 8000 SCT015 26/22 Q1016=
2026-05-02 13:00:00<>METAR SBGL 021300Z 35003KT 280V060 8000 SCT015 28/22 Q1016=
2026-05-02 14:00:00<>METAR SBGL 021400Z 35004KT 9999 FEW030 30/22 Q1015=
2026-05-02 15:00:00<>METAR SBGL 021500Z 30010KT 9999 FEW030 33/18 Q1014=
2026-05-02 16:00:00<>METAR SBGL 021600Z 28010KT 9999 FEW030 SCT070 34/19 Q1014=
2026-05-02 17:00:00<>METAR SBGL 021700Z 29007G17KT 9999 FEW030 SCT070 34/17 Q1013=
2026-05-02 18:00:00<>METAR SBGL 021800Z 16006KT 120V230 9999 FEW030 SCT070 31/21 Q1013=
2026-05-02 19:00:00<>METAR SBGL 021900Z 13007KT 9999 FEW030 SCT070 29/22 Q1014=
2026-05-02 20:00:00<>METAR SBGL 022000Z 13004KT 090V220 9999 FEW035 SCT080 28/23 Q1014=
2026-05-02 20:15:00<>SPECI SBGL 022015Z 21018KT 9999 FEW025 SCT080 29/18 Q1015=
2026-05-02 21:00:00<>METAR SBGL 022100Z 21017KT 9999 FEW025 SCT080 27/21 Q1015=
2026-05-02 22:00:00<>METAR SBGL 022200Z 23010KT 9999 FEW040 27/21 Q1015=
2026-05-02 23:00:00<>METAR SBGL 022300Z 29006KT 9999 FEW030 26/21 Q1016=
2026-05-03 00:00:00<>METAR SBGL 030000Z 33009KT 9999 FEW030 BKN100 26/22 Q1016=
2026-05-03 01:00:00<>METAR SBGL 030100Z 25002KT 9999 FEW030 BKN100 26/21 Q1016=
2026-05-03 02:00:00<>METAR SBGL 030200Z 10003KT 9999 FEW030 BKN100 26/21 Q1016=
2026-05-03 03:00:00<>METAR SBGL 030300Z 02003KT CAVOK 26/22 Q1016=
2026-05-03 04:00:00<>METAR SBGL 030400Z 30002KT CAVOK 25/22 Q1016=
2026-05-03 05:00:00<>METAR SBGL 030500Z 21006KT CAVOK 26/19 Q1016=
2026-05-03 06:00:00<>METAR SBGL 030600Z 23007KT 9999 FEW030 SCT070 26/19 Q1016=
2026-05-03 07:00:00<>METAR SBGL 030700Z 25007KT 9999 FEW030 SCT070 25/20 Q1016=
2026-05-03 08:00:00<>METAR SBGL 030800Z 22006KT 9000 -RA SCT025 BKN070 24/20 Q1016=
2026-05-03 09:00:00<>METAR SBGL 030900Z 20001KT 9999 BKN020 BKN070 23/21 Q1017=
2026-05-03 10:00:00<>METAR SBGL 031000Z 31003KT 2500 -RA BR FEW010 BKN016 OVC070 24/21 Q1018=
2026-05-03 10:31:00<>SPECI SBGL 031031Z 17004KT 7000 3000NE -RA FEW007 BKN016 BKN023 23/21 Q1018=
2026-05-03 11:00:00<>METAR SBGL 031100Z VRB01KT 9999 4000NE -RA FEW007 SCT016 BKN023 23/22 Q1018=
2026-05-03 12:00:00<>METAR SBGL 031200Z VRB02KT 9000 -RA FEW012 BKN023 BKN070 24/21 Q1020=
2026-05-03 12:29:00<>SPECI SBGL 031229Z 13005KT 080V170 6000 2500NE RA SCT012 BKN020 BKN070 23/21 Q1020=
2026-05-03 13:00:00<>METAR SBGL 031300Z 12005KT 8000 -RA FEW012 BKN020 BKN036 23/21 Q1020 RERA=
2026-05-03 14:00:00<>METAR SBGL 031400Z 14004KT 8000 -RA FEW015 BKN020 BKN033 23/21 Q1020=
2026-05-03 15:00:00<>METAR SBGL 031500Z 34003KT 9000 FEW020 BKN030 BKN036 24/20 Q1020=
2026-05-03 15:08:00<>SPECI SBGL 031508Z 30003KT 210V020 8000 3000W RA FEW020 BKN030 BKN036 24/20 Q1020=
2026-05-03 15:28:00<>SPECI SBGL 031528Z 28004KT 250V320 8000 -RA SCT020 BKN030 BKN036 23/21 Q1019 RERA=
2026-05-03 16:00:00<>METAR SBGL 031600Z 15004KT 100V190 8000 -RA FEW009 SCT020 BKN030 24/19 Q1019 RERA=
2026-05-03 17:00:00<>METAR SBGL 031700Z VRB02KT 9999 FEW020 SCT030 OVC040 24/20 Q1019=
2026-05-03 18:00:00<>METAR SBGL 031800Z 24003KT 200V270 9999 FEW020 OVC040 24/18 Q1019=
2026-05-03 18:38:00<>SPECI SBGL 031838Z 26007KT 210V320 4500 RA BR SCT009 SCT020 OVC040 23/19 Q1019=
2026-05-03 19:00:00<>METAR COR SBGL 031900Z 14009KT 110V180 3000 RA BR SCT009 BKN020 OVC040 22/19 Q1019 RERA=
2026-05-03 19:35:00<>SPECI SBGL 031935Z 12005KT 8000 -RA FEW009 SCT020 OVC040 21/19 Q1020 RERA=
2026-05-03 20:00:00<>METAR SBGL 032000Z VRB02KT 9000 FEW007 SCT020 OVC040 21/19 Q1020 RERA=
2026-05-03 21:00:00<>METAR SBGL 032100Z VRB02KT 9999 FEW020 BKN040 OVC060 21/19 Q1020=
2026-05-03 22:00:00<>METAR SBGL 032200Z 33006KT 310V020 9999 FEW008 BKN036 OVC050 21/19 Q1021=
2026-05-03 23:00:00<>METAR SBGL 032300Z 29005KT 9999 SCT013 BKN023 OVC033 21/18 Q1021=
2026-05-03 23:15:00<>SPECI SBGL 032315Z 14009KT 5000 -RA BR BKN013 BKN017 OVC033 21/19 Q1021=
2026-05-04 00:00:00<>METAR SBGL 040000Z 01004KT 8000 SCT013 BKN023 OVC040 21/19 Q1021=
2026-05-04 01:00:00<>METAR SBGL 040100Z 33005KT 8000 SCT013 BKN023 OVC040 20/19 Q1021=
2026-05-04 02:00:00<>METAR SBGL 040200Z 36004KT 8000 SCT007 SCT033 OVC050 21/19 Q1021=
2026-05-04 03:00:00<>METAR SBGL 040300Z 31005KT 8000 SCT009 SCT019 OVC050 20/19 Q1021=
2026-05-04 04:00:00<>METAR SBGL 040400Z 36004KT 8000 SCT008 BKN015 OVC050 20/19 Q1021=
2026-05-04 05:00:00<>METAR SBGL 040500Z 34005KT 8000 SCT008 BKN015 OVC050 20/19 Q1020=
2026-05-04 06:00:00<>METAR SBGL 040600Z 32005KT 8000 SCT008 BKN015 OVC050 20/19 Q1020=
2026-05-04 07:00:00<>METAR SBGL 040700Z 36005KT 8000 SCT008 BKN015 OVC050 19/18 Q1020=
2026-05-04 08:00:00<>METAR SBGL 040800Z 10002KT 8000 FEW011 BKN030 BKN066 19/18 Q1020=
2026-05-04 09:00:00<>METAR SBGL 040900Z 10002KT 9999 FEW009 SCT033 BKN066 20/19 Q1020=
2026-05-04 10:00:00<>METAR SBGL 041000Z 12007KT 9999 SCT009 SCT040 BKN066 20/19 Q1020=
2026-05-04 11:00:00<>METAR SBGL 041100Z 09004KT 9999 SCT007 SCT009 21/19 Q1021=
2026-05-04 12:00:00<>METAR SBGL 041200Z 05005KT 9999 FEW009 22/19 Q1021=
2026-05-04 13:00:00<>METAR SBGL 041300Z 36004KT 9999 FEW006 23/19 Q1022=
2026-05-04 14:00:00<>METAR SBGL 041400Z 10007KT 9999 SCT029 25/17 Q1021=
2026-05-04 15:00:00<>METAR SBGL 041500Z 01007KT 9999 SCT049 26/18 Q1020=
2026-05-04 16:00:00<>METAR SBGL 041600Z 04006KT 9999 FEW038 27/17 Q1019=
2026-05-04 17:00:00<>METAR SBGL 041700Z 14006KT 9999 SCT040 SCT049 27/18 Q1019=
2026-05-04 18:00:00<>METAR SBGL 041800Z 14009KT 9999 FEW040 BKN045 26/17 Q1018=
2026-05-04 19:00:00<>METAR SBGL 041900Z 13007KT CAVOK 26/18 Q1018=
2026-05-04 20:00:00<>METAR SBGL 042000Z 12005KT CAVOK 26/18 Q1018=
2026-05-04 21:00:00<>METAR SBGL 042100Z 11004KT CAVOK 24/19 Q1018=
2026-05-04 22:00:00<>METAR SBGL 042200Z 10008KT CAVOK 24/18 Q1019=
2026-05-04 23:00:00<>METAR SBGL 042300Z 10009KT CAVOK 23/17 Q1020=
2026-05-05 00:00:00<>METAR SBGL 050000Z 09010KT CAVOK 23/17 Q1020=
2026-05-05 01:00:00<>METAR SBGL 050100Z 09005KT 070V140 CAVOK 22/17 Q1020=
2026-05-05 02:00:00<>METAR SBGL 050200Z 13004KT CAVOK 21/17 Q1020=
2026-05-05 03:00:00<>METAR COR SBGL 050300Z 11003KT CAVOK 21/17 Q1020=
2026-05-05 04:00:00<>METAR SBGL 050400Z 12003KT CAVOK 21/17 Q1020=
2026-05-05 05:00:00<>METAR SBGL 050500Z 12002KT CAVOK 20/17 Q1019=
2026-05-05 06:00:00<>METAR SBGL 050600Z 13003KT CAVOK 19/17 Q1019=
2026-05-05 07:00:00<>METAR SBGL 050700Z VRB02KT 9000 NSC 20/18 Q1019=
2026-05-05 08:00:00<>METAR SBGL 050800Z 02002KT 9000 3000NE NSC 19/18 Q1019=
2026-05-05 09:00:00<>METAR SBGL 050900Z 31001KT 8000 FEW009 20/18 Q1019=
2026-05-05 09:34:00<>SPECI COR SBGL 050934Z VRB02KT 4500 0300NE BR BCFG FEW009 19/18 Q1020=
2026-05-05 10:00:00<>METAR SBGL 051000Z 06002KT 6000 0300NE R10/1900 R28/P2000 R33/P2000 R15/P2000 BCFG FEW009 20/19 Q1020=
2026-05-05 11:00:00<>METAR SBGL 051100Z VRB02KT 9999 FEW009 23/19 Q1020=
2026-05-05 12:00:00<>METAR SBGL 051200Z 01003KT 310V080 CAVOK 24/19 Q1021=
2026-05-05 13:00:00<>METAR SBGL 051300Z 01005KT CAVOK 25/20 Q1021=
2026-05-05 14:00:00<>METAR SBGL 051400Z VRB02KT CAVOK 27/20 Q1020=
2026-05-05 15:00:00<>METAR SBGL 051500Z 34004KT 300V040 9999 FEW025 29/19 Q1019=
2026-05-05 16:00:00<>METAR SBGL 051600Z 02005KT 360V060 9999 FEW025 29/19 Q1019=
2026-05-05 17:00:00<>METAR SBGL 051700Z VRB06KT 9999 FEW025 30/19 Q1018=
2026-05-05 18:00:00<>METAR SBGL 051800Z 12007KT 9999 FEW025 29/19 Q1018=
2026-05-05 19:00:00<>METAR SBGL 051900Z 13008KT 9999 FEW025 28/20 Q1018=
2026-05-05 20:00:00<>METAR SBGL 052000Z 13008KT 9999 FEW025 27/20 Q1018=
2026-05-05 21:00:00<>METAR SBGL 052100Z 14007KT CAVOK 26/21 Q1018=
2026-05-05 22:00:00<>METAR SBGL 052200Z 14006KT CAVOK 25/21 Q1019=
2026-05-05 23:00:00<>METAR SBGL 052300Z 11004KT CAVOK 25/21 Q1019=
2026-05-06 00:00:00<>METAR SBGL 060000Z 06001KT CAVOK 24/20 Q1020=
2026-05-06 01:00:00<>METAR SBGL 060100Z 10003KT CAVOK 23/19 Q1020=
2026-05-06 02:00:00<>METAR SBGL 060200Z 10002KT CAVOK 23/20 Q1020=
2026-05-06 03:00:00<>METAR SBGL 060300Z 08002KT CAVOK 22/19 Q1020=
2026-05-06 04:00:00<>METAR SBGL 060400Z 11003KT CAVOK 21/19 Q1019=
2026-05-06 05:00:00<>METAR SBGL 060500Z 09001KT CAVOK 21/19 Q1019=
2026-05-06 06:00:00<>METAR SBGL 060600Z 05003KT CAVOK 21/19 Q1019=
2026-05-06 07:00:00<>METAR SBGL 060700Z 10003KT CAVOK 21/20 Q1018=
2026-05-06 08:00:00<>METAR SBGL 060800Z 10002KT CAVOK 21/19 Q1018=
2026-05-06 09:00:00<>METAR SBGL 060900Z 07002KT CAVOK 21/19 Q1019=
2026-05-06 10:00:00<>METAR SBGL 061000Z 10003KT CAVOK 21/20 Q1019=
2026-05-06 11:00:00<>METAR SBGL 061100Z 04002KT 9999 FEW020 23/20 Q1020=
2026-05-06 12:00:00<>METAR SBGL 061200Z 30001KT CAVOK 26/21 Q1021=
2026-05-06 13:00:00<>METAR SBGL 061300Z 36005KT CAVOK 25/21 Q1021=
2026-05-06 14:00:00<>METAR SBGL 061400Z 04003KT CAVOK 28/21 Q1020=
2026-05-06 15:00:00<>METAR SBGL 061500Z 20006KT 9999 FEW025 29/21 Q1019=
2026-05-06 16:00:00<>METAR SBGL 061600Z 12005KT 9999 FEW025 30/20 Q1018=
2026-05-06 17:00:00<>METAR SBGL 061700Z 11008KT 9999 FEW030 29/21 Q1017=
2026-05-06 18:00:00<>METAR SBGL 061800Z 13008KT 9999 FEW030 28/21 Q1017=
2026-05-06 19:00:00<>METAR SBGL 061900Z 13008KT CAVOK 28/21 Q1017=
2026-05-06 20:00:00<>METAR SBGL 062000Z 14006KT CAVOK 27/22 Q1016=
2026-05-06 21:00:00<>METAR SBGL 062100Z 14006KT CAVOK 26/22 Q1017=
2026-05-06 22:00:00<>METAR SBGL 062200Z 13006KT 9000 NSC 25/22 Q1017=
2026-05-06 23:00:00<>METAR SBGL 062300Z 14007KT 9000 NSC 25/22 Q1018=
2026-05-07 00:00:00<>METAR SBGL 070000Z 07005KT CAVOK 24/22 Q1018=
2026-05-07 01:00:00<>METAR SBGL 070100Z 11006KT CAVOK 24/22 Q1018=
2026-05-07 02:00:00<>METAR SBGL 070200Z 14004KT CAVOK 23/21 Q1018=
2026-05-07 03:00:00<>METAR SBGL 070300Z 16003KT 9999 FEW009 23/22 Q1018=
2026-05-07 04:00:00<>METAR SBGL 070400Z 09005KT 9999 FEW008 23/21 Q1017=
2026-05-07 05:00:00<>METAR SBGL 070500Z 17005KT 9999 FEW008 22/21 Q1017=
2026-05-07 06:00:00<>METAR SBGL 070600Z 18004KT 9999 FEW008 22/21 Q1016=
2026-05-07 07:00:00<>METAR SBGL 070700Z 33003KT 8000 FEW008 22/21 Q1016=
2026-05-07 08:00:00<>METAR SBGL 070800Z 09003KT 8000 FEW006 22/21 Q1015=
2026-05-07 09:00:00<>METAR SBGL 070900Z 35004KT 4000 BR FEW005 22/21 Q1016=
2026-05-07 10:00:00<>METAR SBGL 071000Z 07002KT 5000 BR FEW005 22/21 Q1016=
2026-05-07 11:00:00<>METAR SBGL 071100Z 05004KT 8000 SCT007 25/22 Q1017=
2026-05-07 12:00:00<>METAR SBGL 071200Z 06004KT 030V120 9000 FEW007 26/22 Q1017=
2026-05-07 13:00:00<>METAR SBGL 071300Z 02004KT 350V060 9999 FEW010 27/22 Q1017=
2026-05-07 14:00:00<>METAR SBGL 071400Z 35006KT 340V040 9999 FEW010 29/20 Q1015=
2026-05-07 15:00:00<>METAR SBGL 071500Z 04006KT 360V130 9999 FEW015 30/22 Q1014=
2026-05-07 16:00:00<>METAR SBGL 071600Z 12003KT 9999 FEW015 31/19 Q1013=
2026-05-07 17:00:00<>METAR SBGL 071700Z 10003KT 9999 FEW017 33/19 Q1012=
2026-05-07 18:00:00<>METAR SBGL 071800Z 12006KT 9999 FEW017 32/19 Q1012=
2026-05-07 19:00:00<>METAR COR SBGL 071900Z 06005KT 9999 FEW017 30/21 Q1011=
2026-05-07 20:00:00<>METAR SBGL 072000Z 08005KT 9999 FEW017 30/21 Q1011=
2026-05-07 21:00:00<>METAR SBGL 072100Z 12004KT CAVOK 28/22 Q1012=
2026-05-07 22:00:00<>METAR SBGL 072200Z 08006KT CAVOK 26/21 Q1012=
2026-05-07 23:00:00<>METAR SBGL 072300Z 08007KT CAVOK 27/21 Q1012=
2026-05-08 00:00:00<>METAR SBGL 080000Z 06009KT CAVOK 26/22 Q1013=
2026-05-08 01:00:00<>METAR SBGL 080100Z VRB02KT CAVOK 25/21 Q1013=
2026-05-08 02:00:00<>METAR SBGL 080200Z 14005KT 110V180 CAVOK 26/20 Q1013=
2026-05-08 03:00:00<>METAR SBGL 080300Z VRB02KT CAVOK 25/20 Q1013=
2026-05-08 04:00:00<>METAR SBGL 080400Z 12004KT CAVOK 23/20 Q1013=
2026-05-08 05:00:00<>METAR SBGL 080500Z 13005KT CAVOK 24/21 Q1013=
2026-05-08 06:00:00<>METAR SBGL 080600Z 16003KT 140V200 CAVOK 24/20 Q1012=
2026-05-08 07:00:00<>METAR SBGL 080700Z 14004KT CAVOK 23/20 Q1012=
2026-05-08 08:00:00<>METAR SBGL 080800Z 16004KT CAVOK 23/20 Q1012=
2026-05-08 09:00:00<>METAR SBGL 080900Z VRB02KT CAVOK 24/20 Q1013=
2026-05-08 10:00:00<>METAR SBGL 081000Z VRB04KT CAVOK 27/20 Q1014=
2026-05-08 11:00:00<>METAR SBGL 081100Z 34005KT CAVOK 28/20 Q1015=
2026-05-08 12:00:00<>METAR SBGL 081200Z 02005KT CAVOK 29/19 Q1015=
2026-05-08 13:00:00<>METAR SBGL 081300Z 01015KT CAVOK 31/18 Q1014=
2026-05-08 14:00:00<>METAR SBGL 081400Z 02007KT CAVOK 31/17 Q1014=
2026-05-08 15:00:00<>METAR SBGL 081500Z 02008KT CAVOK 32/08 Q1013=
2026-05-08 16:00:00<>METAR SBGL 081600Z 02004KT CAVOK 32/18 Q1011=
2026-05-08 17:00:00<>METAR SBGL 081700Z 05008KT CAVOK 32/17 Q1010=
2026-05-08 18:00:00<>METAR SBGL 081800Z 06006KT CAVOK 32/17 Q1010=
2026-05-08 19:00:00<>METAR SBGL 081900Z 07008KT CAVOK 32/17 Q1010=
2026-05-08 20:00:00<>METAR SBGL 082000Z 06008KT CAVOK 30/20 Q1010=
2026-05-08 21:00:00<>METAR SBGL 082100Z 10007KT CAVOK 28/20 Q1011=
2026-05-08 22:00:00<>METAR SBGL 082200Z 10003KT CAVOK 27/20 Q1011=
2026-05-08 23:00:00<>METAR SBGL 082300Z VRB02KT CAVOK 26/19 Q1012=
2026-05-09 00:00:00<>METAR SBGL 090000Z 10006KT CAVOK 26/19 Q1012=
2026-05-09 01:00:00<>METAR SBGL 090100Z 15005KT CAVOK 25/20 Q1012=
2026-05-09 02:00:00<>METAR SBGL 090200Z 08003KT 050V120 CAVOK 25/19 Q1012=
2026-05-09 03:00:00<>METAR SBGL 090300Z VRB03KT CAVOK 25/19 Q1012=
2026-05-09 04:00:00<>METAR SBGL 090400Z 01007KT 340V040 CAVOK 27/18 Q1012=
2026-05-09 05:00:00<>METAR SBGL 090500Z VRB02KT CAVOK 26/19 Q1012=
2026-05-09 06:00:00<>METAR SBGL 090600Z VRB01KT CAVOK 24/18 Q1012=
2026-05-09 07:00:00<>METAR SBGL 090700Z VRB01KT CAVOK 22/18 Q1012=
2026-05-09 08:00:00<>METAR SBGL 090800Z VRB02KT CAVOK 26/17 Q1012=
2026-05-09 09:00:00<>METAR SBGL 090900Z VRB03KT CAVOK 25/18 Q1013=
2026-05-09 10:00:00<>METAR SBGL 091000Z 01009KT 310V040 CAVOK 28/18 Q1013=
2026-05-09 11:00:00<>METAR SBGL 091100Z 01010KT 330V030 CAVOK 29/19 Q1014=
2026-05-09 12:00:00<>METAR SBGL 091200Z 36010KT 330V030 CAVOK 31/20 Q1014=
2026-05-09 13:00:00<>METAR SBGL 091300Z 35010KT 320V030 CAVOK 33/19 Q1014=
2026-05-09 14:00:00<>METAR SBGL 091400Z 01011KT CAVOK 33/19 Q1014=
2026-05-09 15:00:00<>METAR SBGL 091500Z 02010KT CAVOK 34/18 Q1013=
2026-05-09 16:00:00<>METAR SBGL 091600Z 04010KT CAVOK 34/18 Q1012=
2026-05-09 17:00:00<>METAR SBGL 091700Z 05010KT CAVOK 34/18 Q1012=
2026-05-09 18:00:00<>METAR SBGL 091800Z 04007KT CAVOK 34/18 Q1012=
2026-05-09 19:00:00<>METAR SBGL 091900Z 02006KT CAVOK 33/18 Q1012=
2026-05-09 20:00:00<>METAR SBGL 092000Z 13005KT CAVOK 31/20 Q1012=
2026-05-09 21:00:00<>METAR SBGL 092100Z 12002KT CAVOK 28/20 Q1012=
2026-05-09 22:00:00<>METAR SBGL 092200Z 07004KT CAVOK 28/20 Q1013=
2026-05-09 23:00:00<>METAR SBGL 092300Z 22003KT 9999 FEW040 SCT070 26/21 Q1013=
2026-05-10 00:00:00<>METAR SBGL 100000Z 25009KT 9999 FEW040 SCT070 27/21 Q1014=
2026-05-10 01:00:00<>METAR SBGL 100100Z 25009KT 8000 FEW040 26/21 Q1014=
2026-05-10 02:00:00<>METAR SBGL 100200Z 25007KT 8000 FEW040 26/21 Q1014=
2026-05-10 03:00:00<>METAR SBGL 100300Z 26005KT CAVOK 25/22 Q1014=
2026-05-10 04:00:00<>METAR SBGL 100400Z 08002KT CAVOK 23/21 Q1013=
2026-05-10 05:00:00<>METAR SBGL 100500Z 10004KT 9999 FEW040 23/20 Q1013=
2026-05-10 06:00:00<>METAR SBGL 100600Z 12005KT 9999 FEW040 23/20 Q1013=
2026-05-10 07:00:00<>METAR SBGL 100700Z 11005KT 8000 FEW040 22/20 Q1013=
2026-05-10 08:00:00<>METAR SBGL 100800Z 21006KT 9000 FEW020 24/21 Q1014=
2026-05-10 09:00:00<>METAR SBGL 100900Z 26005KT 9999 FEW020 24/22 Q1014=
2026-05-10 10:00:00<>METAR SBGL 101000Z 26009KT 9999 FEW020 25/22 Q1015=
2026-05-10 11:00:00<>METAR SBGL 101100Z 22009KT 9999 SCT026 25/21 Q1016=
2026-05-10 12:00:00<>METAR SBGL 101200Z 24005KT 180V290 9999 BKN023 27/21 Q1017=
2026-05-10 13:00:00<>METAR SBGL 101300Z 27004KT 220V310 9999 BKN023 29/21 Q1016=
2026-05-10 14:00:00<>METAR SBGL 101400Z 26004KT 220V310 9999 BKN026 29/21 Q1016=
2026-05-10 15:00:00<>METAR SBGL 101500Z 19009KT 9999 BKN026 FEW030TCU 26/21 Q1015=
2026-05-10 16:00:00<>METAR SBGL 101600Z 21014KT 9999 FEW030TCU BKN045 26/20 Q1015=
2026-05-10 17:00:00<>METAR SBGL 101700Z 22014KT 9999 FEW025TCU BKN030 24/19 Q1014=
2026-05-10 18:00:00<>METAR SBGL 101800Z 22012KT 9999 OVC030 24/19 Q1014=
2026-05-10 19:00:00<>METAR SBGL 101900Z 22015KT 9999 OVC027 23/19 Q1015=
2026-05-10 20:00:00<>METAR SBGL 102000Z 24010KT 9999 FEW020 OVC027 23/19 Q1015=
2026-05-10 21:00:00<>METAR SBGL 102100Z 24012KT 9999 FEW016 OVC027 23/18 Q1016=
2026-05-10 22:00:00<>METAR SBGL 102200Z 23008KT 9999 FEW016 OVC035 22/18 Q1017=
2026-05-10 23:00:00<>METAR SBGL 102300Z 25008KT 9999 BKN016 OVC035 22/18 Q1017=
2026-05-11 00:00:00<>METAR SBGL 110000Z 24013KT 9999 BKN016 OVC030 22/18 Q1018=
2026-05-11 01:00:00<>METAR SBGL 110100Z 24008KT 8000 -RA SCT010 BKN016 OVC030 21/19 Q1018=
2026-05-11 02:00:00<>METAR SBGL 110200Z 24006KT 9999 FEW010 BKN016 OVC030 21/18 Q1018=
2026-05-11 03:00:00<>METAR SBGL 110300Z 28004KT 9999 FEW010 BKN016 BKN030 21/18 Q1018=
2026-05-11 04:00:00<>METAR SBGL 110400Z 28005KT 9999 FEW010 BKN016 BKN030 21/18 Q1017=
2026-05-11 05:00:00<>METAR SBGL 110500Z 24007KT 9999 FEW010 BKN015 BKN025 21/18 Q1017=
2026-05-11 06:00:00<>METAR SBGL 110600Z 27005KT 9999 FEW010 SCT015 BKN025 20/18 Q1017=
2026-05-11 07:00:00<>METAR SBGL 110700Z 25007KT 9999 FEW010 SCT015 BKN025 20/17 Q1017=
2026-05-11 08:00:00<>METAR SBGL 110800Z 28005KT 9999 FEW010 BKN020 OVC040 20/18 Q1017=
2026-05-11 09:00:00<>METAR SBGL 110900Z 24007KT 9999 FEW010 SCT015 OVC040 20/18 Q1017=
2026-05-11 10:00:00<>METAR SBGL 111000Z 22009KT 9000 FEW010 BKN015 OVC030 20/17 Q1018=
2026-05-11 11:00:00<>METAR SBGL 111100Z 25008KT 8000 FEW010 BKN015 OVC030 20/17 Q1019=
2026-05-11 12:00:00<>METAR SBGL 111200Z 26006KT 220V300 9000 FEW010 BKN015 OVC030 20/17 Q1019=
2026-05-11 13:00:00<>METAR SBGL 111300Z 27010KT 9000 FEW010 BKN015 OVC035 20/17 Q1020=
2026-05-11 14:00:00<>METAR SBGL 111400Z 29007KT 9000 -RA FEW010 BKN015 OVC040 21/16 Q1019=
2026-05-11 15:00:00<>METAR SBGL 111500Z 28008KT 260V320 9999 BKN020 OVC040 22/16 Q1019=
2026-05-11 16:00:00<>METAR SBGL 111600Z 23009KT 200V260 9999 BKN020 OVC045 22/14 Q1018=
2026-05-11 17:00:00<>METAR SBGL 111700Z 24008KT 210V280 9999 BKN020 OVC045 23/13 Q1017=
2026-05-11 18:00:00<>METAR SBGL 111800Z 25005KT 210V280 9999 BKN020 OVC045 22/07 Q1017=
2026-05-11 19:00:00<>METAR SBGL 111900Z 22009KT 9999 BKN020 OVC045 22/14 Q1017=
2026-05-11 20:00:00<>METAR SBGL 112000Z 21009KT 9999 BKN025 OVC045 22/14 Q1018=
2026-05-11 21:00:00<>METAR SBGL 112100Z 23008KT 9999 BKN025 OVC045 21/14 Q1019=
2026-05-11 22:00:00<>METAR SBGL 112200Z 23007KT 9999 BKN025 OVC045 21/14 Q1019=
2026-05-11 23:00:00<>METAR SBGL 112300Z 22008KT 9999 BKN020 OVC033 21/14 Q1020=
2026-05-12 00:00:00<>METAR SBGL 120000Z 29006KT 9999 SCT020 OVC033 21/15 Q1020=
2026-05-12 01:00:00<>METAR SBGL 120100Z 31007KT 9999 SCT020 OVC033 20/16 Q1021=
2026-05-12 02:00:00<>METAR SBGL 120200Z 33010KT 9999 SCT033 OVC050 19/16 Q1021=
2026-05-12 03:00:00<>METAR SBGL 120300Z 32006KT 9999 SCT030 BKN050 19/15 Q1020=
2026-05-12 04:00:00<>METAR SBGL 120400Z 29005KT 9999 SCT046 18/15 Q1020=
2026-05-12 05:00:00<>METAR SBGL 120500Z 28005KT 9999 SCT046 18/15 Q1020=
2026-05-12 06:00:00<>METAR SBGL 120600Z 31004KT 9999 SCT046 18/15 Q1019=
2026-05-12 07:00:00<>METAR SBGL 120700Z 33004KT 8000 SCT046 17/15 Q1019=
2026-05-12 08:00:00<>METAR SBGL 120800Z 33005KT 8000 SCT046 17/15 Q1020=
2026-05-12 09:00:00<>METAR SBGL 120900Z 31006KT 8000 SCT046 17/15 Q1020=
2026-05-12 10:00:00<>METAR SBGL 121000Z 29003KT 9000 SCT046 18/16 Q1021=
2026-05-12 11:00:00<>METAR SBGL 121100Z 35003KT 9999 FEW045 20/16 Q1022=
2026-05-12 12:00:00<>METAR SBGL 121200Z 34005KT 9999 FEW045 21/15 Q1022=
2026-05-12 13:00:00<>METAR SBGL 121300Z 36005KT 320V030 9999 FEW045 23/15 Q1022=
2026-05-12 14:00:00<>METAR SBGL 121400Z 12005KT 340V040 9999 FEW045 24/12 Q1020=
2026-05-12 15:00:00<>METAR SBGL 121500Z 16007KT 350V060 9999 FEW045 24/12 Q1020=
2026-05-12 16:00:00<>METAR SBGL 121600Z 03007KT 360V070 9999 FEW045 25/12 Q1018=
2026-05-12 17:00:00<>METAR SBGL 121700Z 13009KT 9999 FEW045 25/14 Q1017=
2026-05-12 18:00:00<>METAR SBGL 121800Z 12009KT 9999 FEW045 24/13 Q1017=
2026-05-12 19:00:00<>METAR SBGL 121900Z 14009KT 9999 FEW045 23/13 Q1017=
2026-05-12 20:00:00<>METAR SBGL 122000Z 13011KT 9999 FEW045 22/13 Q1017=
2026-05-12 21:00:00<>METAR SBGL 122100Z 14005KT 9999 FEW045 21/14 Q1017=
2026-05-12 22:00:00<>METAR SBGL 122200Z 15006KT 9999 FEW045 21/14 Q1018=
2026-05-12 23:00:00<>METAR SBGL 122300Z VRB02KT CAVOK 20/14 Q1019=
2026-05-13 00:00:00<>METAR SBGL 130000Z VRB02KT CAVOK 20/15 Q1019=
2026-05-13 01:00:00<>METAR SBGL 130100Z VRB02KT CAVOK 21/16 Q1019=
2026-05-13 02:00:00<>METAR SBGL 130200Z 35004KT 330V040 9999 BKN040 20/16 Q1019=
2026-05-13 03:00:00<>METAR SBGL 130300Z 32003KT 9999 SCT040 19/16 Q1018=
2026-05-13 04:00:00<>METAR SBGL 130400Z 31003KT CAVOK 18/16 Q1018=
2026-05-13 05:00:00<>METAR SBGL 130500Z 32005KT CAVOK 18/15 Q1017=
2026-05-13 06:00:00<>METAR SBGL 130600Z VRB02KT CAVOK 18/15 Q1017=
2026-05-13 07:00:00<>METAR SBGL 130700Z VRB02KT CAVOK 16/14 Q1016=
2026-05-13 08:00:00<>METAR SBGL 130800Z 33004KT CAVOK 17/16 Q1016=
2026-05-13 09:00:00<>METAR SBGL 130900Z VRB02KT 8000 NSC 16/15 Q1017=
2026-05-13 10:00:00<>METAR SBGL 131000Z VRB02KT 5000 BR FEW015 16/15 Q1017=
2026-05-13 11:00:00<>METAR SBGL 131100Z 35002KT 4000 BR FEW015 20/17 Q1018=
2026-05-13 12:00:00<>METAR SBGL 131200Z 35004KT 6000 NSC 21/17 Q1018=
2026-05-13 13:00:00<>METAR SBGL 131300Z 35005KT 9000 NSC 22/16 Q1018=
2026-05-13 14:00:00<>METAR SBGL 131400Z 01005KT CAVOK 23/17 Q1017=
2026-05-13 15:00:00<>METAR SBGL 131500Z 35005KT CAVOK 26/17 Q1016=
2026-05-13 16:00:00<>METAR SBGL 131600Z 04005KT CAVOK 27/17 Q1015=
2026-05-13 17:00:00<>METAR SBGL 131700Z 13007KT CAVOK 27/17 Q1014=
2026-05-13 18:00:00<>METAR SBGL 131800Z 12009KT CAVOK 26/19 Q1014=
2026-05-13 19:00:00<>METAR SBGL 131900Z 12009KT CAVOK 25/18 Q1014=
2026-05-13 20:00:00<>METAR SBGL 132000Z 13008KT CAVOK 24/19 Q1015=
2026-05-13 21:00:00<>METAR SBGL 132100Z 12004KT CAVOK 23/19 Q1015=
2026-05-13 22:00:00<>METAR SBGL 132200Z 30003KT CAVOK 23/18 Q1016=
2026-05-13 23:00:00<>METAR SBGL 132300Z 29006KT 9999 FEW046 23/18 Q1017=
2026-05-14 00:00:00<>METAR SBGL 140000Z 28005KT 9999 SCT046 23/18 Q1017=
2026-05-14 01:00:00<>METAR SBGL 140100Z 30005KT 9999 FEW046 22/18 Q1017=
2026-05-14 02:00:00<>METAR SBGL 140200Z 32004KT 9999 FEW046 22/18 Q1017=
2026-05-14 03:00:00<>METAR SBGL 140300Z 34005KT 9999 FEW046 22/19 Q1016=
2026-05-14 04:00:00<>METAR SBGL 140400Z 31006KT 7000 FEW040 BKN050 21/18 Q1016=
2026-05-14 05:00:00<>METAR SBGL 140500Z 29005KT 7000 FEW040 BKN050 21/18 Q1015=
2026-05-14 06:00:00<>METAR SBGL 140600Z 28005KT 6000 FEW040 BKN050 21/18 Q1015=
2026-05-14 07:00:00<>METAR SBGL 140700Z 33005KT 6000 FEW040 BKN050 20/18 Q1015=
2026-05-14 08:00:00<>METAR SBGL 140800Z 32006KT 6000 FEW040 SCT050 20/18 Q1015=
2026-05-14 09:00:00<>METAR SBGL 140900Z 04002KT 6000 FEW040 20/18 Q1015=
2026-05-14 10:00:00<>METAR SBGL 141000Z 12002KT 5000 BR NSC 20/18 Q1016=
2026-05-14 11:00:00<>METAR SBGL 141100Z 09002KT 4000 BR NSC 21/19 Q1016=
2026-05-14 12:00:00<>METAR SBGL 141200Z 02005KT 6000 NSC 23/19 Q1017=
2026-05-14 13:00:00<>METAR SBGL 141300Z 01004KT 7000 NSC 24/20 Q1017=
2026-05-14 14:00:00<>METAR SBGL 141400Z 35004KT 7000 NSC 25/20 Q1016=
2026-05-14 15:00:00<>METAR SBGL 141500Z 36006KT 330V040 8000 NSC 27/20 Q1016=
2026-05-14 16:00:00<>METAR SBGL 141600Z 11008KT 7000 NSC 27/19 Q1015=
2026-05-14 17:00:00<>METAR SBGL 141700Z 12010KT 6000 NSC 26/20 Q1015=
2026-05-14 18:00:00<>METAR SBGL 141800Z 09014KT 8000 NSC 25/19 Q1015=
2026-05-14 19:00:00<>METAR SBGL 141900Z 12009KT 9999 FEW030 SCT080 25/20 Q1015=
2026-05-14 20:00:00<>METAR SBGL 142000Z 13007KT 9999 SCT030 SCT080 24/20 Q1015=
2026-05-14 21:00:00<>METAR SBGL 142100Z 00000KT 9999 SCT030 SCT080 24/20 Q1015=
2026-05-14 22:00:00<>METAR SBGL 142200Z 30003KT 9999 SCT030 24/20 Q1016=
2026-05-14 23:00:00<>METAR SBGL 142300Z 26006KT 9999 FEW030 BKN036 24/20 Q1017=
2026-05-15 00:00:00<>METAR SBGL 150000Z 26007KT 240V320 9999 SCT021 BKN036 23/20 Q1017=
2026-05-15 01:00:00<>METAR SBGL 150100Z 25006KT 9999 SCT021 BKN036 24/20 Q1017=
2026-05-15 02:00:00<>METAR SBGL 150200Z 26004KT 9999 FEW020 SCT025 BKN033 23/20 Q1017=
2026-05-15 03:00:00<>METAR SBGL 150300Z 28005KT 250V340 9000 OVC017 24/20 Q1017=
2026-05-15 04:00:00<>METAR SBGL 150400Z 26005KT 9000 OVC017 23/20 Q1017=
2026-05-15 05:00:00<>METAR SBGL 150500Z 29003KT 260V030 8000 OVC015 23/20 Q1016=
2026-05-15 06:00:00<>METAR SBGL 150600Z 36004KT 7000 SCT015 OVC017 23/20 Q1015=
2026-05-15 07:00:00<>METAR SBGL 150700Z 33003KT 7000 SCT017 SCT020 BKN025 23/20 Q1015=
2026-05-15 08:00:00<>METAR SBGL 150800Z 30003KT 7000 BKN017 BKN025 23/20 Q1015=
2026-05-15 09:00:00<>METAR SBGL 150900Z 32004KT 8000 BKN020 BKN025 23/20 Q1016=
2026-05-15 10:00:00<>METAR SBGL 151000Z 32003KT 300V010 8000 BKN012 BKN020 23/20 Q1016=
2026-05-15 11:00:00<>METAR SBGL 151100Z 31003KT 270V360 8000 BKN012 BKN020 24/20 Q1017=
2026-05-15 12:00:00<>METAR SBGL 151200Z 26005KT 230V290 8000 SCT022 BKN025 24/20 Q1017=
2026-05-15 13:00:00<>METAR SBGL 151300Z VRB03KT 8000 SCT022 BKN025 25/20 Q1017=
2026-05-15 14:00:00<>METAR SBGL 151400Z 36004KT 330V050 8000 SCT022 BKN025 25/20 Q1017=
2026-05-15 15:00:00<>METAR SBGL 151500Z 15003KT 100V200 8000 SCT020 BKN025 25/20 Q1017=
2026-05-15 16:00:00<>METAR SBGL 151600Z 12003KT 070V180 8000 SCT018 OVC022 25/20 Q1016=
2026-05-15 17:00:00<>METAR SBGL 151700Z 36002KT 8000 SCT018 OVC022 25/20 Q1015=
2026-05-15 18:00:00<>METAR SBGL 151800Z 21006KT 8000 BKN020 OVC026 25/20 Q1015=
2026-05-15 19:00:00<>METAR SBGL 151900Z 21005KT 8000 BKN020 OVC026 25/20 Q1015=
2026-05-15 20:00:00<>METAR SBGL 152000Z 19005KT 9999 BKN020 OVC026 24/20 Q1016=
2026-05-15 21:00:00<>METAR SBGL 152100Z 23006KT 9999 BKN030 BKN036 24/20 Q1016=
2026-05-15 22:00:00<>METAR SBGL 152200Z 23006KT 9999 BKN033 BKN046 24/20 Q1017=
2026-05-15 23:00:00<>METAR SBGL 152300Z 22008KT 9999 BKN026 BKN040 24/20 Q1017=
2026-05-16 00:00:00<>METAR SBGL 160000Z 26004KT 9999 BKN026 BKN040 23/19 Q1017=
2026-05-16 01:00:00<>METAR SBGL 160100Z 27005KT 9999 BKN030 BKN070 24/19 Q1017=
2026-05-16 02:00:00<>METAR SBGL 160200Z 02003KT 9999 BKN030 BKN070 23/20 Q1017=
2026-05-16 03:00:00<>METAR SBGL 160300Z 33002KT 9999 BKN030 BKN080 23/20 Q1016=
2026-05-16 04:00:00<>METAR SBGL 160400Z 33001KT 9000 SCT030 BKN080 22/20 Q1015=
2026-05-16 05:00:00<>METAR SBGL 160500Z 35002KT 9000 SCT030 BKN080 22/20 Q1015=
2026-05-16 06:00:00<>METAR SBGL 160600Z 26001KT 8000 SCT030 BKN080 21/20 Q1015=
2026-05-16 07:00:00<>METAR SBGL 160700Z 35003KT 9000 NSC 21/20 Q1014=
2026-05-16 08:00:00<>METAR SBGL 160800Z 33001KT 5000 BR NSC 21/20 Q1014=
2026-05-16 09:00:00<>METAR SBGL 160900Z 33003KT 4000 BR NSC 21/20 Q1014=
2026-05-16 10:00:00<>METAR SBGL 161000Z 32002KT 4000 BR NSC 21/20 Q1015=
2026-05-16 11:00:00<>METAR SBGL 161100Z VRB02KT 4500 BR NSC 23/20 Q1016=
2026-05-16 12:00:00<>METAR SBGL 161200Z VRB02KT 5000 HZ NSC 25/20 Q1016=
2026-05-16 12:14:00<>SPECI SBGL 161214Z VRB02KT 4000 HZ BKN012 25/20 Q1017=
2026-05-16 13:00:00<>METAR SBGL 161300Z 36005KT 330V030 4000 HZ BKN012 26/20 Q1017=
2026-05-16 14:00:00<>METAR SBGL 161400Z 01004KT 320V050 4500 HZ BKN012 27/20 Q1016=
2026-05-16 15:00:00<>METAR SBGL 161500Z 04006KT 4500 HZ BKN012 28/20 Q1015=
2026-05-16 16:00:00<>METAR SBGL 161600Z 04005KT 360V070 7000 BKN015 28/20 Q1015=
2026-05-16 17:00:00<>METAR SBGL 161700Z 12008KT 7000 BKN015 27/20 Q1014=
2026-05-16 18:00:00<>METAR SBGL 161800Z 13009KT 7000 BKN015 27/20 Q1014=
2026-05-16 19:00:00<>METAR SBGL 161900Z 13007KT 9000 BKN015 26/21 Q1014=
2026-05-16 20:00:00<>METAR SBGL 162000Z 12009KT 9999 BKN015 25/20 Q1014=
2026-05-16 21:00:00<>METAR SBGL 162100Z 13007KT 9999 SCT020 24/21 Q1015=
2026-05-16 22:00:00<>METAR SBGL 162200Z 15007KT 9999 SCT020 24/21 Q1015=
2026-05-16 23:00:00<>METAR SBGL 162300Z 12006KT 9999 SCT023 SCT033 24/20 Q1015=
2026-05-17 00:00:00<>METAR SBGL 170000Z 15003KT 9999 BKN023 BKN033 24/21 Q1016=
2026-05-17 01:00:00<>METAR SBGL 170100Z 12003KT 9999 BKN017 BKN033 24/21 Q1016=
2026-05-17 02:00:00<>METAR SBGL 170200Z 10005KT 9999 FEW015 SCT017 BKN021 24/21 Q1016=
2026-05-17 03:00:00<>METAR SBGL 170300Z 10006KT 9999 BKN017 BKN021 24/21 Q1015=
2026-05-17 04:00:00<>METAR SBGL 170400Z 11006KT 9999 FEW015 BKN019 23/20 Q1015=
2026-05-17 05:00:00<>METAR SBGL 170500Z 13006KT 8000 FEW015 BKN019 23/20 Q1014=
2026-05-17 06:00:00<>METAR SBGL 170600Z 17005KT 8000 FEW015 BKN019 22/20 Q1014=
2026-05-17 07:00:00<>METAR SBGL 170700Z 14006KT 7000 FEW015 BKN019 22/19 Q1014=
2026-05-17 08:00:00<>METAR SBGL 170800Z 06002KT 7000 SCT019 21/20 Q1014=
2026-05-17 09:00:00<>METAR SBGL 170900Z 18002KT 7000 SCT019 21/19 Q1014=
2026-05-17 10:00:00<>METAR SBGL 171000Z 05003KT 7000 FEW023 21/20 Q1015=
2026-05-17 11:00:00<>METAR SBGL 171100Z VRB02KT 7000 FEW025 23/21 Q1015=
2026-05-17 12:00:00<>METAR SBGL 171200Z 01004KT 320V050 6000 BKN015 25/21 Q1015=
2026-05-17 13:00:00<>METAR SBGL 171300Z VRB03KT 7000 BKN017 27/21 Q1015=
2026-05-17 14:00:00<>METAR SBGL 171400Z VRB03KT 7000 BKN020 27/21 Q1014=
2026-05-17 15:00:00<>METAR SBGL 171500Z 03006KT 010V070 6000 BKN025 28/21 Q1014=
2026-05-17 16:00:00<>METAR SBGL 171600Z 05006KT 020V090 6000 BKN025 28/21 Q1012=
2026-05-17 17:00:00<>METAR SBGL 171700Z 06006KT 020V080 6000 SCT030 30/21 Q1012=
2026-05-17 18:00:00<>METAR SBGL 171800Z 14004KT 8000 SCT030 28/22 Q1011=
2026-05-17 19:00:00<>METAR SBGL 171900Z 12003KT 8000 SCT030 27/22 Q1011=
2026-05-17 20:00:00<>METAR SBGL 172000Z 14005KT 8000 SCT030 26/22 Q1012=
2026-05-17 21:00:00<>METAR SBGL 172100Z 15004KT 9000 FEW035 25/22 Q1012=
2026-05-17 22:00:00<>METAR SBGL 172200Z 12004KT 090V150 8000 FEW035 25/22 Q1013=
2026-05-17 23:00:00<>METAR SBGL 172300Z 15003KT 9999 FEW015 SCT100 25/21 Q1014=
2026-05-18 00:00:00<>METAR SBGL 180000Z 31002KT 9000 FEW015 SCT100 25/22 Q1014=
2026-05-18 01:00:00<>METAR SBGL 180100Z 30003KT 260V010 9999 FEW015 SCT100 25/22 Q1015=
2026-05-18 02:00:00<>METAR SBGL 180200Z 26009KT 9999 FEW015 SCT070 25/21 Q1015=
2026-05-18 03:00:00<>METAR SBGL 180300Z 29006KT 7000 FEW031 SCT070 25/21 Q1015=
2026-05-18 04:00:00<>METAR SBGL 180400Z 29005KT 7000 FEW032 SCT070 24/21 Q1015=
2026-05-18 05:00:00<>METAR SBGL 180500Z 29005KT 7000 FEW032 SCT070 24/21 Q1015=
2026-05-18 06:00:00<>METAR SBGL 180600Z 10002KT 9999 FEW032 BKN100 23/21 Q1013=
2026-05-18 07:00:00<>METAR SBGL 180700Z 33002KT 9999 FEW032 BKN100 23/21 Q1014=
2026-05-18 08:00:00<>METAR SBGL 180800Z 28004KT 7000 FEW032 BKN100 23/21 Q1013=
2026-05-18 09:00:00<>METAR SBGL 180900Z VRB02KT 6000 FEW032 BKN100 23/21 Q1013=
2026-05-18 10:00:00<>METAR SBGL 181000Z 02002KT 7000 FEW032 SCT100 23/21 Q1014=
2026-05-18 11:00:00<>METAR SBGL 181100Z VRB02KT 7000 FEW032 SCT100 24/21 Q1015=
2026-05-18 12:00:00<>METAR SBGL 181200Z 35004KT 310V040 8000 FEW030 SCT100 25/21 Q1016=
2026-05-18 13:00:00<>METAR SBGL 181300Z 14003KT 070V240 9000 FEW030 SCT100 27/21 Q1016=
2026-05-18 14:00:00<>METAR SBGL 181400Z VRB04KT 9000 FEW030 SCT100 28/21 Q1016=
2026-05-18 15:00:00<>METAR SBGL 181500Z 14007KT 9999 FEW030 SCT100 28/19 Q1015=
2026-05-18 16:00:00<>METAR SBGL 181600Z 13009KT 9999 FEW025 SCT100 28/19 Q1015=
2026-05-18 17:00:00<>METAR SBGL 181700Z 11007KT 9999 SCT025 SCT100 28/20 Q1014=
2026-05-18 18:00:00<>METAR SBGL 181800Z VRB06KT 9999 BKN030 BKN100 27/20 Q1015=
2026-05-18 19:00:00<>METAR SBGL 181900Z 26007KT 9999 BKN030 BKN100 27/20 Q1015=
2026-05-18 20:00:00<>METAR SBGL 182000Z 22009KT 9999 SCT030 BKN100 26/20 Q1015=
2026-05-18 21:00:00<>METAR SBGL 182100Z 23007KT 9999 SCT030 BKN100 26/20 Q1015=
2026-05-18 22:00:00<>METAR SBGL 182200Z 22009KT 9999 BKN030 BKN100 25/20 Q1016=
2026-05-18 23:00:00<>METAR SBGL 182300Z 26003KT 9999 BKN021 BKN100 25/19 Q1016=
2026-05-19 00:00:00<>METAR SBGL 190000Z 22006KT 9999 BKN021 OVC026 25/19 Q1017=
2026-05-19 01:00:00<>METAR SBGL 190100Z 23004KT 9999 BKN021 OVC026 25/20 Q1017=
2026-05-19 02:00:00<>METAR SBGL 190200Z 25004KT 9999 BKN021 OVC026 24/20 Q1017=
2026-05-19 03:00:00<>METAR SBGL 190300Z 22003KT 9999 BKN021 OVC030 24/20 Q1017=
2026-05-19 04:00:00<>METAR SBGL 190400Z 28005KT 8000 BKN021 OVC030 24/20 Q1017=
2026-05-19 05:00:00<>METAR SBGL 190500Z 27003KT 8000 BKN021 OVC030 24/20 Q1016=
2026-05-19 06:00:00<>METAR SBGL 190600Z 29004KT 7000 BKN021 OVC030 23/20 Q1016=
2026-05-19 07:00:00<>METAR SBGL 190700Z 32004KT 7000 BKN021 OVC030 23/20 Q1016=
2026-05-19 08:00:00<>METAR SBGL 190800Z 32006KT 8000 FEW015 BKN017 OVC033 23/20 Q1016=
2026-05-19 09:00:00<>METAR SBGL 190900Z 32006KT 8000 FEW015 BKN017 OVC033 23/20 Q1016=
2026-05-19 10:00:00<>METAR SBGL 191000Z 27005KT 8000 SCT017 OVC050 24/21 Q1017=
2026-05-19 11:00:00<>METAR SBGL 191100Z 27007KT 9999 SCT017 OVC050 24/21 Q1018=
2026-05-19 12:00:00<>METAR SBGL 191200Z 25010KT 9999 -RA SCT020 BKN050 24/21 Q1018=
2026-05-19 13:00:00<>METAR SBGL 191300Z 26012KT 9999 FEW015 SCT020 BKN036 25/20 Q1018=
2026-05-19 14:00:00<>METAR SBGL 191400Z 26010KT 9999 FEW015 SCT020 BKN030 26/20 Q1018=
2026-05-19 15:00:00<>METAR SBGL 191500Z 26011KT 9999 -RA SCT015 BKN020 BKN030 25/20 Q1018=
2026-05-19 16:00:00<>METAR SBGL 191600Z 25008KT 9999 VCSH SCT015 BKN020 BKN030 25/20 Q1017=
2026-05-19 17:00:00<>METAR SBGL 191700Z 20008KT 9999 FEW012 BKN017 BKN046 25/20 Q1017=
2026-05-19 18:00:00<>METAR SBGL 191800Z 23010KT 9999 VCSH FEW012 BKN017 BKN030 25/20 Q1017=
2026-05-19 19:00:00<>METAR SBGL 191900Z 22009KT 9999 FEW014 BKN017 BKN030 24/20 Q1017=
2026-05-19 20:00:00<>METAR SBGL 192000Z 23007KT 9999 VCSH FEW012 BKN018 BKN030 24/20 Q1017=
2026-05-19 21:00:00<>METAR SBGL 192100Z 25010KT 9999 VCSH FEW012 BKN020 BKN030 23/20 Q1018=
2026-05-19 22:00:00<>METAR SBGL 192200Z 26008KT 230V290 9999 FEW012 BKN015 OVC025 23/20 Q1018=
2026-05-19 23:00:00<>METAR SBGL 192300Z 25006KT 9999 FEW015 BKN020 OVC030 23/20 Q1019=
2026-05-20 00:00:00<>METAR SBGL 200000Z 25007KT 9999 FEW015 BKN020 OVC030 23/20 Q1019=
2026-05-20 01:00:00<>METAR SBGL 200100Z 26006KT 9999 FEW015 BKN020 OVC030 23/20 Q1019=
2026-05-20 02:00:00<>METAR SBGL 200200Z 29006KT 9999 FEW010 BKN020 OVC030 22/20 Q1019=
2026-05-20 03:00:00<>METAR SBGL 200300Z 25007KT 9999 FEW010 BKN020 OVC030 22/19 Q1019=
2026-05-20 04:00:00<>METAR SBGL 200400Z 25005KT 9999 FEW015 BKN020 OVC030 22/19 Q1019=
2026-05-20 05:00:00<>METAR SBGL 200500Z 33004KT 9999 FEW010 BKN015 OVC030 22/20 Q1018=
2026-05-20 06:00:00<>METAR SBGL 200600Z 33004KT 9999 FEW010 BKN015 OVC030 22/20 Q1018=
2026-05-20 07:00:00<>METAR SBGL 200700Z 31002KT 9999 FEW010 BKN015 OVC030 22/20 Q1017=
2026-05-20 08:00:00<>METAR SBGL 200800Z 28004KT 9999 FEW015 BKN020 OVC030 22/19 Q1017=
2026-05-20 09:00:00<>METAR SBGL 200900Z 30004KT 9999 FEW015 BKN020 OVC030 22/19 Q1017=
2026-05-20 10:00:00<>METAR SBGL 201000Z 29004KT 9999 SCT015 OVC030 22/20 Q1018=
2026-05-20 10:25:00<>SPECI SBGL 201025Z 31006KT 5000 -RA BR SCT011 BKN017 OVC030 22/20 Q1018=
2026-05-20 11:00:00<>METAR SBGL 201100Z 23005KT 200V260 4500 -RA BR SCT009 BKN017 OVC021 21/20 Q1018=
2026-05-20 11:08:00<>SPECI SBGL 201108Z 19003KT 4000 RA BR SCT009 BKN017 OVC021 21/20 Q1018=
2026-05-20 11:18:00<>SPECI SBGL 201118Z 21007KT 4000 TSRA BR BKN023 FEW030CB BKN046 21/20 Q1018=
2026-05-20 12:00:00<>METAR SBGL 201200Z 26005KT 4000 TSRA BR SCT006 FEW030CB BKN046 21/20 Q1019=
2026-05-20 12:25:00<>SPECI SBGL 201225Z 33002KT 4000 -TSRA BR BKN006 BKN017 FEW030CB 21/20 Q1019 RERA=
2026-05-20 13:00:00<>METAR SBGL 201300Z 30005KT 260V330 4000 TSRA BR BKN004 BKN014 FEW030CB 21/20 Q1019=
2026-05-20 13:34:00<>SPECI SBGL 201334Z 30006KT 270V330 4000 RA BR BKN013 OVC089 21/20 Q1019 RETS=
2026-05-20 14:00:00<>METAR SBGL 201400Z 27003KT 230V340 4000 RA BR SCT005 BKN013 OVC068 21/20 Q1019=
2026-05-20 14:38:00<>SPECI SBGL 201438Z 32003KT 290V030 5000 -RA BR BKN005 BKN022 OVC095 21/20 Q1018 RERA=
2026-05-20 15:00:00<>METAR SBGL 201500Z 29004KT 250V330 7000 -RA BKN005 OVC019 21/20 Q1018 RERA=
2026-05-20 15:41:00<>SPECI SBGL 201541Z 27007KT 240V300 3000 -DZ BR BKN005 OVC019 21/20 Q1018=
2026-05-20 16:00:00<>METAR SBGL 201600Z 28007KT 260V320 6000 BKN014 OVC019 22/20 Q1018=
2026-05-20 16:33:00<>SPECI SBGL 201633Z 02008KT 6000 BKN005 OVC019 22/20 Q1018=
2026-05-20 17:00:00<>METAR SBGL 201700Z 28004KT 250V310 8000 BKN011 BKN021 23/21 Q1017=
2026-05-20 18:00:00<>METAR SBGL 201800Z 26009KT 9999 FEW014 BKN016 BKN072 24/20 Q1017=
2026-05-20 19:00:00<>METAR SBGL 201900Z 29007KT 240V330 9999 SCT019 BKN028 25/20 Q1017=
2026-05-20 20:00:00<>METAR SBGL 202000Z 32007KT 9999 BKN020 BKN024 23/20 Q1018=
2026-05-20 21:00:00<>METAR SBGL 202100Z 25008KT 9999 BKN019 BKN034 23/19 Q1018=
2026-05-20 22:00:00<>METAR SBGL 202200Z 27005KT 9999 BKN020 BKN025 22/20 Q1019=
2026-05-20 23:00:00<>METAR SBGL 202300Z 29004KT 270V330 9999 FEW012 SCT020 BKN081 22/20 Q1019=
2026-05-21 00:00:00<>METAR SBGL 210000Z 27006KT 9999 FEW012 SCT020 BKN033 22/20 Q1020=
2026-05-21 01:00:00<>METAR SBGL 210100Z 27007KT 9999 FEW012 SCT020 BKN050 22/20 Q1019=
2026-05-21 01:40:00<>SPECI SBGL 210140Z 26007KT 5000 DZ SCT008 BKN020 BKN050 22/20 Q1020=
2026-05-21 02:00:00<>METAR SBGL 210200Z 25006KT 6000 DZ SCT008 BKN017 BKN050 22/20 Q1020=
2026-05-21 02:14:00<>SPECI SBGL 210214Z 27006KT 9999 FEW008 BKN017 BKN050 21/20 Q1020 REDZ=
2026-05-21 03:00:00<>METAR SBGL 210300Z 26004KT 9999 FEW006 SCT008 BKN017 21/20 Q1019 REDZ=
2026-05-21 03:15:00<>SPECI SBGL 210315Z VRB02KT 9999 FEW006 BKN008 BKN017 21/20 Q1019=
2026-05-21 04:00:00<>METAR SBGL 210400Z VRB02KT 9999 FEW006 BKN008 BKN017 21/19 Q1019=
2026-05-21 05:00:00<>METAR SBGL 210500Z VRB02KT 8000 3500W DZ FEW005 BKN009 BKN020 21/20 Q1019=
2026-05-21 05:32:00<>SPECI SBGL 210532Z VRB02KT 9000 -DZ FEW005 SCT009 BKN020 21/19 Q1019 REDZ=
2026-05-21 06:00:00<>METAR COR SBGL 210600Z 27003KT 9999 FEW005 SCT009 BKN020 21/19 Q1019 REDZ=
2026-05-21 07:00:00<>METAR SBGL 210700Z 25005KT 220V300 9999 FEW006 SCT010 BKN020 20/19 Q1018=
2026-05-21 08:00:00<>METAR SBGL 210800Z 25005KT 9999 FEW010 BKN020 OVC030 20/19 Q1019=
2026-05-21 08:21:00<>SPECI SBGL 210821Z 25008KT 6000 DZ SCT010 BKN020 OVC030 20/18 Q1019=
2026-05-21 09:00:00<>METAR SBGL 210900Z 27005KT 240V300 6000 DZ SCT010 BKN020 OVC030 20/18 Q1020=
2026-05-21 09:18:00<>SPECI SBGL 210918Z 28003KT 9000 -DZ FEW010 BKN020 OVC030 20/18 Q1020 REDZ=
2026-05-21 10:00:00<>METAR SBGL 211000Z 21004KT 9999 FEW010 SCT017 BKN030 20/18 Q1020=
2026-05-21 11:00:00<>METAR SBGL 211100Z 33003KT 9999 FEW010 SCT017 BKN030 21/19 Q1021=
2026-05-21 12:00:00<>METAR SBGL 211200Z 33005KT 300V020 9999 FEW010 SCT017 BKN050 22/19 Q1022=
2026-05-21 13:00:00<>METAR SBGL 211300Z 34006KT 300V030 9999 FEW010 SCT017 BKN060 22/19 Q1022=
2026-05-21 14:00:00<>METAR SBGL 211400Z 34004KT 9999 FEW010 BKN020 OVC060 23/19 Q1022=
2026-05-21 14:35:00<>SPECI SBGL 211435Z 30006KT 9999 4000S -RA SCT007 BKN014 OVC040 22/19 Q1021=
2026-05-21 15:00:00<>METAR SBGL 211500Z 22011KT 3500 -RA BR SCT007 BKN010 OVC020 21/19 Q1022=
2026-05-21 16:00:00<>METAR SBGL 211600Z 11005KT 3500 -RA BR SCT005 BKN010 OVC030 20/19 Q1021=
2026-05-21 17:00:00<>METAR SBGL 211700Z VRB01KT 4000 -RA BR SCT005 BKN010 OVC030 20/18 Q1021=
2026-05-21 18:00:00<>METAR SBGL 211800Z 31004KT 5000 2000NE -RA BR SCT007 BKN013 OVC035 20/18 Q1021=
2026-05-21 19:00:00<>METAR SBGL 211900Z VRB02KT 3000 -RA BR SCT007 BKN013 OVC025 19/18 Q1022=
2026-05-21 20:00:00<>METAR SBGL 212000Z 07005KT 7000 BKN014 OVC040 19/18 Q1023=
2026-05-21 21:00:00<>METAR SBGL 212100Z 32004KT 9999 FEW015 BKN030 OVC050 20/18 Q1023=
2026-05-21 22:00:00<>METAR SBGL 212200Z 36005KT 340V040 9999 FEW006 BKN030 OVC050 20/18 Q1024=
2026-05-21 22:34:00<>SPECI SBGL 212234Z 32005KT 4500 -RA BR FEW006 BKN020 OVC040 19/18 Q1024=
2026-05-21 23:00:00<>METAR SBGL 212300Z 24005KT 190V300 2500 -RA BR FEW006 BKN014 OVC030 19/17 Q1025=
2026-05-22 00:00:00<>METAR SBGL 220000Z 35003KT 9999 -RA FEW006 BKN020 OVC040 19/17 Q1025=
2026-05-22 01:00:00<>METAR SBGL 220100Z 34004KT 9999 FEW006 BKN020 OVC040 19/17 Q1025=
2026-05-22 02:00:00<>METAR SBGL 220200Z 32006KT 9999 FEW008 BKN030 OVC060 19/17 Q1025=
2026-05-22 03:00:00<>METAR SBGL 220300Z 31005KT 9999 FEW008 BKN030 OVC060 19/17 Q1024=
2026-05-22 04:00:00<>METAR SBGL 220400Z 28003KT 9999 FEW015 BKN030 OVC060 19/17 Q1024=
2026-05-22 05:00:00<>METAR SBGL 220500Z 25003KT 9999 SCT020 OVC030 19/17 Q1024=
2026-05-22 06:00:00<>METAR SBGL 220600Z 20005KT 9999 SCT020 OVC030 18/17 Q1023=
2026-05-22 07:00:00<>METAR SBGL 220700Z VRB02KT 9999 SCT020 OVC030 19/17 Q1023=
2026-05-22 08:00:00<>METAR SBGL 220800Z 34004KT 9999 FEW008 OVC030 19/17 Q1023=
2026-05-22 09:00:00<>METAR SBGL 220900Z 28002KT 9999 FEW008 BKN030 OVC060 19/17 Q1023=
2026-05-22 10:00:00<>METAR SBGL 221000Z 25004KT 9000 FEW008 BKN030 OVC060 19/17 Q1024=
2026-05-22 11:00:00<>METAR SBGL 221100Z VRB02KT 9000 FEW048 SCT060 OVC070 20/17 Q1025=
2026-05-22 12:00:00<>METAR SBGL 221200Z VRB03KT 9999 FEW048 BKN070 21/18 Q1025=
2026-05-22 13:00:00<>METAR SBGL 221300Z 02003KT 350V060 9999 FEW013 BKN070 21/18 Q1025=
2026-05-22 14:00:00<>METAR SBGL 221400Z 02005KT 360V060 8000 FEW013 SCT040 OVC070 22/18 Q1025=
2026-05-22 15:00:00<>METAR SBGL 221500Z 01006KT 340V040 9999 SCT018 SCT040 OVC070 22/17 Q1025=
2026-05-22 16:00:00<>METAR SBGL 221600Z 36004KT 8000 VCSH SCT022 FEW025TCU BKN040 OVC070 22/17 Q1024=
2026-05-22 17:00:00<>METAR SBGL 221700Z 03005KT 350V060 8000 SCT022 FEW025TCU BKN040 OVC070 23/17 Q1023=
2026-05-22 18:00:00<>METAR SBGL 221800Z 12004KT 8000 SCT022 FEW025TCU BKN040 OVC070 23/17 Q1023=
2026-05-22 19:00:00<>METAR SBGL 221900Z 13004KT 9999 SCT022 FEW025TCU BKN040 OVC070 22/18 Q1023=
2026-05-22 20:00:00<>METAR SBGL 222000Z 12006KT 9999 SCT022 FEW025TCU BKN032 OVC040 21/18 Q1024=
2026-05-22 20:41:00<>SPECI SBGL 222041Z 09007KT 4000 -RA BR BKN009 FEW025TCU BKN032 OVC040 20/18 Q1024=
2026-05-22 21:00:00<>METAR SBGL 222100Z 09006KT 4000 -RA SCT008 FEW025TCU BKN029 OVC040 20/18 Q1024=
2026-05-22 21:39:00<>SPECI SBGL 222139Z 09002KT 8000 -RA SCT008 FEW025TCU BKN029 OVC040 20/18 Q1024=
2026-05-22 22:00:00<>METAR SBGL 222200Z 07003KT 8000 -RA SCT008 FEW025TCU BKN029 OVC040 20/18 Q1024=
2026-05-22 23:00:00<>METAR SBGL 222300Z 09004KT 9999 SCT008 FEW025TCU BKN029 OVC040 21/18 Q1024=
2026-05-23 00:00:00<>METAR SBGL 230000Z 08004KT 9999 SCT008 FEW025TCU BKN029 OVC055 21/18 Q1024=
2026-05-23 01:00:00<>METAR SBGL 230100Z 10003KT 9999 SCT008 FEW025TCU BKN029 OVC055 20/18 Q1024=
2026-05-23 02:00:00<>METAR SBGL 230200Z 09002KT 9999 SCT030 OVC050 20/18 Q1024=
2026-05-23 03:00:00<>METAR SBGL 230300Z 10004KT 9999 SCT030 OVC050 20/18 Q1024=
2026-05-23 04:00:00<>METAR COR SBGL 230400Z 10003KT 9999 SCT030 OVC050 20/18 Q1023=
2026-05-23 05:00:00<>METAR SBGL 230500Z 11003KT 9999 SCT030 OVC050 20/18 Q1023=
2026-05-23 06:00:00<>METAR SBGL 230600Z 14003KT 9999 SCT030 OVC050 19/18 Q1022=
2026-05-23 07:00:00<>METAR SBGL 230700Z 09003KT 9999 SCT030 OVC050 18/17 Q1022=
2026-05-23 08:00:00<>METAR SBGL 230800Z 03003KT 9999 SCT030 OVC050 19/18 Q1022=
2026-05-23 09:00:00<>METAR SBGL 230900Z 08002KT 6000 FEW005 SCT030 BKN050 18/17 Q1022=
2026-05-23 10:00:00<>METAR SBGL 231000Z 10002KT 9999 FEW005 BKN025 18/17 Q1022=
2026-05-23 11:00:00<>METAR SBGL 231100Z 05003KT 360V090 9999 SCT007 21/19 Q1023=
2026-05-23 12:00:00<>METAR SBGL 231200Z 01005KT 340V090 9999 SCT009 21/18 Q1023=
2026-05-23 13:00:00<>METAR SBGL 231300Z 02004KT 320V060 9999 FEW013 22/18 Q1022=
2026-05-23 14:00:00<>METAR SBGL 231400Z 01006KT 9999 FEW018 23/18 Q1022=
2026-05-23 15:00:00<>METAR SBGL 231500Z 03007KT 360V060 9999 FEW018 23/19 Q1021=
2026-05-23 16:00:00<>METAR SBGL 231600Z 05005KT 350V080 9999 FEW020 26/18 Q1020=
2026-05-23 17:00:00<>METAR SBGL 231700Z VRB02KT 9999 FEW020 26/18 Q1020=
2026-05-23 18:00:00<>METAR SBGL 231800Z 12006KT 9999 FEW025 27/18 Q1019=
2026-05-23 19:00:00<>METAR SBGL 231900Z 12007KT 090V150 9999 FEW025 BKN050 25/19 Q1019=
2026-05-23 20:00:00<>METAR SBGL 232000Z 16005KT 9999 FEW025 SCT050 24/19 Q1020=
2026-05-23 21:00:00<>METAR SBGL 232100Z VRB01KT 9999 FEW025 BKN100 24/19 Q1020=
2026-05-23 22:00:00<>METAR SBGL 232200Z 08001KT 9999 FEW025 BKN100 23/19 Q1020=
2026-05-23 23:00:00<>METAR SBGL 232300Z 21004KT 9999 FEW040 23/19 Q1021=
2026-05-24 00:00:00<>METAR SBGL 240000Z 36002KT 9999 FEW030 22/19 Q1020=
2026-05-24 01:00:00<>METAR SBGL 240100Z 28004KT 9999 FEW025 BKN040 23/20 Q1021=
2026-05-24 02:00:00<>METAR SBGL 240200Z 26004KT 9999 FEW020 BKN030 22/20 Q1020=
2026-05-24 03:00:00<>METAR SBGL 240300Z VRB01KT 9999 FEW020 BKN040 21/19 Q1020=
2026-05-24 04:00:00<>METAR SBGL 240400Z 24002KT 7000 FEW020 BKN040 21/19 Q1019=
2026-05-24 05:00:00<>METAR SBGL 240500Z 08003KT 5000 BR FEW030 BKN060 20/19 Q1019=
2026-05-24 06:00:00<>METAR SBGL 240600Z VRB01KT 5000 BR FEW030 BKN060 20/19 Q1018=
2026-05-24 07:00:00<>METAR SBGL 240700Z 06001KT 5000 BR FEW008 BKN060 20/19 Q1018=
2026-05-24 08:00:00<>METAR SBGL 240800Z 03001KT 5000 BR FEW008 BKN030 20/19 Q1018=
2026-05-24 09:00:00<>METAR SBGL 240900Z 08002KT 5000 BR BKN008 20/19 Q1018=
2026-05-24 10:00:00<>METAR SBGL 241000Z 02003KT 4000 BR BKN008 21/20 Q1019=
2026-05-24 11:00:00<>METAR SBGL 241100Z VRB02KT 4000 BR BKN007 21/20 Q1020=
2026-05-24 12:00:00<>METAR SBGL 241200Z 03004KT 360V080 4000 BR BKN007 23/20 Q1020=
2026-05-24 13:00:00<>METAR SBGL 241300Z 04004KT 010V080 4000 HZ BKN012 24/20 Q1020=
2026-05-24 13:23:00<>SPECI SBGL 241323Z 02005KT 350V060 5000 HZ FEW015 24/20 Q1020=
2026-05-24 14:00:00<>METAR SBGL 241400Z 01005KT 340V070 5000 HZ FEW018 25/19 Q1019=
2026-05-24 15:00:00<>METAR SBGL 241500Z 02005KT 350V070 6000 FEW018 26/20 Q1018=
2026-05-24 16:00:00<>METAR SBGL 241600Z 36004KT 6000 FEW018 26/20 Q1017=
2026-05-24 17:00:00<>METAR SBGL 241700Z 05007KT 8000 FEW025 27/20 Q1017=
2026-05-24 18:00:00<>METAR SBGL 241800Z 13007KT 8000 FEW025 26/20 Q1016=
2026-05-24 19:00:00<>METAR SBGL 241900Z 13007KT 9000 FEW025 25/19 Q1017=
2026-05-24 20:00:00<>METAR SBGL 242000Z 13008KT 9000 FEW030 24/20 Q1017=
2026-05-24 21:00:00<>METAR SBGL 242100Z 20007KT 9999 FEW020 SCT030 24/20 Q1018=
2026-05-24 22:00:00<>METAR SBGL 242200Z 13003KT 100V170 9999 FEW020 SCT040 23/20 Q1018=
2026-05-24 23:00:00<>METAR SBGL 242300Z 12006KT 9999 SCT019 SCT023 23/20 Q1019=
2026-05-25 00:00:00<>METAR SBGL 250000Z 11009KT 9999 BKN021 BKN023 23/20 Q1019=
2026-05-25 01:00:00<>METAR SBGL 250100Z 12007KT 9999 BKN021 BKN026 23/20 Q1019=
2026-05-25 02:00:00<>METAR SBGL 250200Z 08004KT 9999 BKN017 BKN026 23/20 Q1019=
2026-05-25 03:00:00<>METAR SBGL 250300Z 12005KT 9999 BKN017 BKN026 23/20 Q1019=
2026-05-25 04:00:00<>METAR SBGL 250400Z 16003KT 9999 BKN015 BKN023 23/20 Q1019=
2026-05-25 05:00:00<>METAR SBGL 250500Z 17004KT 8000 BKN015 BKN023 23/20 Q1018=
2026-05-25 06:00:00<>METAR COR SBGL 250600Z 18004KT 3500 -RA BR BKN013 OVC019 22/20 Q1019=
2026-05-25 07:00:00<>METAR SBGL 250700Z 30003KT 3500 -RA BR SCT006 BKN008 OVC019 22/21 Q1019=
2026-05-25 08:00:00<>METAR SBGL 250800Z 26003KT 6000 SCT017 BKN021 OVC023 22/20 Q1019=
2026-05-25 09:00:00<>METAR SBGL 250900Z 25005KT 4500 -RA BR SCT009 BKN015 BKN021 22/20 Q1020=
2026-05-25 10:00:00<>METAR SBGL 251000Z 23004KT 8000 SCT007 SCT015 OVC021 22/20 Q1020=
2026-05-25 11:00:00<>METAR SBGL 251100Z 23006KT 8000 BKN009 SCT014 OVC020 22/21 Q1021=
2026-05-25 12:00:00<>METAR SBGL 251200Z 23005KT 200V270 7000 BKN009 SCT024 OVC032 23/20 Q1021=
2026-05-25 13:00:00<>METAR SBGL 251300Z 25007KT 9999 VCSH FEW010 BKN015 BKN023 FEW025TCU 24/20 Q1021=
2026-05-25 14:00:00<>METAR SBGL 251400Z 22007KT 9999 VCSH FEW015 BKN018 FEW027TCU BKN030 25/20 Q1021=
2026-05-25 15:00:00<>METAR SBGL 251500Z 22007KT 9999 VCSH FEW015 BKN020 FEW030TCU 24/19 Q1020=
2026-05-25 16:00:00<>METAR SBGL 251600Z 25007KT 8000 VCSH FEW010 BKN018 FEW022TCU 24/19 Q1020=
2026-05-25 17:00:00<>METAR SBGL 251700Z 23007KT 8000 VCSH FEW010 BKN018 FEW022TCU 24/19 Q1020=
2026-05-25 18:00:00<>METAR SBGL 251800Z VRB02KT 8000 VCSH BKN020 SCT028TCU 24/19 Q1020=
2026-05-25 19:00:00<>METAR SBGL 251900Z 04003KT 8000 BKN020 SCT028TCU 23/20 Q1020=
2026-05-25 20:00:00<>METAR SBGL 252000Z 04003KT 8000 BKN020 SCT028TCU 23/20 Q1020=
2026-05-25 21:00:00<>METAR SBGL 252100Z 02004KT 8000 BKN020 SCT028TCU 23/20 Q1021=
2026-05-25 22:00:00<>METAR SBGL 252200Z 33002KT 8000 BKN018 SCT035TCU 23/19 Q1021=
2026-05-25 23:00:00<>METAR SBGL 252300Z 27005KT 9999 SCT018 BKN033 23/19 Q1022=
2026-05-26 00:00:00<>METAR SBGL 260000Z VRB02KT 9999 FEW018 BKN033 23/19 Q1022=
2026-05-26 01:00:00<>METAR SBGL 260100Z 36005KT 340V040 8000 FEW018 BKN020 OVC033 22/20 Q1022=
2026-05-26 02:00:00<>METAR SBGL 260200Z 35005KT 320V040 8000 SCT006 BKN020 OVC040 22/20 Q1022=
2026-05-26 03:00:00<>METAR SBGL 260300Z 02003KT 340V060 8000 FEW006 SCT015 BKN020 22/20 Q1021=
2026-05-26 04:00:00<>METAR SBGL 260400Z 07002KT 9000 FEW006 BKN015 BKN020 22/20 Q1021=
2026-05-26 05:00:00<>METAR SBGL 260500Z 10004KT 8000 SCT008 BKN015 OVC020 22/20 Q1021=
2026-05-26 06:00:00<>METAR SBGL 260600Z 12003KT 9000 FEW008 SCT015 BKN020 21/20 Q1020=
2026-05-26 07:00:00<>METAR SBGL 260700Z VRB01KT 9000 FEW008 SCT015 BKN025 21/20 Q1020=
2026-05-26 08:00:00<>METAR SBGL 260800Z 09003KT 9999 FEW008 SCT025 OVC040 21/20 Q1020=
2026-05-26 09:00:00<>METAR SBGL 260900Z 05002KT 9999 FEW009 SCT025 OVC040 22/20 Q1020=
2026-05-26 10:00:00<>METAR SBGL 261000Z VRB02KT 9000 FEW009 SCT025 OVC040 22/20 Q1021=
2026-05-26 11:00:00<>METAR SBGL 261100Z VRB02KT 9999 FEW009 SCT025 OVC040 22/20 Q1022=
2026-05-26 12:00:00<>METAR SBGL 261200Z 10002KT 9999 FEW009 SCT025 OVC040 23/20 Q1022=
2026-05-26 13:00:00<>METAR SBGL 261300Z 12004KT 9999 FEW012 SCT025 BKN050 24/19 Q1022=
2026-05-26 14:00:00<>METAR SBGL 261400Z 04005KT 9999 FEW012 SCT025 BKN050 26/20 Q1021=
2026-05-26 15:00:00<>METAR SBGL 261500Z 06007KT 030V110 9999 BKN025 26/19 Q1020=
2026-05-26 16:00:00<>METAR SBGL 261600Z 06007KT 010V100 9999 SCT025 26/19 Q1019=
2026-05-26 17:00:00<>METAR SBGL 261700Z 07007KT 9999 SCT025 26/20 Q1018=
2026-05-26 18:00:00<>METAR SBGL 261800Z 13005KT 9999 SCT025 SCT080 26/20 Q1018=
2026-05-26 19:00:00<>METAR SBGL 261900Z 14005KT 9999 SCT025 SCT080 26/20 Q1018=
2026-05-26 20:00:00<>METAR SBGL 262000Z 12004KT 9999 SCT030 24/20 Q1017=
2026-05-26 21:00:00<>METAR SBGL 262100Z 07009KT 9999 FEW030 24/19 Q1017=
2026-05-26 22:00:00<>METAR SBGL 262200Z 09007KT 9999 FEW030 23/19 Q1017=
2026-05-26 23:00:00<>METAR SBGL 262300Z 11007KT 9999 FEW030 22/19 Q1017=
2026-05-27 00:00:00<>METAR SBGL 270000Z 10003KT 9999 FEW030 22/18 Q1018=
2026-05-27 01:00:00<>METAR SBGL 270100Z 07004KT 9999 FEW030 21/19 Q1018=
2026-05-27 02:00:00<>METAR SBGL 270200Z 09003KT 9999 FEW030 22/19 Q1018=
2026-05-27 03:00:00<>METAR SBGL 270300Z 09004KT 8000 FEW030 21/19 Q1017=
2026-05-27 04:00:00<>METAR SBGL 270400Z 09003KT 9999 FEW030 21/19 Q1017=
2026-05-27 05:00:00<>METAR SBGL 270500Z 09003KT 8000 FEW030 21/19 Q1017=
2026-05-27 06:00:00<>METAR SBGL 270600Z 16003KT 8000 FEW008 20/19 Q1016=
2026-05-27 07:00:00<>METAR SBGL 270700Z 16003KT 8000 FEW008 20/19 Q1016=
2026-05-27 08:00:00<>METAR SBGL 270800Z 33003KT 5000 BR SCT008 21/19 Q1015=
2026-05-27 09:00:00<>METAR SBGL 270900Z 05003KT 5000 BR FEW007 20/19 Q1015=
2026-05-27 10:00:00<>METAR SBGL 271000Z 32004KT 300V010 6000 BKN006 20/19 Q1016=
2026-05-27 10:07:00<>SPECI SBGL 271007Z 29004KT 6000 FEW005 SCT007 20/19 Q1016=
2026-05-27 11:00:00<>METAR SBGL 271100Z 33003KT 6000 SCT008 21/20 Q1016=
2026-05-27 12:00:00<>METAR SBGL 271200Z 01004KT 6000 FEW008 23/20 Q1017=
2026-05-27 13:00:00<>METAR SBGL 271300Z 01005KT 6000 FEW008 24/20 Q1017=
2026-05-27 14:00:00<>METAR SBGL 271400Z 34006KT 7000 FEW008 27/21 Q1016=
2026-05-27 15:00:00<>METAR SBGL 271500Z 32006KT 7000 SCT008 28/21 Q1016=
2026-05-27 16:00:00<>METAR SBGL 271600Z 14008KT 8000 SCT015 26/21 Q1016=
2026-05-27 17:00:00<>METAR SBGL 271700Z 21016KT 9000 SCT015 29/20 Q1016=
2026-05-27 18:00:00<>METAR SBGL 271800Z 22015KT 9000 SCT015 27/20 Q1016=
2026-05-27 19:00:00<>METAR SBGL 271900Z 22015KT 9999 SCT026 25/19 Q1016=
2026-05-27 20:00:00<>METAR SBGL 272000Z 22013KT 9999 SCT026 BKN050 25/19 Q1017=
2026-05-27 21:00:00<>METAR SBGL 272100Z 22013KT 9999 FEW026 BKN050 24/19 Q1016=
2026-05-27 22:00:00<>METAR SBGL 272200Z 22012KT 9999 FEW026 BKN050 24/19 Q1018=
2026-05-27 23:00:00<>METAR SBGL 272300Z 22009KT 9999 FEW026 BKN036 24/17 Q1019=
2026-05-28 00:00:00<>METAR SBGL 280000Z 24012KT 9999 FEW026 BKN040 23/16 Q1019=
2026-05-28 01:00:00<>METAR SBGL 280100Z 23010KT 9999 SCT033 BKN046 23/17 Q1020=
2026-05-28 02:00:00<>METAR SBGL 280200Z 23012KT 9999 SCT026 BKN046 23/17 Q1020=
2026-05-28 03:00:00<>METAR SBGL 280300Z 23011KT 9999 BKN023 OVC040 23/17 Q1020=
2026-05-28 04:00:00<>METAR SBGL 280400Z 25012KT 8000 FEW010 BKN023 OVC030 22/17 Q1019=
2026-05-28 05:00:00<>METAR SBGL 280500Z 26010KT 8000 FEW010 BKN023 OVC030 22/16 Q1019=
2026-05-28 06:00:00<>METAR SBGL 280600Z 21009KT 7000 FEW010 BKN023 OVC030 22/16 Q1019=
2026-05-28 07:00:00<>METAR SBGL 280700Z 20009KT 7000 FEW010 BKN023 OVC030 21/16 Q1018=
2026-05-28 08:00:00<>METAR SBGL 280800Z 35005KT 8000 BKN023 OVC050 21/17 Q1019=
2026-05-28 09:00:00<>METAR SBGL 280900Z 29004KT 8000 FEW023 BKN050 21/18 Q1019=
2026-05-28 10:00:00<>METAR SBGL 281000Z 27005KT 9999 FEW023 SCT050 21/16 Q1020=
2026-05-28 11:00:00<>METAR SBGL 281100Z 29006KT 9999 SCT033 22/16 Q1021=
2026-05-28 12:00:00<>METAR SBGL 281200Z 32004KT 9999 BKN034 23/16 Q1021=
2026-05-28 13:00:00<>METAR SBGL 281300Z 32004KT 9999 SCT031 BKN041 23/17 Q1021=
2026-05-28 14:00:00<>METAR SBGL 281400Z 31003KT 9999 SCT033 BKN039 BKN047 24/16 Q1021=
2026-05-28 15:00:00<>METAR SBGL 281500Z 32004KT 9999 SCT037 BKN052 26/16 Q1020=
2026-05-28 16:00:00<>METAR SBGL 281600Z 25005KT 9999 BKN038 25/16 Q1019=
2026-05-28 17:00:00<>METAR SBGL 281700Z 21008KT 9999 SCT041 26/16 Q1019=
2026-05-28 18:00:00<>METAR SBGL 281800Z 20011KT 9999 FEW030 25/15 Q1018=
2026-05-28 19:00:00<>METAR SBGL 281900Z 20012KT 9999 FEW025 24/16 Q1018=
2026-05-28 20:00:00<>METAR SBGL 282000Z 20010KT 9999 FEW025 23/17 Q1019=
2026-05-28 21:00:00<>METAR SBGL 282100Z 20007KT 9999 FEW045 22/17 Q1020=
2026-05-28 22:00:00<>METAR SBGL 282200Z 21007KT 9999 FEW047 22/17 Q1020=
2026-05-28 23:00:00<>METAR SBGL 282300Z 22006KT 9999 FEW045 22/17 Q1021=
2026-05-29 00:00:00<>METAR SBGL 290000Z 28005KT 9999 FEW045 21/17 Q1021=
2026-05-29 01:00:00<>METAR SBGL 290100Z 26003KT 9999 FEW045 21/17 Q1021=
2026-05-29 02:00:00<>METAR SBGL 290200Z 30003KT 9999 FEW020 21/17 Q1021=
2026-05-29 03:00:00<>METAR SBGL 290300Z 34002KT 9999 FEW018 SCT030 19/17 Q1021=
2026-05-29 04:00:00<>METAR SBGL 290400Z 01002KT 9999 FEW015 SCT030 19/17 Q1021=
2026-05-29 05:00:00<>METAR SBGL 290500Z 01005KT 6000 FEW020 SCT035 20/18 Q1020=
2026-05-29 06:00:00<>METAR SBGL 290600Z 33004KT 4000 BR FEW020 BKN035 19/17 Q1020=
2026-05-29 07:00:00<>METAR SBGL 290700Z 34001KT 6000 FEW020 BKN035 20/17 Q1020=
2026-05-29 08:00:00<>METAR SBGL 290800Z 32003KT 6000 FEW020 BKN035 19/17 Q1020=
2026-05-29 09:00:00<>METAR SBGL 290900Z 02001KT 8000 FEW025 BKN070 19/17 Q1020=
2026-05-29 10:00:00<>METAR SBGL 291000Z 34001KT 8000 SCT025 BKN070 20/17 Q1021=
2026-05-29 11:00:00<>METAR SBGL 291100Z 32003KT 280V030 8000 FEW025 BKN066 21/17 Q1022=
2026-05-29 12:00:00<>METAR SBGL 291200Z VRB02KT 8000 FEW025 BKN066 22/17 Q1022=
2026-05-29 13:00:00<>METAR SBGL 291300Z VRB02KT 9000 FEW025 SCT043 BKN066 23/17 Q1022=
2026-05-29 14:00:00<>METAR SBGL 291400Z 13007KT 9999 FEW013 BKN043 BKN066 22/17 Q1022=
2026-05-29 15:00:00<>METAR SBGL 291500Z 12005KT 100V160 9999 FEW020 BKN043 BKN066 22/16 Q1022=
2026-05-29 16:00:00<>METAR SBGL 291600Z 13005KT 110V170 9999 FEW043 BKN066 23/16 Q1021=
2026-05-29 17:00:00<>METAR SBGL 291700Z 14005KT 9999 SCT045 BKN070 23/16 Q1020=
2026-05-29 18:00:00<>METAR SBGL 291800Z 15005KT 110V180 9999 FEW045 BKN070 24/16 Q1020=
2026-05-29 19:00:00<>METAR SBGL 291900Z 14005KT 9999 FEW040 BKN070 23/16 Q1020=
2026-05-29 20:00:00<>METAR SBGL 292000Z 13005KT 9999 FEW040 BKN080 22/12 Q1020=
2026-05-29 21:00:00<>METAR SBGL 292100Z 15007KT 9999 FEW040 BKN080 22/17 Q1020=
2026-05-29 22:00:00<>METAR SBGL 292200Z 16005KT 9999 BKN040 22/16 Q1021=
2026-05-29 23:00:00<>METAR SBGL 292300Z 12002KT 9999 BKN040 22/16 Q1021=
2026-05-30 00:00:00<>METAR SBGL 300000Z 09004KT 9999 BKN040 22/17 Q1021=
2026-05-30 01:00:00<>METAR SBGL 300100Z 07003KT 9999 BKN040 21/17 Q1021=
2026-05-30 02:00:00<>METAR SBGL 300200Z 10003KT 9999 BKN040 21/17 Q1021=
2026-05-30 03:00:00<>METAR SBGL 300300Z 10002KT 9999 BKN040 21/17 Q1021=
2026-05-30 04:00:00<>METAR SBGL 300400Z 07006KT 9999 BKN040 21/16 Q1021=
2026-05-30 05:00:00<>METAR SBGL 300500Z 12004KT 9999 BKN040 21/16 Q1020=
2026-05-30 06:00:00<>METAR SBGL 300600Z 11004KT 9999 BKN040 20/16 Q1020=
2026-05-30 07:00:00<>METAR SBGL 300700Z 15002KT 9999 BKN040 20/17 Q1020=
2026-05-30 08:00:00<>METAR SBGL 300800Z 13003KT 9999 BKN040 20/17 Q1020=
2026-05-30 09:00:00<>METAR SBGL 300900Z 09004KT 9999 BKN040 20/17 Q1020=
2026-05-30 10:00:00<>METAR SBGL 301000Z 09003KT 9999 BKN040 20/17 Q1021=
2026-05-30 11:00:00<>METAR SBGL 301100Z 04004KT 010V080 9999 BKN045 21/17 Q1021=
2026-05-30 12:00:00<>METAR SBGL 301200Z 36005KT 330V050 9999 FEW013 22/18 Q1022=
2026-05-30 13:00:00<>METAR SBGL 301300Z 13004KT 9999 FEW045 24/17 Q1022=
2026-05-30 14:00:00<>METAR SBGL 301400Z 05006KT CAVOK 25/17 Q1021=
2026-05-30 15:00:00<>METAR SBGL 301500Z 04007KT CAVOK 25/17 Q1020=
2026-05-30 16:00:00<>METAR SBGL 301600Z 18006KT CAVOK 25/17 Q1019=
2026-05-30 17:00:00<>METAR SBGL 301700Z 01006KT 350V060 CAVOK 26/16 Q1018=
2026-05-30 18:00:00<>METAR SBGL 301800Z 06005KT CAVOK 26/16 Q1018=
2026-05-30 19:00:00<>METAR SBGL 301900Z 14008KT CAVOK 25/17 Q1017=
2026-05-30 20:00:00<>METAR SBGL 302000Z 13005KT CAVOK 24/17 Q1017=
2026-05-30 21:00:00<>METAR SBGL 302100Z 14005KT CAVOK 23/18 Q1018=
2026-05-30 22:00:00<>METAR SBGL 302200Z 09005KT CAVOK 22/18 Q1018=
2026-05-30 23:00:00<>METAR SBGL 302300Z 09004KT CAVOK 22/17 Q1018=
2026-05-31 00:00:00<>METAR SBGL 310000Z 12003KT CAVOK 21/17 Q1018=
2026-05-31 01:00:00<>METAR SBGL 310100Z VRB01KT CAVOK 20/17 Q1018=
2026-05-31 02:00:00<>METAR SBGL 310200Z 06004KT CAVOK 20/17 Q1018=
2026-05-31 03:00:00<>METAR SBGL 310300Z 24002KT 9999 FEW040 21/18 Q1018=
2026-05-31 04:00:00<>METAR SBGL 310400Z 24008KT 9999 SCT045 22/17 Q1018=
2026-05-31 05:00:00<>METAR SBGL 310500Z 28007KT 260V320 9999 SCT045 SCT066 22/18 Q1018=
2026-05-31 06:00:00<>METAR SBGL 310600Z 29004KT 9999 FEW030 BKN045 22/19 Q1018=
2026-05-31 07:00:00<>METAR SBGL 310700Z 33005KT 9999 FEW030 OVC045 22/19 Q1018=
2026-05-31 08:00:00<>METAR SBGL 310800Z 26006KT 9999 SCT020 BKN025 OVC033 22/18 Q1018=
2026-05-31 09:00:00<>METAR SBGL 310900Z 32003KT 9999 FEW018 SCT020 BKN040 21/19 Q1018=
2026-05-31 10:00:00<>METAR SBGL 311000Z 30006KT 9999 -RA BKN017 BKN020 BKN030 21/19 Q1019=
2026-05-31 11:00:00<>METAR SBGL 311100Z 26004KT 9999 BKN020 BKN030 22/18 Q1019=
2026-05-31 12:00:00<>METAR SBGL 311200Z 27007KT 9999 SCT020 BKN030 24/19 Q1020=
2026-05-31 13:00:00<>METAR SBGL 311300Z 25004KT 9999 SCT020 BKN030 25/18 Q1020=
2026-05-31 14:00:00<>METAR SBGL 311400Z 24006KT 9999 SCT022 SCT030 26/18 Q1019=
2026-05-31 15:00:00<>METAR SBGL 311500Z 18007KT 9999 SCT022 SCT035 26/19 Q1019=
2026-05-31 16:00:00<>METAR SBGL 311600Z 23008KT 9999 SCT022 BKN040 26/18 Q1018=
2026-05-31 17:00:00<>METAR SBGL 311700Z 20011KT 9999 SCT022 BKN040 BKN060 25/17 Q1017=
2026-05-31 18:00:00<>METAR SBGL 311800Z 21011KT 9999 FEW021 BKN040 25/16 Q1017=
2026-05-31 19:00:00<>METAR SBGL 311900Z 22014KT 9999 BKN040 24/17 Q1017=
2026-05-31 20:00:00<>METAR SBGL 312000Z 22011KT 9999 SCT040 BKN060 24/17 Q1017=
2026-05-31 21:00:00<>METAR SBGL 312100Z 22008KT 9999 BKN040 BKN070 23/16 Q1018=
2026-05-31 22:00:00<>METAR SBGL 312200Z 23007KT 9999 BKN040 BKN070 23/16 Q1018=
2026-05-31 23:00:00<>METAR SBGL 312300Z 25006KT 9999 BKN040 BKN070 22/17 Q1019=
2026-06-01 00:00:00<>METAR SBGL 010000Z 24007KT 9999 BKN040 BKN070 22/17 Q1019=
2026-06-01 01:00:00<>METAR SBGL 010100Z 25006KT 9999 BKN040 BKN070 22/18 Q1019=
2026-06-01 02:00:00<>METAR SBGL 010200Z 25006KT 9999 BKN040 BKN070 22/18 Q1019=
2026-06-01 03:00:00<>METAR SBGL 010300Z 25004KT 9999 BKN030 21/18 Q1019=
2026-06-01 04:00:00<>METAR SBGL 010400Z 28005KT 9999 BKN030 21/18 Q1019=
2026-06-01 05:00:00<>METAR SBGL 010500Z 28003KT 9999 FEW030 21/17 Q1018=
2026-06-01 06:00:00<>METAR SBGL 010600Z 33004KT 9999 FEW030 21/18 Q1018=
2026-06-01 07:00:00<>METAR SBGL 010700Z 33004KT 9999 FEW040 20/18 Q1018=
2026-06-01 08:00:00<>METAR COR SBGL 010800Z 33004KT 8000 FEW040 20/19 Q1018=
2026-06-01 09:00:00<>METAR SBGL 010900Z 22002KT 8000 FEW030 19/17 Q1018=
2026-06-01 10:00:00<>METAR SBGL 011000Z 32002KT 8000 FEW035 SCT070 19/17 Q1019=
2026-06-01 11:00:00<>METAR SBGL 011100Z 33003KT 9999 FEW030 22/18 Q1019=
2026-06-01 12:00:00<>METAR SBGL 011200Z 36003KT 9999 FEW030 23/18 Q1019=
2026-06-01 13:00:00<>METAR SBGL 011300Z 35004KT 9999 FEW026 25/18 Q1020=
2026-06-01 14:00:00<>METAR SBGL 011400Z 26005KT 9999 SCT030 26/17 Q1020=
2026-06-01 15:00:00<>METAR SBGL 011500Z VRB07KT 9999 SCT033 BKN040 26/18 Q1019=
2026-06-01 16:00:00<>METAR SBGL 011600Z 13006KT 9999 BKN030 BKN040 25/18 Q1018=
2026-06-01 17:00:00<>METAR SBGL 011700Z 13006KT 9999 BKN026 BKN032 25/18 Q1018=
2026-06-01 18:00:00<>METAR SBGL 011800Z 19005KT 9999 BKN026 BKN032 25/18 Q1018=
2026-06-01 19:00:00<>METAR SBGL 011900Z 21010KT 9999 BKN025 BKN033 24/18 Q1018=
2026-06-01 20:00:00<>METAR SBGL 012000Z 20012KT 9999 BKN025 BKN033 23/18 Q1018=
2026-06-01 21:00:00<>METAR SBGL 012100Z 21006KT 9999 BKN025 BKN033 23/18 Q1019=
2026-06-01 22:00:00<>METAR SBGL 012200Z 24007KT 9999 SCT030 BKN040 22/17 Q1019=
2026-06-01 23:00:00<>METAR SBGL 012300Z 24005KT 9999 SCT030 BKN047 23/18 Q1020=
2026-06-02 00:00:00<>METAR SBGL 020000Z 24007KT 9999 FEW018 BKN027 BKN034 22/18 Q1020=
2026-06-02 01:00:00<>METAR COR SBGL 020100Z VRB02KT 9999 FEW027 SCT036 BKN070 22/18 Q1020=
2026-06-02 02:00:00<>METAR SBGL 020200Z 13003KT 9999 FEW031 BKN047 22/18 Q1020=
2026-06-02 03:00:00<>METAR SBGL 020300Z VRB02KT 9999 VCTS FEW014 FEW033CB BKN035 22/19 Q1020=
2026-06-02 04:00:00<>METAR SBGL 020400Z 24010KT 210V280 3000 RA BR BKN007 BKN019 OVC029 21/19 Q1021=
2026-06-02 04:08:00<>SPECI SBGL 020408Z 24015KT 210V270 2500 TSRA BR BKN006 BKN020 FEW030CB OVC035 20/19 Q1021=
2026-06-02 05:00:00<>METAR SBGL 020500Z 28004KT 9999 -RA VCTS SCT006 FEW030CB BKN050 BKN085 20/19 Q1020 RETSRA=
2026-06-02 06:00:00<>METAR SBGL 020600Z 29005KT 9999 FEW006 SCT036 BKN042 20/19 Q1021=
2026-06-02 07:00:00<>METAR SBGL 020700Z 30004KT 9999 FEW007 SCT042 BKN083 20/18 Q1020=
2026-06-02 08:00:00<>METAR SBGL 020800Z 31005KT 6000 FEW005 SCT007 BKN014 20/18 Q1020=
2026-06-02 09:00:00<>METAR SBGL 020900Z 32005KT 9000 SCT007 BKN030 BKN090 19/18 Q1021=
2026-06-02 10:00:00<>METAR SBGL 021000Z 31004KT 9000 FEW012 BKN017 OVC040 20/18 Q1022=
2026-06-02 11:00:00<>METAR SBGL 021100Z 27004KT 9000 FEW008 BKN020 OVC040 20/18 Q1022=
2026-06-02 12:00:00<>METAR SBGL 021200Z 30003KT 9000 SCT007 BKN015 OVC030 20/18 Q1023=
2026-06-02 13:00:00<>METAR SBGL 021300Z 10003KT 080V190 3500 -RA BR SCT007 BKN012 OVC030 20/18 Q1024=
2026-06-02 14:00:00<>METAR SBGL 021400Z 17005KT 4000 -RA BR SCT007 BKN012 OVC030 20/18 Q1023=
2026-06-02 15:00:00<>METAR SBGL 021500Z 28003KT 190V330 9999 SCT012 BKN025 OVC040 21/18 Q1023=
2026-06-02 16:00:00<>METAR SBGL 021600Z VRB01KT 9999 FEW013 SCT025 OVC040 22/18 Q1022=
2026-06-02 17:00:00<>METAR SBGL 021700Z 27004KT 9999 FEW015 SCT025 BKN040 23/18 Q1021=
2026-06-02 18:00:00<>METAR SBGL 021800Z 28008KT 9999 FEW015 BKN040 22/18 Q1021=
2026-06-02 19:00:00<>METAR SBGL 021900Z 26006KT 9999 FEW015 BKN040 22/18 Q1022=
2026-06-02 20:00:00<>METAR SBGL 022000Z 23003KT 9999 FEW015 BKN040 22/18 Q1022=
2026-06-02 21:00:00<>METAR SBGL 022100Z 22004KT 9999 FEW015 SCT040 21/17 Q1022=
2026-06-02 22:00:00<>METAR SBGL 022200Z 26003KT 9999 SCT020 BKN040 21/18 Q1023=
2026-06-02 23:00:00<>METAR SBGL 022300Z 00000KT 9999 SCT020 BKN040 21/18 Q1023=
2026-06-03 00:00:00<>METAR SBGL 030000Z 35002KT 9999 SCT020 BKN035 21/18 Q1024=
2026-06-03 01:00:00<>METAR SBGL 030100Z 01004KT 9999 SCT016 BKN035 21/19 Q1024=
2026-06-03 02:00:00<>METAR SBGL 030200Z 33004KT 9999 SCT009 BKN030 20/18 Q1024=
2026-06-03 03:00:00<>METAR SBGL 030300Z 31003KT 9999 SCT009 BKN030 20/18 Q1024=
2026-06-03 04:00:00<>METAR SBGL 030400Z 26003KT 9999 SCT009 BKN035 20/18 Q1024=
2026-06-03 05:00:00<>METAR SBGL 030500Z 21004KT 9999 FEW009 BKN035 20/18 Q1024=
2026-06-03 06:00:00<>METAR SBGL 030600Z 31002KT 9999 FEW013 BKN035 19/17 Q1023=
2026-06-03 07:00:00<>METAR SBGL 030700Z 24003KT 8000 FEW006 BKN035 19/18 Q1024=
2026-06-03 08:00:00<>METAR SBGL 030800Z 30002KT 8000 FEW006 BKN035 19/18 Q1024=
2026-06-03 09:00:00<>METAR SBGL 030900Z 03001KT 9999 FEW006 BKN035 19/18 Q1024=
2026-06-03 10:00:00<>METAR SBGL 031000Z 33003KT 9000 FEW006 BKN025 19/17 Q1025=
2026-06-03 11:00:00<>METAR SBGL 031100Z 35005KT 320V050 8000 FEW006 SCT013 19/18 Q1025=
2026-06-03 12:00:00<>METAR SBGL 031200Z VRB02KT 9000 BKN013 BKN020 21/18 Q1026=
2026-06-03 13:00:00<>METAR SBGL 031300Z 36006KT 330V030 9000 BKN015 22/18 Q1026=
2026-06-03 14:00:00<>METAR SBGL 031400Z 20003KT 150V270 9999 BKN017 23/18 Q1025=
2026-06-03 15:00:00<>METAR SBGL 031500Z VRB05KT 9999 BKN020 24/18 Q1025=
2026-06-03 16:00:00<>METAR SBGL 031600Z 36007KT 9999 SCT025 SCT040 25/18 Q1024=
2026-06-03 17:00:00<>METAR SBGL 031700Z 14008KT 100V160 9999 SCT025 SCT040 25/17 Q1024=
2026-06-03 18:00:00<>METAR SBGL 031800Z 13009KT 9999 SCT025 24/16 Q1024=
2026-06-03 19:00:00<>METAR SBGL 031900Z 13007KT 9999 FEW015 SCT025 24/16 Q1024=
2026-06-03 20:00:00<>METAR SBGL 032000Z 14009KT 9999 FEW025 23/17 Q1024=
2026-06-03 21:00:00<>METAR SBGL 032100Z 13008KT 100V160 9999 FEW020 BKN040 22/18 Q1025=
2026-06-03 22:00:00<>METAR SBGL 032200Z 14005KT 9999 FEW020 BKN045 22/18 Q1025=
2026-06-03 23:00:00<>METAR SBGL 032300Z 12006KT 9999 FEW020 SCT060 22/18 Q1026=
2026-06-04 00:00:00<>METAR SBGL 040000Z 12003KT 9999 FEW020 SCT060 21/18 Q1026=
2026-06-04 01:00:00<>METAR SBGL 040100Z 12004KT 9999 FEW020 SCT040 21/18 Q1026=
2026-06-04 02:00:00<>METAR SBGL 040200Z 10005KT 9999 SCT030 21/18 Q1026=
2026-06-04 03:00:00<>METAR SBGL 040300Z 12003KT 9999 SCT030 20/18 Q1026=
2026-06-04 04:00:00<>METAR SBGL 040400Z 10002KT 9999 SCT030 19/18 Q1026=
2026-06-04 05:00:00<>METAR SBGL 040500Z 12001KT 9999 SCT030 19/17 Q1026=
2026-06-04 06:00:00<>METAR SBGL 040600Z 13001KT 9999 SCT030 19/18 Q1026=
2026-06-04 07:00:00<>METAR SBGL 040700Z 09002KT 9999 SCT015 BKN030 20/18 Q1025=
2026-06-04 08:00:00<>METAR SBGL 040800Z 15004KT 9999 SCT015 BKN030 19/18 Q1026=
2026-06-04 09:00:00<>METAR SBGL 040900Z 14006KT 8000 -RA SCT012 BKN020 19/18 Q1026=
2026-06-04 09:20:00<>SPECI SBGL 040920Z 12007KT 4500 -RA BR BKN012 OVC030 19/18 Q1026=
2026-06-04 10:00:00<>METAR SBGL 041000Z 07006KT 9999 BKN020 OVC040 19/17 Q1027=
2026-06-04 11:00:00<>METAR SBGL 041100Z 13004KT 9999 4000SE VCSH SCT020 BKN040 20/18 Q1027=
2026-06-04 12:00:00<>METAR SBGL 041200Z 04005KT 9999 BKN020 FEW025TCU BKN070 22/18 Q1028=
2026-06-04 13:00:00<>METAR SBGL 041300Z 03004KT 9999 BKN020 FEW025TCU BKN070 21/18 Q1028=
2026-06-04 14:00:00<>METAR SBGL 041400Z 06002KT 9999 BKN020 FEW025TCU BKN070 21/18 Q1028=
2026-06-04 15:00:00<>METAR SBGL 041500Z 05005KT 360V110 9999 BKN020 FEW025TCU BKN070 23/18 Q1027=
2026-06-04 16:00:00<>METAR SBGL 041600Z 13007KT 9000 VCSH BKN020 FEW025TCU BKN070 21/18 Q1026=
2026-06-04 17:00:00<>METAR SBGL 041700Z 13003KT 080V160 9999 BKN020 FEW025TCU BKN070 22/18 Q1026=
2026-06-04 18:00:00<>METAR SBGL 041800Z 09003KT 040V160 9999 BKN025 FEW030TCU BKN070 22/18 Q1026=
2026-06-04 19:00:00<>METAR SBGL 041900Z 13006KT 9999 VCSH SCT027 FEW030TCU BKN070 22/17 Q1026=
2026-06-04 20:00:00<>METAR SBGL 042000Z 02004KT 9999 SCT030 BKN080 21/18 Q1026=
2026-06-04 21:00:00<>METAR SBGL 042100Z 08004KT 9999 FEW030 BKN080 21/18 Q1026=
2026-06-04 22:00:00<>METAR SBGL 042200Z 09006KT 9999 FEW030 BKN080 21/18 Q1026=
2026-06-04 23:00:00<>METAR SBGL 042300Z 10003KT 9999 FEW020 BKN046 21/17 Q1027=
2026-06-05 00:00:00<>METAR SBGL 050000Z 07004KT 9999 FEW020 SCT046 19/17 Q1027=
2026-06-05 01:00:00<>METAR SBGL 050100Z 07003KT 9999 FEW020 SCT046 19/17 Q1027=
2026-06-05 02:00:00<>METAR SBGL 050200Z 08002KT 9999 FEW020 SCT083 18/16 Q1027=
2026-06-05 03:00:00<>METAR SBGL 050300Z VRB01KT 9000 FEW007 18/17 Q1027=
2026-06-05 04:00:00<>METAR SBGL 050400Z VRB02KT 8000 FEW007 18/16 Q1027=
2026-06-05 05:00:00<>METAR SBGL 050500Z VRB02KT 8000 FEW007 18/16 Q1026=
2026-06-05 06:00:00<>METAR SBGL 050600Z 31004KT 8000 FEW007 18/17 Q1025=
2026-06-05 07:00:00<>METAR SBGL 050700Z VRB02KT 7000 FEW007 17/15 Q1025=
2026-06-05 08:00:00<>METAR SBGL 050800Z VRB02KT 7000 FEW007 BKN040 16/15 Q1025=
2026-06-05 09:00:00<>METAR SBGL 050900Z 35004KT 320V030 4500 BR FEW007 BKN040 18/17 Q1025=
2026-06-05 09:12:00<>SPECI SBGL 050912Z 34004KT 320V020 2000 R10/1800D R28/P2000N R15/P2000N R33/P2000N BR FEW005 BKN040 18/17 Q1025=
2026-06-05 10:00:00<>METAR SBGL 051000Z 01004KT 340V050 6000 2000SE SCT005 BKN040 18/16 Q1025=
2026-06-05 11:00:00<>METAR SBGL 051100Z 02003KT 350V050 6000 2000SE SCT005 SCT009 BKN040 18/16 Q1026=
2026-06-05 12:00:00<>METAR SBGL 051200Z VRB02KT 7000 3000SW SCT009 BKN012 BKN040 19/17 Q1026=
2026-06-05 13:00:00<>METAR SBGL 051300Z 07005KT 9999 SCT027 BKN043 21/17 Q1026=
2026-06-05 14:00:00<>METAR SBGL 051400Z 03006KT 8000 SCT016 BKN027 BKN050 21/17 Q1026=
2026-06-05 15:00:00<>METAR SBGL 051500Z 08003KT 8000 VCSH SCT040 BKN080 23/15 Q1025=
2026-06-05 16:00:00<>METAR SBGL 051600Z 07003KT 330V130 9000 BKN030 BKN070 23/15 Q1024=
2026-06-05 17:00:00<>METAR SBGL 051700Z 12006KT 9999 BKN030 BKN080 23/15 Q1023=
2026-06-05 18:00:00<>METAR SBGL 051800Z 08007KT 030V140 9000 BKN030 FEW033TCU BKN080 23/14 Q1023=
2026-06-05 19:00:00<>METAR SBGL 051900Z 13007KT 9999 BKN030 22/15 Q1023=
2026-06-05 20:00:00<>METAR SBGL 052000Z 14006KT 9999 BKN030 21/15 Q1023=
2026-06-05 21:00:00<>METAR SBGL 052100Z 11006KT 9999 BKN030 20/14 Q1023=
2026-06-05 22:00:00<>METAR SBGL 052200Z 12004KT 9999 BKN040 20/14 Q1023=
2026-06-05 23:00:00<>METAR SBGL 052300Z 11007KT 9999 BKN040 21/14 Q1023=
2026-06-06 00:00:00<>METAR SBGL 060000Z 11006KT 9999 BKN043 20/14 Q1023=
2026-06-06 01:00:00<>METAR SBGL 060100Z 08007KT 9999 BKN046 20/15 Q1023=
2026-06-06 02:00:00<>METAR SBGL 060200Z 05005KT 9999 SCT046 18/15 Q1023=
2026-06-06 03:00:00<>METAR SBGL 060300Z 09003KT 9999 SCT046 18/16 Q1023=
2026-06-06 04:00:00<>METAR SBGL 060400Z 09004KT 9999 FEW046 17/15 Q1022=
2026-06-06 05:00:00<>METAR SBGL 060500Z 01003KT 8000 FEW008 17/15 Q1021=
2026-06-06 06:00:00<>METAR SBGL 060600Z 26003KT 7000 FEW008 16/15 Q1021=
2026-06-06 07:00:00<>METAR SBGL 060700Z 35003KT 7000 FEW008 16/14 Q1021=
2026-06-06 08:00:00<>METAR SBGL 060800Z 01003KT 7000 FEW008 15/14 Q1020=
2026-06-06 09:00:00<>METAR SBGL 060900Z 34004KT 6000 FEW008 16/15 Q1020=
2026-06-06 10:00:00<>METAR SBGL 061000Z 35003KT 6000 FEW008 16/14 Q1021=
2026-06-06 11:00:00<>METAR SBGL 061100Z 03003KT 7000 FEW015 17/15 Q1021=
2026-06-06 12:00:00<>METAR SBGL 061200Z 01003KT 8000 FEW015 18/15 Q1021=
2026-06-06 13:00:00<>METAR SBGL 061300Z 35002KT 9000 FEW020 21/15 Q1021=
2026-06-06 14:00:00<>METAR SBGL 061400Z 01004KT 9999 FEW020 22/14 Q1020=
2026-06-06 15:00:00<>METAR SBGL 061500Z 35003KT 9999 SCT020 24/12 Q1019=
2026-06-06 16:00:00<>METAR SBGL 061600Z 01002KT 9999 SCT025 25/14 Q1018=
2026-06-06 17:00:00<>METAR SBGL 061700Z 13005KT 9999 SCT030 24/14 Q1017=
2026-06-06 18:00:00<>METAR SBGL 061800Z 09005KT 9999 SCT035 25/13 Q1016=
2026-06-06 19:00:00<>METAR SBGL 061900Z 06007KT 9999 FEW040 24/13 Q1016=
2026-06-06 20:00:00<>METAR SBGL 062000Z 12005KT 9999 FEW040 22/14 Q1017=
2026-06-06 21:00:00<>METAR SBGL 062100Z 14006KT CAVOK 21/16 Q1016=
2026-06-06 22:00:00<>METAR SBGL 062200Z 13005KT CAVOK 20/16 Q1016=
2026-06-06 23:00:00<>METAR SBGL 062300Z 13002KT CAVOK 18/15 Q1017=
2026-06-07 00:00:00<>METAR SBGL 070000Z 10003KT CAVOK 18/16 Q1017=
2026-06-07 01:00:00<>METAR SBGL 070100Z 10003KT CAVOK 18/15 Q1017=
2026-06-07 02:00:00<>METAR SBGL 070200Z 11003KT CAVOK 17/15 Q1017=
2026-06-07 03:00:00<>METAR SBGL 070300Z 07002KT CAVOK 17/15 Q1017=
2026-06-07 04:00:00<>METAR SBGL 070400Z 33003KT CAVOK 17/16 Q1017=
2026-06-07 05:00:00<>METAR SBGL 070500Z 33003KT 290V360 CAVOK 17/15 Q1017=
2026-06-07 06:00:00<>METAR SBGL 070600Z VRB02KT CAVOK 15/14 Q1017=
2026-06-07 07:00:00<>METAR SBGL 070700Z 33003KT CAVOK 16/14 Q1016=
2026-06-07 08:00:00<>METAR SBGL 070800Z 31004KT CAVOK 16/15 Q1017=
2026-06-07 09:00:00<>METAR SBGL 070900Z VRB02KT CAVOK 16/14 Q1017=
2026-06-07 10:00:00<>METAR SBGL 071000Z 35003KT 330V050 CAVOK 16/14 Q1017=
2026-06-07 11:00:00<>METAR SBGL 071100Z 35004KT CAVOK 17/15 Q1018=
2026-06-07 12:00:00<>METAR SBGL 071200Z 07004KT CAVOK 19/16 Q1018=
2026-06-07 13:00:00<>METAR SBGL 071300Z 35004KT CAVOK 21/15 Q1018=
2026-06-07 14:00:00<>METAR SBGL 071400Z 36003KT CAVOK 22/16 Q1017=
2026-06-07 15:00:00<>METAR SBGL 071500Z 04003KT CAVOK 25/16 Q1017=
2026-06-07 16:00:00<>METAR SBGL 071600Z 36005KT 9999 FEW040 26/14 Q1016=
2026-06-07 17:00:00<>METAR SBGL 071700Z 26008KT 9999 FEW040 28/11 Q1015=
2026-06-07 18:00:00<>METAR SBGL 071800Z 13009KT 9999 FEW040 25/16 Q1015=
2026-06-07 19:00:00<>METAR SBGL 071900Z 12008KT 9999 FEW040 24/17 Q1016=
2026-06-07 20:00:00<>METAR SBGL 072000Z 20008KT 9999 FEW040 24/13 Q1016=
2026-06-07 21:00:00<>METAR SBGL 072100Z 20006KT 9999 FEW040 22/14 Q1017=
2026-06-07 22:00:00<>METAR SBGL 072200Z VRB03KT 9999 FEW040 19/13 Q1018=
2026-06-07 23:00:00<>METAR SBGL 072300Z 32003KT 9999 FEW040 20/16 Q1018=
2026-06-08 00:00:00<>METAR SBGL 080000Z 30004KT CAVOK 19/15 Q1019=
2026-06-08 01:00:00<>METAR SBGL 080100Z 32005KT 9000 NSC 19/16 Q1019=
2026-06-08 02:00:00<>METAR SBGL 080200Z 34004KT 9000 NSC 19/16 Q1019=
2026-06-08 03:00:00<>METAR SBGL 080300Z 32003KT 9000 NSC 17/14 Q1020=
2026-06-08 04:00:00<>METAR SBGL 080400Z 22002KT 9000 NSC 16/14 Q1020=
2026-06-08 05:00:00<>METAR SBGL 080500Z 01003KT CAVOK 16/13 Q1019=
2026-06-08 06:00:00<>METAR SBGL 080600Z 33003KT CAVOK 17/14 Q1019=
2026-06-08 07:00:00<>METAR SBGL 080700Z 09002KT CAVOK 15/13 Q1019=
2026-06-08 08:00:00<>METAR SBGL 080800Z 34002KT CAVOK 15/13 Q1019=
2026-06-08 09:00:00<>METAR SBGL 080900Z 00000KT CAVOK 14/12 Q1019=
2026-06-08 10:00:00<>METAR SBGL 081000Z 33005KT 8000 NSC 16/13 Q1020=
2026-06-08 11:00:00<>METAR SBGL 081100Z VRB01KT CAVOK 18/14 Q1021=
2026-06-08 12:00:00<>METAR SBGL 081200Z 02003KT 350V070 9999 FEW009 20/14 Q1021=
2026-06-08 13:00:00<>METAR SBGL 081300Z 01003KT 310V090 CAVOK 21/14 Q1021=
2026-06-08 14:00:00<>METAR SBGL 081400Z 01003KT 330V050 CAVOK 22/16 Q1020=
2026-06-08 15:00:00<>METAR SBGL 081500Z 34003KT 270V070 CAVOK 24/14 Q1019=
2026-06-08 16:00:00<>METAR SBGL 081600Z 35005KT 330V030 CAVOK 25/13 Q1018=
2026-06-08 17:00:00<>METAR SBGL 081700Z VRB03KT CAVOK 26/13 Q1018=
2026-06-08 18:00:00<>METAR SBGL 081800Z 12005KT 070V140 CAVOK 25/16 Q1017=
2026-06-08 19:00:00<>METAR SBGL 081900Z 11005KT CAVOK 25/15 Q1017=
2026-06-08 20:00:00<>METAR SBGL 082000Z 14005KT CAVOK 23/16 Q1017=
2026-06-08 21:00:00<>METAR SBGL 082100Z 14006KT CAVOK 22/17 Q1017=
2026-06-08 22:00:00<>METAR SBGL 082200Z 15006KT CAVOK 22/18 Q1017=
2026-06-08 23:00:00<>METAR SBGL 082300Z 13003KT CAVOK 20/17 Q1018=
2026-06-09 00:00:00<>METAR SBGL 090000Z 09003KT CAVOK 20/17 Q1018=
2026-06-09 01:00:00<>METAR SBGL 090100Z 11004KT CAVOK 20/16 Q1018=
2026-06-09 02:00:00<>METAR SBGL 090200Z 10002KT CAVOK 18/16 Q1018=
2026-06-09 03:00:00<>METAR SBGL 090300Z 05002KT CAVOK 18/16 Q1018=
2026-06-09 04:00:00<>METAR SBGL 090400Z 04001KT CAVOK 17/15 Q1018=
2026-06-09 05:00:00<>METAR SBGL 090500Z 04002KT 9000 NSC 17/16 Q1017=
2026-06-09 06:00:00<>METAR SBGL 090600Z 33002KT 8000 NSC 17/16 Q1017=
2026-06-09 07:00:00<>METAR SBGL 090700Z 00000KT 7000 NSC 16/14 Q1016=
2026-06-09 08:00:00<>METAR SBGL 090800Z 00000KT 5000 BR FEW008 16/14 Q1017=
2026-06-09 09:00:00<>METAR SBGL 090900Z 05003KT 5000 BR FEW008 16/15 Q1017=
2026-06-09 10:00:00<>METAR SBGL 091000Z 05003KT 7000 FEW006 16/15 Q1018=
2026-06-09 11:00:00<>METAR SBGL 091100Z 36003KT 5000 BR SCT005 18/17 Q1018=
2026-06-09 11:34:00<>SPECI SBGL 091134Z 01002KT 4000 BR BKN004 19/18 Q1018=
2026-06-09 12:00:00<>METAR SBGL 091200Z 01002KT 4000 BR BKN004 20/18 Q1018=
2026-06-09 12:19:00<>SPECI SBGL 091219Z 35003KT 6000 SCT006 21/17 Q1018=
2026-06-09 13:00:00<>METAR SBGL 091300Z 34002KT 7000 SCT008 22/17 Q1018=
2026-06-09 14:00:00<>METAR SBGL 091400Z VRB02KT 9000 FEW008 24/15 Q1017=
2026-06-09 15:00:00<>METAR SBGL 091500Z 35003KT 290V060 9999 FEW008 25/16 Q1016=
2026-06-09 16:00:00<>METAR SBGL 091600Z 36002KT 9999 FEW010 28/16 Q1015=
2026-06-09 17:00:00<>METAR SBGL 091700Z VRB02KT CAVOK 29/15 Q1014=
2026-06-09 18:00:00<>METAR SBGL 091800Z 03005KT 360V070 CAVOK 28/17 Q1013=
2026-06-09 19:00:00<>METAR SBGL 091900Z 04006KT CAVOK 27/17 Q1013=
2026-06-09 20:00:00<>METAR SBGL 092000Z 06006KT CAVOK 26/16 Q1013=
2026-06-09 21:00:00<>METAR SBGL 092100Z 10002KT CAVOK 23/17 Q1014=
2026-06-09 22:00:00<>METAR SBGL 092200Z 09002KT CAVOK 23/18 Q1014=
2026-06-09 23:00:00<>METAR SBGL 092300Z 05003KT 290V080 9000 NSC 21/18 Q1015=
2026-06-10 00:00:00<>METAR SBGL 100000Z 25008KT CAVOK 22/18 Q1015=
2026-06-10 01:00:00<>METAR SBGL 100100Z VRB02KT CAVOK 21/18 Q1016=
2026-06-10 02:00:00<>METAR SBGL 100200Z 33005KT 310V040 8000 NSC 22/17 Q1016=
2026-06-10 03:00:00<>METAR SBGL 100300Z VRB02KT 9000 NSC 19/17 Q1016=
2026-06-10 04:00:00<>METAR SBGL 100400Z 00000KT 9000 NSC 19/17 Q1016=
2026-06-10 05:00:00<>METAR SBGL 100500Z 01004KT 330V100 7000 NSC 19/17 Q1015=
2026-06-10 06:00:00<>METAR SBGL 100600Z VRB02KT 8000 NSC 18/16 Q1015=
2026-06-10 07:00:00<>METAR SBGL 100700Z VRB02KT 8000 NSC 17/15 Q1015=
2026-06-10 08:00:00<>METAR SBGL 100800Z VRB02KT 8000 NSC 16/15 Q1015=
2026-06-10 09:00:00<>METAR SBGL 100900Z VRB02KT 9000 NSC 17/16 Q1016=
2026-06-10 10:00:00<>METAR SBGL 101000Z VRB01KT 8000 NSC 17/15 Q1016=
2026-06-10 11:00:00<>METAR SBGL 101100Z VRB02KT CAVOK 20/16 Q1017=
2026-06-10 12:00:00<>METAR SBGL 101200Z VRB02KT CAVOK 22/17 Q1018=
2026-06-10 13:00:00<>METAR SBGL 101300Z VRB02KT CAVOK 24/17 Q1018=
2026-06-10 14:00:00<>METAR SBGL 101400Z 36004KT 9000 NSC 24/17 Q1017=
2026-06-10 15:00:00<>METAR SBGL 101500Z 04004KT 350V090 9000 NSC 26/17 Q1016=
2026-06-10 16:00:00<>METAR SBGL 101600Z 12007KT 9000 FEW040 25/18 Q1015=
2026-06-10 17:00:00<>METAR SBGL 101700Z 13010KT 9999 FEW045 25/18 Q1015=
2026-06-10 18:00:00<>METAR SBGL 101800Z 12010KT 9999 FEW040 25/17 Q1015=
2026-06-10 19:00:00<>METAR SBGL 101900Z 13009KT 9999 FEW040 24/18 Q1015=
2026-06-10 20:00:00<>METAR SBGL 102000Z 12008KT 9999 FEW030 23/18 Q1015=
2026-06-10 21:00:00<>METAR SBGL 102100Z 14008KT 9999 FEW030 22/18 Q1016=
2026-06-10 22:00:00<>METAR SBGL 102200Z 15006KT 9999 FEW020 22/18 Q1016=
2026-06-10 23:00:00<>METAR SBGL 102300Z 12005KT 9999 FEW040 22/18 Q1017=
2026-06-11 00:00:00<>METAR SBGL 110000Z 11006KT 9999 SCT017 21/18 Q1016=
2026-06-11 01:00:00<>METAR SBGL 110100Z 08003KT 9999 SCT023 SCT100 21/19 Q1017=
2026-06-11 02:00:00<>METAR SBGL 110200Z 13003KT 9999 FEW015 SCT023 21/18 Q1017=
2026-06-11 03:00:00<>METAR SBGL 110300Z 14003KT 9999 FEW013 SCT019 BKN026 21/18 Q1017=
2026-06-11 04:00:00<>METAR SBGL 110400Z 01005KT 7000 FEW013 SCT017 BKN026 21/19 Q1017=
2026-06-11 05:00:00<>METAR SBGL 110500Z 06005KT 7000 FEW013 SCT017 BKN026 21/19 Q1016=
2026-06-11 06:00:00<>METAR SBGL 110600Z 07005KT 7000 FEW013 SCT017 BKN026 21/18 Q1016=
2026-06-11 07:00:00<>METAR SBGL 110700Z 04005KT 7000 FEW013 SCT017 BKN026 20/18 Q1016=
2026-06-11 08:00:00<>METAR SBGL 110800Z 05003KT 7000 FEW006 BKN009 BKN017 20/19 Q1016=
2026-06-11 09:00:00<>METAR SBGL 110900Z 09003KT 6000 FEW006 SCT013 BKN017 20/18 Q1016=
2026-06-11 10:00:00<>METAR SBGL 111000Z 12002KT 6000 FEW013 BKN023 BKN100 20/18 Q1017=
2026-06-11 11:00:00<>METAR SBGL 111100Z 27002KT 6000 FEW013 BKN019 OVC100 20/19 Q1018=
2026-06-11 12:00:00<>METAR SBGL 111200Z 31003KT 270V020 5000 -RA BR FEW013 BKN019 OVC048 22/19 Q1019=
2026-06-11 12:20:00<>SPECI SBGL 111220Z 31003KT 260V360 3000 -RA BR FEW013 BKN019 OVC048 22/20 Q1019=
2026-06-11 13:00:00<>METAR SBGL 111300Z VRB02KT 2500 -RA BR FEW013 BKN019 OVC040 22/20 Q1019=
2026-06-11 14:00:00<>METAR SBGL 111400Z 28004KT 3000 -RA BR FEW011 BKN019 OVC040 22/20 Q1018=
2026-06-11 15:00:00<>METAR SBGL 111500Z 35004KT 320V050 2500 -RA BR SCT005 BKN022 OVC040 22/20 Q1017=
2026-06-11 16:00:00<>METAR SBGL 111600Z 04005KT 2500 -RA BR SCT005 BKN013 OVC040 21/20 Q1016=
2026-06-11 17:00:00<>METAR SBGL 111700Z 05006KT 030V090 4000 BR FEW008 SCT020 OVC050 22/20 Q1015=
2026-06-11 18:00:00<>METAR SBGL 111800Z 11003KT 5000 BR FEW010 SCT020 OVC100 22/19 Q1015=
2026-06-11 19:00:00<>METAR SBGL 111900Z 00000KT 5000 BR FEW010 SCT020 BKN100 22/19 Q1015=
2026-06-11 20:00:00<>METAR SBGL 112000Z 36003KT 4000 BR FEW010 SCT020 BKN100 22/19 Q1015=
2026-06-11 21:00:00<>METAR SBGL 112100Z 02005KT 4000 BR SCT020 BKN080 22/19 Q1016=
2026-06-11 22:00:00<>METAR SBGL 112200Z 03002KT 5000 BR SCT020 BKN080 21/19 Q1016=
2026-06-11 23:00:00<>METAR SBGL 112300Z 11005KT 4500 BR SCT020 BKN080 20/19 Q1016=
2026-06-12 00:00:00<>METAR SBGL 120000Z 09004KT 4500 BR SCT020 BKN080 20/19 Q1016=
2026-06-12 01:00:00<>METAR SBGL 120100Z VRB02KT 4500 BR SCT020 BKN080 19/18 Q1016=
2026-06-12 02:00:00<>METAR SBGL 120200Z 26005KT 3000 BR SCT020 BKN080 20/19 Q1016=
2026-06-12 03:00:00<>METAR SBGL 120300Z 26002KT 3000 BR SCT020 19/18 Q1016=
2026-06-12 04:00:00<>METAR SBGL 120400Z VRB02KT 3000 BR SCT020 18/17 Q1016=
2026-06-12 05:00:00<>METAR SBGL 120500Z 02004KT 2500 BR SCT020 19/18 Q1015=
2026-06-12 06:00:00<>METAR SBGL 120600Z 31002KT 2500 BR SCT020 19/18 Q1015=
2026-06-12 07:00:00<>METAR SBGL 120700Z 11002KT 2500 BR SCT020 17/16 Q1015=
2026-06-12 08:00:00<>METAR SBGL 120800Z 07003KT 2500 BR SCT020 17/16 Q1014=
2026-06-12 09:00:00<>METAR SBGL 120900Z 34005KT 3500 BR SCT020 18/17 Q1014=
2026-06-12 10:00:00<>METAR SBGL 121000Z VRB02KT 4000 BR NSC 18/17 Q1015=
2026-06-12 11:00:00<>METAR COR SBGL 121100Z VRB02KT 3700 1500NE R10/P2000N R28/P2000N R15/P2000N R33/P2000N BR FEW005 20/18 Q1015=
2026-06-12 11:19:00<>SPECI SBGL 121119Z 02003KT 350V060 3700 1500NE R10/P2000N R28/P2000N R33/P2000N R15/P2000N BR BKN005 20/19 Q1015=
2026-06-12 12:00:00<>METAR SBGL 121200Z 05004KT 1900 R10/P2000N R28/P2000N R15/P2000N R33/P2000N BR SCT002 BKN005 20/19 Q1015=
2026-06-12 12:39:00<>SPECI SBGL 121239Z 07003KT 350V160 3500 BR SCT006 21/19 Q1014=
2026-06-12 13:00:00<>METAR SBGL 121300Z 06002KT 4500 BR SCT006 22/19 Q1014=
2026-06-12 14:00:00<>METAR SBGL 121400Z 35004KT 300V050 4500 BR FEW008 22/19 Q1013=
2026-06-12 15:00:00<>METAR SBGL 121500Z 34003KT 260V060 4500 BR FEW012 23/20 Q1012=
2026-06-12 15:18:00<>SPECI SBGL 121518Z VRB02KT 6000 FEW012 25/19 Q1012=
2026-06-12 16:00:00<>METAR SBGL 121600Z 15003KT 070V220 8000 FEW012 26/18 Q1011=
2026-06-12 17:00:00<>METAR SBGL 121700Z 19003KT 090V240 9999 FEW020 27/16 Q1012=
2026-06-12 17:18:00<>SPECI SBGL 121718Z 26025KT 9999 -RA FEW020 BKN100 27/18 Q1013=
2026-06-12 18:00:00<>METAR SBGL 121800Z 25017KT 9999 FEW020 SCT066 BKN083 24/18 Q1013=
2026-06-12 19:00:00<>METAR SBGL 121900Z 23006KT 200V260 9999 FEW020 SCT066 BKN100 23/19 Q1012=
2026-06-12 20:00:00<>METAR SBGL 122000Z 23004KT 9999 FEW020 SCT100 23/18 Q1012=
2026-06-12 21:00:00<>METAR SBGL 122100Z 05007KT 9999 FEW020 SCT100 22/20 Q1012=
2026-06-12 22:00:00<>METAR SBGL 122200Z 12003KT 090V200 9999 FEW020 SCT100 21/19 Q1012=
2026-06-12 23:00:00<>METAR SBGL 122300Z 07004KT 9999 FEW020 SCT100 22/19 Q1012=
2026-06-13 00:00:00<>METAR SBGL 130000Z 32002KT CAVOK 21/19 Q1012=
2026-06-13 01:00:00<>METAR SBGL 130100Z 25001KT CAVOK 21/19 Q1013=
2026-06-13 02:00:00<>METAR SBGL 130200Z 06003KT CAVOK 20/19 Q1013=
2026-06-13 03:00:00<>METAR SBGL 130300Z 06002KT CAVOK 20/18 Q1012=
2026-06-13 04:00:00<>METAR SBGL 130400Z 11003KT CAVOK 20/18 Q1012=
2026-06-13 05:00:00<>METAR SBGL 130500Z 17001KT CAVOK 21/19 Q1012=
2026-06-13 06:00:00<>METAR SBGL 130600Z 01005KT CAVOK 21/20 Q1011=
2026-06-13 07:00:00<>METAR SBGL 130700Z 15004KT CAVOK 20/19 Q1011=
2026-06-13 08:00:00<>METAR SBGL 130800Z 16004KT CAVOK 20/18 Q1011=
2026-06-13 09:00:00<>METAR SBGL 130900Z 15002KT CAVOK 20/19 Q1011=
2026-06-13 10:00:00<>METAR SBGL 131000Z 32003KT CAVOK 22/20 Q1012=
2026-06-13 11:00:00<>METAR SBGL 131100Z 25005KT 220V350 9999 FEW030 23/19 Q1013=
2026-06-13 12:00:00<>METAR SBGL 131200Z 28008KT 250V320 9999 FEW030 26/19 Q1014=
2026-06-13 13:00:00<>METAR SBGL 131300Z 28009KT 250V310 9999 FEW030 28/19 Q1014=
2026-06-13 14:00:00<>METAR SBGL 131400Z 28009KT 9999 FEW030 30/19 Q1014=
2026-06-13 15:00:00<>METAR SBGL 131500Z 26014KT 9999 FEW035 SCT070 31/18 Q1013=
2026-06-13 16:00:00<>METAR SBGL 131600Z 21008KT 9999 FEW035 BKN070 29/19 Q1013=
2026-06-13 17:00:00<>METAR SBGL 131700Z 22012KT 9999 FEW035 28/18 Q1013=
2026-06-13 18:00:00<>METAR SBGL 131800Z 17004KT 110V210 9999 FEW035 27/19 Q1013=
2026-06-13 19:00:00<>METAR SBGL 131900Z 12008KT 9999 FEW030 25/20 Q1014=
2026-06-13 20:00:00<>METAR SBGL 132000Z 23006KT 9999 FEW025 BKN030 25/19 Q1014=
2026-06-13 21:00:00<>METAR SBGL 132100Z 25004KT 9999 BKN025 BKN030 24/19 Q1015=
2026-06-13 22:00:00<>METAR SBGL 132200Z 25003KT 210V270 9999 BKN025 OVC030 24/18 Q1016=
2026-06-13 23:00:00<>METAR SBGL 132300Z 21004KT 9999 BKN020 OVC026 23/18 Q1017=
2026-06-14 00:00:00<>METAR SBGL 140000Z 26006KT 9999 BKN020 OVC026 23/19 Q1017=
2026-06-14 01:00:00<>METAR SBGL 140100Z 26006KT 9999 BKN021 OVC026 23/18 Q1018=
2026-06-14 02:00:00<>METAR SBGL 140200Z 22004KT 9999 BKN021 OVC026 23/18 Q1017=
2026-06-14 03:00:00<>METAR SBGL 140300Z 24003KT 9999 BKN021 OVC026 22/18 Q1017=
2026-06-14 04:00:00<>METAR SBGL 140400Z 26005KT 9999 BKN021 OVC026 22/18 Q1017=
2026-06-14 05:00:00<>METAR SBGL 140500Z 25005KT 9999 BKN021 OVC026 22/18 Q1017=
2026-06-14 06:00:00<>METAR SBGL 140600Z 28004KT 8000 BKN021 OVC026 22/18 Q1017=
2026-06-14 07:00:00<>METAR SBGL 140700Z 31004KT 8000 BKN021 OVC026 21/18 Q1016=
2026-06-14 08:00:00<>METAR SBGL 140800Z 35005KT 8000 BKN019 OVC030 21/18 Q1017=
2026-06-14 09:00:00<>METAR SBGL 140900Z 32007KT 8000 BKN019 OVC030 21/19 Q1018=
2026-06-14 10:00:00<>METAR SBGL 141000Z 34007KT 8000 BKN019 OVC023 21/19 Q1018=
2026-06-14 11:00:00<>METAR SBGL 141100Z 33006KT 310V010 7000 OVC021 21/19 Q1019=
2026-06-14 12:00:00<>METAR SBGL 141200Z 36004KT 320V050 7000 FEW022 BKN048 22/19 Q1019=
2026-06-14 13:00:00<>METAR SBGL 141300Z 35003KT 280V020 8000 FEW015 BKN080 22/19 Q1019=
2026-06-14 14:00:00<>METAR SBGL 141400Z 28004KT 330V080 9999 FEW020 SCT090 24/18 Q1018=
2026-06-14 15:00:00<>METAR SBGL 141500Z 36006KT 9999 FEW020 SCT090 25/17 Q1017=
2026-06-14 16:00:00<>METAR SBGL 141600Z 08005KT 040V120 9999 FEW020 SCT090 25/18 Q1016=
2026-06-14 17:00:00<>METAR SBGL 141700Z 04005KT 9999 FEW020 SCT090 25/18 Q1015=
2026-06-14 18:00:00<>METAR SBGL 141800Z 06006KT 9999 FEW020 SCT090 26/19 Q1015=
2026-06-14 19:00:00<>METAR SBGL 141900Z 13006KT 9999 FEW020 SCT090 24/19 Q1015=
2026-06-14 20:00:00<>METAR SBGL 142000Z 14006KT 9999 FEW020 23/19 Q1015=
2026-06-14 21:00:00<>METAR SBGL 142100Z 14007KT 9999 FEW020 23/19 Q1016=
2026-06-14 22:00:00<>METAR SBGL 142200Z 15006KT 9999 FEW020 23/20 Q1016=
2026-06-14 23:00:00<>METAR SBGL 142300Z 14004KT 9999 SCT030 22/20 Q1017=
2026-06-15 00:00:00<>METAR SBGL 150000Z 15003KT 9999 FEW030 22/20 Q1017=
2026-06-15 01:00:00<>METAR SBGL 150100Z 07005KT 9999 FEW030 BKN060 22/20 Q1017=
2026-06-15 02:00:00<>METAR SBGL 150200Z 11004KT 9999 FEW030 BKN060 21/19 Q1017=
2026-06-15 03:00:00<>METAR SBGL 150300Z 10002KT 9999 FEW030 BKN100 21/19 Q1017=
2026-06-15 04:00:00<>METAR SBGL 150400Z 08003KT 9999 FEW030 BKN100 20/18 Q1016=
2026-06-15 05:00:00<>METAR SBGL 150500Z VRB01KT 9999 FEW030 BKN100 20/18 Q1016=
2026-06-15 06:00:00<>METAR SBGL 150600Z 09001KT 9999 FEW030 BKN100 19/18 Q1015=
2026-06-15 07:00:00<>METAR SBGL 150700Z 07002KT 9999 FEW030 BKN100 20/18 Q1015=
2026-06-15 08:00:00<>METAR SBGL 150800Z 08003KT 9999 FEW030 BKN100 20/19 Q1015=
2026-06-15 09:00:00<>METAR SBGL 150900Z 00000KT 9999 FEW030 SCT100 20/19 Q1015=
2026-06-15 10:00:00<>METAR SBGL 151000Z 32005KT 300V010 8000 FEW010 BKN080 21/20 Q1016=
2026-06-15 11:00:00<>METAR SBGL 151100Z 24001KT 8000 FEW012 BKN080 22/20 Q1016=
2026-06-15 12:00:00<>METAR SBGL 151200Z 32003KT 9000 SCT016 BKN090 23/20 Q1016=
2026-06-15 13:00:00<>METAR SBGL 151300Z 25006KT 9999 FEW016 BKN090 25/19 Q1017=
2026-06-15 14:00:00<>METAR SBGL 151400Z 22007KT 9999 SCT020 BKN090 26/19 Q1017=
2026-06-15 15:00:00<>METAR SBGL 151500Z 26008KT 9999 SCT020 BKN090 26/20 Q1016=
2026-06-15 16:00:00<>METAR SBGL 151600Z 22009KT 9999 BKN023 BKN090 26/20 Q1015=
2026-06-15 17:00:00<>METAR SBGL 151700Z 20008KT 9999 BKN023 BKN080 25/20 Q1015=
2026-06-15 18:00:00<>METAR SBGL 151800Z 20007KT 9999 SCT015 BKN023 BKN080 25/20 Q1015=
2026-06-15 19:00:00<>METAR SBGL 151900Z 14008KT 9999 SCT014 BKN023 BKN080 23/21 Q1015=
2026-06-15 20:00:00<>METAR SBGL 152000Z 14009KT 6000 -RA BKN015 BKN020 BKN080 23/20 Q1015=
2026-06-15 20:33:00<>SPECI SBGL 152033Z 15009KT 2500 -RA BR BKN013 BKN019 OVC080 22/20 Q1016=
2026-06-15 21:00:00<>METAR SBGL 152100Z 17008KT 1500 R33/P2000 RA BR BKN010 BKN017 OVC080 21/20 Q1016=
2026-06-15 21:12:00<>SPECI SBGL 152112Z 15007KT 4000 -RA BR BKN010 BKN017 OVC080 21/20 Q1016 RERA=
2026-06-15 21:29:00<>SPECI SBGL 152129Z 15008KT 6000 SCT010 BKN017 OVC080 21/20 Q1017=
2026-06-15 22:00:00<>METAR SBGL 152200Z 17007KT 3000 -RA BR BKN009 BKN017 OVC070 21/19 Q1017=
2026-06-15 23:00:00<>METAR SBGL 152300Z 20005KT 4000 -RA BR BKN008 OVC070 21/20 Q1017=
2026-06-16 00:00:00<>METAR SBGL 160000Z 31003KT 270V360 3000 RA BR BKN006 BKN070 21/20 Q1017=
2026-06-16 00:43:00<>SPECI SBGL 160043Z 25004KT 220V300 1500 R10/2000U R28/2000U R15/2000U R33/2000U -RA BR BKN005 BKN070 21/20 Q1017 RERA=
2026-06-16 01:00:00<>METAR SBGL 160100Z 25006KT 2500 RA BR BKN005 BKN070 21/20 Q1018=
2026-06-16 02:00:00<>METAR SBGL 160200Z 25004KT 200V320 3000 RA BR BKN005 BKN070 20/20 Q1017=
2026-06-16 03:00:00<>METAR SBGL 160300Z 24006KT 2500 RA BR BKN005 SCT027 BKN070 21/20 Q1017=
2026-06-16 04:00:00<>METAR COR SBGL 160400Z 25006KT 4000 -RA BR BKN010 BKN070 20/20 Q1017 RERA=
2026-06-16 05:00:00<>METAR SBGL 160500Z 23004KT 4000 -RA BR BKN010 BKN070 20/20 Q1016=
2026-06-16 06:00:00<>METAR SBGL 160600Z 23004KT 4000 -RA BR BKN010 BKN070 20/20 Q1016=
2026-06-16 07:00:00<>METAR SBGL 160700Z 26004KT 4000 -RA BR BKN010 BKN070 20/20 Q1016=
2026-06-16 08:00:00<>METAR SBGL 160800Z 24003KT 4000 -RA BR BKN012 BKN070 20/19 Q1016=
2026-06-16 09:00:00<>METAR SBGL 160900Z 30003KT 3000 -RA BR BKN006 BKN070 20/19 Q1016=
2026-06-16 10:00:00<>METAR SBGL 161000Z 29006KT 3000 -RA BR BKN010 BKN025 BKN070 20/19 Q1017=
2026-06-16 11:00:00<>METAR SBGL 161100Z 27002KT 3000 -RA BR FEW004 BKN010 OVC025 20/19 Q1018=
2026-06-16 12:00:00<>METAR SBGL 161200Z 08003KT 2500 -RA BR SCT004 BKN007 OVC025 20/19 Q1019=
2026-06-16 13:00:00<>METAR SBGL 161300Z 15008KT 110V170 5000 -RA BR BKN007 OVC025 21/19 Q1019=
2026-06-16 14:00:00<>METAR SBGL 161400Z 13008KT 9999 FEW008 BKN013 BKN030 21/19 Q1018=
2026-06-16 15:00:00<>METAR SBGL 161500Z 14008KT 9999 FEW010 SCT014 BKN030 21/18 Q1018=
2026-06-16 16:00:00<>METAR SBGL 161600Z 13008KT 9999 FEW010 SCT014 BKN030 22/19 Q1017=
2026-06-16 17:00:00<>METAR SBGL 161700Z 14009KT 9999 FEW010 BKN014 BKN030 21/18 Q1017=
2026-06-16 18:00:00<>METAR SBGL 161800Z 14008KT 9999 FEW008 BKN014 BKN030 21/18 Q1017=
2026-06-16 19:00:00<>METAR SBGL 161900Z 13008KT 9999 FEW008 BKN014 OVC030 20/18 Q1017=
2026-06-16 20:00:00<>METAR SBGL 162000Z 14006KT 8000 -RA FEW008 BKN012 OVC030 20/18 Q1018=
2026-06-16 21:00:00<>METAR SBGL 162100Z 14006KT 9000 -RA FEW007 BKN012 OVC030 20/18 Q1018=
2026-06-16 22:00:00<>METAR SBGL 162200Z 14005KT 4000 -RA BR FEW007 BKN010 OVC020 19/18 Q1019=
2026-06-16 23:00:00<>METAR SBGL 162300Z 11006KT 6000 -RA SCT009 BKN015 OVC020 19/18 Q1019=
2026-06-16 23:30:00<>SPECI SBGL 162330Z 15009KT 4000 -RA BR FEW006 BKN007 OVC020 19/18 Q1019=
2026-06-17 00:00:00<>METAR SBGL 170000Z 14005KT 4500 -RA BR SCT006 BKN007 OVC019 19/18 Q1019=
2026-06-17 01:00:00<>METAR COR SBGL 170100Z 03005KT 7000 SCT006 BKN013 OVC019 19/18 Q1020=
2026-06-17 02:00:00<>METAR SBGL 170200Z 08006KT 7000 SCT007 BKN017 OVC019 19/18 Q1019=
2026-06-17 02:15:00<>SPECI SBGL 170215Z 13007KT 4000 -RA BR SCT005 BKN013 OVC019 19/17 Q1019=
2026-06-17 03:00:00<>METAR SBGL 170300Z 16004KT 6000 -RA SCT007 BKN013 OVC023 19/17 Q1019=
2026-06-17 04:00:00<>METAR SBGL 170400Z 15004KT 6000 -RA SCT007 BKN013 OVC023 18/17 Q1019=
2026-06-17 05:00:00<>METAR SBGL 170500Z 17004KT 6000 -RA SCT007 BKN013 OVC023 18/17 Q1019=
2026-06-17 06:00:00<>METAR SBGL 170600Z 29004KT 5000 -RA BR SCT007 BKN013 OVC023 18/17 Q1019=
2026-06-17 07:00:00<>METAR SBGL 170700Z 28004KT 4500 -RA BR SCT007 BKN013 OVC023 18/17 Q1019=
2026-06-17 08:00:00<>METAR SBGL 170800Z 15002KT 6000 SCT007 BKN013 OVC023 18/17 Q1019=
2026-06-17 09:00:00<>METAR SBGL 170900Z 04003KT 7000 SCT009 BKN018 OVC030 19/17 Q1019=
2026-06-17 10:00:00<>METAR SBGL 171000Z 01004KT 8000 SCT008 BKN017 BKN030 19/18 Q1020=
2026-06-17 11:00:00<>METAR SBGL 171100Z VRB02KT 9999 SCT008 BKN070 19/17 Q1021=
2026-06-17 12:00:00<>METAR SBGL 171200Z 05003KT 360V070 9999 SCT008 BKN070 20/17 Q1021=
2026-06-17 13:00:00<>METAR SBGL 171300Z 27005KT 6000 -RA SCT007 BKN070 19/18 Q1022=
2026-06-17 14:00:00<>METAR SBGL 171400Z 25003KT 220V290 9999 SCT007 BKN070 20/17 Q1022=
2026-06-17 15:00:00<>METAR SBGL 171500Z 15005KT 120V180 9999 FEW004 SCT009 BKN080 21/17 Q1021=
2026-06-17 16:00:00<>METAR SBGL 171600Z 21003KT 150V310 9999 SCT010 BKN080 22/17 Q1020=
2026-06-17 17:00:00<>METAR SBGL 171700Z 20008KT 9999 SCT015 BKN080 22/16 Q1020=
2026-06-17 18:00:00<>METAR SBGL 171800Z 22009KT 9999 BKN020 SCT100 22/15 Q1020=
2026-06-17 19:00:00<>METAR SBGL 171900Z 20005KT 9999 SCT020 22/16 Q1020=
2026-06-17 20:00:00<>METAR SBGL 172000Z 23006KT 9999 SCT020 21/16 Q1020=
2026-06-17 21:00:00<>METAR SBGL 172100Z 24006KT 9999 SCT025 21/16 Q1021=
2026-06-17 22:00:00<>METAR SBGL 172200Z 22009KT 9999 SCT025 20/16 Q1022=
2026-06-17 23:00:00<>METAR SBGL 172300Z 22005KT 9999 SCT025 20/16 Q1022=
2026-06-18 00:00:00<>METAR SBGL 180000Z 26003KT 9999 SCT030 19/16 Q1023=
2026-06-18 01:00:00<>METAR SBGL 180100Z 25005KT 9999 FEW030 19/15 Q1023=
2026-06-18 02:00:00<>METAR SBGL 180200Z 31004KT 9999 FEW030 19/16 Q1023=
2026-06-18 03:00:00<>METAR SBGL 180300Z 33001KT 9999 FEW030 17/15 Q1023=
2026-06-18 04:00:00<>METAR SBGL 180400Z 33001KT 9999 FEW030 17/15 Q1024=
2026-06-18 05:00:00<>METAR SBGL 180500Z 02002KT 9999 FEW030 16/15 Q1023=
2026-06-18 06:00:00<>METAR SBGL 180600Z 00000KT 9999 FEW030 15/14 Q1023=
2026-06-18 07:00:00<>METAR SBGL 180700Z 33003KT 9999 SCT025 SCT035 16/15 Q1023=
2026-06-18 08:00:00<>METAR SBGL 180800Z 31003KT 9999 SCT025 17/15 Q1023=
2026-06-18 09:00:00<>METAR SBGL 180900Z 30003KT 9999 SCT030 16/15 Q1024=
2026-06-18 10:00:00<>METAR SBGL 181000Z 33003KT 9999 FEW030 16/14 Q1024=
2026-06-18 11:00:00<>METAR SBGL 181100Z 35005KT 9999 FEW020 17/15 Q1025=
2026-06-18 12:00:00<>METAR SBGL 181200Z VRB02KT 9999 FEW020 19/15 Q1026=
2026-06-18 13:00:00<>METAR SBGL 181300Z 02003KT 340V060 9999 FEW025 21/15 Q1026=
2026-06-18 14:00:00<>METAR SBGL 181400Z 01005KT 9999 SCT025 23/15 Q1025=
2026-06-18 15:00:00<>METAR SBGL 181500Z 01005KT 330V060 9999 FEW025 SCT030 23/14 Q1025=
2026-06-18 16:00:00<>METAR SBGL 181600Z VRB01KT 9999 SCT030 SCT050 23/13 Q1024=
2026-06-18 17:00:00<>METAR SBGL 181700Z VRB02KT 9999 SCT030 24/13 Q1023=
2026-06-18 18:00:00<>METAR SBGL 181800Z 14009KT 9999 SCT030 24/14 Q1023=
2026-06-18 19:00:00<>METAR SBGL 181900Z 13007KT 9999 FEW030 22/15 Q1023=
2026-06-18 20:00:00<>METAR SBGL 182000Z 13005KT 9999 FEW030 21/14 Q1023=
2026-06-18 21:00:00<>METAR SBGL 182100Z 15003KT 9999 FEW030 20/14 Q1024=
2026-06-18 22:00:00<>METAR SBGL 182200Z 17004KT 9999 FEW030 SCT050 19/14 Q1024=
2026-06-18 23:00:00<>METAR SBGL 182300Z VRB02KT 9999 SCT040 19/14 Q1025=
2026-06-19 00:00:00<>METAR SBGL 190000Z VRB02KT 9999 SCT040 19/14 Q1025=
2026-06-19 01:00:00<>METAR SBGL 190100Z 05003KT 9999 SCT040 17/15 Q1025=
2026-06-19 02:00:00<>METAR SBGL 190200Z 06001KT 9999 SCT040 16/14 Q1025=
2026-06-19 03:00:00<>METAR SBGL 190300Z 00000KT 9999 SCT040 17/15 Q1025=
2026-06-19 04:00:00<>METAR SBGL 190400Z 24001KT 9999 SCT040 16/14 Q1025=
2026-06-19 05:00:00<>METAR SBGL 190500Z 04002KT 9999 SCT040 15/13 Q1024=
2026-06-19 06:00:00<>METAR SBGL 190600Z 09002KT 9999 SCT040 15/14 Q1024=
2026-06-19 07:00:00<>METAR SBGL 190700Z 08002KT 9999 FEW015 15/14 Q1023=
2026-06-19 08:00:00<>METAR SBGL 190800Z 11002KT 9999 FEW015 15/14 Q1023=
2026-06-19 09:00:00<>METAR SBGL 190900Z 09003KT 9999 SCT008 15/14 Q1022=
2026-06-19 10:00:00<>METAR SBGL 191000Z 00000KT 9999 FEW008 15/14 Q1022=
2026-06-19 11:00:00<>METAR SBGL 191100Z VRB01KT 8000 FEW008 17/16 Q1023=
2026-06-19 12:00:00<>METAR SBGL 191200Z 12003KT 330V070 8000 FEW008 19/16 Q1023=
2026-06-19 13:00:00<>METAR SBGL 191300Z 35004KT CAVOK 19/16 Q1023=
2026-06-19 14:00:00<>METAR SBGL 191400Z 35006KT CAVOK 21/15 Q1022=
2026-06-19 15:00:00<>METAR SBGL 191500Z 04005KT 350V100 CAVOK 23/15 Q1020=
2026-06-19 16:00:00<>METAR SBGL 191600Z 03006KT 350V070 CAVOK 24/15 Q1019=
2026-06-19 17:00:00<>METAR SBGL 191700Z 16005KT 130V220 CAVOK 24/14 Q1018=
2026-06-19 18:00:00<>METAR SBGL 191800Z 13004KT CAVOK 25/14 Q1017=
2026-06-19 19:00:00<>METAR SBGL 191900Z 14005KT CAVOK 24/16 Q1017=
2026-06-19 20:00:00<>METAR SBGL 192000Z 13007KT CAVOK 23/17 Q1017=
2026-06-19 21:00:00<>METAR SBGL 192100Z 13006KT CAVOK 22/18 Q1017=
2026-06-19 22:00:00<>METAR SBGL 192200Z 14003KT CAVOK 20/17 Q1017=
2026-06-19 23:00:00<>METAR SBGL 192300Z VRB02KT CAVOK 21/18 Q1018=
2026-06-20 00:00:00<>METAR SBGL 200000Z 35004KT CAVOK 20/16 Q1018=
2026-06-20 01:00:00<>METAR SBGL 200100Z 12003KT CAVOK 19/16 Q1018=
2026-06-20 02:00:00<>METAR SBGL 200200Z 14003KT CAVOK 18/16 Q1018=
2026-06-20 03:00:00<>METAR SBGL 200300Z 10003KT CAVOK 17/16 Q1017=
2026-06-20 04:00:00<>METAR SBGL 200400Z 09003KT CAVOK 17/15 Q1017=
2026-06-20 05:00:00<>METAR SBGL 200500Z 08001KT CAVOK 17/16 Q1016=
2026-06-20 06:00:00<>METAR SBGL 200600Z 08002KT CAVOK 16/15 Q1016=
2026-06-20 07:00:00<>METAR SBGL 200700Z 26003KT 8000 NSC 16/15 Q1016=
2026-06-20 08:00:00<>METAR SBGL 200800Z VRB02KT 8000 FEW006 15/14 Q1016=
2026-06-20 09:00:00<>METAR SBGL 200900Z 03003KT 360V070 3700 BR FEW006 16/15 Q1016=
2026-06-20 10:00:00<>METAR SBGL 201000Z VRB02KT 6000 SCT025 16/15 Q1016=
2026-06-20 10:20:00<>SPECI SBGL 201020Z 05003KT 4000 1500N BR SCT025 17/16 Q1016=
2026-06-20 11:00:00<>METAR SBGL 201100Z 03003KT 6000 SCT030 18/17 Q1016=
2026-06-20 12:00:00<>METAR SBGL 201200Z VRB02KT 6000 SCT030 20/18 Q1016=
2026-06-20 13:00:00<>METAR SBGL 201300Z 36004KT 9000 NSC 21/17 Q1016=
2026-06-20 14:00:00<>METAR SBGL 201400Z 01003KT CAVOK 24/15 Q1015=
2026-06-20 15:00:00<>METAR SBGL 201500Z 06002KT CAVOK 27/15 Q1014=
2026-06-20 16:00:00<>METAR SBGL 201600Z 01002KT CAVOK 27/15 Q1013=
2026-06-20 17:00:00<>METAR SBGL 201700Z 14004KT CAVOK 27/16 Q1012=
2026-06-20 18:00:00<>METAR SBGL 201800Z 03004KT CAVOK 28/16 Q1012=
2026-06-20 19:00:00<>METAR SBGL 201900Z 05006KT CAVOK 27/17 Q1011=
2026-06-20 20:00:00<>METAR SBGL 202000Z 07006KT CAVOK 25/15 Q1011=
2026-06-20 21:00:00<>METAR SBGL 202100Z 08006KT CAVOK 23/15 Q1010=
2026-06-20 22:00:00<>METAR SBGL 202200Z 13003KT 100V170 CAVOK 22/16 Q1010=
2026-06-20 23:00:00<>METAR SBGL 202300Z 14003KT CAVOK 20/16 Q1010=
2026-06-21 00:00:00<>METAR SBGL 210000Z VRB02KT CAVOK 21/17 Q1011=
2026-06-21 01:00:00<>METAR SBGL 210100Z VRB02KT CAVOK 21/17 Q1011=
2026-06-21 02:00:00<>METAR COR SBGL 210200Z VRB02KT CAVOK 21/18 Q1011=
2026-06-21 03:00:00<>METAR COR SBGL 210300Z 07005KT CAVOK 21/18 Q1011=
2026-06-21 04:00:00<>METAR COR SBGL 210400Z 07005KT CAVOK 21/18 Q1011=
2026-06-21 05:00:00<>METAR SBGL 210500Z 24012KT CAVOK 24/16 Q1012=
2026-06-21 06:00:00<>METAR SBGL 210600Z 22010KT CAVOK 22/19 Q1013=
2026-06-21 07:00:00<>METAR SBGL 210700Z 22010KT CAVOK 22/19 Q1013=
2026-06-21 08:00:00<>METAR SBGL 210800Z 22010KT 9999 FEW040 21/18 Q1013=
2026-06-21 09:00:00<>METAR SBGL 210900Z 28006KT 9999 FEW040 21/19 Q1014=
2026-06-21 10:00:00<>METAR SBGL 211000Z 31003KT 8000 FEW023 SCT027 OVC035 22/19 Q1015=
2026-06-21 11:00:00<>METAR SBGL 211100Z 22006KT 9999 FEW015 BKN020 OVC035 22/19 Q1016=
2026-06-21 12:00:00<>METAR SBGL 211200Z VRB02KT 9999 SCT020 BKN050 23/19 Q1017=
2026-06-21 13:00:00<>METAR SBGL 211300Z 21007KT 9999 BKN018 BKN035 23/18 Q1018=
2026-06-21 14:00:00<>METAR SBGL 211400Z 20009KT 9999 BKN018 OVC030 23/18 Q1018=
2026-06-21 15:00:00<>METAR SBGL 211500Z 20010KT 9999 BKN020 OVC030 22/17 Q1018=
2026-06-21 16:00:00<>METAR SBGL 211600Z 20009KT 9999 BKN023 OVC030 22/17 Q1017=
2026-06-21 17:00:00<>METAR SBGL 211700Z 20010KT 9999 BKN025 OVC035 23/17 Q1017=
2026-06-21 18:00:00<>METAR SBGL 211800Z 22005KT 9999 BKN025 OVC035 23/16 Q1017=
2026-06-21 19:00:00<>METAR SBGL 211900Z 22005KT 9999 BKN025 OVC035 22/17 Q1017=
2026-06-21 20:00:00<>METAR SBGL 212000Z 22005KT 9999 BKN025 OVC035 22/17 Q1018=
2026-06-21 21:00:00<>METAR SBGL 212100Z 02006KT 9999 BKN021 OVC035 21/19 Q1018=
2026-06-21 22:00:00<>METAR SBGL 212200Z 35006KT 9999 BKN020 OVC035 21/18 Q1018=
2026-06-21 23:00:00<>METAR SBGL 212300Z 36005KT 330V030 9999 BKN025 OVC035 21/18 Q1018=
2026-06-22 00:00:00<>METAR SBGL 220000Z 02003KT 9999 BKN020 OVC033 21/18 Q1018=
2026-06-22 01:00:00<>METAR SBGL 220100Z 04003KT 010V080 9999 BKN020 OVC033 21/18 Q1018=
2026-06-22 02:00:00<>METAR SBGL 220200Z 07004KT 9999 BKN033 20/18 Q1018=
2026-06-22 03:00:00<>METAR SBGL 220300Z 06003KT 9999 BKN033 20/18 Q1018=
2026-06-22 04:00:00<>METAR SBGL 220400Z 05002KT 9999 BKN033 20/18 Q1018=
2026-06-22 05:00:00<>METAR SBGL 220500Z VRB02KT 9999 BKN033 20/18 Q1018=
2026-06-22 06:00:00<>METAR SBGL 220600Z 08003KT 9999 BKN033 20/18 Q1017=
2026-06-22 07:00:00<>METAR SBGL 220700Z 08002KT 9999 BKN033 20/18 Q1017=
2026-06-22 08:00:00<>METAR SBGL 220800Z 33003KT 9999 BKN033 20/18 Q1018=
2026-06-22 09:00:00<>METAR SBGL 220900Z 33003KT 9999 BKN025 19/17 Q1018=
2026-06-22 10:00:00<>METAR SBGL 221000Z VRB02KT 9999 FEW008 19/17 Q1019=
2026-06-22 11:00:00<>METAR SBGL 221100Z 00000KT 9999 SCT008 20/18 Q1019=
2026-06-22 12:00:00<>METAR SBGL 221200Z 36003KT 9999 SCT008 21/18 Q1020=
2026-06-22 13:00:00<>METAR SBGL 221300Z 35005KT 9999 FEW020 22/18 Q1019=
2026-06-22 14:00:00<>METAR SBGL 221400Z 35004KT 9999 FEW020 23/17 Q1018=
2026-06-22 15:00:00<>METAR SBGL 221500Z 34003KT 9999 FEW020 25/17 Q1017=
2026-06-22 16:00:00<>METAR SBGL 221600Z 04004KT CAVOK 26/18 Q1015=
2026-06-22 17:00:00<>METAR SBGL 221700Z 12005KT CAVOK 26/17 Q1014=
2026-06-22 18:00:00<>METAR SBGL 221800Z 04007KT CAVOK 26/18 Q1013=
2026-06-22 19:00:00<>METAR SBGL 221900Z 04004KT CAVOK 26/19 Q1013=
2026-06-22 20:00:00<>METAR SBGL 222000Z 11003KT CAVOK 25/19 Q1013=
2026-06-22 21:00:00<>METAR SBGL 222100Z 13004KT CAVOK 22/19 Q1013=
2026-06-22 22:00:00<>METAR SBGL 222200Z 07002KT CAVOK 22/19 Q1013=
2026-06-22 23:00:00<>METAR SBGL 222300Z 25002KT CAVOK 21/19 Q1014=
2026-06-23 00:00:00<>METAR SBGL 230000Z 02003KT CAVOK 20/18 Q1014=
2026-06-23 01:00:00<>METAR SBGL 230100Z 06004KT 7000 NSC 21/19 Q1014=
2026-06-23 02:00:00<>METAR SBGL 230200Z 08002KT 7000 NSC 20/19 Q1014=
2026-06-23 03:00:00<>METAR SBGL 230300Z 07003KT 7000 NSC 19/18 Q1014=
2026-06-23 04:00:00<>METAR SBGL 230400Z 12003KT 7000 NSC 19/18 Q1013=
2026-06-23 05:00:00<>METAR SBGL 230500Z 07002KT 7000 NSC 19/18 Q1013=
2026-06-23 06:00:00<>METAR SBGL 230600Z 24003KT 7000 NSC 19/18 Q1012=
2026-06-23 07:00:00<>METAR SBGL 230700Z 27003KT 7000 NSC 18/17 Q1012=
2026-06-23 08:00:00<>METAR SBGL 230800Z 09002KT 6000 NSC 18/17 Q1012=
2026-06-23 09:00:00<>METAR SBGL 230900Z 00000KT 6000 NSC 18/17 Q1012=
2026-06-23 10:00:00<>METAR SBGL 231000Z 05003KT 6000 NSC 17/16 Q1013=
2026-06-23 10:26:00<>SPECI SBGL 231026Z 35003KT 350V080 4000 BR NSC 19/18 Q1013=
2026-06-23 11:00:00<>METAR SBGL 231100Z VRB01KT 4000 BR NSC 21/19 Q1013=
2026-06-23 12:00:00<>METAR SBGL 231200Z VRB01KT 4000 HZ NSC 24/19 Q1014=
2026-06-23 12:20:00<>SPECI SBGL 231220Z 30003KT 5000 HZ NSC 25/19 Q1014=
2026-06-23 13:00:00<>METAR SBGL 231300Z 23004KT 300V060 7000 NSC 26/20 Q1013=
2026-06-23 14:00:00<>METAR SBGL 231400Z 33004KT CAVOK 27/18 Q1013=
2026-06-23 15:00:00<>METAR SBGL 231500Z 32005KT CAVOK 29/18 Q1012=
2026-06-23 16:00:00<>METAR SBGL 231600Z 27010KT CAVOK 32/15 Q1012=
2026-06-23 17:00:00<>METAR SBGL 231700Z 25011KT 210V270 CAVOK 32/15 Q1011=
2026-06-23 18:00:00<>METAR SBGL 231800Z 21015KT CAVOK 27/19 Q1012=
2026-06-23 19:00:00<>METAR SBGL 231900Z 22014KT CAVOK 26/19 Q1013=
2026-06-23 20:00:00<>METAR SBGL 232000Z 24009KT CAVOK 24/19 Q1013=
2026-06-23 21:00:00<>METAR SBGL 232100Z 23008KT CAVOK 23/18 Q1014=
2026-06-23 22:00:00<>METAR SBGL 232200Z 23006KT CAVOK 23/19 Q1014=
2026-06-23 23:00:00<>METAR SBGL 232300Z 08003KT 040V120 9999 BKN025 23/18 Q1015=
2026-06-24 00:00:00<>METAR SBGL 240000Z VRB02KT 9999 BKN025 23/19 Q1016=
2026-06-24 01:00:00<>METAR SBGL 240100Z 26005KT 9999 BKN030 23/19 Q1016=
2026-06-24 02:00:00<>METAR SBGL 240200Z 28003KT 240V320 9999 BKN030 23/18 Q1016=
2026-06-24 03:00:00<>METAR SBGL 240300Z 34005KT 320V020 8000 SCT017 BKN030 OVC045 22/19 Q1016=
2026-06-24 04:00:00<>METAR SBGL 240400Z 33005KT 8000 BKN017 OVC045 22/19 Q1016=
2026-06-24 05:00:00<>METAR SBGL 240500Z 29006KT 9000 FEW013 OVC020 22/19 Q1016=
2026-06-24 06:00:00<>METAR SBGL 240600Z 26006KT 9000 SCT007 OVC013 21/20 Q1016=
2026-06-24 07:00:00<>METAR SBGL 240700Z 30003KT 8000 FEW018 BKN027 OVC035 21/20 Q1015=
2026-06-24 08:00:00<>METAR SBGL 240800Z 33006KT 9000 FEW018 BKN027 OVC035 21/20 Q1015=
2026-06-24 09:00:00<>METAR SBGL 240900Z 30004KT 270V340 9000 FEW018 BKN027 OVC050 21/20 Q1015=
2026-06-24 10:00:00<>METAR SBGL 241000Z VRB02KT 8000 FEW018 BKN027 OVC050 21/20 Q1015=
2026-06-24 11:00:00<>METAR SBGL 241100Z 27006KT 8000 SCT006 BKN027 BKN050 21/20 Q1016=
2026-06-24 12:00:00<>METAR SBGL 241200Z 26010KT 9000 SCT006 BKN019 BKN090 22/20 Q1016=
2026-06-24 12:39:00<>SPECI SBGL 241239Z 25009KT 9000 BKN010 BKN019 BKN090 22/20 Q1016=
2026-06-24 13:00:00<>METAR SBGL 241300Z 25011KT 9000 BKN010 BKN017 BKN090 22/19 Q1016=
2026-06-24 14:00:00<>METAR SBGL 241400Z 26013KT 9999 SCT010 BKN017 BKN090 23/19 Q1016=
2026-06-24 15:00:00<>METAR SBGL 241500Z 26013KT 9999 SCT010 BKN020 BKN090 23/18 Q1015=
2026-06-24 16:00:00<>METAR SBGL 241600Z 25014KT 9999 SCT013 BKN020 BKN090 22/18 Q1015=
2026-06-24 17:00:00<>METAR SBGL 241700Z 25011KT 9000 -RA BKN015 BKN090 22/18 Q1015=
2026-06-24 17:11:00<>SPECI SBGL 241711Z 25011KT 220V280 3000 -RA BKN012 BKN090 21/19 Q1015=
2026-06-24 18:00:00<>METAR SBGL 241800Z 24010KT 2500 RA BKN010 OVC090 20/18 Q1015=
2026-06-24 19:00:00<>METAR SBGL 241900Z 24007KT 3000 RA BKN010 OVC080 20/19 Q1016=
2026-06-24 20:00:00<>METAR SBGL 242000Z 04006KT 5000 -RA SCT011 OVC070 20/18 Q1016 RERA=
2026-06-24 21:00:00<>METAR SBGL 242100Z 01004KT 5000 -RA SCT005 BKN012 OVC070 20/19 Q1017=
2026-06-24 22:00:00<>METAR SBGL 242200Z 11004KT 8000 -RA FEW005 SCT012 BKN070 20/19 Q1017=
2026-06-24 23:00:00<>METAR SBGL 242300Z 19003KT 130V210 8000 -RA BKN006 BKN066 OVC100 20/19 Q1018=
2026-06-25 00:00:00<>METAR SBGL 250000Z 12003KT 050V210 9000 -RA SCT006 BKN066 BKN100 20/19 Q1018=
2026-06-25 01:00:00<>METAR SBGL 250100Z 27007KT 240V310 9000 BKN008 BKN066 BKN100 20/19 Q1019=
2026-06-25 02:00:00<>METAR SBGL 250200Z 25007KT 9000 -RA BKN008 BKN025 BKN040 19/18 Q1019=
2026-06-25 03:00:00<>METAR SBGL 250300Z 27009KT 8000 -DZRA BKN009 BKN017 BKN040 19/18 Q1020=
2026-06-25 04:00:00<>METAR SBGL 250400Z 25010KT 9000 -DZRA BKN009 BKN025 BKN040 19/18 Q1020=
2026-06-25 05:00:00<>METAR SBGL 250500Z 24007KT 9999 SCT009 BKN020 OVC040 19/17 Q1020=
2026-06-25 06:00:00<>METAR SBGL 250600Z 26005KT 7000 3000SE -DZ SCT009 BKN015 OVC033 19/17 Q1020=
2026-06-25 06:11:00<>SPECI SBGL 250611Z 27004KT 7000 3000SE -DZ SCT009 BKN013 OVC030 19/17 Q1020=
2026-06-25 07:00:00<>METAR SBGL 250700Z 29004KT 270V330 7000 -DZRA FEW009 BKN013 BKN020 19/17 Q1020=
2026-06-25 07:33:00<>SPECI SBGL 250733Z 28004KT 4500 -DZRA BR BKN006 BKN020 OVC030 19/18 Q1020=
2026-06-25 08:00:00<>METAR SBGL 250800Z 31004KT 260V340 7000 -DZRA FEW004 BKN006 BKN020 19/17 Q1020=
2026-06-25 09:00:00<>METAR SBGL 250900Z 27005KT 7000 3000SW -DZ FEW004 BKN006 BKN018 19/17 Q1021=
2026-06-25 10:00:00<>METAR SBGL 251000Z 30003KT 8000 -DZRA BKN006 BKN020 OVC030 19/18 Q1022=
2026-06-25 11:00:00<>METAR SBGL 251100Z 32003KT 6000 BKN006 BKN020 OVC030 19/18 Q1023=
2026-06-25 12:00:00<>METAR SBGL 251200Z 24004KT 3000 -RA BR BKN005 BKN020 OVC030 19/18 Q1024=
2026-06-25 13:00:00<>METAR SBGL 251300Z VRB03KT 3000 -RA BR FEW003 BKN005 BKN020 20/18 Q1025=
2026-06-25 14:00:00<>METAR SBGL 251400Z VRB02KT 2100 -RA BR FEW003 BKN005 OVC020 19/18 Q1025=
2026-06-25 15:00:00<>METAR SBGL 251500Z 13002KT 3000 -RA BR SCT003 BKN006 OVC020 20/18 Q1024=
2026-06-25 16:00:00<>METAR SBGL 251600Z 18003KT 3000 -RA BR SCT003 BKN005 OVC020 19/18 Q1024=
2026-06-25 17:00:00<>METAR SBGL 251700Z 13006KT 3500 -RA BR SCT004 BKN007 OVC020 20/18 Q1023=
2026-06-25 18:00:00<>METAR SBGL 251800Z 13005KT 3000 -RA BR SCT004 BKN007 OVC020 20/19 Q1023=
2026-06-25 19:00:00<>METAR SBGL 251900Z 15004KT 120V180 3000 BR SCT004 BKN007 OVC025 19/18 Q1024=
2026-06-25 20:00:00<>METAR SBGL 252000Z 14004KT 3000 -RA BR SCT004 BKN014 OVC020 19/18 Q1024=
2026-06-25 21:00:00<>METAR SBGL 252100Z 16005KT 130V190 3000 -RA BR SCT004 BKN011 OVC020 20/18 Q1024=
2026-06-25 22:00:00<>METAR SBGL 252200Z 15004KT 3000 -RA BR SCT004 BKN011 OVC020 19/18 Q1025=
2026-06-25 23:00:00<>METAR SBGL 252300Z 16004KT 3000 -RA BR SCT004 BKN011 OVC020 19/18 Q1025=
2026-06-25 23:36:00<>SPECI SBGL 252336Z 19005KT 1500 R10/2000U R28/2000U R15/2000U R33/2000U -RA BR BKN004 OVC011 19/18 Q1025=
2026-06-26 00:00:00<>METAR COR SBGL 260000Z 19005KT 1500 R10/2000U R33/2000U R15/2000U R28/2000U -RA BR BKN004 OVC011 19/18 Q1025=
2026-06-26 01:00:00<>METAR SBGL 260100Z 23003KT 1500 R10/2000U R28/2000U R15/2000U R33/2000U -RA BR BKN004 OVC011 19/18 Q1025=
2026-06-26 02:00:00<>METAR SBGL 260200Z 26004KT 1500 R10/2000U R28/2000U R15/2000U R33/2000U -RA BR OVC005 19/18 Q1025=
2026-06-26 03:00:00<>METAR SBGL 260300Z 26005KT 1500 R10/2000U R28/2000U R15/2000U R33/2000U -RA BR OVC005 19/18 Q1025=
2026-06-26 04:00:00<>METAR SBGL 260400Z 26005KT 2000 -RA BR OVC005 19/18 Q1025=
2026-06-26 05:00:00<>METAR SBGL 260500Z 30005KT 3000 -RA BR OVC005 19/18 Q1025=
2026-06-26 06:00:00<>METAR SBGL 260600Z 31006KT 2000 -RA BR OVC005 19/18 Q1024=
2026-06-26 07:00:00<>METAR SBGL 260700Z 31006KT 6000 -RA FEW005 BKN030 OVC040 19/18 Q1024=
2026-06-26 08:00:00<>METAR SBGL 260800Z 18002KT 8000 FEW009 BKN030 OVC040 19/18 Q1024=
2026-06-26 09:00:00<>METAR SBGL 260900Z 10003KT 8000 FEW040 BKN080 19/18 Q1023=
2026-06-26 10:00:00<>METAR SBGL 261000Z 12004KT 8000 FEW040 BKN080 19/18 Q1024=
2026-06-26 10:34:00<>SPECI SBGL 261034Z 09005KT 3500 -RA BR BKN006 OVC040 19/18 Q1024=
2026-06-26 11:00:00<>METAR SBGL 261100Z 08007KT 3500 -RA BR BKN006 OVC035 19/18 Q1024=
2026-06-26 12:00:00<>METAR SBGL 261200Z 06007KT 9000 FEW006 SCT008 BKN040 20/19 Q1024=
2026-06-26 13:00:00<>METAR SBGL 261300Z 08005KT 9999 FEW008 SCT010 BKN040 20/19 Q1024=
2026-06-26 14:00:00<>METAR SBGL 261400Z 19004KT 9000 FEW008 SCT015 BKN030 21/19 Q1024=
2026-06-26 15:00:00<>METAR SBGL 261500Z 26002KT 9000 FEW008 BKN015 OVC030 22/19 Q1023=
2026-06-26 16:00:00<>METAR SBGL 261600Z 05004KT 9999 FEW008 BKN012 OVC030 22/19 Q1023=
2026-06-26 17:00:00<>METAR SBGL 261700Z VRB02KT 9999 FEW008 BKN015 OVC030 22/19 Q1022=
2026-06-26 18:00:00<>METAR SBGL 261800Z 30003KT 9999 SCT015 BKN030 23/20 Q1022=
2026-06-26 19:00:00<>METAR SBGL 261900Z 01003KT 330V040 9999 SCT015 BKN030 22/20 Q1022=
2026-06-26 20:00:00<>METAR SBGL 262000Z VRB01KT 8000 SCT015 BKN030 22/20 Q1022=
2026-06-26 21:00:00<>METAR SBGL 262100Z 04004KT 8000 SCT020 BKN070 21/19 Q1023=
2026-06-26 22:00:00<>METAR SBGL 262200Z 34003KT 9000 SCT020 BKN070 21/20 Q1023=
2026-06-26 23:00:00<>METAR SBGL 262300Z VRB02KT 7000 SCT020 BKN070 21/20 Q1023=
2026-06-27 00:00:00<>METAR SBGL 270000Z 24003KT 2000 R10/1500N R28/P2000 R15/P2000 R33/P2000 BR BKN017 OVC070 21/20 Q1024=
2026-06-27 01:00:00<>METAR SBGL 270100Z 32003KT 300V010 3000 BR FEW017 BKN025 OVC080 21/19 Q1024=
2026-06-27 02:00:00<>METAR SBGL 270200Z 35003KT 290V030 4000 BR FEW017 BKN025 OVC080 21/19 Q1024=
2026-06-27 03:00:00<>METAR SBGL 270300Z VRB02KT 5000 BR FEW015 BKN080 20/19 Q1024=
2026-06-27 04:00:00<>METAR SBGL 270400Z 33004KT 4000 BR FEW015 BKN080 20/19 Q1023=
2026-06-27 05:00:00<>METAR SBGL 270500Z 32003KT 5000 BR FEW020 BKN080 19/18 Q1023=
2026-06-27 06:00:00<>METAR SBGL 270600Z VRB02KT 2500 BR FEW020 BKN080 19/18 Q1022=
2026-06-27 07:00:00<>METAR SBGL 270700Z 29002KT 0500 R33/1800D R10/1800D R28/1800D R15/1900D FG VV002 19/18 Q1022=
2026-06-27 08:00:00<>METAR SBGL 270800Z VRB02KT 0400 R15/0300N R33/0350N R10/0650D R28/0900N FG VV002 20/19 Q1023=
2026-06-27 09:00:00<>METAR COR SBGL 270900Z VRB02KT 0500 R10/0400N R15/0400N R28/0500N R33/0500N FG VV002 19/19 Q1023=
2026-06-27 10:00:00<>METAR SBGL 271000Z VRB02KT 0500 FG VV002 19/18 Q1023=
2026-06-27 11:00:00<>METAR SBGL 271100Z 15002KT 0500 R28/0250D R33/0350N R10/0350N R15/0375N FG VV003 19/19 Q1024=
2026-06-27 12:00:00<>METAR SBGL 271200Z 29002KT 1500 R10/1200D R28/1200N R33/1200D BR FEW002 BKN004 BKN080 20/19 Q1024=
2026-06-27 13:00:00<>METAR SBGL 271300Z 32003KT 3000 BR FEW003 SCT004 BKN080 21/20 Q1024=
2026-06-27 14:00:00<>METAR SBGL 271400Z 35003KT 6000 FEW003 SCT004 23/20 Q1024=
2026-06-27 15:00:00<>METAR SBGL 271500Z 01005KT 7000 SCT017 24/19 Q1023=
2026-06-27 16:00:00<>METAR SBGL 271600Z 36006KT 9000 SCT017 25/19 Q1022=
2026-06-27 17:00:00<>METAR SBGL 271700Z 01006KT 9000 NSC 25/19 Q1021=
2026-06-27 18:00:00<>METAR SBGL 271800Z 07005KT 9000 NSC 25/19 Q1021=
2026-06-27 19:00:00<>METAR SBGL 271900Z 11007KT 9000 NSC 25/20 Q1020=
2026-06-27 20:00:00<>METAR SBGL 272000Z 10004KT CAVOK 23/20 Q1021=
2026-06-27 21:00:00<>METAR SBGL 272100Z 12006KT CAVOK 22/20 Q1021=
2026-06-27 22:00:00<>METAR SBGL 272200Z 13005KT 9999 SCT030 22/20 Q1022=
2026-06-27 23:00:00<>METAR SBGL 272300Z 14006KT 9999 SCT030 22/20 Q1022=
2026-06-28 00:00:00<>METAR SBGL 280000Z 14005KT 9999 FEW030 22/20 Q1022=
2026-06-28 01:00:00<>METAR SBGL 280100Z 01001KT 9000 FEW020 21/20 Q1022=
2026-06-28 02:00:00<>METAR SBGL 280200Z 22001KT 7000 FEW008 21/19 Q1022=
2026-06-28 03:00:00<>METAR SBGL 280300Z 00000KT 5000 BR FEW008 SCT015 20/19 Q1022=
2026-06-28 04:00:00<>METAR SBGL 280400Z 00000KT 4000 BR FEW008 BKN015 21/20 Q1021=
2026-06-28 05:00:00<>METAR SBGL 280500Z 29002KT 3000 BR FEW008 BKN015 21/20 Q1021=
2026-06-28 06:00:00<>METAR SBGL 280600Z 03002KT 2000 BR FEW008 BKN012 20/19 Q1020=
2026-06-28 07:00:00<>METAR SBGL 280700Z 02002KT 2000 BR SCT007 BKN012 20/19 Q1020=
2026-06-28 08:00:00<>METAR SBGL 280800Z 35002KT 2200 BR SCT005 BKN008 21/20 Q1020=
2026-06-28 09:00:00<>METAR SBGL 280900Z 31003KT 2200 BR SCT005 OVC008 20/19 Q1021=
2026-06-28 10:00:00<>METAR SBGL 281000Z 32001KT 2200 BR SCT005 OVC008 21/20 Q1021=
2026-06-28 11:00:00<>METAR SBGL 281100Z VRB02KT 3000 BR SCT006 OVC008 22/19 Q1022=
2026-06-28 12:00:00<>METAR SBGL 281200Z 36004KT 330V030 3000 BR FEW006 OVC009 22/20 Q1022=
2026-06-28 13:00:00<>METAR SBGL 281300Z 02003KT 320V080 3000 BR FEW006 OVC009 22/20 Q1022=
2026-06-28 14:00:00<>METAR SBGL 281400Z 34005KT 310V020 4000 HZ SCT009 24/19 Q1021=
2026-06-28 15:00:00<>METAR SBGL 281500Z 34004KT 300V050 6000 FEW010 25/20 Q1020=
2026-06-28 16:00:00<>METAR SBGL 281600Z 02003KT 9000 NSC 27/21 Q1019=
2026-06-28 17:00:00<>METAR SBGL 281700Z 02004KT 330V070 9999 FEW020 27/21 Q1018=
2026-06-28 18:00:00<>METAR SBGL 281800Z 11007KT 9999 FEW020 28/18 Q1017=
2026-06-28 19:00:00<>METAR SBGL 281900Z 13004KT CAVOK 27/19 Q1017=
2026-06-28 20:00:00<>METAR SBGL 282000Z 15006KT CAVOK 25/20 Q1017=
2026-06-28 21:00:00<>METAR SBGL 282100Z 12005KT CAVOK 24/20 Q1017=
2026-06-28 22:00:00<>METAR SBGL 282200Z 16006KT 9000 NSC 23/19 Q1017=
2026-06-28 23:00:00<>METAR SBGL 282300Z 11006KT 9000 NSC 23/20 Q1017=
2026-06-29 00:00:00<>METAR SBGL 290000Z 11003KT 9000 NSC 22/19 Q1018=
2026-06-29 01:00:00<>METAR SBGL 290100Z 13004KT 9000 NSC 21/19 Q1018=
2026-06-29 02:00:00<>METAR SBGL 290200Z VRB02KT 9000 NSC 21/19 Q1018=
2026-06-29 03:00:00<>METAR SBGL 290300Z 08003KT 9000 NSC 20/18 Q1018=
2026-06-29 04:00:00<>METAR SBGL 290400Z 00000KT 9000 NSC 20/18 Q1017=
2026-06-29 05:00:00<>METAR SBGL 290500Z 21002KT 8000 NSC 19/17 Q1017=
2026-06-29 06:00:00<>METAR SBGL 290600Z 19003KT 8000 NSC 19/17 Q1017=
2026-06-29 07:00:00<>METAR SBGL 290700Z 24003KT 8000 NSC 19/18 Q1017=
2026-06-29 08:00:00<>METAR SBGL 290800Z 24004KT 8000 NSC 18/17 Q1017=
2026-06-29 09:00:00<>METAR SBGL 290900Z VRB01KT CAVOK 18/17 Q1017=
2026-06-29 10:00:00<>METAR SBGL 291000Z 08003KT CAVOK 18/16 Q1018=
2026-06-29 11:00:00<>METAR SBGL 291100Z 18003KT CAVOK 22/20 Q1019=
2026-06-29 12:00:00<>METAR SBGL 291200Z 35004KT CAVOK 23/20 Q1019=
2026-06-29 13:00:00<>METAR SBGL 291300Z VRB02KT CAVOK 26/18 Q1019=
2026-06-29 14:00:00<>METAR SBGL 291400Z 36003KT CAVOK 28/17 Q1019=
2026-06-29 15:00:00<>METAR SBGL 291500Z 06003KT 310V110 CAVOK 29/18 Q1018=
2026-06-29 16:00:00<>METAR SBGL 291600Z 35003KT CAVOK 30/17 Q1017=
2026-06-29 17:00:00<>METAR SBGL 291700Z 04007KT CAVOK 30/17 Q1016=
2026-06-29 18:00:00<>METAR SBGL 291800Z 11005KT CAVOK 30/17 Q1015=
2026-06-29 19:00:00<>METAR SBGL 291900Z 22011KT CAVOK 26/19 Q1017=
2026-06-29 20:00:00<>METAR SBGL 292000Z 25010KT CAVOK 24/19 Q1017=
2026-06-29 21:00:00<>METAR SBGL 292100Z 29007KT CAVOK 23/19 Q1018=
2026-06-29 22:00:00<>METAR SBGL 292200Z 23003KT CAVOK 22/19 Q1019=
2026-06-29 23:00:00<>METAR SBGL 292300Z 20006KT 9999 FEW013 22/19 Q1020=
2026-06-30 00:00:00<>METAR SBGL 300000Z 30004KT 9999 FEW012 SCT019 BKN025 22/19 Q1020=
2026-06-30 01:00:00<>METAR SBGL 300100Z 25006KT 9999 FEW012 BKN025 22/19 Q1020=
2026-06-30 02:00:00<>METAR SBGL 300200Z 25007KT 9999 FEW012 BKN025 22/19 Q1020=
2026-06-30 03:00:00<>METAR SBGL 300300Z VRB02KT 9999 FEW012 OVC025 22/19 Q1019=
2026-06-30 04:00:00<>METAR SBGL 300400Z 30003KT 8000 FEW015 BKN030 22/19 Q1019=
2026-06-30 05:00:00<>METAR SBGL 300500Z 31003KT 270V020 7000 FEW015 SCT025 21/19 Q1019=
2026-06-30 06:00:00<>METAR SBGL 300600Z 33004KT 6000 FEW015 21/19 Q1018=
2026-06-30 07:00:00<>METAR SBGL 300700Z 28003KT 6000 FEW015 20/19 Q1018=
2026-06-30 08:00:00<>METAR SBGL 300800Z 32004KT 290V020 6000 FEW015 20/19 Q1018=
2026-06-30 09:00:00<>METAR SBGL 300900Z 10003KT 080V140 5000 BR FEW007 19/18 Q1018=
2026-06-30 10:00:00<>METAR SBGL 301000Z 13004KT 5000 BR FEW007 19/18 Q1019=
2026-06-30 10:31:00<>SPECI SBGL 301031Z 17002KT 4000 BR SCT009 21/19 Q1019=
2026-06-30 11:00:00<>METAR SBGL 301100Z 14003KT 4000 BR SCT007 22/20 Q1019=
2026-06-30 12:00:00<>METAR SBGL 301200Z 01004KT 5000 BR BKN010 22/19 Q1019=
2026-06-30 13:00:00<>METAR SBGL 301300Z 13003KT 9000 FEW013 24/20 Q1020=
2026-06-30 14:00:00<>METAR SBGL 301400Z 09003KT 9000 NSC 26/19 Q1019=
2026-06-30 15:00:00<>METAR SBGL 301500Z 08003KT 9000 NSC 26/19 Q1019=
2026-06-30 16:00:00<>METAR SBGL 301600Z 36006KT 9000 NSC 27/19 Q1017=
2026-06-30 17:00:00<>METAR SBGL 301700Z 35006KT 8000 NSC 27/20 Q1016=
2026-06-30 18:00:00<>METAR COR SBGL 301800Z 12005KT CAVOK 24/20 Q1016=
2026-06-30 19:00:00<>METAR SBGL 301900Z 04005KT 8000 NSC 27/20 Q1016=
2026-06-30 20:00:00<>METAR SBGL 302000Z 15005KT 9000 NSC 25/20 Q1016=
2026-06-30 21:00:00<>METAR SBGL 302100Z 12005KT CAVOK 24/20 Q1016=
2026-06-30 22:00:00<>METAR SBGL 302200Z 15006KT CAVOK 23/21 Q1016=
2026-06-30 23:00:00<>METAR SBGL 302300Z 15004KT CAVOK 24/20 Q1017=
2026-07-01 00:00:00<>METAR SBGL 010000Z 16002KT CAVOK 23/21 Q1017=
2026-07-01 01:00:00<>METAR SBGL 010100Z 26006KT CAVOK 22/20 Q1017=
2026-07-01 02:00:00<>METAR SBGL 010200Z 27005KT 7000 NSC 22/20 Q1017=
2026-07-01 03:00:00<>METAR SBGL 010300Z 26008KT 6000 NSC 22/20 Q1017=
2026-07-01 04:00:00<>METAR SBGL 010400Z 02002KT 5000 BR NSC 20/19 Q1017=
2026-07-01 05:00:00<>METAR SBGL 010500Z 06002KT 5000 BR NSC 20/18 Q1016=
2026-07-01 06:00:00<>METAR SBGL 010600Z 06002KT 5000 BR NSC 20/18 Q1016=
2026-07-01 07:00:00<>METAR SBGL 010700Z 06002KT 3000 BR NSC 20/18 Q1016=
2026-07-01 08:00:00<>METAR COR SBGL 010800Z 06002KT 3000 BR NSC 19/18 Q1016=
2026-07-01 09:00:00<>METAR SBGL 010900Z VRB02KT 3000 BR FEW003 19/18 Q1016=
2026-07-01 09:45:00<>SPECI SBGL 010945Z 04003KT 1500 R28/0700D R15/1400N R33/1900D R10/2000U BR FEW002 19/18 Q1017=
2026-07-01 10:00:00<>METAR SBGL 011000Z 06002KT 1500 R10/1200D R28/1400U R15/1700D R33/1900D BR FEW002 19/18 Q1017=
2026-07-01 11:00:00<>METAR SBGL 011100Z 13002KT 3000 BR FEW002 22/21 Q1017=
2026-07-01 12:00:00<>METAR SBGL 011200Z 02004KT 9000 NSC 24/21 Q1018=
2026-07-01 13:00:00<>METAR SBGL 011300Z 01002KT 9000 NSC 25/21 Q1018=
2026-07-01 14:00:00<>METAR SBGL 011400Z 02004KT CAVOK 27/20 Q1018=
2026-07-01 15:00:00<>METAR SBGL 011500Z 04005KT CAVOK 30/20 Q1018=
2026-07-01 16:00:00<>METAR SBGL 011600Z 05003KT CAVOK 31/19 Q1017=
2026-07-01 17:00:00<>METAR SBGL 011700Z 34004KT CAVOK 33/18 Q1017=
2026-07-01 18:00:00<>METAR SBGL 011800Z 12010KT CAVOK 29/19 Q1017=
2026-07-01 19:00:00<>METAR SBGL 011900Z 12010KT CAVOK 28/18 Q1017=
2026-07-01 20:00:00<>METAR SBGL 012000Z 14008KT CAVOK 27/18 Q1017=
2026-07-01 21:00:00<>METAR SBGL 012100Z 14006KT CAVOK 25/19 Q1018=
2026-07-01 22:00:00<>METAR SBGL 012200Z 14005KT CAVOK 24/19 Q1018=
2026-07-01 23:00:00<>METAR SBGL 012300Z VRB02KT CAVOK 24/18 Q1019=
2026-07-02 00:00:00<>METAR SBGL 020000Z VRB02KT CAVOK 22/18 Q1019=
2026-07-02 01:00:00<>METAR SBGL 020100Z 36003KT 310V060 CAVOK 23/20 Q1019=
2026-07-02 02:00:00<>METAR SBGL 020200Z 03002KT CAVOK 22/20 Q1019=
2026-07-02 03:00:00<>METAR SBGL 020300Z VRB02KT CAVOK 21/19 Q1019=
2026-07-02 04:00:00<>METAR SBGL 020400Z VRB02KT CAVOK 20/18 Q1019=
2026-07-02 05:00:00<>METAR SBGL 020500Z VRB02KT CAVOK 20/18 Q1019=
2026-07-02 06:00:00<>METAR SBGL 020600Z 01003KT CAVOK 20/19 Q1019=
2026-07-02 07:00:00<>METAR SBGL 020700Z 07003KT CAVOK 19/18 Q1018=
2026-07-02 08:00:00<>METAR SBGL 020800Z VRB02KT CAVOK 18/17 Q1018=
2026-07-02 09:00:00<>METAR SBGL 020900Z VRB02KT CAVOK 18/17 Q1019=
2026-07-02 10:00:00<>METAR SBGL 021000Z 07002KT 7000 NSC 18/17 Q1019=
2026-07-02 11:00:00<>METAR SBGL 021100Z 30002KT 7000 NSC 22/20 Q1020=
2026-07-02 12:00:00<>METAR SBGL 021200Z 30003KT 240V020 6000 NSC 24/18 Q1020=
2026-07-02 13:00:00<>METAR SBGL 021300Z 35004KT 5000 HZ NSC 26/18 Q1021=
2026-07-02 14:00:00<>METAR SBGL 021400Z 02003KT 7000 NSC 27/20 Q1020=