datetime<>metar
2025-01-01 00:00:00<>METAR SBGL 010000Z 15006KT 110V170 9999 BKN030 BKN040 25/20 Q1013=
2025-01-01 01:00:00<>METAR SBGL 010100Z 14005KT 9999 SCT030 25/21 Q1013=
2025-01-01 02:00:00<>METAR SBGL 010200Z 14004KT 9999 BKN027 25/21 Q1013=
2025-01-01 03:00:00<>METAR SBGL 010300Z 14005KT 9999 BKN026 25/21 Q1013=
2025-01-01 04:00:00<>METAR SBGL 010400Z 13004KT 9999 BKN026 25/21 Q1012=
2025-01-01 05:00:00<>METAR SBGL 010500Z 10006KT 5000 2000SW BR BKN027 25/21 Q1012=
2025-01-01 06:00:00<>METAR SBGL 010600Z 12004KT 8000 BKN023 24/21 Q1011=
2025-01-01 07:00:00<>METAR SBGL 010700Z 13004KT 110V170 9999 SCT018 BKN030 24/21 Q1011=
2025-01-01 08:00:00<>METAR SBGL 010800Z 11004KT 9999 FEW018 24/21 Q1011=
2025-01-01 09:00:00<>METAR SBGL 010900Z 09003KT 060V130 CAVOK 24/20 Q1012=
2025-01-01 10:00:00<>METAR SBGL 011000Z VRB02KT 9999 FEW030 25/21 Q1013=
2025-01-01 11:00:00<>METAR SBGL 011100Z VRB02KT 9999 FEW020 27/21 Q1013=
2025-01-01 12:00:00<>METAR SBGL 011200Z 36005KT 330V040 9999 FEW025 27/21 Q1013=
2025-01-01 13:00:00<>METAR SBGL 011300Z 35005KT 310V040 9999 FEW020 28/22 Q1013=
2025-01-01 14:00:00<>METAR SBGL 011400Z 13006KT 070V170 9999 FEW020 30/21 Q1012=
2025-01-01 15:00:00<>METAR SBGL 011500Z 10007KT 060V150 9999 FEW030 31/23 Q1012=
2025-01-01 16:00:00<>METAR SBGL 011600Z 12011KT 9999 FEW025 FEW030TCU 30/23 Q1012=
2025-01-01 17:00:00<>METAR SBGL 011700Z 12014KT 9999 FEW025 FEW030TCU 28/22 Q1011=
2025-01-01 18:00:00<>METAR SBGL 011800Z 12013KT 9999 VCTS FEW015 FEW030CB BKN050 28/22 Q1011=
2025-01-01 19:00:00<>METAR SBGL 011900Z 13011KT 9999 VCTS FEW015 FEW030CB BKN040 27/23 Q1012=
2025-01-01 20:00:00<>METAR SBGL 012000Z 02004KT 9000 VCSH VCTS FEW015 FEW030CB BKN050 25/22 Q1011=
2025-01-01 21:00:00<>METAR SBGL 012100Z 09006KT 9999 FEW020 SCT030 BKN050 24/22 Q1011 RETS=
2025-01-01 22:00:00<>METAR SBGL 012200Z 11004KT 9999 FEW020 BKN050 24/20 Q1011=
2025-01-01 23:00:00<>METAR SBGL 012300Z 07006KT 9999 SCT015 BKN018 BKN040 24/20 Q1012=
2025-01-02 00:00:00<>METAR SBGL 020000Z 06004KT 9999 SCT015 BKN040 24/20 Q1013=
2025-01-02 01:00:00<>METAR SBGL 020100Z VRB02KT 9999 SCT015 BKN040 24/20 Q1013=
2025-01-02 02:00:00<>METAR SBGL 020200Z 36003KT 9999 SCT015 BKN040 24/21 Q1013=
2025-01-02 03:00:00<>METAR SBGL 020300Z 02002KT 9999 FEW016 BKN040 23/21 Q1013=
2025-01-02 04:00:00<>METAR SBGL 020400Z 07002KT 9999 FEW016 BKN040 23/21 Q1012=
2025-01-02 05:00:00<>METAR SBGL 020500Z 32004KT 9999 FEW016 BKN040 23/21 Q1011=
2025-01-02 06:00:00<>METAR SBGL 020600Z 31004KT 9999 FEW006 SCT012 23/21 Q1010=
2025-01-02 07:00:00<>METAR SBGL 020700Z 31004KT 9999 FEW006 SCT012 23/21 Q1010=
2025-01-02 08:00:00<>METAR SBGL 020800Z 08002KT 9999 FEW007 22/20 Q1010=
2025-01-02 09:00:00<>METAR SBGL 020900Z VRB02KT 8000 FEW006 23/21 Q1011=
2025-01-02 10:00:00<>METAR SBGL 021000Z 06004KT 8000 FEW007 25/22 Q1011=
2025-01-02 11:00:00<>METAR SBGL 021100Z 04004KT 9999 FEW010 26/22 Q1011=
2025-01-02 12:00:00<>METAR SBGL 021200Z 02008KT CAVOK 27/22 Q1012=
2025-01-02 13:00:00<>METAR SBGL 021300Z 04004KT CAVOK 29/20 Q1011=
2025-01-02 14:00:00<>METAR SBGL 021400Z 12005KT CAVOK 31/20 Q1010=
2025-01-02 15:00:00<>METAR SBGL 021500Z 15007KT CAVOK 31/21 Q1009=
2025-01-02 16:00:00<>METAR SBGL 021600Z 14005KT CAVOK 32/21 Q1009=
2025-01-02 17:00:00<>METAR COR SBGL 021700Z 12010KT 9999 FEW030 32/22 Q1008=
2025-01-02 18:00:00<>METAR SBGL 021800Z 13012KT 9999 FEW030 31/22 Q1007=
2025-01-02 19:00:00<>METAR SBGL 021900Z 14015KT 9999 FEW030 FEW030TCU 31/21 Q1006=
2025-01-02 20:00:00<>METAR SBGL 022000Z 14013KT 9999 VCSH SCT025 FEW030TCU 29/21 Q1007=
2025-01-02 21:00:00<>METAR SBGL 022100Z 19006KT 9999 TS VCSH SCT025 FEW030CB BKN050 29/20 Q1008=
2025-01-02 22:00:00<>METAR SBGL 022200Z 03008KT 9999 TS VCSH FEW016 SCT025 FEW030CB BKN050 25/20 Q1008=
2025-01-02 23:00:00<>METAR SBGL 022300Z 26003KT 9999 FEW015 SCT025 BKN100 25/21 Q1009 RETS=
2025-01-03 00:00:00<>METAR SBGL 030000Z 30009KT 9999 VCTS FEW015 FEW030CB BKN100 27/20 Q1010=
2025-01-03 01:00:00<>METAR SBGL 030100Z 33010KT 5000 -RA BR VCTS FEW015 FEW030CB BKN100 25/22 Q1011=
2025-01-03 02:00:00<>METAR COR SBGL 030200Z VRB02KT 8000 FEW020 BKN100 24/22 Q1010 RETS=
2025-01-03 03:00:00<>METAR SBGL 030300Z 03004KT 8000 FEW009 BKN100 24/22 Q1009=
2025-01-03 04:00:00<>METAR SBGL 030400Z 15005KT 9000 FEW015 BKN100 24/22 Q1009=
2025-01-03 05:00:00<>METAR SBGL 030500Z 21005KT 180V270 9000 SCT015 BKN100 25/22 Q1009=
2025-01-03 06:00:00<>METAR SBGL 030600Z 26010KT 9000 SCT015 BKN100 25/22 Q1008=
2025-01-03 07:00:00<>METAR SBGL 030700Z 33007KT 9000 FEW015 BKN100 24/22 Q1008=
2025-01-03 08:00:00<>METAR SBGL 030800Z 33005KT 9999 FEW020 BKN100 24/21 Q1007=
2025-01-03 09:00:00<>METAR SBGL 030900Z 27005KT 9999 FEW020 BKN100 24/21 Q1007=
2025-01-03 10:00:00<>METAR SBGL 031000Z 32003KT 9999 FEW020 SCT100 25/21 Q1007=
2025-01-03 11:00:00<>METAR SBGL 031100Z VRB02KT 9999 FEW020 BKN100 26/21 Q1008=
2025-01-03 12:00:00<>METAR SBGL 031200Z 06004KT 9999 FEW020 BKN100 27/22 Q1008=
2025-01-03 13:00:00<>METAR SBGL 031300Z 04004KT CAVOK 28/23 Q1008=
2025-01-03 14:00:00<>METAR SBGL 031400Z 01003KT CAVOK 31/22 Q1007=
2025-01-03 15:00:00<>METAR SBGL 031500Z 34005KT CAVOK 32/22 Q1007=
2025-01-03 16:00:00<>METAR SBGL 031600Z 30010KT CAVOK 35/21 Q1006=
2025-01-03 17:00:00<>METAR SBGL 031700Z 17010KT CAVOK 34/22 Q1005=
2025-01-03 18:00:00<>METAR SBGL 031800Z 12014KT CAVOK 28/21 Q1005=
2025-01-03 19:00:00<>METAR SBGL 031900Z 12011KT CAVOK 29/20 Q1005=
2025-01-03 20:00:00<>METAR SBGL 032000Z 12007KT CAVOK 28/21 Q1006=
2025-01-03 21:00:00<>METAR SBGL 032100Z 13004KT CAVOK 28/21 Q1005=
2025-01-03 22:00:00<>METAR SBGL 032200Z 07006KT CAVOK 27/21 Q1005=
2025-01-03 23:00:00<>METAR SBGL 032300Z 07004KT 9999 FEW030 BKN100 27/21 Q1006=
2025-01-04 00:00:00<>METAR SBGL 040000Z 35004KT 9999 FEW030 BKN100 28/22 Q1007=
2025-01-04 01:00:00<>METAR SBGL 040100Z 29002KT 9999 FEW030 BKN100 27/22 Q1007=
2025-01-04 02:00:00<>METAR SBGL 040200Z 27003KT 9999 FEW030 BKN100 29/21 Q1007=
2025-01-04 03:00:00<>METAR SBGL 040300Z 06003KT CAVOK 26/21 Q1007=
2025-01-04 04:00:00<>METAR SBGL 040400Z 32003KT CAVOK 26/22 Q1006=
2025-01-04 05:00:00<>METAR SBGL 040500Z 30004KT CAVOK 26/22 Q1005=
2025-01-04 06:00:00<>METAR SBGL 040600Z 02003KT CAVOK 25/22 Q1005=
2025-01-04 07:00:00<>METAR SBGL 040700Z 01002KT 9999 FEW015 25/22 Q1005=
2025-01-04 08:00:00<>METAR SBGL 040800Z 04003KT 9999 FEW015 25/22 Q1005=
2025-01-04 09:00:00<>METAR SBGL 040900Z 01004KT 9999 FEW015 SCT100 25/22 Q1006=
2025-01-04 10:00:00<>METAR SBGL 041000Z 35002KT 9999 FEW015 SCT100 27/22 Q1007=
2025-01-04 11:00:00<>METAR SBGL 041100Z 30009KT 9999 FEW020 31/20 Q1007=
2025-01-04 12:00:00<>METAR SBGL 041200Z 30010KT 9999 FEW026 31/20 Q1008=
2025-01-04 13:00:00<>METAR SBGL 041300Z 31012KT 9999 FEW033 33/21 Q1007=
2025-01-04 14:00:00<>METAR SBGL 041400Z 30010KT 9999 FEW033 SCT100 34/21 Q1007=
2025-01-04 15:00:00<>METAR SBGL 041500Z 30012KT 9999 FEW033 SCT100 34/19 Q1006=
2025-01-04 16:00:00<>METAR SBGL 041600Z 32010KT 9999 FEW033 BKN100 34/20 Q1006=
2025-01-04 17:00:00<>METAR SBGL 041700Z 15008KT 9999 SCT040 FEW050TCU BKN070 32/21 Q1006=
2025-01-04 18:00:00<>METAR SBGL 041800Z 11010KT 9999 SCT040 FEW050TCU SCT070 33/22 Q1005=
2025-01-04 19:00:00<>METAR SBGL 041900Z 12013KT 9999 SCT040 FEW050TCU SCT070 32/21 Q1005=
2025-01-04 20:00:00<>METAR SBGL 042000Z 13012KT 9999 BKN040 FEW050TCU BKN100 29/21 Q1006=
2025-01-04 21:00:00<>METAR SBGL 042100Z 07012KT 9999 SCT040 FEW050TCU BKN100 27/22 Q1006=
2025-01-04 22:00:00<>METAR SBGL 042200Z 14006KT 9999 SCT040 BKN100 27/21 Q1006=
2025-01-04 23:00:00<>METAR SBGL 042300Z 18004KT 9999 SCT040 BKN100 27/22 Q1007=
2025-01-05 00:00:00<>METAR SBGL 050000Z 14005KT 9999 SCT040 BKN100 27/21 Q1008=
2025-01-05 01:00:00<>METAR SBGL 050100Z 06006KT 9999 SCT040 BKN100 26/23 Q1008=
2025-01-05 02:00:00<>METAR SBGL 050200Z 01003KT 9999 SCT040 BKN100 26/23 Q1008=
2025-01-05 03:00:00<>METAR SBGL 050300Z 30004KT 9999 SCT040 BKN100 26/22 Q1008=
2025-01-05 04:00:00<>METAR SBGL 050400Z 30003KT 9999 FEW040 BKN100 26/21 Q1007=
2025-01-05 05:00:00<>METAR SBGL 050500Z 31003KT 9999 FEW040 BKN100 26/22 Q1006=
2025-01-05 06:00:00<>METAR SBGL 050600Z 26002KT CAVOK 26/21 Q1006=
2025-01-05 07:00:00<>METAR SBGL 050700Z 26004KT CAVOK 26/20 Q1006=
2025-01-05 08:00:00<>METAR SBGL 050800Z 32002KT CAVOK 26/21 Q1008=
2025-01-05 09:00:00<>METAR SBGL 050900Z 25005KT 9999 FEW030 26/21 Q1009=
2025-01-05 10:00:00<>METAR SBGL 051000Z 25008KT 9999 FEW010 27/20 Q1009=
2025-01-05 11:00:00<>METAR SBGL 051100Z 29003KT 250V030 9999 FEW030 29/21 Q1009=
2025-01-05 12:00:00<>METAR SBGL 051200Z 36007KT 330V030 9999 FEW020 BKN035 29/21 Q1009=
2025-01-05 13:00:00<>METAR SBGL 051300Z 13010KT 9999 FEW020 BKN035 27/21 Q1010=
2025-01-05 14:00:00<>METAR SBGL 051400Z 20009KT 9999 SCT030 29/20 Q1010=
2025-01-05 15:00:00<>METAR SBGL 051500Z 12008KT 090V150 9999 FEW025 SCT035 28/22 Q1009=
2025-01-05 16:00:00<>METAR SBGL 051600Z VRB05KT 9999 FEW025 SCT040 30/21 Q1009=
2025-01-05 17:00:00<>METAR SBGL 051700Z 12010KT 9999 FEW030 SCT045 30/21 Q1008=
2025-01-05 18:00:00<>METAR SBGL 051800Z 14010KT 100V200 9999 FEW030 SCT050 31/19 Q1008=
2025-01-05 19:00:00<>METAR SBGL 051900Z 11013KT 9999 FEW030 30/20 Q1008=
2025-01-05 20:00:00<>METAR SBGL 052000Z 11013KT 9999 FEW030 SCT050 28/20 Q1008=
2025-01-05 21:00:00<>METAR SBGL 052100Z 14010KT 9999 FEW025 SCT050 BKN085 27/20 Q1009=
2025-01-05 22:00:00<>METAR SBGL 052200Z 10007KT 9999 FEW025 FEW035TCU SCT065 26/21 Q1010=
2025-01-05 23:00:00<>METAR SBGL 052300Z 11005KT 9999 VCTS FEW025 FEW035CB SCT065 26/20 Q1010=
2025-01-06 00:00:00<>METAR SBGL 060000Z 08010KT 9999 VCTS SCT030 FEW033CB SCT070 26/21 Q1011=
2025-01-06 01:00:00<>METAR SBGL 060100Z 10007KT 9999 SCT030 SCT070 26/21 Q1012=
2025-01-06 02:00:00<>METAR SBGL 060200Z 12004KT 9999 SCT030 SCT070 25/21 Q1011=
2025-01-06 03:00:00<>METAR SBGL 060300Z 05003KT 9999 FEW030 SCT080 25/21 Q1011=
2025-01-06 04:00:00<>METAR SBGL 060400Z 08003KT 9999 FEW030 SCT080 25/21 Q1010=
2025-01-06 05:00:00<>METAR SBGL 060500Z 12003KT 8000 FEW030 SCT080 24/21 Q1010=
2025-01-06 06:00:00<>METAR SBGL 060600Z 21003KT 8000 FEW030 SCT080 24/21 Q1010=
2025-01-06 07:00:00<>METAR SBGL 060700Z 32003KT 8000 FEW030 SCT080 23/21 Q1009=
2025-01-06 08:00:00<>METAR SBGL 060800Z 34004KT 8000 FEW030 SCT080 24/22 Q1009=
2025-01-06 09:00:00<>METAR SBGL 060900Z 01005KT 9999 FEW009 SCT017 24/22 Q1010=
2025-01-06 10:00:00<>METAR SBGL 061000Z 06007KT 9999 FEW009 SCT015 26/23 Q1011=
2025-01-06 11:00:00<>METAR SBGL 061100Z 04006KT 9999 FEW013 27/22 Q1011=
2025-01-06 12:00:00<>METAR SBGL 061200Z 05005KT 9999 FEW023 28/22 Q1011=
2025-01-06 13:00:00<>METAR SBGL 061300Z 14006KT CAVOK 29/20 Q1010=
2025-01-06 14:00:00<>METAR SBGL 061400Z 16007KT 9999 FEW025 29/21 Q1010=
2025-01-06 15:00:00<>METAR SBGL 061500Z 14012KT 9999 FEW025 30/21 Q1009=
2025-01-06 16:00:00<>METAR SBGL 061600Z 14011KT 9999 FEW025 30/20 Q1009=
2025-01-06 17:00:00<>METAR SBGL 061700Z 13012KT 9999 FEW024 30/21 Q1008=
2025-01-06 18:00:00<>METAR SBGL 061800Z 14015KT CAVOK 29/21 Q1008=
2025-01-06 19:00:00<>METAR SBGL 061900Z 14014KT 9999 FEW035TCU 29/21 Q1007=
2025-01-06 20:00:00<>METAR SBGL 062000Z 15011KT 9999 FEW030 29/21 Q1007=
2025-01-06 21:00:00<>METAR SBGL 062100Z 15012KT 9999 FEW030 FEW035TCU 27/18 Q1007=
2025-01-06 22:00:00<>METAR SBGL 062200Z 15009KT 9999 BKN047 FEW048TCU 27/21 Q1008=
2025-01-06 23:00:00<>METAR SBGL 062300Z 15009KT 9999 BKN045 26/22 Q1009=
2025-01-07 00:00:00<>METAR SBGL 070000Z 10010KT 080V150 9999 TS FEW035CB BKN040 26/21 Q1010=
2025-01-07 01:00:00<>METAR SBGL 070100Z 12010KT 090V150 9999 -TSRA FEW023 FEW035CB BKN040 BKN100 26/22 Q1011=
2025-01-07 02:00:00<>METAR SBGL 070200Z 21004KT 9999 SCT018 BKN075 25/22 Q1010 RETS=
2025-01-07 03:00:00<>METAR SBGL 070300Z 31004KT 170V330 9999 SCT025 BKN090 25/22 Q1010=
2025-01-07 03:16:00<>SPECI SBGL 070316Z 27008KT 3000 RA BR SCT011 BKN023 OVC090 24/21 Q1010=
2025-01-07 03:46:00<>SPECI SBGL 070346Z 33003KT 8000 -RA SCT005 BKN045 OVC085 23/22 Q1010 RERA=
2025-01-07 04:00:00<>METAR SBGL 070400Z 31006KT 9999 SCT005 BKN045 OVC095 23/22 Q1010 RERA=
2025-01-07 05:00:00<>METAR SBGL 070500Z 31005KT 9999 FEW007 SCT045 BKN085 23/21 Q1009=
2025-01-07 06:00:00<>METAR SBGL 070600Z 27005KT 9999 FEW007 SCT070 23/21 Q1008=
2025-01-07 07:00:00<>METAR SBGL 070700Z 27005KT 9999 FEW007 SCT070 23/21 Q1008=
2025-01-07 08:00:00<>METAR SBGL 070800Z 31002KT 9999 FEW008 SCT080 24/21 Q1009=
2025-01-07 09:00:00<>METAR SBGL 070900Z 34007KT 9999 FEW008 BKN100 24/22 Q1009=
2025-01-07 10:00:00<>METAR SBGL 071000Z 03004KT 360V060 9999 FEW018 BKN100 24/22 Q1010=
2025-01-07 11:00:00<>METAR SBGL 071100Z 06002KT 8000 SCT012 BKN100 26/22 Q1010=
2025-01-07 12:00:00<>METAR SBGL 071200Z 35004KT 9999 SCT013 BKN100 27/22 Q1010=
2025-01-07 13:00:00<>METAR SBGL 071300Z 02004KT 8000 FEW013 SCT100 28/21 Q1010=
2025-01-07 14:00:00<>METAR SBGL 071400Z 08004KT 8000 FEW015 BKN040 28/22 Q1010=
2025-01-07 15:00:00<>METAR SBGL 071500Z 13006KT 8000 FEW015 BKN040 28/22 Q1010=
2025-01-07 16:00:00<>METAR SBGL 071600Z 12005KT 8000 FEW015 SCT020 BKN040 28/22 Q1010=
2025-01-07 17:00:00<>METAR SBGL 071700Z 12010KT 9999 FEW015 SCT020 BKN050 29/23 Q1009=
2025-01-07 18:00:00<>METAR SBGL 071800Z 12010KT 9999 SCT020 BKN050 28/22 Q1009=
2025-01-07 19:00:00<>METAR SBGL 071900Z 12012KT 9999 SCT020 BKN040 27/22 Q1008=
2025-01-07 20:00:00<>METAR SBGL 072000Z 13012KT 9999 BKN020 OVC040 26/23 Q1008=
2025-01-07 21:00:00<>METAR SBGL 072100Z 14012KT 9999 BKN020 OVC040 26/22 Q1009=
2025-01-07 22:00:00<>METAR SBGL 072200Z 14012KT 9999 BKN020 OVC040 26/22 Q1010=
2025-01-07 23:00:00<>METAR SBGL 072300Z 14008KT 9999 SCT025 OVC048 26/22 Q1011=
2025-01-08 00:00:00<>METAR SBGL 080000Z 14005KT 9999 BKN046 25/22 Q1011=
2025-01-08 01:00:00<>METAR SBGL 080100Z 13004KT 9999 -RA SCT020 BKN052 25/22 Q1011=
2025-01-08 02:00:00<>METAR SBGL 080200Z 08003KT 9999 -RA SCT011 BKN017 BKN034 24/22 Q1012=
2025-01-08 03:00:00<>METAR SBGL 080300Z 30003KT 9999 BKN021 BKN053 24/23 Q1010=
2025-01-08 04:00:00<>METAR SBGL 080400Z 30002KT 9999 BKN038 24/22 Q1010=
2025-01-08 05:00:00<>METAR SBGL 080500Z 31003KT 9999 SCT020 BKN037 25/22 Q1009=
2025-01-08 06:00:00<>METAR SBGL 080600Z 30002KT 9999 SCT012 BKN027 BKN100 24/22 Q1009=
2025-01-08 07:00:00<>METAR SBGL 080700Z 30002KT 9999 SCT011 BKN012 BKN033 25/23 Q1009=
2025-01-08 08:00:00<>METAR SBGL 080800Z 34004KT 9999 3000E SCT008 BKN028 BKN036 25/23 Q1010=
2025-01-08 09:00:00<>METAR SBGL 080900Z 30004KT 9999 SCT006 BKN032 BKN038 25/22 Q1010=
2025-01-08 10:00:00<>METAR SBGL 081000Z 27001KT 9999 FEW008 SCT017 BKN043 25/23 Q1011=
2025-01-08 11:00:00<>METAR SBGL 081100Z 33005KT 9000 SCT011 SCT015 BKN040 26/23 Q1011=
2025-01-08 12:00:00<>METAR SBGL 081200Z 34006KT 9000 SCT013 BKN017 BKN040 26/23 Q1011=
2025-01-08 13:00:00<>METAR SBGL 081300Z 01007KT 9000 SCT013 BKN017 BKN040 27/22 Q1011=
2025-01-08 14:00:00<>METAR SBGL 081400Z 12007KT 9000 SCT017 BKN023 BKN080 28/23 Q1011=
2025-01-08 15:00:00<>METAR SBGL 081500Z 14012KT 9999 SCT023 SCT050 BKN070 29/22 Q1010=
2025-01-08 16:00:00<>METAR SBGL 081600Z 13020KT 9999 SCT036 FEW050TCU BKN070 29/21 Q1010=
2025-01-08 17:00:00<>METAR SBGL 081700Z 15017KT 9999 SCT026 FEW040TCU BKN050 29/22 Q1009=
2025-01-08 18:00:00<>METAR SBGL 081800Z 13015KT 9000 VCSH SCT026 FEW040TCU BKN050 27/22 Q1008=
2025-01-08 19:00:00<>METAR SBGL 081900Z 13019KT 9999 SCT026 FEW040TCU BKN050 27/22 Q1008=
2025-01-08 20:00:00<>METAR SBGL 082000Z 13012KT 9999 SCT026 FEW040TCU BKN050 26/22 Q1009=
2025-01-08 21:00:00<>METAR SBGL 082100Z 14010KT 5000 -RA BKN026 FEW040TCU BKN050 25/22 Q1009=
2025-01-08 21:35:00<>SPECI SBGL 082135Z 12008KT 4000 -RA BR SCT005 BKN007 BKN013 FEW019TCU 25/23 Q1009=
2025-01-08 22:00:00<>METAR SBGL 082200Z 17008KT 1500 R33/P2000 R10/P2000 R28/P2000 R15/P2000 +RA BKN005 BKN007 BKN011 FEW019TCU 25/23 Q1010=
2025-01-08 22:25:00<>SPECI SBGL 082225Z 03011KT 3500 RA BKN008 BKN011 BKN019 24/22 Q1010 RERA=
2025-01-08 23:00:00<>METAR SBGL 082300Z 06008KT 4000 -RA BKN008 BKN011 OVC025 24/22 Q1010 RERA=
2025-01-08 23:15:00<>SPECI SBGL 082315Z 07005KT 6000 -RA SCT008 BKN013 OVC025 24/22 Q1010=
2025-01-09 00:00:00<>METAR SBGL 090000Z 14004KT 7000 -RA SCT009 BKN013 OVC040 24/22 Q1010=
2025-01-09 00:29:00<>SPECI SBGL 090029Z 13004KT 5000 -RA BR BKN004 BKN012 OVC020 24/23 Q1010=
2025-01-09 00:45:00<>SPECI SBGL 090045Z 14005KT 2500 -RA BR BKN004 BKN008 OVC020 24/23 Q1011=
2025-01-09 01:00:00<>METAR SBGL 090100Z 12012KT 2000 -RA BR BKN004 BKN008 OVC020 23/22 Q1011=
2025-01-09 01:28:00<>SPECI SBGL 090128Z 11005KT 3000 -RA BR BKN006 BKN012 OVC020 23/22 Q1011=
2025-01-09 02:00:00<>METAR SBGL 090200Z 13004KT 8000 -RA FEW009 SCT015 BKN050 23/22 Q1010=
2025-01-09 02:45:00<>SPECI SBGL 090245Z 19005KT 3000 -RA BR SCT009 BKN015 OVC040 23/22 Q1010=
2025-01-09 03:00:00<>METAR SBGL 090300Z 18005KT 2500 RA BR BKN009 BKN015 OVC040 23/22 Q1010=
2025-01-09 03:25:00<>SPECI SBGL 090325Z 15005KT 4000 -RA BR SCT009 BKN015 OVC050 23/22 Q1010 RERA=
2025-01-09 04:00:00<>METAR SBGL 090400Z 20002KT 8000 -RA FEW009 SCT015 OVC050 23/22 Q1009 RERA=
2025-01-09 05:00:00<>METAR SBGL 090500Z 21002KT 8000 FEW009 SCT015 OVC050 23/22 Q1009=
2025-01-09 06:00:00<>METAR SBGL 090600Z 26002KT 8000 FEW009 SCT015 OVC050 23/22 Q1008=
2025-01-09 07:00:00<>METAR COR SBGL 090700Z 27005KT 9999 FEW004 SCT015 OVC050 23/22 Q1008=
2025-01-09 08:00:00<>METAR SBGL 090800Z 27005KT 9999 FEW004 SCT015 OVC050 23/22 Q1008=
2025-01-09 09:00:00<>METAR SBGL 090900Z 30004KT 9999 FEW015 OVC050 23/22 Q1009=
2025-01-09 10:00:00<>METAR SBGL 091000Z 32003KT 8000 SCT009 OVC030 24/22 Q1009=
2025-01-09 11:00:00<>METAR SBGL 091100Z 31004KT 8000 SCT010 BKN025 OVC048 25/22 Q1010=
2025-01-09 12:00:00<>METAR SBGL 091200Z 34004KT 8000 FEW010 BKN015 OVC060 26/22 Q1010=
2025-01-09 13:00:00<>METAR COR SBGL 091300Z 36007KT 9999 BKN013 BKN018 OVC035 26/23 Q1010=
2025-01-09 13:45:00<>METAR SBGL 091345Z 36007KT 3000 RA BR BKN013 BKN018 OVC035 26/23 Q1010=
2025-01-09 13:45:00<>SPECI SBGL 091345Z 36007KT 3000 RA BR BKN013 BKN018 OVC035 26/23 Q1010=
2025-01-09 14:00:00<>METAR SBGL 091400Z 18007KT 1500 R15/1200D R10/1800D R28/2000U RA BR BKN007 BKN010 OVC016 24/22 Q1010=
2025-01-09 14:39:00<>SPECI SBGL 091439Z 13010KT 3000 -RA BR FEW005 BKN010 OVC035 23/22 Q1010 RERA=
2025-01-09 15:00:00<>METAR COR SBGL 091500Z 14009KT 6000 -RA SCT005 BKN025 OVC070 24/22 Q1009 RERA=
2025-01-09 16:00:00<>METAR SBGL 091600Z 18008KT 7000 -RA SCT005 BKN026 OVC070 24/21 Q1010=
2025-01-09 16:16:00<>SPECI COR SBGL 091616Z 15008KT 4000 -TSRA SCT005 FEW026CB OVC070 24/21 Q1010=
2025-01-09 16:29:00<>SPECI SBGL 091629Z 14007KT 8000 -RA FEW005 FEW026TCU OVC070 24/21 Q1009 RETS=
2025-01-09 17:00:00<>METAR SBGL 091700Z 17005KT 9999 FEW005 FEW040TCU OVC070 24/21 Q1009=
2025-01-09 18:00:00<>METAR SBGL 091800Z 13006KT 9999 FEW005 FEW040TCU OVC070 25/22 Q1009=
2025-01-09 19:00:00<>METAR SBGL 091900Z 17008KT 9999 -RA FEW005 FEW040TCU OVC070 24/21 Q1009=
2025-01-09 20:00:00<>METAR SBGL 092000Z 15007KT 9999 FEW016 SCT026TCU OVC040 24/20 Q1009=
2025-01-09 21:00:00<>METAR SBGL 092100Z 16007KT 9999 FEW016 SCT026TCU OVC100 25/20 Q1009=
2025-01-09 22:00:00<>METAR SBGL 092200Z 15006KT 9999 SCT025 BKN035 24/20 Q1010=
2025-01-09 23:00:00<>METAR SBGL 092300Z 13004KT 9999 SCT030 BKN060 24/20 Q1011=
2025-01-10 00:00:00<>METAR SBGL 100000Z 07003KT 9999 SCT040 BKN060 24/20 Q1011=
2025-01-10 01:00:00<>METAR SBGL 100100Z 28005KT 9999 BKN040 BKN060 24/20 Q1011=
2025-01-10 02:00:00<>METAR SBGL 100200Z 32006KT 8000 SCT023 BKN060 24/21 Q1011=
2025-01-10 03:00:00<>METAR SBGL 100300Z 34005KT 7000 SCT026 23/21 Q1011=
2025-01-10 04:00:00<>METAR SBGL 100400Z 27005KT 7000 SCT026 23/21 Q1010=
2025-01-10 05:00:00<>METAR SBGL 100500Z 29005KT 7000 SCT026 22/20 Q1010=
2025-01-10 06:00:00<>METAR SBGL 100600Z 31004KT 6000 SCT026 22/20 Q1010=
2025-01-10 07:00:00<>METAR SBGL 100700Z 35004KT 6000 SCT026 21/20 Q1009=
2025-01-10 08:00:00<>METAR SBGL 100800Z 30005KT 8000 SCT030 21/20 Q1009=
2025-01-10 09:00:00<>METAR SBGL 100900Z 33005KT 8000 SCT030 22/20 Q1010=
2025-01-10 10:00:00<>METAR SBGL 101000Z 30005KT 9000 SCT040 23/20 Q1011=
2025-01-10 11:00:00<>METAR SBGL 101100Z 32003KT 9999 SCT040 BKN042 25/21 Q1011=
2025-01-10 12:00:00<>METAR COR SBGL 101200Z 28004KT 9999 SCT023 BKN039 25/19 Q1011=
2025-01-10 13:00:00<>METAR SBGL 101300Z 24007KT 9999 FEW025 BKN038 BKN053 26/19 Q1011=
2025-01-10 14:00:00<>METAR COR SBGL 101400Z 20004KT 9999 BKN038 BKN067 28/18 Q1010=
2025-01-10 15:00:00<>METAR SBGL 101500Z 26010KT 9999 FEW031 BKN054 BKN070 27/18 Q1011=
2025-01-10 16:00:00<>METAR SBGL 101600Z 20007KT CAVOK 28/18 Q1010=
2025-01-10 17:00:00<>METAR SBGL 101700Z 20004KT 9999 BKN038 BKN067 28/18 Q1010=
2025-01-10 18:00:00<>METAR SBGL 101800Z 05003KT 9999 BKN040 BKN050 27/18 Q1010=
2025-01-10 19:00:00<>METAR SBGL 101900Z 20010KT 9999 BKN044 BKN052 28/17 Q1009=
2025-01-10 20:00:00<>METAR SBGL 102000Z 21011KT 9999 BKN043 BKN051 27/16 Q1010=
2025-01-10 21:00:00<>METAR SBGL 102100Z 22008KT 9999 SCT043 BKN051 26/18 Q1010=
2025-01-10 22:00:00<>METAR SBGL 102200Z 21009KT 9999 SCT043 25/18 Q1010=
2025-01-10 23:00:00<>METAR SBGL 102300Z 21005KT 9999 FEW043 24/19 Q1011=
2025-01-11 00:00:00<>METAR SBGL 110000Z 19003KT CAVOK 24/19 Q1011=
2025-01-11 01:00:00<>METAR SBGL 110100Z 27002KT CAVOK 24/19 Q1011=
2025-01-11 02:00:00<>METAR SBGL 110200Z 32003KT CAVOK 23/20 Q1011=
2025-01-11 03:00:00<>METAR SBGL 110300Z 33004KT CAVOK 23/20 Q1011=
2025-01-11 04:00:00<>METAR SBGL 110400Z 29002KT CAVOK 22/20 Q1010=
2025-01-11 05:00:00<>METAR SBGL 110500Z 32005KT CAVOK 22/19 Q1010=
2025-01-11 06:00:00<>METAR SBGL 110600Z 32004KT CAVOK 21/19 Q1009=
2025-01-11 07:00:00<>METAR SBGL 110700Z 32005KT CAVOK 21/19 Q1009=
2025-01-11 08:00:00<>METAR SBGL 110800Z 32003KT CAVOK 21/19 Q1010=
2025-01-11 09:00:00<>METAR SBGL 110900Z 09002KT CAVOK 22/20 Q1010=
2025-01-11 10:00:00<>METAR SBGL 111000Z 36002KT CAVOK 23/19 Q1010=
2025-01-11 11:00:00<>METAR SBGL 111100Z 01004KT 340V040 9999 FEW020 BKN080 23/20 Q1011=
2025-01-11 12:00:00<>METAR SBGL 111200Z 03003KT 350V060 9999 FEW020 BKN060 24/20 Q1011=
2025-01-11 13:00:00<>METAR SBGL 111300Z 36004KT 330V030 9999 FEW020 BKN060 26/20 Q1011=
2025-01-11 14:00:00<>METAR SBGL 111400Z 01005KT 300V110 9999 FEW020 SCT033 BKN065 28/19 Q1011=
2025-01-11 15:00:00<>METAR SBGL 111500Z 04006KT 010V090 9999 FEW020 SCT033 28/19 Q1010=
2025-01-11 16:00:00<>METAR SBGL 111600Z 11008KT 090V150 9999 FEW030 29/19 Q1010=
2025-01-11 17:00:00<>METAR SBGL 111700Z 12011KT 090V150 9999 FEW030 29/20 Q1009=
2025-01-11 18:00:00<>METAR SBGL 111800Z 12011KT 100V160 9999 FEW030 SCT050 28/20 Q1009=
2025-01-11 19:00:00<>METAR SBGL 111900Z 13010KT 100V160 9999 FEW030 BKN050 27/19 Q1009=
2025-01-11 20:00:00<>METAR SBGL 112000Z 13010KT 9999 FEW020 SCT030 BKN050 26/20 Q1009=
2025-01-11 21:00:00<>METAR SBGL 112100Z 14010KT 9999 FEW015 SCT030 BKN050 25/19 Q1010=
2025-01-11 22:00:00<>METAR SBGL 112200Z 13008KT 9999 FEW015 SCT030 BKN050 25/20 Q1010=
2025-01-11 23:00:00<>METAR SBGL 112300Z 14008KT 9999 FEW015 BKN050 BKN080 25/20 Q1011=
2025-01-12 00:00:00<>METAR SBGL 120000Z 14008KT 9999 FEW015 BKN055 25/20 Q1011=
2025-01-12 01:00:00<>METAR SBGL 120100Z 13006KT 9999 FEW025 24/20 Q1012=
2025-01-12 02:00:00<>METAR SBGL 120200Z 13008KT 9999 FEW025 24/20 Q1011=
2025-01-12 03:00:00<>METAR SBGL 120300Z 13005KT 9999 BKN040 24/20 Q1011=
2025-01-12 04:00:00<>METAR SBGL 120400Z 14004KT 9999 BKN045 24/20 Q1011=
2025-01-12 05:00:00<>METAR SBGL 120500Z 13005KT 9999 SCT045 23/20 Q1010=
2025-01-12 06:00:00<>METAR SBGL 120600Z 13004KT 9999 FEW020 SCT050 23/20 Q1010=
2025-01-12 07:00:00<>METAR SBGL 120700Z 14003KT 9999 FEW033 22/20 Q1010=
2025-01-12 08:00:00<>METAR SBGL 120800Z VRB02KT 9999 BKN040 22/20 Q1010=
2025-01-12 09:00:00<>METAR SBGL 120900Z 17003KT 9999 FEW016 SCT040 23/20 Q1011=
2025-01-12 10:00:00<>METAR SBGL 121000Z 14004KT 100V180 9999 FEW017 BKN045 24/21 Q1011=
2025-01-12 11:00:00<>METAR SBGL 121100Z 05005KT 9999 FEW017 BKN050 24/21 Q1012=
2025-01-12 12:00:00<>METAR SBGL 121200Z 10003KT 9999 FEW017 BKN050 25/21 Q1012=
2025-01-12 13:00:00<>METAR SBGL 121300Z 11003KT 9999 FEW017 BKN060 26/20 Q1012=
2025-01-12 14:00:00<>METAR SBGL 121400Z 06003KT 9999 FEW017 OVC060 26/20 Q1011=
2025-01-12 15:00:00<>METAR SBGL 121500Z 14004KT 9999 SCT017 OVC050 26/19 Q1011=
2025-01-12 16:00:00<>METAR SBGL 121600Z 14006KT 9999 SCT017 OVC050 28/17 Q1010=
2025-01-12 17:00:00<>METAR SBGL 121700Z 13006KT 9999 SCT017 OVC050 26/20 Q1010=
2025-01-12 18:00:00<>METAR SBGL 121800Z 14006KT 9999 SCT017 OVC050 26/19 Q1009=
2025-01-12 19:00:00<>METAR SBGL 121900Z 13007KT 9999 SCT017 OVC050 25/18 Q1009=
2025-01-12 20:00:00<>METAR SBGL 122000Z 13006KT 9999 SCT017 OVC050 25/18 Q1009=
2025-01-12 21:00:00<>METAR SBGL 122100Z 11005KT 9999 SCT017 OVC050 25/18 Q1010=
2025-01-12 22:00:00<>METAR SBGL 122200Z 08004KT 9999 FEW015 OVC050 24/20 Q1010=
2025-01-12 23:00:00<>METAR SBGL 122300Z 32006KT 9999 FEW015 SCT030 BKN050 24/20 Q1011=
2025-01-13 00:00:00<>METAR SBGL 130000Z 31003KT 9999 FEW015 SCT030 BKN050 23/19 Q1011=
2025-01-13 01:00:00<>METAR SBGL 130100Z 32003KT 300V020 9999 FEW015 SCT021 BKN035 23/19 Q1012=
2025-01-13 02:00:00<>METAR SBGL 130200Z 23006KT 200V280 6000 -RA FEW011 BKN021 BKN030 22/19 Q1012=
2025-01-13 03:00:00<>METAR SBGL 130300Z VRB02KT 8000 FEW015 BKN025 BKN035 22/20 Q1011=
2025-01-13 04:00:00<>METAR SBGL 130400Z 12003KT 9000 FEW015 BKN050 21/20 Q1011=
2025-01-13 05:00:00<>METAR SBGL 130500Z 29003KT 9000 FEW010 BKN040 22/20 Q1010=
2025-01-13 06:00:00<>METAR SBGL 130600Z 26003KT 9000 FEW015 BKN030 22/20 Q1010=
2025-01-13 07:00:00<>METAR SBGL 130700Z 28004KT 250V310 9000 FEW010 BKN030 BKN050 22/20 Q1010=
2025-01-13 08:00:00<>METAR COR SBGL 130800Z 15004KT 4000 -RA FEW010 BKN030 BKN050 22/20 Q1012=
2025-01-13 09:00:00<>METAR SBGL 130900Z 29005KT 270V330 9000 FEW009 BKN030 BKN050 22/20 Q1011=
2025-01-13 10:00:00<>METAR SBGL 131000Z 13005KT 4000 -RA BR FEW006 BKN009 BKN015 22/20 Q1011=
2025-01-13 11:00:00<>METAR SBGL 131100Z 15005KT 4000 -RA BR FEW006 BKN009 BKN015 22/20 Q1012=
2025-01-13 11:16:00<>SPECI SBGL 131116Z 14004KT 5000 -RA BR FEW007 BKN009 BKN015 22/20 Q1012=
2025-01-13 12:00:00<>METAR SBGL 131200Z 11002KT 8000 -RA FEW006 BKN010 BKN017 22/20 Q1012=
2025-01-13 13:00:00<>METAR SBGL 131300Z 11003KT 9999 FEW006 SCT012 BKN020 23/20 Q1012 RERA=
2025-01-13 14:00:00<>METAR SBGL 131400Z 14002KT 9999 SCT015 BKN025 25/20 Q1012=
2025-01-13 15:00:00<>METAR SBGL 131500Z 20006KT 9999 2000S SHRA SCT017 BKN030 25/20 Q1011=
2025-01-13 16:00:00<>METAR SBGL 131600Z 15003KT 9999 VCSH SCT020 BKN040 26/19 Q1011 RESHRA=
2025-01-13 17:00:00<>METAR COR SBGL 131700Z 13002KT 9999 SCT020 BKN040 26/19 Q1011=
2025-01-13 18:00:00<>METAR SBGL 131800Z 05003KT 9999 SCT020 BKN040 24/19 Q1011=
2025-01-13 19:00:00<>METAR SBGL 131900Z 02002KT 9999 SCT020 BKN040 23/19 Q1010=
2025-01-13 20:00:00<>METAR SBGL 132000Z 33002KT 9999 SCT020 BKN040 23/20 Q1010=
2025-01-13 21:00:00<>METAR SBGL 132100Z 35003KT 9999 FEW020 BKN040 23/20 Q1010=
2025-01-13 22:00:00<>METAR SBGL 132200Z 33006KT 9000 FEW020 BKN040 23/19 Q1011=
2025-01-13 23:00:00<>METAR SBGL 132300Z 33005KT 9999 FEW020 OVC050 23/19 Q1011=
2025-01-14 00:00:00<>METAR SBGL 140000Z 02004KT 9999 FEW020 OVC050 23/19 Q1011=
2025-01-14 01:00:00<>METAR SBGL 140100Z 34003KT 9999 FEW020 OVC050 23/18 Q1012=
2025-01-14 02:00:00<>METAR SBGL 140200Z 00000KT 9999 FEW020 OVC050 22/19 Q1012=
2025-01-14 03:00:00<>METAR SBGL 140300Z 14002KT 9999 FEW020 BKN050 22/19 Q1011=
2025-01-14 04:00:00<>METAR SBGL 140400Z 05002KT 9999 FEW020 OVC050 22/20 Q1011=
2025-01-14 05:00:00<>METAR SBGL 140500Z 02002KT 9999 FEW020 OVC050 22/20 Q1010=
2025-01-14 06:00:00<>METAR SBGL 140600Z 01003KT 9999 FEW020 OVC050 22/20 Q1010=
2025-01-14 07:00:00<>METAR SBGL 140700Z 03002KT 9999 FEW020 OVC050 22/19 Q1011=
2025-01-14 08:00:00<>METAR SBGL 140800Z 05003KT 8000 FEW020 OVC050 22/19 Q1011=
2025-01-14 09:00:00<>METAR SBGL 140900Z 35003KT 8000 FEW020 BKN070 22/19 Q1010=
2025-01-14 10:00:00<>METAR SBGL 141000Z 32004KT 8000 FEW020 BKN070 22/19 Q1011=
2025-01-14 11:00:00<>METAR SBGL 141100Z 02002KT 9999 FEW030 SCT050 BKN070 24/19 Q1011=
2025-01-14 12:00:00<>METAR SBGL 141200Z 35005KT 9999 FEW030 SCT050 BKN100 25/20 Q1011=
2025-01-14 13:00:00<>METAR SBGL 141300Z 02005KT 9999 FEW022 BKN060 25/20 Q1011=
2025-01-14 14:00:00<>METAR SBGL 141400Z 13004KT 9999 FEW024 OVC060 26/20 Q1011=
2025-01-14 15:00:00<>METAR SBGL 141500Z 13008KT 9999 FEW024 OVC060 25/20 Q1011=
2025-01-14 16:00:00<>METAR SBGL 141600Z 13008KT 9999 FEW024 OVC060 25/19 Q1011=
2025-01-14 17:00:00<>METAR SBGL 141700Z 14009KT 9999 FEW024 OVC045 25/19 Q1011=
2025-01-14 18:00:00<>METAR SBGL 141800Z 13009KT 9999 FEW030 OVC035 25/19 Q1010=
2025-01-14 19:00:00<>METAR SBGL 141900Z 06009KT 6000 -RA FEW015 SCT027 OVC035 23/21 Q1010=
2025-01-14 20:00:00<>METAR SBGL 142000Z 05006KT 8000 FEW013 OVC035 23/21 Q1010=
2025-01-14 21:00:00<>METAR SBGL 142100Z 08004KT 3000 -RA BR BKN007 SCT025 OVC035 22/21 Q1011=
2025-01-14 22:00:00<>METAR SBGL 142200Z 07002KT 6000 -RA BKN014 SCT027 OVC045 22/20 Q1011=
2025-01-14 23:00:00<>METAR SBGL 142300Z 05004KT 6000 BKN015 SCT030 OVC045 23/21 Q1012 RERA=
2025-01-15 00:00:00<>METAR SBGL 150000Z 10003KT 9999 SCT015 SCT030 OVC045 23/20 Q1012=
2025-01-15 01:00:00<>METAR SBGL 150100Z 09002KT 9999 FEW015 SCT030 OVC050 23/21 Q1013=
2025-01-15 02:00:00<>METAR SBGL 150200Z 16002KT 9999 FEW017 SCT030 OVC050 22/21 Q1013=
2025-01-15 03:00:00<>METAR SBGL 150300Z 15002KT 9999 FEW017 SCT030 OVC050 22/21 Q1012=
2025-01-15 04:00:00<>METAR SBGL 150400Z 11002KT 9999 FEW015 SCT030 OVC050 22/21 Q1011=
2025-01-15 05:00:00<>METAR SBGL 150500Z 36002KT 9000 FEW015 SCT030 OVC050 22/21 Q1011=
2025-01-15 05:42:00<>SPECI SBGL 150542Z 34007KT 4000 -RA BR FEW015 OVC050 22/20 Q1012=
2025-01-15 06:00:00<>METAR SBGL 150600Z 05002KT 9999 FEW015 OVC040 23/21 Q1011=
2025-01-15 07:00:00<>METAR SBGL 150700Z 31002KT 9999 FEW015 OVC040 22/20 Q1011=
2025-01-15 08:00:00<>METAR SBGL 150800Z 32002KT 9999 FEW015 OVC040 22/21 Q1011=
2025-01-15 09:00:00<>METAR SBGL 150900Z 09002KT 4000 -RA BR FEW015 OVC040 22/20 Q1013=
2025-01-15 10:00:00<>METAR SBGL 151000Z 32004KT 8000 -RA FEW015 BKN040 22/20 Q1013=
2025-01-15 11:00:00<>METAR SBGL 151100Z VRB05KT 7000 -RA FEW021 OVC070 22/20 Q1014=
2025-01-15 12:00:00<>METAR SBGL 151200Z 23005KT 9999 FEW007 SCT055 OVC070 22/20 Q1014=
2025-01-15 13:00:00<>METAR SBGL 151300Z 14003KT 100V240 9999 FEW011 OVC065 24/19 Q1014=
2025-01-15 14:00:00<>METAR SBGL 151400Z VRB04KT 9999 FEW019 OVC070 25/20 Q1013=
2025-01-15 15:00:00<>METAR SBGL 151500Z VRB06KT 9999 FEW025 SCT050 BKN070 26/20 Q1013=
2025-01-15 16:00:00<>METAR SBGL 151600Z 36007KT 340V040 9999 FEW025 BKN075 BKN100 26/20 Q1013=
2025-01-15 17:00:00<>METAR SBGL 151700Z 02006KT 350V070 9999 FEW027 SCT070 BKN100 23/21 Q1012=
2025-01-15 18:00:00<>METAR SBGL 151800Z 15007KT 110V190 9999 FEW030 SCT045 BKN085 28/21 Q1012=
2025-01-15 19:00:00<>METAR SBGL 151900Z 14008KT 9999 FEW030 BKN045 27/21 Q1011=
2025-01-15 20:00:00<>METAR SBGL 152000Z 14010KT 9999 FEW030 SCT050 BKN065 27/21 Q1011=
2025-01-15 21:00:00<>METAR SBGL 152100Z 14008KT 9999 BKN030 26/21 Q1011=
2025-01-15 22:00:00<>METAR SBGL 152200Z 14008KT 9999 BKN025 OVC040 25/21 Q1012=
2025-01-15 23:00:00<>METAR SBGL 152300Z 10012KT 9999 BKN027 OVC040 26/20 Q1013=
2025-01-16 00:00:00<>METAR SBGL 160000Z 09009KT 9999 BKN027 OVC070 25/20 Q1013=
2025-01-16 01:00:00<>METAR SBGL 160100Z 11008KT 9999 BKN027 OVC070 25/21 Q1014=
2025-01-16 02:00:00<>METAR SBGL 160200Z 11005KT 9999 BKN027 OVC070 25/21 Q1013=
2025-01-16 03:00:00<>METAR SBGL 160300Z 11005KT 9999 BKN027 OVC070 24/21 Q1013=
2025-01-16 04:00:00<>METAR SBGL 160400Z 11005KT 8000 BKN027 OVC070 24/21 Q1013=
2025-01-16 05:00:00<>METAR SBGL 160500Z 12003KT 9999 FEW027 OVC100 24/21 Q1012=
2025-01-16 06:00:00<>METAR SBGL 160600Z 10004KT 9999 FEW027 OVC100 24/21 Q1012=
2025-01-16 07:00:00<>METAR SBGL 160700Z 10004KT 9999 FEW027 OVC100 24/21 Q1013=
2025-01-16 08:00:00<>METAR SBGL 160800Z 12004KT 9999 FEW008 OVC100 24/21 Q1013=
2025-01-16 09:00:00<>METAR SBGL 160900Z 15003KT 9999 FEW008 OVC100 23/21 Q1014=
2025-01-16 10:00:00<>METAR SBGL 161000Z 14003KT 9999 FEW008 OVC100 24/21 Q1014=
2025-01-16 11:00:00<>METAR SBGL 161100Z 13002KT 9999 FEW008 BKN100 26/21 Q1014=
2025-01-16 12:00:00<>METAR SBGL 161200Z 12006KT 9999 FEW010 BKN100 26/22 Q1015=
2025-01-16 13:00:00<>METAR SBGL 161300Z 07006KT 9999 FEW010 BKN100 27/22 Q1015=
2025-01-16 14:00:00<>METAR SBGL 161400Z 36006KT 9999 FEW015 BKN100 27/22 Q1014=
2025-01-16 15:00:00<>METAR SBGL 161500Z 01003KT 9999 FEW020 BKN100 29/22 Q1014=
2025-01-16 16:00:00<>METAR SBGL 161600Z 36005KT 9999 FEW025 BKN100 29/22 Q1013=
2025-01-16 17:00:00<>METAR SBGL 161700Z 12004KT 9999 FEW025 BKN100 29/22 Q1012=
2025-01-16 18:00:00<>METAR SBGL 161800Z 13006KT 9999 FEW030 BKN100 31/23 Q1012=
2025-01-16 19:00:00<>METAR SBGL 161900Z 13004KT 9999 SCT030 BKN100 31/23 Q1011=
2025-01-16 20:00:00<>METAR SBGL 162000Z 10013KT 9999 SCT030 BKN100 30/23 Q1011=
2025-01-16 21:00:00<>METAR SBGL 162100Z 09013KT 9999 SCT030 BKN100 29/23 Q1011=
2025-01-16 22:00:00<>METAR SBGL 162200Z 10007KT 9999 SCT030 BKN100 27/23 Q1012=
2025-01-16 23:00:00<>METAR SBGL 162300Z 11011KT 9999 BKN033 BKN100 27/22 Q1013=
2025-01-17 00:00:00<>METAR SBGL 170000Z 10010KT 9999 BKN033 26/23 Q1014=
2025-01-17 01:00:00<>METAR SBGL 170100Z 08011KT 9999 SCT026 SCT100 26/23 Q1014=
2025-01-17 02:00:00<>METAR SBGL 170200Z 08007KT 9999 SCT030 SCT100 26/23 Q1014=
2025-01-17 03:00:00<>METAR SBGL 170300Z 12007KT 9999 SCT030 SCT100 26/23 Q1014=
2025-01-17 04:00:00<>METAR SBGL 170400Z 10007KT 9999 FEW030 SCT100 25/23 Q1013=
2025-01-17 05:00:00<>METAR SBGL 170500Z 09006KT 9999 FEW030 SCT100 25/23 Q1013=
2025-01-17 06:00:00<>METAR SBGL 170600Z 05005KT 8000 FEW030 SCT100 25/23 Q1013=
2025-01-17 07:00:00<>METAR SBGL 170700Z 02005KT 8000 FEW030 SCT100 24/22 Q1012=
2025-01-17 08:00:00<>METAR SBGL 170800Z 18003KT 9999 BKN011 25/23 Q1013=
2025-01-17 09:00:00<>METAR SBGL 170900Z 13005KT 9999 SCT011 25/23 Q1013=
2025-01-17 10:00:00<>METAR SBGL 171000Z 12004KT 9999 FEW023 27/24 Q1013=
2025-01-17 11:00:00<>METAR SBGL 171100Z 11003KT 9999 FEW012 28/23 Q1013=
2025-01-17 12:00:00<>METAR SBGL 171200Z 16002KT CAVOK 30/24 Q1013=
2025-01-17 13:00:00<>METAR SBGL 171300Z 07004KT CAVOK 31/24 Q1013=
2025-01-17 14:00:00<>METAR SBGL 171400Z 06004KT 9999 FEW020 33/23 Q1012=
2025-01-17 15:00:00<>METAR SBGL 171500Z 16008KT 9999 FEW020 33/23 Q1012=
2025-01-17 16:00:00<>METAR SBGL 171600Z 12008KT 9999 FEW025 33/24 Q1012=
2025-01-17 17:00:00<>METAR SBGL 171700Z 13012KT 9999 FEW025 33/24 Q1011=
2025-01-17 18:00:00<>METAR SBGL 171800Z 12012KT 9999 FEW025 32/23 Q1011=
2025-01-17 19:00:00<>METAR SBGL 171900Z 14013KT 9999 FEW025 34/23 Q1010=
2025-01-17 20:00:00<>METAR SBGL 172000Z 13011KT 9999 FEW025 33/24 Q1009=
2025-01-17 21:00:00<>METAR SBGL 172100Z 13008KT CAVOK 31/23 Q1010=
2025-01-17 22:00:00<>METAR SBGL 172200Z 11005KT CAVOK 30/23 Q1010=
2025-01-17 23:00:00<>METAR SBGL 172300Z 10007KT 070V130 CAVOK 30/23 Q1011=
2025-01-18 00:00:00<>METAR SBGL 180000Z 09006KT CAVOK 29/23 Q1012=
2025-01-18 01:00:00<>METAR SBGL 180100Z 12003KT 090V160 CAVOK 28/23 Q1012=
2025-01-18 02:00:00<>METAR SBGL 180200Z VRB01KT CAVOK 27/23 Q1012=
2025-01-18 03:00:00<>METAR SBGL 180300Z 07003KT CAVOK 27/23 Q1012=
2025-01-18 04:00:00<>METAR SBGL 180400Z VRB02KT CAVOK 26/23 Q1011=
2025-01-18 05:00:00<>METAR SBGL 180500Z 07002KT CAVOK 26/23 Q1011=
2025-01-18 06:00:00<>METAR SBGL 180600Z VRB01KT CAVOK 25/23 Q1011=
2025-01-18 07:00:00<>METAR SBGL 180700Z 06002KT CAVOK 25/23 Q1011=
2025-01-18 08:00:00<>METAR SBGL 180800Z VRB01KT CAVOK 25/23 Q1011=
2025-01-18 09:00:00<>METAR SBGL 180900Z 08003KT CAVOK 25/23 Q1011=
2025-01-18 10:00:00<>METAR SBGL 181000Z VRB01KT 9999 FEW025 SCT100 27/23 Q1012=
2025-01-18 11:00:00<>METAR SBGL 181100Z 12003KT CAVOK 29/24 Q1012=
2025-01-18 12:00:00<>METAR SBGL 181200Z 04005KT CAVOK 31/24 Q1012=
2025-01-18 13:00:00<>METAR SBGL 181300Z 07005KT CAVOK 32/24 Q1012=
2025-01-18 14:00:00<>METAR SBGL 181400Z 05009KT CAVOK 35/24 Q1011=
2025-01-18 15:00:00<>METAR SBGL 181500Z 07007KT CAVOK 36/22 Q1011=
2025-01-18 16:00:00<>METAR SBGL 181600Z 04010KT CAVOK 38/20 Q1010=
2025-01-18 17:00:00<>METAR SBGL 181700Z 05011KT CAVOK 38/20 Q1009=
2025-01-18 18:00:00<>METAR SBGL 181800Z 13012KT 9999 FEW023 38/22 Q1009=
2025-01-18 19:00:00<>METAR SBGL 181900Z 15012KT 9999 FEW030 33/22 Q1008=
2025-01-18 20:00:00<>METAR SBGL 182000Z 13014KT 9999 FEW030 32/21 Q1008=
2025-01-18 21:00:00<>METAR SBGL 182100Z 14015KT 9999 FEW030 32/21 Q1009=
2025-01-18 22:00:00<>METAR SBGL 182200Z 17010KT 9999 FEW030 31/21 Q1009=
2025-01-18 23:00:00<>METAR SBGL 182300Z 15008KT 9999 FEW030 FEW035TCU 31/23 Q1010=
2025-01-19 00:00:00<>METAR SBGL 190000Z 16006KT CAVOK 30/23 Q1010=
2025-01-19 01:00:00<>METAR SBGL 190100Z 18005KT CAVOK 30/23 Q1011=
2025-01-19 02:00:00<>METAR SBGL 190200Z 32006KT 300V010 CAVOK 30/23 Q1011=
2025-01-19 03:00:00<>METAR SBGL 190300Z 27006KT 240V300 CAVOK 29/22 Q1010=
2025-01-19 04:00:00<>METAR SBGL 190400Z 25005KT CAVOK 28/22 Q1010=
2025-01-19 05:00:00<>METAR SBGL 190500Z 28008KT CAVOK 27/22 Q1010=
2025-01-19 06:00:00<>METAR SBGL 190600Z 26004KT 240V300 CAVOK 27/21 Q1010=
2025-01-19 07:00:00<>METAR SBGL 190700Z 12006KT CAVOK 25/22 Q1010=
2025-01-19 08:00:00<>METAR SBGL 190800Z 12006KT CAVOK 25/22 Q1010=
2025-01-19 09:00:00<>METAR SBGL 190900Z 11005KT CAVOK 25/22 Q1010=
2025-01-19 10:00:00<>METAR SBGL 191000Z VRB02KT CAVOK 29/23 Q1010=
2025-01-19 11:00:00<>METAR SBGL 191100Z 01003KT CAVOK 29/23 Q1010=
2025-01-19 12:00:00<>METAR SBGL 191200Z 02004KT CAVOK 31/23 Q1010=
2025-01-19 13:00:00<>METAR SBGL 191300Z 08003KT CAVOK 33/23 Q1010=
2025-01-19 14:00:00<>METAR SBGL 191400Z 07003KT CAVOK 34/23 Q1009=
2025-01-19 15:00:00<>METAR SBGL 191500Z 02006KT CAVOK 36/23 Q1009=
2025-01-19 16:00:00<>METAR SBGL 191600Z 08008KT 9999 FEW025 37/24 Q1008=
2025-01-19 17:00:00<>METAR SBGL 191700Z 12011KT 9999 FEW025 34/23 Q1007=
2025-01-19 18:00:00<>METAR SBGL 191800Z 13011KT 9999 FEW025 FEW030TCU 35/23 Q1007=
2025-01-19 19:00:00<>METAR SBGL 191900Z 13010KT 9999 FEW025 FEW030TCU 34/22 Q1006=
2025-01-19 20:00:00<>METAR SBGL 192000Z 14010KT 9999 VCTS FEW025 FEW030CB 32/22 Q1007=
2025-01-19 21:00:00<>METAR SBGL 192100Z 35010KT 9999 VCTS SCT025 FEW030CB 29/22 Q1008=
2025-01-19 22:00:00<>METAR SBGL 192200Z 25005KT 9999 SCT025 29/23 Q1008=
2025-01-19 23:00:00<>METAR SBGL 192300Z 24007KT 9999 FEW025 SCT100 30/22 Q1009=
2025-01-20 00:00:00<>METAR SBGL 200000Z 36007KT 9999 FEW025 SCT100 29/24 Q1009=
2025-01-20 01:00:00<>METAR SBGL 200100Z 01009KT 9999 FEW025 SCT100 28/24 Q1010=
2025-01-20 02:00:00<>METAR SBGL 200200Z 32009KT 9999 FEW025 SCT100 29/22 Q1009=
2025-01-20 03:00:00<>METAR SBGL 200300Z 32007KT 9999 FEW025 SCT100 28/23 Q1009=
2025-01-20 04:00:00<>METAR SBGL 200400Z 34007KT 9999 FEW025 SCT100 27/23 Q1009=
2025-01-20 05:00:00<>METAR SBGL 200500Z 33006KT 9999 FEW025 SCT100 27/22 Q1009=
2025-01-20 06:00:00<>METAR SBGL 200600Z 32006KT 8000 FEW025 SCT100 27/22 Q1009=
2025-01-20 07:00:00<>METAR SBGL 200700Z 31006KT 8000 FEW025 SCT100 26/22 Q1008=
2025-01-20 08:00:00<>METAR SBGL 200800Z 07004KT 9999 FEW025 26/23 Q1008=
2025-01-20 09:00:00<>METAR SBGL 200900Z 06005KT CAVOK 26/23 Q1008=
2025-01-20 10:00:00<>METAR SBGL 201000Z 04007KT CAVOK 28/24 Q1008=
2025-01-20 11:00:00<>METAR SBGL 201100Z 35005KT 9999 FEW020 SCT100 29/22 Q1009=
2025-01-20 12:00:00<>METAR SBGL 201200Z 04003KT CAVOK 32/24 Q1009=
2025-01-20 13:00:00<>METAR SBGL 201300Z 13005KT 9999 FEW030 34/23 Q1009=
2025-01-20 14:00:00<>METAR SBGL 201400Z VRB06KT 9999 FEW020 SCT100 36/23 Q1008=
2025-01-20 15:00:00<>METAR SBGL 201500Z 36005KT 9999 FEW020 SCT100 36/17 Q1008=
2025-01-20 16:00:00<>METAR SBGL 201600Z 35006KT CAVOK 37/16 Q1007=
2025-01-20 17:00:00<>METAR SBGL 201700Z 36009KT 9999 FEW020TCU 38/24 Q1006=
2025-01-20 18:00:00<>METAR SBGL 201800Z 13011KT 9999 FEW020TCU 34/24 Q1005=
2025-01-20 19:00:00<>METAR SBGL 201900Z 14010KT 9999 VCTS FEW030CB 30/24 Q1005=
2025-01-20 20:00:00<>METAR SBGL 202000Z 03013KT 9999 SCT030 30/23 Q1006=
2025-01-20 21:00:00<>METAR SBGL 202100Z 08004KT 9999 SCT030 28/23 Q1006=
2025-01-20 22:00:00<>METAR SBGL 202200Z 12003KT 9999 SCT030 29/22 Q1006=
2025-01-20 23:00:00<>METAR SBGL 202300Z 10005KT 9999 FEW030 28/22 Q1007=
2025-01-21 00:00:00<>METAR SBGL 210000Z 05007KT 020V080 CAVOK 28/23 Q1007=
2025-01-21 01:00:00<>METAR SBGL 210100Z 13003KT CAVOK 28/23 Q1008=
2025-01-21 02:00:00<>METAR SBGL 210200Z 05005KT 340V080 CAVOK 28/24 Q1008=
2025-01-21 03:00:00<>METAR SBGL 210300Z 09003KT 030V120 CAVOK 27/24 Q1007=
2025-01-21 04:00:00<>METAR SBGL 210400Z 05003KT 340V120 CAVOK 27/24 Q1007=
2025-01-21 05:00:00<>METAR SBGL 210500Z 33003KT CAVOK 28/25 Q1007=
2025-01-21 06:00:00<>METAR SBGL 210600Z 34005KT CAVOK 27/24 Q1007=
2025-01-21 07:00:00<>METAR SBGL 210700Z 36004KT 340V060 CAVOK 27/24 Q1007=
2025-01-21 08:00:00<>METAR SBGL 210800Z 04004KT 010V070 CAVOK 26/24 Q1007=
2025-01-21 09:00:00<>METAR SBGL 210900Z 36003KT 340V060 CAVOK 27/24 Q1008=
2025-01-21 10:00:00<>METAR SBGL 211000Z 01004KT CAVOK 28/23 Q1009=
2025-01-21 11:00:00<>METAR SBGL 211100Z 02004KT CAVOK 30/23 Q1009=
2025-01-21 12:00:00<>METAR SBGL 211200Z 34003KT CAVOK 34/24 Q1009=
2025-01-21 13:00:00<>METAR SBGL 211300Z 32005KT CAVOK 36/23 Q1009=
2025-01-21 14:00:00<>METAR SBGL 211400Z 29005KT CAVOK 38/21 Q1009=
2025-01-21 15:00:00<>METAR SBGL 211500Z 12010KT 9999 FEW025 38/22 Q1009=
2025-01-21 16:00:00<>METAR SBGL 211600Z 13010KT 9999 SCT025 34/24 Q1009=
2025-01-21 17:00:00<>METAR SBGL 211700Z 10012KT 9999 SCT025 FEW030TCU 36/22 Q1008=
2025-01-21 18:00:00<>METAR SBGL 211800Z 12012KT 9999 SCT025 FEW030TCU 35/21 Q1008=
2025-01-21 19:00:00<>METAR SBGL 211900Z 12011KT 9999 SCT025 FEW030TCU 34/22 Q1008=
2025-01-21 20:00:00<>METAR SBGL 212000Z 11012KT 9999 SCT025 FEW030TCU 33/21 Q1008=
2025-01-21 21:00:00<>METAR SBGL 212100Z 11012KT 9999 FEW025 FEW030TCU 32/21 Q1009=
2025-01-21 22:00:00<>METAR SBGL 212200Z 13006KT 9999 FEW025 FEW030TCU 31/22 Q1010=
2025-01-21 23:00:00<>METAR SBGL 212300Z 13006KT 9999 VCTS FEW025 FEW030CB 31/22 Q1011=
2025-01-22 00:00:00<>METAR SBGL 220000Z 10003KT 9999 VCTS FEW025 FEW030CB SCT100 30/22 Q1011=
2025-01-22 01:00:00<>METAR SBGL 220100Z 09003KT 9999 VCTS FEW025 FEW030CB 29/23 Q1012=
2025-01-22 02:00:00<>METAR SBGL 220200Z 05004KT 9999 FEW025 28/23 Q1012=
2025-01-22 03:00:00<>METAR SBGL 220300Z 19004KT 9999 FEW025 29/23 Q1011=
2025-01-22 04:00:00<>METAR SBGL 220400Z 34006KT 9999 FEW030 28/23 Q1011=
2025-01-22 05:00:00<>METAR SBGL 220500Z 30003KT 9999 FEW030 SCT100 29/23 Q1011=
2025-01-22 06:00:00<>METAR SBGL 220600Z 31006KT 9999 FEW030 SCT100 28/23 Q1012=
2025-01-22 07:00:00<>METAR SBGL 220700Z 32002KT 9999 FEW030 BKN100 29/22 Q1011=
2025-01-22 08:00:00<>METAR SBGL 220800Z 20005KT 9999 FEW020 SCT100 28/22 Q1010=
2025-01-22 09:00:00<>METAR SBGL 220900Z 35003KT 320V020 9999 FEW030 SCT100 29/24 Q1011=
2025-01-22 10:00:00<>METAR SBGL 221000Z 01004KT 340V040 9999 FEW030 29/22 Q1012=
2025-01-22 11:00:00<>METAR SBGL 221100Z 05006KT 9999 FEW030 31/24 Q1013=
2025-01-22 12:00:00<>METAR SBGL 221200Z 01007KT CAVOK 32/23 Q1014=
2025-01-22 13:00:00<>METAR SBGL 221300Z 34004KT CAVOK 33/22 Q1013=
2025-01-22 14:00:00<>METAR SBGL 221400Z 03009KT 9999 FEW030 SCT100 34/23 Q1013=
2025-01-22 15:00:00<>METAR SBGL 221500Z 12008KT 9999 FEW030 SCT100 33/23 Q1013=
2025-01-22 16:00:00<>METAR SBGL 221600Z 10014KT 9999 FEW030TCU 36/23 Q1013=
2025-01-22 17:00:00<>METAR SBGL 221700Z 14016KT 9999 FEW030TCU 34/23 Q1012=
2025-01-22 18:00:00<>METAR SBGL 221800Z 12016KT 8000 VCSH FEW030TCU 33/23 Q1011=
2025-01-22 19:00:00<>METAR SBGL 221900Z 12012KT 9999 FEW030TCU 30/23 Q1012=
2025-01-22 20:00:00<>METAR SBGL 222000Z 12012KT 9999 FEW030 30/23 Q1011=
2025-01-22 21:00:00<>METAR SBGL 222100Z 11011KT 9999 FEW030 SCT100 30/22 Q1012=
2025-01-22 22:00:00<>METAR SBGL 222200Z 12008KT 9999 FEW030 SCT100 30/22 Q1013=
2025-01-22 23:00:00<>METAR SBGL 222300Z 12005KT CAVOK 29/23 Q1013=
2025-01-23 00:00:00<>METAR SBGL 230000Z 12002KT CAVOK 29/23 Q1013=
2025-01-23 01:00:00<>METAR SBGL 230100Z 13007KT CAVOK 27/25 Q1014=
2025-01-23 02:00:00<>METAR COR SBGL 230200Z 12005KT CAVOK 29/23 Q1013=
2025-01-23 03:00:00<>METAR SBGL 230300Z 10005KT CAVOK 28/24 Q1014=
2025-01-23 04:00:00<>METAR SBGL 230400Z 10004KT CAVOK 28/24 Q1014=
2025-01-23 05:00:00<>METAR SBGL 230500Z 09003KT CAVOK 27/23 Q1013=
2025-01-23 06:00:00<>METAR SBGL 230600Z 08002KT CAVOK 27/23 Q1013=
2025-01-23 07:00:00<>METAR SBGL 230700Z 10002KT 9999 FEW030 27/23 Q1013=
2025-01-23 08:00:00<>METAR SBGL 230800Z 06003KT 9999 FEW030 28/24 Q1014=
2025-01-23 09:00:00<>METAR SBGL 230900Z 19002KT CAVOK 27/24 Q1014=
2025-01-23 10:00:00<>METAR SBGL 231000Z 24005KT 7000 NSC 29/24 Q1014=
2025-01-23 11:00:00<>METAR SBGL 231100Z 13007KT 9999 SCT015 30/24 Q1015=
2025-01-23 12:00:00<>METAR SBGL 231200Z 12009KT 9999 FEW017 31/24 Q1015=
2025-01-23 13:00:00<>METAR SBGL 231300Z 12010KT 9999 FEW020 31/25 Q1014=
2025-01-23 14:00:00<>METAR SBGL 231400Z 12008KT 9999 FEW025 32/25 Q1014=
2025-01-23 15:00:00<>METAR SBGL 231500Z 17005KT 9999 SCT025 33/24 Q1014=
2025-01-23 16:00:00<>METAR SBGL 231600Z 12008KT 9999 SCT025 FEW035TCU 33/25 Q1013=
2025-01-23 17:00:00<>METAR SBGL 231700Z 12013KT 9999 SCT025 FEW035TCU 33/25 Q1013=
2025-01-23 18:00:00<>METAR SBGL 231800Z 13014KT 9999 FEW025 FEW035TCU SCT080 31/25 Q1013=
2025-01-23 19:00:00<>METAR SBGL 231900Z 12008KT 9999 FEW025 FEW035TCU SCT080 28/24 Q1013=
2025-01-23 20:00:00<>METAR SBGL 232000Z 04012KT 350V070 7000 -RA FEW020 FEW035TCU OVC065 27/24 Q1015=
2025-01-23 21:00:00<>METAR SBGL 232100Z 01005KT 320V030 9999 FEW020 FEW035TCU SCT095 27/21 Q1014=
2025-01-23 22:00:00<>METAR SBGL 232200Z 07007KT 9999 -RA FEW020 SCT050 BKN070 25/22 Q1013=
2025-01-23 23:00:00<>METAR SBGL 232300Z 27007KT 9999 SCT046 SCT100 26/22 Q1014=
2025-01-24 00:00:00<>METAR SBGL 240000Z 08006KT 9999 SCT036 SCT100 26/22 Q1014=
2025-01-24 01:00:00<>METAR SBGL 240100Z 01004KT 9999 FEW036 SCT100 26/23 Q1015=
2025-01-24 02:00:00<>METAR SBGL 240200Z 35004KT 9999 FEW036 SCT100 26/22 Q1015=
2025-01-24 03:00:00<>METAR SBGL 240300Z 35003KT 9999 FEW036 26/22 Q1015=
2025-01-24 04:00:00<>METAR SBGL 240400Z 34004KT CAVOK 26/22 Q1014=
2025-01-24 05:00:00<>METAR SBGL 240500Z 32004KT CAVOK 25/22 Q1014=
2025-01-24 06:00:00<>METAR SBGL 240600Z 31004KT 8000 NSC 25/22 Q1014=
2025-01-24 07:00:00<>METAR SBGL 240700Z 29004KT 8000 NSC 25/22 Q1013=
2025-01-24 08:00:00<>METAR SBGL 240800Z 08006KT 9999 FEW046 SCT100 24/22 Q1013=
2025-01-24 09:00:00<>METAR SBGL 240900Z 08005KT 9999 FEW046 24/22 Q1014=
2025-01-24 10:00:00<>METAR SBGL 241000Z 06006KT 9999 FEW006 26/23 Q1015=
2025-01-24 11:00:00<>METAR SBGL 241100Z 06002KT CAVOK 27/22 Q1015=
2025-01-24 12:00:00<>METAR SBGL 241200Z 35004KT 9999 FEW033 28/23 Q1015=
2025-01-24 13:00:00<>METAR SBGL 241300Z 35005KT 9999 FEW033 31/23 Q1015=
2025-01-24 14:00:00<>METAR SBGL 241400Z 09004KT CAVOK 32/23 Q1014=
2025-01-24 15:00:00<>METAR SBGL 241500Z 12009KT 9999 SCT030 SCT100 31/23 Q1014=
2025-01-24 16:00:00<>METAR SBGL 241600Z 13010KT 9999 FEW030 31/23 Q1013=
2025-01-24 17:00:00<>METAR SBGL 241700Z 11007KT 9999 FEW030 32/23 Q1013=
2025-01-24 18:00:00<>METAR SBGL 241800Z 12011KT 9999 FEW030 32/22 Q1012=
2025-01-24 19:00:00<>METAR SBGL 241900Z 14011KT 9999 FEW040 31/22 Q1012=
2025-01-24 20:00:00<>METAR SBGL 242000Z 15010KT 9999 FEW040 30/22 Q1011=
2025-01-24 21:00:00<>METAR SBGL 242100Z 14008KT 9999 SCT040 29/22 Q1012=
2025-01-24 22:00:00<>METAR SBGL 242200Z 13006KT 9999 FEW030TCU SCT040 28/23 Q1012=
2025-01-24 23:00:00<>METAR SBGL 242300Z 10011KT 9999 FEW030 29/21 Q1013=
2025-01-25 00:00:00<>METAR SBGL 250000Z 10009KT 9999 FEW030 27/21 Q1013=
2025-01-25 01:00:00<>METAR SBGL 250100Z 11005KT CAVOK 27/22 Q1014=
2025-01-25 02:00:00<>METAR SBGL 250200Z 11004KT CAVOK 26/22 Q1013=
2025-01-25 03:00:00<>METAR SBGL 250300Z 13003KT CAVOK 26/23 Q1013=
2025-01-25 04:00:00<>METAR SBGL 250400Z VRB01KT CAVOK 26/22 Q1013=
2025-01-25 05:00:00<>METAR SBGL 250500Z 09002KT CAVOK 25/22 Q1013=
2025-01-25 06:00:00<>METAR SBGL 250600Z 10004KT CAVOK 25/22 Q1012=
2025-01-25 07:00:00<>METAR SBGL 250700Z 09003KT CAVOK 25/23 Q1012=
2025-01-25 08:00:00<>METAR SBGL 250800Z 11003KT CAVOK 25/23 Q1012=
2025-01-25 09:00:00<>METAR SBGL 250900Z 10003KT CAVOK 25/23 Q1013=
2025-01-25 10:00:00<>METAR SBGL 251000Z 07005KT CAVOK 27/23 Q1013=
2025-01-25 11:00:00<>METAR SBGL 251100Z 08004KT CAVOK 29/23 Q1013=
2025-01-25 12:00:00<>METAR SBGL 251200Z 04007KT CAVOK 28/23 Q1013=
2025-01-25 13:00:00<>METAR SBGL 251300Z 36005KT CAVOK 32/24 Q1013=
2025-01-25 14:00:00<>METAR SBGL 251400Z 05006KT CAVOK 32/22 Q1013=
2025-01-25 15:00:00<>METAR SBGL 251500Z 34006KT CAVOK 35/22 Q1012=
2025-01-25 16:00:00<>METAR SBGL 251600Z 01008KT 9999 FEW030 36/21 Q1011=
2025-01-25 17:00:00<>METAR SBGL 251700Z 04008KT 9999 FEW030 37/21 Q1010=
2025-01-25 18:00:00<>METAR SBGL 251800Z 07010KT 9999 FEW035 37/21 Q1009=
2025-01-25 19:00:00<>METAR SBGL 251900Z 08007KT 9999 VCTS FEW030 FEW035CB 37/21 Q1008=
2025-01-25 19:44:00<>SPECI SBGL 251944Z 26018KT 9999 1200W SHRA TS SCT030 FEW035CB 33/20 Q1010=
2025-01-25 20:00:00<>METAR SBGL 252000Z 24023KT 4500 1000SW SHRA TS SCT030 FEW035CB SCT070 30/22 Q1010=
2025-01-25 20:17:00<>SPECI SBGL 252017Z 19012KT 9999 3000SE SHRA TS SCT030 FEW035CB BKN050 29/21 Q1010=
2025-01-25 21:00:00<>METAR SBGL 252100Z 21007KT 9999 FEW030 BKN083 28/21 Q1009 RETS RESHRA=
2025-01-25 22:00:00<>METAR SBGL 252200Z 27005KT 9999 FEW030 BKN100 27/23 Q1010=
2025-01-25 23:00:00<>METAR SBGL 252300Z 27006KT CAVOK 28/21 Q1010=
2025-01-26 00:00:00<>METAR SBGL 260000Z 32003KT 290V030 CAVOK 28/21 Q1011=
2025-01-26 01:00:00<>METAR SBGL 260100Z 25005KT CAVOK 28/22 Q1011=
2025-01-26 02:00:00<>METAR SBGL 260200Z 31006KT CAVOK 29/21 Q1011=
2025-01-26 03:00:00<>METAR SBGL 260300Z 25004KT CAVOK 28/22 Q1011=
2025-01-26 04:00:00<>METAR SBGL 260400Z 35006KT CAVOK 27/22 Q1010=
2025-01-26 05:00:00<>METAR SBGL 260500Z 36005KT CAVOK 27/22 Q1010=
2025-01-26 06:00:00<>METAR SBGL 260600Z 01003KT 340V040 CAVOK 27/22 Q1009=
2025-01-26 07:00:00<>METAR SBGL 260700Z 05003KT 330V080 CAVOK 26/23 Q1009=
2025-01-26 08:00:00<>METAR SBGL 260800Z VRB02KT CAVOK 26/23 Q1010=
2025-01-26 09:00:00<>METAR SBGL 260900Z 31002KT CAVOK 26/23 Q1010=
2025-01-26 10:00:00<>METAR SBGL 261000Z VRB02KT CAVOK 29/22 Q1010=
2025-01-26 11:00:00<>METAR SBGL 261100Z 28004KT 9999 FEW016 31/22 Q1011=
2025-01-26 12:00:00<>METAR SBGL 261200Z 18003KT 9999 FEW020 BKN100 32/23 Q1011=
2025-01-26 13:00:00<>METAR SBGL 261300Z 12005KT 9999 FEW020 BKN100 33/23 Q1011=
2025-01-26 14:00:00<>METAR SBGL 261400Z 11006KT 9999 SCT030 BKN100 33/23 Q1011=
2025-01-26 15:00:00<>METAR SBGL 261500Z 12009KT 9999 SCT030 BKN100 33/23 Q1011=
2025-01-26 16:00:00<>METAR SBGL 261600Z 12009KT 9999 SCT030 BKN100 31/23 Q1011=
2025-01-26 17:00:00<>METAR SBGL 261700Z 13011KT 9999 FEW030 FEW040TCU BKN100 32/23 Q1010=
2025-01-26 18:00:00<>METAR SBGL 261800Z 21016KT 9999 FEW030 FEW040TCU BKN100 32/21 Q1010=
2025-01-26 19:00:00<>METAR SBGL 261900Z 21010KT 9999 SCT030 FEW040TCU BKN100 31/21 Q1010=
2025-01-26 20:00:00<>METAR SBGL 262000Z 12006KT 9999 -RA FEW030 BKN040 27/24 Q1011=
2025-01-26 21:00:00<>METAR SBGL 262100Z 13004KT 9999 FEW020 BKN040 27/23 Q1011=
2025-01-26 22:00:00<>METAR SBGL 262200Z 05005KT 9999 FEW020 BKN040 27/23 Q1012=
2025-01-26 23:00:00<>METAR SBGL 262300Z 06004KT 9999 FEW020 BKN040 27/24 Q1012=
2025-01-27 00:00:00<>METAR SBGL 270000Z 06004KT 9999 FEW020 BKN040 27/24 Q1012=
2025-01-27 01:00:00<>METAR SBGL 270100Z VRB02KT 9999 FEW020 OVC040 27/23 Q1012=
2025-01-27 02:00:00<>METAR SBGL 270200Z VRB02KT 9999 FEW020 OVC040 28/23 Q1012=
2025-01-27 03:00:00<>METAR SBGL 270300Z 30004KT 9999 BKN040 27/24 Q1012=
2025-01-27 04:00:00<>METAR SBGL 270400Z 30008KT 9999 SCT040 27/23 Q1011=
2025-01-27 05:00:00<>METAR SBGL 270500Z 27008KT 9999 -RA FEW040 27/22 Q1011=
2025-01-27 06:00:00<>METAR SBGL 270600Z 20006KT CAVOK 27/22 Q1010=
2025-01-27 07:00:00<>METAR SBGL 270700Z 05005KT 9999 FEW015 26/23 Q1010=
2025-01-27 08:00:00<>METAR SBGL 270800Z 01003KT 9999 FEW007 26/23 Q1010=
2025-01-27 09:00:00<>METAR SBGL 270900Z 33003KT 9999 FEW008 26/23 Q1011=
2025-01-27 10:00:00<>METAR SBGL 271000Z 29004KT 9999 FEW008 SCT020 BKN051 27/22 Q1011=
2025-01-27 11:00:00<>METAR SBGL 271100Z 30006KT 9999 FEW008 SCT020 27/22 Q1012=
2025-01-27 12:00:00<>METAR SBGL 271200Z 35004KT 9999 FEW008 BKN020 27/23 Q1012=
2025-01-27 13:00:00<>METAR SBGL 271300Z 02005KT 9999 FEW008 BKN050 28/23 Q1012=
2025-01-27 14:00:00<>METAR SBGL 271400Z 04004KT 9999 FEW008 BKN050 28/23 Q1013=
2025-01-27 15:00:00<>METAR SBGL 271500Z 03005KT 9999 FEW008 BKN050 29/23 Q1012=
2025-01-27 16:00:00<>METAR SBGL 271600Z 03008KT 9999 FEW008 BKN050 30/23 Q1012=
2025-01-27 17:00:00<>METAR SBGL 271700Z 11009KT 9999 FEW008 BKN029 29/23 Q1012=
2025-01-27 18:00:00<>METAR SBGL 271800Z 12008KT 9999 FEW008 BKN029 29/23 Q1011=
2025-01-27 19:00:00<>METAR SBGL 271900Z 11009KT 9999 FEW005 BKN029 29/23 Q1011=
2025-01-27 20:00:00<>METAR SBGL 272000Z 12009KT 9999 FEW005 BKN030 27/22 Q1011=
2025-01-27 21:00:00<>METAR SBGL 272100Z 34006KT 9999 FEW005 OVC029 27/23 Q1011=
2025-01-27 22:00:00<>METAR SBGL 272200Z 15004KT 9999 FEW005 BKN033 27/22 Q1011=
2025-01-27 23:00:00<>METAR SBGL 272300Z 29005KT 9999 FEW006 BKN030 27/21 Q1012=
2025-01-28 00:00:00<>METAR SBGL 280000Z 34003KT 9999 FEW006 BKN030 26/23 Q1013=
2025-01-28 01:00:00<>METAR SBGL 280100Z 08005KT 9999 -RA FEW006 OVC020 25/23 Q1014=
2025-01-28 02:00:00<>METAR SBGL 280200Z 14005KT 9999 FEW010 SCT030 BKN100 25/22 Q1013=
2025-01-28 03:00:00<>METAR SBGL 280300Z 05003KT 9999 FEW010 BKN100 24/22 Q1012=
2025-01-28 04:00:00<>METAR SBGL 280400Z 08004KT 9999 FEW020 BKN100 24/22 Q1011=
2025-01-28 05:00:00<>METAR SBGL 280500Z 08004KT 9999 FEW015 BKN030 25/23 Q1011=
2025-01-28 06:00:00<>METAR SBGL 280600Z 06002KT 9999 FEW020 BKN100 25/22 Q1011=
2025-01-28 07:00:00<>METAR SBGL 280700Z 02002KT 9999 FEW020 BKN100 24/22 Q1011=
2025-01-28 08:00:00<>METAR SBGL 280800Z 35003KT 9999 FEW030 BKN100 24/22 Q1011=
2025-01-28 09:00:00<>METAR SBGL 280900Z 34002KT 9000 BKN025 25/22 Q1012=
2025-01-28 10:00:00<>METAR SBGL 281000Z 34002KT 9999 BKN025 26/23 Q1012=
2025-01-28 11:00:00<>METAR SBGL 281100Z 01005KT 9999 SCT028 BKN068 27/23 Q1012=
2025-01-28 12:00:00<>METAR SBGL 281200Z 06005KT 010V110 9999 FEW017 SCT036 29/23 Q1012=
2025-01-28 13:00:00<>METAR SBGL 281300Z 02005KT 9999 FEW023 SCT033 28/23 Q1013=
2025-01-28 14:00:00<>METAR SBGL 281400Z VRB06KT 9999 FEW013 BKN022 29/23 Q1013=
2025-01-28 15:00:00<>METAR SBGL 281500Z 12005KT 090V190 9999 FEW013 BKN033 30/22 Q1012=
2025-01-28 16:00:00<>METAR SBGL 281600Z 12011KT 9999 FEW013 SCT066 31/22 Q1011=
2025-01-28 17:00:00<>METAR SBGL 281700Z 13011KT 9999 SCT033 31/22 Q1010=
2025-01-28 18:00:00<>METAR SBGL 281800Z 13012KT 9999 FEW020 31/22 Q1010=
2025-01-28 19:00:00<>METAR SBGL 281900Z 13013KT 9999 FEW030TCU SCT040 30/22 Q1009=
2025-01-28 20:00:00<>METAR SBGL 282000Z 12011KT 9999 FEW030TCU SCT040 28/22 Q1009=
2025-01-28 21:00:00<>METAR SBGL 282100Z 13013KT 9999 FEW015 BKN040 27/22 Q1010=
2025-01-28 22:00:00<>METAR SBGL 282200Z 13012KT 9999 FEW015 BKN039 27/22 Q1010=
2025-01-28 23:00:00<>METAR SBGL 282300Z 15008KT 9999 FEW020 BKN040 26/23 Q1011=
2025-01-29 00:00:00<>METAR SBGL 290000Z 15005KT 9999 FEW023 BKN040 27/23 Q1012=
2025-01-29 01:00:00<>METAR SBGL 290100Z 10002KT 9999 SCT040 SCT100 27/23 Q1012=
2025-01-29 02:00:00<>METAR SBGL 290200Z 30007KT 9999 FEW040 SCT100 27/23 Q1012=
2025-01-29 03:00:00<>METAR SBGL 290300Z 27003KT 9999 FEW040 SCT100 27/22 Q1011=
2025-01-29 04:00:00<>METAR SBGL 290400Z 29003KT 9999 FEW040 SCT100 26/22 Q1011=
2025-01-29 05:00:00<>METAR SBGL 290500Z 31003KT 9999 FEW040 SCT100 26/22 Q1011=
2025-01-29 06:00:00<>METAR SBGL 290600Z 34003KT 8000 FEW040 SCT100 26/22 Q1010=
2025-01-29 07:00:00<>METAR SBGL 290700Z 35003KT 7000 FEW040 SCT100 25/22 Q1010=
2025-01-29 08:00:00<>METAR SBGL 290800Z 04005KT 9999 FEW040 SCT100 25/23 Q1010=
2025-01-29 09:00:00<>METAR SBGL 290900Z 10002KT 8000 SCT023 25/23 Q1010=
2025-01-29 10:00:00<>METAR SBGL 291000Z 36003KT 7000 FEW007 27/23 Q1011=
2025-01-29 11:00:00<>METAR SBGL 291100Z VRB03KT 9999 SCT015 29/23 Q1011=
2025-01-29 12:00:00<>METAR SBGL 291200Z 05007KT 9999 SCT018 30/24 Q1011=
2025-01-29 13:00:00<>METAR SBGL 291300Z 04008KT 9999 FEW020 30/23 Q1011=
2025-01-29 14:00:00<>METAR SBGL 291400Z 04007KT 360V070 9999 FEW025 32/22 Q1011=
2025-01-29 15:00:00<>METAR SBGL 291500Z 01007KT 350V070 9999 FEW025 32/22 Q1011=
2025-01-29 16:00:00<>METAR SBGL 291600Z 12010KT 9999 FEW025 33/22 Q1010=
2025-01-29 17:00:00<>METAR SBGL 291700Z 13015KT 9999 TS FEW025 FEW030CB SCT075 31/22 Q1009=
2025-01-29 18:00:00<>METAR SBGL 291800Z 15010KT 9999 TS FEW025 FEW030CB BKN055 29/22 Q1009=
2025-01-29 18:41:00<>SPECI SBGL 291841Z 24012KT 9999 3000E +TSRA SCT025 FEW030CB BKN055 26/23 Q1009=
2025-01-29 19:00:00<>METAR SBGL 291900Z 23006KT 2000 +TSRA BR SCT019 FEW030CB OVC035 25/23 Q1010=
2025-01-29 19:18:00<>SPECI SBGL 291918Z 13006KT 050V220 1500 R15/1300U R10/1600D R33/1700D R28/1900D +TSRA BR SCT019 FEW030CB OVC035 24/23 Q1010=
2025-01-29 20:00:00<>METAR SBGL 292000Z 17004KT 110V230 2500 TSRA BR FEW006 SCT020 FEW030CB OVC035 23/22 Q1010 RERA WS R10=
2025-01-29 20:13:00<>SPECI SBGL 292013Z 24007KT 4000 -TSRA BR FEW006 FEW030CB OVC040 24/22 Q1010 RERA=
2025-01-29 21:00:00<>METAR SBGL 292100Z 22004KT 6000 -TSRA FEW006 FEW030CB OVC070 24/23 Q1010=
2025-01-29 21:24:00<>SPECI SBGL 292124Z 24004KT 200V270 8000 -RA FEW018 OVC100 24/22 Q1010 RETS=
2025-01-29 22:00:00<>METAR SBGL 292200Z 25005KT 9999 -RA FEW018 SCT060 BKN100 24/23 Q1010=
2025-01-29 23:00:00<>METAR SBGL 292300Z 27004KT 9999 -RA FEW007 SCT060 BKN100 25/23 Q1010=
2025-01-30 00:00:00<>METAR SBGL 300000Z 34003KT 9999 FEW007 SCT083 25/23 Q1011=
2025-01-30 01:00:00<>METAR SBGL 300100Z 11004KT 080V140 9999 BKN010 BKN080 25/23 Q1011=
2025-01-30 02:00:00<>METAR SBGL 300200Z 10004KT 9999 BKN010 BKN080 25/23 Q1011=
2025-01-30 03:00:00<>METAR SBGL 300300Z 10004KT 9999 FEW007 BKN080 25/23 Q1010=
2025-01-30 04:00:00<>METAR SBGL 300400Z 10004KT 9999 FEW008 SCT015 24/22 Q1010=
2025-01-30 05:00:00<>METAR SBGL 300500Z 09005KT 9999 FEW008 SCT014 24/22 Q1010=
2025-01-30 06:00:00<>METAR SBGL 300600Z 10004KT 9999 FEW009 SCT015 24/22 Q1010=
2025-01-30 07:00:00<>METAR SBGL 300700Z 14005KT 9999 FEW005 SCT014 23/21 Q1010=
2025-01-30 08:00:00<>METAR SBGL 300800Z 24007KT 9999 FEW020 SCT080 26/23 Q1008=
2025-01-30 09:00:00<>METAR SBGL 300900Z 14003KT 080V170 9999 FEW020 BKN100 25/23 Q1008=
2025-01-30 10:00:00<>METAR SBGL 301000Z 09004KT 050V130 9999 FEW020 BKN100 26/24 Q1009=
2025-01-30 11:00:00<>METAR SBGL 301100Z VRB02KT 9999 FEW020 BKN100 27/24 Q1010=
2025-01-30 12:00:00<>METAR SBGL 301200Z 04004KT 010V090 9999 FEW020 BKN100 28/24 Q1010=
2025-01-30 13:00:00<>METAR SBGL 301300Z VRB03KT 9999 FEW020 BKN100 29/24 Q1011=
2025-01-30 14:00:00<>METAR SBGL 301400Z 29003KT 240V340 9999 FEW020 BKN100 29/23 Q1010=
2025-01-30 15:00:00<>METAR SBGL 301500Z 05005KT 010V070 9999 FEW020 BKN100 30/23 Q1010=
2025-01-30 16:00:00<>METAR SBGL 301600Z 04006KT 9999 FEW020 BKN100 30/23 Q1009=
2025-01-30 17:00:00<>METAR SBGL 301700Z 02012KT 9999 SCT020 BKN100 33/21 Q1008=
2025-01-30 18:00:00<>METAR SBGL 301800Z 05008KT 9999 SCT020 BKN100 32/22 Q1007=
2025-01-30 19:00:00<>METAR SBGL 301900Z 06007KT 9999 FEW010TCU SCT020 BKN100 32/23 Q1007=
2025-01-30 20:00:00<>METAR SBGL 302000Z 10012KT 9000 4000N -RA VCTS FEW020 FEW030CB BKN100 29/23 Q1007=
2025-01-30 21:00:00<>METAR SBGL 302100Z 03010KT 9999 SCT020 BKN065 27/22 Q1008=
2025-01-30 22:00:00<>METAR SBGL 302200Z 06003KT 9000 SCT020 BKN100 26/23 Q1008=
2025-01-30 23:00:00<>METAR SBGL 302300Z 08005KT 060V120 9999 FEW020 SCT085 26/23 Q1009=
2025-01-31 00:00:00<>METAR SBGL 310000Z 12005KT 9999 -RA FEW020 SCT070 OVC100 25/23 Q1010=
2025-01-31 01:00:00<>METAR SBGL 310100Z 33008KT 310V030 9999 -RA FEW020 BKN050 OVC090 26/23 Q1011=
2025-01-31 02:00:00<>METAR SBGL 310200Z 15004KT 040V200 9999 FEW020 SCT060 OVC080 25/22 Q1010=
2025-01-31 03:00:00<>METAR SBGL 310300Z 04006KT 9999 FEW020 SCT060 BKN075 25/22 Q1010=
2025-01-31 04:00:00<>METAR SBGL 310400Z VRB04KT 9999 FEW020 SCT060 BKN100 25/24 Q1010=
2025-01-31 05:00:00<>METAR SBGL 310500Z 08002KT 9999 -RA FEW020 SCT060 BKN080 25/23 Q1009=
2025-01-31 06:00:00<>METAR SBGL 310600Z 09003KT 9999 FEW020 SCT070 25/23 Q1008=
2025-01-31 07:00:00<>METAR SBGL 310700Z 08005KT 9999 FEW020 BKN100 24/23 Q1008=
2025-01-31 08:00:00<>METAR SBGL 310800Z VRB02KT 9999 FEW020 BKN100 24/23 Q1008=
2025-01-31 09:00:00<>METAR SBGL 310900Z 13004KT 9999 FEW020 BKN100 24/23 Q1008=
2025-01-31 10:00:00<>METAR SBGL 311000Z 13004KT 9999 FEW020 BKN100 25/23 Q1009=
2025-01-31 11:00:00<>METAR SBGL 311100Z 15003KT 9999 FEW020 BKN080 26/23 Q1009=
2025-01-31 12:00:00<>METAR SBGL 311200Z 11003KT 9999 FEW020 SCT080 28/22 Q1009=
2025-01-31 13:00:00<>METAR SBGL 311300Z 05006KT 9999 FEW020 SCT080 30/22 Q1009=
2025-01-31 14:00:00<>METAR SBGL 311400Z 04010KT 9999 FEW020 SCT100 32/22 Q1009=
2025-01-31 15:00:00<>METAR SBGL 311500Z 04006KT 9999 FEW020 SCT100 33/22 Q1008=
2025-01-31 16:00:00<>METAR SBGL 311600Z 04009KT 9999 FEW020 SCT100 34/22 Q1007=
2025-01-31 17:00:00<>METAR SBGL 311700Z 07005KT 9999 FEW020 BKN100 32/22 Q1007=
2025-01-31 18:00:00<>METAR SBGL 311800Z 16003KT 9999 VCSH VCTS FEW020 FEW025CB BKN100 32/22 Q1007=
2025-01-31 19:00:00<>METAR SBGL 311900Z 33020G30KT 0900 R33/2000 R28/2000 R15/2000 R10/2000 +SHRA TS FEW020 FEW025CB SCT050 BKN100 31/22 Q1007=
2025-01-31 19:12:00<>SPECI SBGL 311912Z 29017KT 0600 R15/1200U R33/1200D R10/1300U R28/P2000 +TSRA BKN015 FEW025CB SCT050 BKN100 24/23 Q1008 RESHRA=
2025-01-31 19:35:00<>SPECI SBGL 311935Z 16005KT 100V210 5000 TSRA SCT015 FEW025CB BKN046 BKN083 24/23 Q1008 RERA=
2025-01-31 20:00:00<>METAR SBGL 312000Z 16006KT 8000 -TSRA FEW015 FEW025CB SCT050 BKN083 24/23 Q1008 RERA=
2025-01-31 21:00:00<>METAR SBGL 312100Z 04006KT 350V060 9000 -RA FEW020 SCT050 BKN083 25/23 Q1008 RETS=
2025-01-31 22:00:00<>METAR SBGL 312200Z 08005KT 9999 -RA FEW020 BKN090 25/23 Q1009=
2025-01-31 23:00:00<>METAR SBGL 312300Z 09006KT 9000 -RA FEW020 BKN100 25/23 Q1009=
2025-02-01 00:00:00<>METAR SBGL 010000Z 11002KT 9999 FEW020 BKN100 24/23 Q1009=
2025-02-01 01:00:00<>METAR SBGL 010100Z 07007KT 9999 FEW020 BKN100 25/22 Q1010=
2025-02-01 02:00:00<>METAR SBGL 010200Z 11003KT 9999 FEW020 BKN100 25/22 Q1010=
2025-02-01 03:00:00<>METAR SBGL 010300Z 12004KT 9999 FEW015 BKN100 24/22 Q1009=
2025-02-01 04:00:00<>METAR SBGL 010400Z 08002KT 9999 FEW015 BKN100 24/23 Q1008=
2025-02-01 05:00:00<>METAR SBGL 010500Z 10002KT 9999 FEW015 BKN100 24/23 Q1008=
2025-02-01 06:00:00<>METAR SBGL 010600Z VRB02KT 9999 FEW020 BKN100 24/22 Q1007=
2025-02-01 07:00:00<>METAR SBGL 010700Z VRB02KT 9999 FEW020 BKN100 24/23 Q1007=
2025-02-01 08:00:00<>METAR SBGL 010800Z 06002KT 9999 FEW020 BKN100 25/23 Q1007=
2025-02-01 09:00:00<>METAR SBGL 010900Z 25002KT 9999 FEW020 BKN100 25/23 Q1008=
2025-02-01 10:00:00<>METAR SBGL 011000Z VRB02KT 9999 FEW020 BKN100 26/23 Q1008=
2025-02-01 11:00:00<>METAR SBGL 011100Z 02003KT 9999 SCT020 BKN100 27/23 Q1009=
2025-02-01 12:00:00<>METAR SBGL 011200Z 32002KT 9999 SCT020 BKN100 28/24 Q1009=
2025-02-01 13:00:00<>METAR SBGL 011300Z 28001KT 9999 SCT020 BKN100 31/23 Q1009=
2025-02-01 14:00:00<>METAR SBGL 011400Z 05003KT 9999 SCT020 BKN100 30/22 Q1009=
2025-02-01 15:00:00<>METAR SBGL 011500Z 06005KT 9999 SCT020 BKN100 31/21 Q1009=
2025-02-01 16:00:00<>METAR SBGL 011600Z 34006KT 9999 SCT020 BKN100 31/22 Q1008=
2025-02-01 17:00:00<>METAR SBGL 011700Z 05007KT 9999 SCT020 BKN100 32/24 Q1007=
2025-02-01 18:00:00<>METAR COR SBGL 011800Z 12003KT 9999 SCT020 BKN100 33/22 Q1006=
2025-02-01 19:00:00<>METAR SBGL 011900Z 06005KT 9999 SCT020 BKN100 31/22 Q1006=
2025-02-01 20:00:00<>METAR SBGL 012000Z 30003KT 9999 -RA SCT020 BKN100 30/22 Q1006=
2025-02-01 21:00:00<>METAR SBGL 012100Z 23004KT 9999 -RA BKN040 BKN100 29/24 Q1006=
2025-02-01 22:00:00<>METAR SBGL 012200Z 30003KT 9999 SCT040 BKN100 28/25 Q1007=
2025-02-01 23:00:00<>METAR SBGL 012300Z 28004KT 260V340 9999 FEW040 BKN100 28/24 Q1007=
2025-02-02 00:00:00<>METAR SBGL 020000Z 24005KT 9999 FEW040 BKN100 28/24 Q1008=
2025-02-02 01:00:00<>METAR SBGL 020100Z 29004KT 270V360 9999 FEW040 BKN100 28/23 Q1008=
2025-02-02 02:00:00<>METAR SBGL 020200Z 26008KT 9999 FEW040 BKN100 27/23 Q1008=
2025-02-02 03:00:00<>METAR SBGL 020300Z 02003KT 9999 -RA FEW040 BKN083 26/24 Q1009=
2025-02-02 04:00:00<>METAR SBGL 020400Z VRB01KT CAVOK 26/24 Q1008=
2025-02-02 05:00:00<>METAR SBGL 020500Z 34003KT 310V030 9999 FEW007 BKN100 26/24 Q1007=
2025-02-02 06:00:00<>METAR SBGL 020600Z 07003KT CAVOK 25/24 Q1007=
2025-02-02 07:00:00<>METAR SBGL 020700Z 06004KT CAVOK 25/24 Q1007=
2025-02-02 08:00:00<>METAR SBGL 020800Z VRB02KT CAVOK 25/24 Q1007=
2025-02-02 09:00:00<>METAR SBGL 020900Z 07003KT 9999 FEW018 BKN100 25/24 Q1008=
2025-02-02 10:00:00<>METAR SBGL 021000Z VRB01KT 9999 FEW018 BKN100 27/24 Q1008=
2025-02-02 11:00:00<>METAR SBGL 021100Z 25003KT 9999 FEW019 BKN100 28/25 Q1009=
2025-02-02 12:00:00<>METAR SBGL 021200Z 25005KT 9999 FEW019 BKN100 29/23 Q1009=
2025-02-02 13:00:00<>METAR SBGL 021300Z 29005KT 9999 FEW019 BKN100 30/23 Q1010=
2025-02-02 14:00:00<>METAR SBGL 021400Z 36010KT 9999 FEW019 BKN100 32/22 Q1009=
2025-02-02 15:00:00<>METAR SBGL 021500Z 36011KT 9999 FEW020 BKN100 31/22 Q1009=
2025-02-02 16:00:00<>METAR SBGL 021600Z 08004KT 9999 FEW020 BKN100 31/23 Q1008=
2025-02-02 17:00:00<>METAR SBGL 021700Z 12005KT 9999 SCT030 BKN100 32/23 Q1008=
2025-02-02 18:00:00<>METAR SBGL 021800Z 35003KT 9999 SCT040 BKN100 34/21 Q1007=
2025-02-02 19:00:00<>METAR SBGL 021900Z 25005KT 9999 SCT040 BKN100 35/22 Q1007=
2025-02-02 20:00:00<>METAR SBGL 022000Z 28004KT 9999 SCT040 BKN100 33/22 Q1007=
2025-02-02 21:00:00<>METAR SBGL 022100Z 30005KT 9999 SCT048 BKN100 31/23 Q1007=
2025-02-02 22:00:00<>METAR SBGL 022200Z 33004KT 9999 FEW048 SCT100 30/23 Q1007=
2025-02-02 23:00:00<>METAR SBGL 022300Z 30004KT 9999 FEW048 SCT100 29/22 Q1008=
2025-02-03 00:00:00<>METAR SBGL 030000Z 24005KT 9999 FEW048 SCT100 29/21 Q1009=
2025-02-03 01:00:00<>METAR SBGL 030100Z 26005KT CAVOK 28/21 Q1010=
2025-02-03 02:00:00<>METAR SBGL 030200Z 26008KT CAVOK 28/21 Q1010=
2025-02-03 03:00:00<>METAR SBGL 030300Z 24005KT CAVOK 28/21 Q1009=
2025-02-03 04:00:00<>METAR SBGL 030400Z 29002KT CAVOK 27/22 Q1009=
2025-02-03 05:00:00<>METAR SBGL 030500Z 10002KT CAVOK 25/22 Q1009=
2025-02-03 06:00:00<>METAR SBGL 030600Z 12002KT CAVOK 25/22 Q1008=
2025-02-03 07:00:00<>METAR SBGL 030700Z 13003KT CAVOK 25/23 Q1009=
2025-02-03 08:00:00<>METAR SBGL 030800Z 07001KT CAVOK 25/23 Q1009=
2025-02-03 09:00:00<>METAR SBGL 030900Z 13002KT CAVOK 25/23 Q1009=
2025-02-03 10:00:00<>METAR SBGL 031000Z 06002KT CAVOK 27/23 Q1010=
2025-02-03 11:00:00<>METAR SBGL 031100Z 35004KT 320V040 CAVOK 27/23 Q1010=
2025-02-03 12:00:00<>METAR SBGL 031200Z VRB02KT CAVOK 29/23 Q1011=
2025-02-03 13:00:00<>METAR SBGL 031300Z 35004KT 9999 FEW020 BKN100 29/24 Q1011=
2025-02-03 14:00:00<>METAR SBGL 031400Z 05005KT 9999 FEW020 SCT100 33/22 Q1011=
2025-02-03 15:00:00<>METAR SBGL 031500Z 04005KT 350V080 9999 FEW020 SCT100 35/22 Q1010=
2025-02-03 16:00:00<>METAR SBGL 031600Z 05006KT 9999 FEW030 SCT100 35/21 Q1010=
2025-02-03 17:00:00<>METAR SBGL 031700Z 05007KT 020V090 9999 FEW020 FEW030TCU 36/21 Q1009=
2025-02-03 18:00:00<>METAR SBGL 031800Z 08008KT 040V120 9999 FEW020 FEW030TCU 35/22 Q1009=
2025-02-03 19:00:00<>METAR SBGL 031900Z 13008KT 9999 FEW020 FEW030TCU 33/21 Q1008=
2025-02-03 20:00:00<>METAR SBGL 032000Z 14009KT 9999 FEW020 FEW030TCU SCT060 32/21 Q1009=
2025-02-03 21:00:00<>METAR SBGL 032100Z 16009KT 9999 FEW020 SCT060 32/19 Q1009=
2025-02-03 22:00:00<>METAR SBGL 032200Z 14005KT 9999 FEW025 BKN050 31/19 Q1010=
2025-02-03 23:00:00<>METAR SBGL 032300Z 13007KT 9999 FEW025 BKN050 30/20 Q1010=
2025-02-04 00:00:00<>METAR SBGL 040000Z 36004KT 9999 VCTS FEW025CB SCT050 28/21 Q1011=
2025-02-04 01:00:00<>METAR SBGL 040100Z 28003KT 9999 VCTS FEW025CB SCT050 29/23 Q1011=
2025-02-04 02:00:00<>METAR SBGL 040200Z 27005KT 9999 VCTS FEW030CB SCT080 28/23 Q1011=
2025-02-04 03:00:00<>METAR SBGL 040300Z 28006KT 9999 FEW030 28/23 Q1011=
2025-02-04 04:00:00<>METAR SBGL 040400Z 29006KT 9999 FEW030 27/23 Q1011=
2025-02-04 05:00:00<>METAR SBGL 040500Z 31006KT 9999 FEW030 27/23 Q1011=
2025-02-04 06:00:00<>METAR SBGL 040600Z 33005KT 8000 FEW030 27/23 Q1010=
2025-02-04 07:00:00<>METAR SBGL 040700Z 35005KT 8000 FEW030 26/23 Q1010=
2025-02-04 08:00:00<>METAR SBGL 040800Z 26006KT 9999 FEW030 26/23 Q1011=
2025-02-04 09:00:00<>METAR SBGL 040900Z 28006KT 9999 FEW030 26/23 Q1012=
2025-02-04 10:00:00<>METAR SBGL 041000Z 34004KT 9999 FEW030 26/23 Q1012=
2025-02-04 11:00:00<>METAR SBGL 041100Z 02005KT 9999 FEW030 28/24 Q1012=
2025-02-04 12:00:00<>METAR SBGL 041200Z 06006KT 020V090 9999 FEW030 28/23 Q1012=
2025-02-04 13:00:00<>METAR SBGL 041300Z 03007KT 360V070 9999 FEW030 29/24 Q1012=
2025-02-04 14:00:00<>METAR SBGL 041400Z 04005KT 350V080 9999 FEW030 32/25 Q1011=
2025-02-04 15:00:00<>METAR SBGL 041500Z 36006KT 330V080 9999 FEW030 34/22 Q1011=
2025-02-04 16:00:00<>METAR SBGL 041600Z 12009KT 9999 FEW035 35/24 Q1010=
2025-02-04 17:00:00<>METAR SBGL 041700Z 14007KT 9999 FEW035 35/22 Q1010=
2025-02-04 18:00:00<>METAR SBGL 041800Z 13010KT 9999 FEW035 34/22 Q1009=
2025-02-04 19:00:00<>METAR SBGL 041900Z 13012KT 9999 FEW035 FEW040TCU 33/22 Q1009=
2025-02-04 20:00:00<>METAR SBGL 042000Z 10014KT 9999 FEW035 FEW040TCU 32/21 Q1009=
2025-02-04 21:00:00<>METAR SBGL 042100Z 14007KT 9999 FEW035 FEW040TCU SCT100 31/22 Q1009=
2025-02-04 22:00:00<>METAR SBGL 042200Z 13008KT 9999 FEW035 SCT100 30/22 Q1010=
2025-02-04 23:00:00<>METAR SBGL 042300Z 15004KT CAVOK 29/22 Q1010=
2025-02-05 00:00:00<>METAR SBGL 050000Z 10003KT 9999 FEW025 BKN050 29/22 Q1011=
2025-02-05 01:00:00<>METAR SBGL 050100Z 08005KT CAVOK 28/23 Q1012=
2025-02-05 02:00:00<>METAR SBGL 050200Z 08005KT CAVOK 27/23 Q1012=
2025-02-05 03:00:00<>METAR SBGL 050300Z 29002KT CAVOK 28/23 Q1011=
2025-02-05 04:00:00<>METAR SBGL 050400Z 27004KT CAVOK 27/23 Q1011=
2025-02-05 05:00:00<>METAR SBGL 050500Z 27007KT CAVOK 27/23 Q1011=
2025-02-05 06:00:00<>METAR SBGL 050600Z 25004KT CAVOK 26/22 Q1011=
2025-02-05 07:00:00<>METAR SBGL 050700Z 29004KT CAVOK 26/23 Q1011=
2025-02-05 08:00:00<>METAR SBGL 050800Z 36002KT CAVOK 26/24 Q1012=
2025-02-05 09:00:00<>METAR SBGL 050900Z 03004KT CAVOK 26/24 Q1012=
2025-02-05 10:00:00<>METAR SBGL 051000Z 07007KT CAVOK 26/23 Q1013=
2025-02-05 11:00:00<>METAR SBGL 051100Z 07005KT 050V130 CAVOK 28/24 Q1013=
2025-02-05 12:00:00<>METAR SBGL 051200Z 03005KT 010V070 CAVOK 28/24 Q1013=
2025-02-05 13:00:00<>METAR SBGL 051300Z 04006KT 360V090 CAVOK 31/25 Q1012=
2025-02-05 14:00:00<>METAR SBGL 051400Z 02004KT 320V100 CAVOK 32/22 Q1012=
2025-02-05 15:00:00<>METAR SBGL 051500Z 02002KT 9999 FEW025 34/22 Q1012=
2025-02-05 16:00:00<>METAR SBGL 051600Z VRB05KT 9999 FEW030 35/20 Q1011=
2025-02-05 17:00:00<>METAR SBGL 051700Z VRB05KT 9999 FEW030 36/20 Q1010=
2025-02-05 18:00:00<>METAR SBGL 051800Z 12011KT 9999 FEW030 34/21 Q1009=
2025-02-05 19:00:00<>METAR SBGL 051900Z 13011KT 9999 FEW030 34/21 Q1009=
2025-02-05 20:00:00<>METAR SBGL 052000Z 14011KT 9999 FEW030 33/20 Q1009=
2025-02-05 21:00:00<>METAR SBGL 052100Z 14011KT 9999 FEW030 32/20 Q1009=
2025-02-05 22:00:00<>METAR SBGL 052200Z 14006KT 9999 FEW030 31/20 Q1009=
2025-02-05 23:00:00<>METAR SBGL 052300Z 12005KT 9999 FEW045 30/21 Q1010=
2025-02-06 00:00:00<>METAR SBGL 060000Z VRB03KT CAVOK 29/21 Q1011=
2025-02-06 01:00:00<>METAR SBGL 060100Z 05005KT CAVOK 28/22 Q1012=
2025-02-06 02:00:00<>METAR SBGL 060200Z 05004KT CAVOK 28/22 Q1011=
2025-02-06 03:00:00<>METAR SBGL 060300Z 06006KT CAVOK 27/22 Q1011=
2025-02-06 04:00:00<>METAR SBGL 060400Z 06006KT CAVOK 26/22 Q1011=
2025-02-06 05:00:00<>METAR SBGL 060500Z 10005KT CAVOK 26/21 Q1011=
2025-02-06 06:00:00<>METAR SBGL 060600Z 09004KT CAVOK 25/21 Q1011=
2025-02-06 07:00:00<>METAR SBGL 060700Z 07003KT CAVOK 25/21 Q1011=
2025-02-06 08:00:00<>METAR SBGL 060800Z 06005KT CAVOK 25/22 Q1012=
2025-02-06 09:00:00<>METAR SBGL 060900Z 06006KT CAVOK 25/22 Q1012=
2025-02-06 10:00:00<>METAR SBGL 061000Z 07007KT CAVOK 27/23 Q1013=
2025-02-06 11:00:00<>METAR SBGL 061100Z 06005KT CAVOK 28/22 Q1013=
2025-02-06 12:00:00<>METAR SBGL 061200Z 03005KT CAVOK 30/23 Q1013=
2025-02-06 13:00:00<>METAR SBGL 061300Z 04003KT 360V100 CAVOK 32/22 Q1013=
2025-02-06 14:00:00<>METAR SBGL 061400Z 05004KT 360V090 CAVOK 34/21 Q1012=
2025-02-06 15:00:00<>METAR SBGL 061500Z 36004KT 310V070 9999 FEW030 35/20 Q1012=
2025-02-06 16:00:00<>METAR SBGL 061600Z 34004KT 280V070 9999 FEW020 FEW030TCU 36/20 Q1011=
2025-02-06 17:00:00<>METAR SBGL 061700Z 05007KT 9999 FEW020 37/18 Q1011=
2025-02-06 18:00:00<>METAR SBGL 061800Z 12010KT 9999 FEW025 SCT100 34/21 Q1010=
2025-02-06 19:00:00<>METAR SBGL 061900Z 13009KT 9999 FEW025 SCT100 34/21 Q1010=
2025-02-06 20:00:00<>METAR SBGL 062000Z 13010KT 9999 FEW025 33/20 Q1010=
2025-02-06 21:00:00<>METAR SBGL 062100Z 14008KT CAVOK 33/20 Q1010=
2025-02-06 22:00:00<>METAR SBGL 062200Z 13006KT CAVOK 31/21 Q1010=
2025-02-06 23:00:00<>METAR SBGL 062300Z 12004KT CAVOK 31/21 Q1011=
2025-02-07 00:00:00<>METAR SBGL 070000Z VRB01KT CAVOK 30/21 Q1011=
2025-02-07 01:00:00<>METAR SBGL 070100Z 09003KT CAVOK 29/22 Q1012=
2025-02-07 02:00:00<>METAR SBGL 070200Z 08003KT CAVOK 29/22 Q1011=
2025-02-07 03:00:00<>METAR SBGL 070300Z 06005KT CAVOK 28/23 Q1011=
2025-02-07 04:00:00<>METAR SBGL 070400Z 06003KT CAVOK 27/23 Q1010=
2025-02-07 05:00:00<>METAR SBGL 070500Z 06006KT CAVOK 27/23 Q1010=
2025-02-07 06:00:00<>METAR SBGL 070600Z 06004KT CAVOK 26/23 Q1010=
2025-02-07 07:00:00<>METAR SBGL 070700Z 07003KT CAVOK 26/23 Q1010=
2025-02-07 08:00:00<>METAR SBGL 070800Z 05005KT CAVOK 26/23 Q1010=
2025-02-07 09:00:00<>METAR SBGL 070900Z 07006KT CAVOK 25/23 Q1011=
2025-02-07 10:00:00<>METAR SBGL 071000Z 07003KT CAVOK 27/23 Q1011=
2025-02-07 11:00:00<>METAR SBGL 071100Z 05005KT CAVOK 28/24 Q1012=
2025-02-07 12:00:00<>METAR SBGL 071200Z 23008KT CAVOK 31/23 Q1012=
2025-02-07 13:00:00<>METAR SBGL 071300Z 02006KT CAVOK 33/22 Q1012=
2025-02-07 14:00:00<>METAR SBGL 071400Z 02008KT CAVOK 35/22 Q1012=
2025-02-07 15:00:00<>METAR SBGL 071500Z 06011KT 9999 FEW033 36/22 Q1012=
2025-02-07 16:00:00<>METAR SBGL 071600Z 13013KT 9999 FEW033 34/23 Q1012=
2025-02-07 17:00:00<>METAR SBGL 071700Z 12013KT 9999 FEW033 33/23 Q1011=
2025-02-07 18:00:00<>METAR COR SBGL 071800Z 12015KT 9999 FEW033 33/23 Q1011 WS R10=
2025-02-07 19:00:00<>METAR SBGL 071900Z 14015KT 9999 FEW033 31/23 Q1011=
2025-02-07 20:00:00<>METAR SBGL 072000Z 12018KT 9999 FEW033 30/22 Q1011=
2025-02-07 21:00:00<>METAR SBGL 072100Z 14014KT 9999 FEW033 29/21 Q1011=
2025-02-07 22:00:00<>METAR SBGL 072200Z 11013KT 9999 FEW033 29/20 Q1012=
2025-02-07 23:00:00<>METAR SBGL 072300Z 16006KT 9999 FEW033 29/20 Q1012=
2025-02-08 00:00:00<>METAR SBGL 080000Z 19005KT CAVOK 29/19 Q1013=
2025-02-08 01:00:00<>METAR SBGL 080100Z 05002KT CAVOK 29/19 Q1013=
2025-02-08 02:00:00<>METAR SBGL 080200Z 27005KT CAVOK 28/22 Q1013=
2025-02-08 03:00:00<>METAR SBGL 080300Z 29003KT CAVOK 27/21 Q1013=
2025-02-08 04:00:00<>METAR SBGL 080400Z 10003KT CAVOK 25/21 Q1013=
2025-02-08 05:00:00<>METAR SBGL 080500Z 11005KT CAVOK 25/22 Q1012=
2025-02-08 06:00:00<>METAR SBGL 080600Z 11003KT CAVOK 24/22 Q1012=
2025-02-08 07:00:00<>METAR SBGL 080700Z 12002KT CAVOK 24/21 Q1012=
2025-02-08 08:00:00<>METAR SBGL 080800Z 06004KT CAVOK 24/21 Q1013=
2025-02-08 09:00:00<>METAR SBGL 080900Z 02003KT CAVOK 25/22 Q1013=
2025-02-08 10:00:00<>METAR SBGL 081000Z 36003KT 330V030 CAVOK 26/21 Q1014=
2025-02-08 11:00:00<>METAR SBGL 081100Z 02007KT 350V050 9999 SCT021 28/22 Q1014=
2025-02-08 12:00:00<>METAR SBGL 081200Z 01007KT 340V040 9999 SCT026 29/23 Q1015=
2025-02-08 13:00:00<>METAR SBGL 081300Z 34004KT 290V030 9999 FEW030 31/22 Q1015=
2025-02-08 14:00:00<>METAR SBGL 081400Z 36005KT 280V040 9999 FEW030 32/19 Q1014=
2025-02-08 15:00:00<>METAR SBGL 081500Z 12011KT 9999 FEW030 33/22 Q1014=
2025-02-08 16:00:00<>METAR SBGL 081600Z 12013KT 9999 FEW030 32/22 Q1013=
2025-02-08 17:00:00<>METAR SBGL 081700Z 12012KT 9999 FEW030 32/23 Q1013=
2025-02-08 18:00:00<>METAR SBGL 081800Z 13013KT 9999 FEW030 SCT045 30/22 Q1013=
2025-02-08 19:00:00<>METAR SBGL 081900Z 13014KT 9999 FEW030 SCT050 30/23 Q1013=
2025-02-08 20:00:00<>METAR SBGL 082000Z 13014KT 9999 FEW030 SCT050 29/22 Q1013=
2025-02-08 21:00:00<>METAR SBGL 082100Z 13012KT 9999 FEW025 BKN055 28/20 Q1013=
2025-02-08 22:00:00<>METAR SBGL 082200Z 13008KT 9999 FEW025 BKN055 27/22 Q1014=
2025-02-08 23:00:00<>METAR SBGL 082300Z 14007KT 9999 FEW025 SCT033 27/22 Q1015=
2025-02-09 00:00:00<>METAR SBGL 090000Z 13006KT 9999 SCT046 27/22 Q1015=
2025-02-09 01:00:00<>METAR SBGL 090100Z 09007KT 9999 SCT046 26/22 Q1016=
2025-02-09 02:00:00<>METAR SBGL 090200Z 11010KT 9999 FEW046 26/22 Q1015=
2025-02-09 03:00:00<>METAR SBGL 090300Z 06004KT 9999 FEW046 25/22 Q1015=
2025-02-09 04:00:00<>METAR SBGL 090400Z 07003KT CAVOK 25/22 Q1015=
2025-02-09 05:00:00<>METAR SBGL 090500Z 05003KT CAVOK 25/22 Q1014=
2025-02-09 06:00:00<>METAR SBGL 090600Z 03004KT 8000 FEW046 24/22 Q1014=
2025-02-09 07:00:00<>METAR SBGL 090700Z 01004KT 8000 FEW046 24/22 Q1014=
2025-02-09 08:00:00<>METAR SBGL 090800Z 07004KT 8000 FEW013 BKN015 25/22 Q1015=
2025-02-09 09:00:00<>METAR SBGL 090900Z 04004KT 8000 FEW013 BKN017 25/22 Q1015=
2025-02-09 10:00:00<>METAR SBGL 091000Z 01003KT 9999 FEW009 SCT017 26/23 Q1016=
2025-02-09 11:00:00<>METAR SBGL 091100Z 05003KT 020V090 9000 FEW009 SCT015 27/23 Q1016=
2025-02-09 12:00:00<>METAR SBGL 091200Z 06005KT 010V110 9000 FEW015 29/23 Q1017=
2025-02-09 13:00:00<>METAR SBGL 091300Z 13006KT 9999 FEW020 29/22 Q1017=
2025-02-09 14:00:00<>METAR SBGL 091400Z 13006KT 9999 FEW025 30/21 Q1016=
2025-02-09 15:00:00<>METAR SBGL 091500Z 11008KT 9999 FEW025 SCT100 33/22 Q1016=
2025-02-09 16:00:00<>METAR SBGL 091600Z 12011KT 100V160 9999 FEW025 32/22 Q1015=
2025-02-09 17:00:00<>METAR SBGL 091700Z 13013KT 9999 FEW025 FEW030TCU 30/23 Q1014=
2025-02-09 18:00:00<>METAR SBGL 091800Z 13013KT 9999 FEW025 FEW030TCU 31/22 Q1013=
2025-02-09 19:00:00<>METAR SBGL 091900Z 12008KT 040V150 9999 VCSH FEW025 FEW030TCU BKN100 30/22 Q1013=
2025-02-09 20:00:00<>METAR SBGL 092000Z 09008KT 9999 FEW025 FEW030TCU BKN100 30/22 Q1013=
2025-02-09 21:00:00<>METAR SBGL 092100Z 15005KT 9999 FEW025 SCT100 28/23 Q1013=
2025-02-09 22:00:00<>METAR SBGL 092200Z 14006KT 9999 FEW030 28/23 Q1014=
2025-02-09 23:00:00<>METAR SBGL 092300Z 13005KT 9999 FEW030 28/23 Q1015=
2025-02-10 00:00:00<>METAR SBGL 100000Z 13008KT CAVOK 27/23 Q1015=
2025-02-10 01:00:00<>METAR SBGL 100100Z 10006KT CAVOK 27/22 Q1015=
2025-02-10 02:00:00<>METAR SBGL 100200Z 12007KT CAVOK 27/21 Q1015=
2025-02-10 03:00:00<>METAR SBGL 100300Z 12007KT CAVOK 26/22 Q1014=
2025-02-10 04:00:00<>METAR SBGL 100400Z 12004KT CAVOK 25/22 Q1014=
2025-02-10 05:00:00<>METAR SBGL 100500Z VRB02KT CAVOK 25/22 Q1014=
2025-02-10 06:00:00<>METAR SBGL 100600Z 09003KT CAVOK 25/22 Q1013=
2025-02-10 07:00:00<>METAR SBGL 100700Z 09003KT CAVOK 25/22 Q1013=
2025-02-10 08:00:00<>METAR SBGL 100800Z 08004KT 9999 FEW018 25/23 Q1013=
2025-02-10 09:00:00<>METAR SBGL 100900Z 09006KT 9999 FEW007 24/23 Q1014=
2025-02-10 10:00:00<>METAR SBGL 101000Z 07007KT 9999 FEW010 26/23 Q1015=
2025-02-10 11:00:00<>METAR SBGL 101100Z 06005KT 9999 FEW010 26/23 Q1015=
2025-02-10 12:00:00<>METAR SBGL 101200Z 12003KT 9999 FEW010 29/23 Q1015=
2025-02-10 13:00:00<>METAR COR SBGL 101300Z 07005KT 9999 SCT015 29/24 Q1015=
2025-02-10 14:00:00<>METAR SBGL 101400Z 09005KT 9999 FEW018 32/22 Q1015=
2025-02-10 15:00:00<>METAR SBGL 101500Z 06007KT 9999 FEW020 33/21 Q1014=
2025-02-10 16:00:00<>METAR SBGL 101600Z 13007KT 9999 FEW030 33/20 Q1013=
2025-02-10 17:00:00<>METAR SBGL 101700Z 13012KT 9999 FEW030 32/20 Q1013=
2025-02-10 18:00:00<>METAR SBGL 101800Z 13012KT 9999 FEW030 31/22 Q1012=
2025-02-10 19:00:00<>METAR SBGL 101900Z 13012KT 9999 FEW030 31/20 Q1012=
2025-02-10 20:00:00<>METAR SBGL 102000Z 14011KT 9999 FEW030 FEW035TCU 30/21 Q1012=
2025-02-10 21:00:00<>METAR SBGL 102100Z 14009KT 9999 FEW030 30/21 Q1011=
2025-02-10 22:00:00<>METAR SBGL 102200Z 13007KT 9999 FEW030 29/22 Q1012=
2025-02-10 23:00:00<>METAR COR SBGL 102300Z 10010KT 9999 FEW010 29/21 Q1012=
2025-02-11 00:00:00<>METAR SBGL 110000Z 10007KT CAVOK 28/20 Q1013=
2025-02-11 01:00:00<>METAR SBGL 110100Z 10006KT CAVOK 27/21 Q1013=
2025-02-11 02:00:00<>METAR SBGL 110200Z 10005KT CAVOK 27/22 Q1013=
2025-02-11 03:00:00<>METAR SBGL 110300Z 09005KT CAVOK 26/22 Q1013=
2025-02-11 04:00:00<>METAR SBGL 110400Z 09003KT CAVOK 26/22 Q1012=
2025-02-11 05:00:00<>METAR SBGL 110500Z 12003KT CAVOK 26/22 Q1012=
2025-02-11 06:00:00<>METAR SBGL 110600Z 10003KT CAVOK 25/21 Q1011=
2025-02-11 07:00:00<>METAR SBGL 110700Z 10002KT CAVOK 25/21 Q1011=
2025-02-11 08:00:00<>METAR SBGL 110800Z 09003KT CAVOK 25/21 Q1012=
2025-02-11 09:00:00<>METAR SBGL 110900Z 11003KT CAVOK 24/21 Q1012=
2025-02-11 10:00:00<>METAR SBGL 111000Z 04004KT CAVOK 26/22 Q1013=
2025-02-11 11:00:00<>METAR SBGL 111100Z 05004KT 010V100 CAVOK 27/22 Q1014=
2025-02-11 12:00:00<>METAR SBGL 111200Z 05003KT 360V110 CAVOK 28/21 Q1014=
2025-02-11 13:00:00<>METAR SBGL 111300Z 05004KT 020V100 9999 FEW025 29/22 Q1014=
2025-02-11 14:00:00<>METAR SBGL 111400Z VRB07KT 9999 FEW025 31/21 Q1013=
2025-02-11 15:00:00<>METAR SBGL 111500Z 03006KT 360V080 9999 FEW025 33/20 Q1012=
2025-02-11 16:00:00<>METAR SBGL 111600Z 34005KT 9999 FEW025 34/20 Q1012=
2025-02-11 17:00:00<>METAR SBGL 111700Z 14007KT 9999 FEW030 35/20 Q1011=
2025-02-11 18:00:00<>METAR SBGL 111800Z 13010KT 9999 FEW030 33/20 Q1010=
2025-02-11 19:00:00<>METAR SBGL 111900Z 13012KT 9999 FEW030 32/20 Q1010=
2025-02-11 20:00:00<>METAR SBGL 112000Z 14010KT 9999 FEW030 32/21 Q1010=
2025-02-11 21:00:00<>METAR SBGL 112100Z 14008KT 9999 FEW035 31/21 Q1010=
2025-02-11 22:00:00<>METAR SBGL 112200Z 13006KT 9999 FEW035 29/22 Q1010=
2025-02-11 23:00:00<>METAR SBGL 112300Z 10007KT CAVOK 30/22 Q1010=
2025-02-12 00:00:00<>METAR SBGL 120000Z 10005KT CAVOK 29/21 Q1011=
2025-02-12 01:00:00<>METAR SBGL 120100Z 10003KT CAVOK 28/21 Q1011=
2025-02-12 02:00:00<>METAR SBGL 120200Z 13003KT 100V160 CAVOK 27/21 Q1012=
2025-02-12 03:00:00<>METAR SBGL 120300Z VRB02KT CAVOK 26/21 Q1012=
2025-02-12 04:00:00<>METAR SBGL 120400Z 10002KT CAVOK 26/21 Q1011=
2025-02-12 05:00:00<>METAR SBGL 120500Z 10003KT CAVOK 25/21 Q1011=
2025-02-12 06:00:00<>METAR SBGL 120600Z VRB02KT CAVOK 25/21 Q1011=
2025-02-12 07:00:00<>METAR SBGL 120700Z 03002KT CAVOK 25/21 Q1011=
2025-02-12 08:00:00<>METAR SBGL 120800Z VRB01KT CAVOK 25/21 Q1012=
2025-02-12 09:00:00<>METAR SBGL 120900Z 09005KT CAVOK 24/21 Q1012=
2025-02-12 10:00:00<>METAR SBGL 121000Z 07004KT CAVOK 27/22 Q1013=
2025-02-12 11:00:00<>METAR SBGL 121100Z 05005KT CAVOK 28/22 Q1013=
2025-02-12 12:00:00<>METAR SBGL 121200Z 08004KT CAVOK 30/21 Q1013=
2025-02-12 13:00:00<>METAR SBGL 121300Z 10005KT CAVOK 32/20 Q1013=
2025-02-12 14:00:00<>METAR SBGL 121400Z 36004KT CAVOK 33/22 Q1012=
2025-02-12 15:00:00<>METAR SBGL 121500Z 01007KT 9999 FEW030 34/21 Q1012=
2025-02-12 16:00:00<>METAR SBGL 121600Z 33006KT 9999 FEW030 35/20 Q1011=
2025-02-12 17:00:00<>METAR SBGL 121700Z 06008KT 9999 FEW030 35/21 Q1010=
2025-02-12 18:00:00<>METAR SBGL 121800Z 05007KT 9999 FEW030 36/20 Q1010=
2025-02-12 19:00:00<>METAR SBGL 121900Z 12009KT 9999 SCT033 34/21 Q1009=
2025-02-12 20:00:00<>METAR SBGL 122000Z 32007KT 9999 FEW033 35/19 Q1009=
2025-02-12 21:00:00<>METAR SBGL 122100Z 32007KT 9999 FEW033 34/20 Q1009=
2025-02-12 22:00:00<>METAR SBGL 122200Z 04007KT 9999 FEW033 32/20 Q1009=
2025-02-12 23:00:00<>METAR SBGL 122300Z 34003KT 9999 FEW033 31/21 Q1010=
2025-02-13 00:00:00<>METAR SBGL 130000Z 06005KT CAVOK 30/22 Q1011=
2025-02-13 01:00:00<>METAR SBGL 130100Z 04006KT CAVOK 30/23 Q1011=
2025-02-13 02:00:00<>METAR SBGL 130200Z 08008KT CAVOK 28/22 Q1012=
2025-02-13 03:00:00<>METAR SBGL 130300Z 12002KT CAVOK 27/22 Q1012=
2025-02-13 04:00:00<>METAR SBGL 130400Z 05002KT CAVOK 27/22 Q1012=
2025-02-13 05:00:00<>METAR SBGL 130500Z 04003KT CAVOK 26/22 Q1011=
2025-02-13 06:00:00<>METAR SBGL 130600Z 07005KT CAVOK 25/22 Q1011=
2025-02-13 07:00:00<>METAR SBGL 130700Z 10003KT CAVOK 25/22 Q1011=
2025-02-13 08:00:00<>METAR SBGL 130800Z 05003KT CAVOK 25/22 Q1012=
2025-02-13 09:00:00<>METAR SBGL 130900Z 17002KT CAVOK 25/22 Q1012=
2025-02-13 10:00:00<>METAR SBGL 131000Z 04004KT CAVOK 27/22 Q1012=
2025-02-13 11:00:00<>METAR SBGL 131100Z 03003KT CAVOK 28/22 Q1013=
2025-02-13 12:00:00<>METAR SBGL 131200Z 35002KT 9999 FEW020 31/22 Q1013=
2025-02-13 13:00:00<>METAR SBGL 131300Z 33003KT 9999 FEW020 34/21 Q1012=
2025-02-13 14:00:00<>METAR SBGL 131400Z 35003KT 9999 FEW020 34/21 Q1012=
2025-02-13 15:00:00<>METAR SBGL 131500Z 32008KT 9999 FEW025 35/21 Q1011=
2025-02-13 16:00:00<>METAR SBGL 131600Z 34005KT 9999 FEW025 36/19 Q1011=
2025-02-13 17:00:00<>METAR SBGL 131700Z 01002KT 9999 FEW030 37/19 Q1010=
2025-02-13 18:00:00<>METAR SBGL 131800Z 13011KT 9999 SCT030 35/21 Q1010=
2025-02-13 19:00:00<>METAR SBGL 131900Z 12013KT 9999 FEW030 32/22 Q1009=
2025-02-13 20:00:00<>METAR SBGL 132000Z 13013KT 9999 FEW030 30/21 Q1009=
2025-02-13 21:00:00<>METAR SBGL 132100Z 14008KT 9999 FEW025 30/21 Q1010=
2025-02-13 22:00:00<>METAR SBGL 132200Z 12008KT 9999 VCTS FEW025 FEW030CB 29/21 Q1011=
2025-02-13 23:00:00<>METAR SBGL 132300Z 14004KT 9999 VCTS FEW030CB SCT080 29/21 Q1012=
2025-02-14 00:00:00<>METAR SBGL 140000Z 24004KT 9999 VCTS FEW030CB 29/21 Q1012=
2025-02-14 01:00:00<>METAR SBGL 140100Z 27010KT 9999 VCTS FEW030CB 30/21 Q1013=
2025-02-14 02:00:00<>METAR SBGL 140200Z 31006KT 9999 FEW030 29/23 Q1013=
2025-02-14 03:00:00<>METAR SBGL 140300Z 27013KT 9999 FEW030 28/23 Q1012=
2025-02-14 04:00:00<>METAR SBGL 140400Z 28008KT 9999 FEW030 27/23 Q1011=
2025-02-14 05:00:00<>METAR SBGL 140500Z 30007KT 9999 FEW030 27/23 Q1011=
2025-02-14 06:00:00<>METAR SBGL 140600Z 32006KT 8000 NSC 26/23 Q1011=
2025-02-14 07:00:00<>METAR SBGL 140700Z 34005KT 8000 NSC 26/23 Q1010=
2025-02-14 08:00:00<>METAR SBGL 140800Z 07007KT 8000 NSC 26/23 Q1011=
2025-02-14 09:00:00<>METAR SBGL 140900Z 08007KT CAVOK 25/22 Q1011=
2025-02-14 10:00:00<>METAR SBGL 141000Z 12009KT CAVOK 27/23 Q1012=
2025-02-14 11:00:00<>METAR SBGL 141100Z 07008KT 9999 FEW025 29/23 Q1013=
2025-02-14 12:00:00<>METAR SBGL 141200Z 04008KT 9999 FEW025 29/23 Q1013=
2025-02-14 13:00:00<>METAR SBGL 141300Z VRB04KT 9999 FEW030 31/23 Q1012=
2025-02-14 14:00:00<>METAR SBGL 141400Z VRB06KT 9999 FEW030 32/22 Q1012=
2025-02-14 15:00:00<>METAR SBGL 141500Z 12014KT 9999 FEW030 FEW035TCU 32/23 Q1012=
2025-02-14 16:00:00<>METAR SBGL 141600Z 12015KT 9999 FEW030 FEW035TCU 30/23 Q1011=
2025-02-14 17:00:00<>METAR SBGL 141700Z 12015KT 9999 FEW030 FEW035TCU 32/23 Q1010=
2025-02-14 18:00:00<>METAR SBGL 141800Z 12016KT 9999 FEW030 FEW035TCU 31/22 Q1009=
2025-02-14 19:00:00<>METAR SBGL 141900Z 12017KT 9999 FEW030 FEW035TCU 30/23 Q1009=
2025-02-14 20:00:00<>METAR SBGL 142000Z 12015KT 9999 FEW030 FEW035TCU SCT050 28/23 Q1010=
2025-02-14 21:00:00<>METAR SBGL 142100Z 12009KT 9999 FEW045 BKN070 27/23 Q1010=
2025-02-14 22:00:00<>METAR SBGL 142200Z 11010KT 9999 FEW045 SCT070 27/23 Q1011=
2025-02-14 23:00:00<>METAR SBGL 142300Z 12007KT 9999 FEW015 SCT070 27/22 Q1011=
2025-02-15 00:00:00<>METAR SBGL 150000Z 35003KT 320V050 9999 FEW020 SCT070 27/22 Q1012=
2025-02-15 01:00:00<>METAR SBGL 150100Z 11003KT 9999 FEW020 SCT070 27/22 Q1012=
2025-02-15 02:00:00<>METAR SBGL 150200Z 10001KT 9999 FEW020 27/21 Q1012=
2025-02-15 03:00:00<>METAR SBGL 150300Z 09002KT 9999 FEW025 27/21 Q1012=
2025-02-15 04:00:00<>METAR SBGL 150400Z 05003KT 8000 FEW025 26/23 Q1011=
2025-02-15 05:00:00<>METAR SBGL 150500Z 02004KT 7000 FEW025 26/23 Q1011=
2025-02-15 06:00:00<>METAR SBGL 150600Z 35002KT 7000 FEW025 26/23 Q1010=
2025-02-15 07:00:00<>METAR SBGL 150700Z 04004KT 8000 NSC 26/23 Q1010=
2025-02-15 08:00:00<>METAR SBGL 150800Z 06005KT CAVOK 25/23 Q1010=
2025-02-15 09:00:00<>METAR SBGL 150900Z 07004KT CAVOK 25/23 Q1011=
2025-02-15 10:00:00<>METAR SBGL 151000Z 07003KT 040V100 CAVOK 27/23 Q1012=
2025-02-15 11:00:00<>METAR SBGL 151100Z 04008KT CAVOK 28/23 Q1013=
2025-02-15 12:00:00<>METAR SBGL 151200Z 02005KT 340V050 CAVOK 30/22 Q1013=
2025-02-15 13:00:00<>METAR SBGL 151300Z 02005KT 350V080 9999 FEW025 31/22 Q1012=
2025-02-15 14:00:00<>METAR SBGL 151400Z 01008KT 9999 FEW025 32/22 Q1012=
2025-02-15 15:00:00<>METAR SBGL 151500Z 11008KT 070V140 9999 FEW025 33/22 Q1011=
2025-02-15 16:00:00<>METAR SBGL 151600Z 12011KT 9999 FEW025 33/22 Q1011=
2025-02-15 17:00:00<>METAR SBGL 151700Z 13013KT 9999 FEW025 32/22 Q1010=
2025-02-15 18:00:00<>METAR SBGL 151800Z 13014KT 9999 FEW025 FEW035TCU 32/21 Q1009=
2025-02-15 19:00:00<>METAR SBGL 151900Z 13013KT 9999 FEW035TCU 31/21 Q1009=
2025-02-15 20:00:00<>METAR SBGL 152000Z 13011KT 9999 FEW035TCU 31/20 Q1009=
2025-02-15 21:00:00<>METAR SBGL 152100Z 15009KT 9999 FEW035TCU 31/20 Q1009=
2025-02-15 22:00:00<>METAR SBGL 152200Z 15006KT 9999 FEW020 SCT050 30/20 Q1009=
2025-02-15 23:00:00<>METAR SBGL 152300Z 14005KT CAVOK 29/21 Q1010=
2025-02-16 00:00:00<>METAR SBGL 160000Z 03003KT 350V090 CAVOK 28/22 Q1011=
2025-02-16 01:00:00<>METAR SBGL 160100Z VRB02KT CAVOK 28/21 Q1011=
2025-02-16 02:00:00<>METAR SBGL 160200Z 28004KT 250V330 CAVOK 29/23 Q1011=
2025-02-16 03:00:00<>METAR SBGL 160300Z 27006KT CAVOK 28/23 Q1012=
2025-02-16 04:00:00<>METAR SBGL 160400Z 29006KT CAVOK 27/23 Q1011=
2025-02-16 05:00:00<>METAR SBGL 160500Z 29005KT 250V310 CAVOK 27/22 Q1011=
2025-02-16 06:00:00<>METAR SBGL 160600Z 22006KT CAVOK 28/22 Q1011=
2025-02-16 07:00:00<>METAR SBGL 160700Z 12005KT CAVOK 26/23 Q1011=
2025-02-16 08:00:00<>METAR SBGL 160800Z 01004KT CAVOK 26/23 Q1011=
2025-02-16 09:00:00<>METAR SBGL 160900Z 09005KT CAVOK 25/23 Q1012=
2025-02-16 10:00:00<>METAR SBGL 161000Z 09005KT CAVOK 27/23 Q1013=
2025-02-16 11:00:00<>METAR SBGL 161100Z 08004KT 030V110 CAVOK 28/23 Q1013=
2025-02-16 12:00:00<>METAR SBGL 161200Z 03006KT CAVOK 29/24 Q1013=
2025-02-16 13:00:00<>METAR SBGL 161300Z 03005KT CAVOK 32/23 Q1012=
2025-02-16 14:00:00<>METAR SBGL 161400Z 36005KT CAVOK 33/23 Q1012=
2025-02-16 15:00:00<>METAR SBGL 161500Z 32003KT CAVOK 36/22 Q1011=
2025-02-16 16:00:00<>METAR SBGL 161600Z 35002KT CAVOK 37/22 Q1010=
2025-02-16 17:00:00<>METAR SBGL 161700Z 12009KT CAVOK 35/23 Q1010=
2025-02-16 18:00:00<>METAR SBGL 161800Z 13013KT CAVOK 33/22 Q1009=
2025-02-16 19:00:00<>METAR SBGL 161900Z 14013KT 9999 FEW030 34/21 Q1009=
2025-02-16 20:00:00<>METAR SBGL 162000Z 14012KT CAVOK 34/19 Q1009=
2025-02-16 21:00:00<>METAR SBGL 162100Z 14009KT 9999 FEW030 33/19 Q1009=
2025-02-16 22:00:00<>METAR SBGL 162200Z 14007KT CAVOK 31/20 Q1010=
2025-02-16 23:00:00<>METAR SBGL 162300Z 13005KT CAVOK 31/20 Q1010=
2025-02-17 00:00:00<>METAR SBGL 170000Z 07004KT 030V090 CAVOK 29/21 Q1011=
2025-02-17 01:00:00<>METAR SBGL 170100Z VRB02KT CAVOK 28/21 Q1011=
2025-02-17 02:00:00<>METAR SBGL 170200Z VRB02KT CAVOK 28/22 Q1011=
2025-02-17 03:00:00<>METAR SBGL 170300Z 15003KT 110V190 CAVOK 26/21 Q1011=
2025-02-17 04:00:00<>METAR SBGL 170400Z VRB01KT CAVOK 26/22 Q1011=
2025-02-17 05:00:00<>METAR SBGL 170500Z 07003KT CAVOK 26/22 Q1010=
2025-02-17 06:00:00<>METAR SBGL 170600Z 07003KT CAVOK 25/22 Q1009=
2025-02-17 07:00:00<>METAR SBGL 170700Z 07001KT CAVOK 25/22 Q1010=
2025-02-17 08:00:00<>METAR SBGL 170800Z 08002KT CAVOK 24/21 Q1011=
2025-02-17 09:00:00<>METAR SBGL 170900Z 07004KT CAVOK 25/21 Q1011=
2025-02-17 10:00:00<>METAR SBGL 171000Z 07004KT 040V100 CAVOK 28/23 Q1012=
2025-02-17 11:00:00<>METAR SBGL 171100Z 33002KT CAVOK 30/23 Q1012=
2025-02-17 12:00:00<>METAR SBGL 171200Z 02002KT CAVOK 33/21 Q1012=
2025-02-17 13:00:00<>METAR SBGL 171300Z 32003KT CAVOK 35/19 Q1012=
2025-02-17 14:00:00<>METAR SBGL 171400Z 01005KT CAVOK 37/19 Q1012=
2025-02-17 15:00:00<>METAR SBGL 171500Z 03006KT CAVOK 38/18 Q1011=
2025-02-17 16:00:00<>METAR SBGL 171600Z 02006KT CAVOK 40/18 Q1011=
2025-02-17 17:00:00<>METAR SBGL 171700Z 05010KT CAVOK 40/16 Q1010=
2025-02-17 18:00:00<>METAR SBGL 171800Z 06011KT 9999 FEW030 39/16 Q1009=
2025-02-17 19:00:00<>METAR SBGL 171900Z 06012KT CAVOK 41/10 Q1008=
2025-02-17 20:00:00<>METAR SBGL 172000Z 13010KT CAVOK 37/17 Q1008=
2025-02-17 21:00:00<>METAR SBGL 172100Z 15009KT CAVOK 35/15 Q1009=
2025-02-17 22:00:00<>METAR SBGL 172200Z 13008KT CAVOK 33/17 Q1009=
2025-02-17 23:00:00<>METAR SBGL 172300Z 14006KT CAVOK 31/18 Q1009=
2025-02-18 00:00:00<>METAR SBGL 180000Z 11006KT CAVOK 32/19 Q1009=
2025-02-18 01:00:00<>METAR SBGL 180100Z 10003KT CAVOK 31/21 Q1010=
2025-02-18 02:00:00<>METAR SBGL 180200Z 07005KT CAVOK 29/22 Q1010=
2025-02-18 03:00:00<>METAR SBGL 180300Z 07003KT CAVOK 29/22 Q1010=
2025-02-18 04:00:00<>METAR COR SBGL 180400Z 05002KT CAVOK 28/21 Q1010=
2025-02-18 05:00:00<>METAR SBGL 180500Z 06004KT CAVOK 29/21 Q1010=
2025-02-18 06:00:00<>METAR SBGL 180600Z 35005KT CAVOK 28/21 Q1010=
2025-02-18 07:00:00<>METAR SBGL 180700Z 03002KT CAVOK 28/21 Q1010=
2025-02-18 08:00:00<>METAR COR SBGL 180800Z 03006KT CAVOK 27/21 Q1010=
2025-02-18 09:00:00<>METAR SBGL 180900Z 07005KT CAVOK 26/23 Q1011=
2025-02-18 10:00:00<>METAR SBGL 181000Z 05004KT CAVOK 28/23 Q1011=
2025-02-18 11:00:00<>METAR SBGL 181100Z 05003KT 350V090 8000 NSC 30/21 Q1011=
2025-02-18 12:00:00<>METAR SBGL 181200Z 17005KT 350V060 8000 NSC 32/22 Q1011=
2025-02-18 13:00:00<>METAR SBGL 181300Z 35003KT 270V060 CAVOK 34/20 Q1011=
2025-02-18 14:00:00<>METAR SBGL 181400Z VRB03KT CAVOK 37/20 Q1010=
2025-02-18 15:00:00<>METAR SBGL 181500Z VRB04KT CAVOK 38/17 Q1010=
2025-02-18 16:00:00<>METAR SBGL 181600Z 34004KT 300V030 9999 FEW035 39/17 Q1009=
2025-02-18 17:00:00<>METAR SBGL 181700Z 12012KT 9999 FEW035 36/20 Q1009=
2025-02-18 18:00:00<>METAR SBGL 181800Z 13014KT 9999 FEW035 35/19 Q1008=
2025-02-18 19:00:00<>METAR SBGL 181900Z 13009KT 9999 FEW035 37/17 Q1007=
2025-02-18 20:00:00<>METAR SBGL 182000Z 13010KT CAVOK 36/17 Q1007=
2025-02-18 21:00:00<>METAR SBGL 182100Z 14011KT CAVOK 32/19 Q1008=
2025-02-18 22:00:00<>METAR SBGL 182200Z 25012KT CAVOK 31/19 Q1009=
2025-02-18 23:00:00<>METAR SBGL 182300Z 24010KT CAVOK 31/19 Q1010=
2025-02-19 00:00:00<>METAR SBGL 190000Z 26004KT CAVOK 30/19 Q1011=
2025-02-19 01:00:00<>METAR SBGL 190100Z 26014KT CAVOK 29/21 Q1012=
2025-02-19 02:00:00<>METAR SBGL 190200Z 27009KT CAVOK 29/22 Q1012=
2025-02-19 03:00:00<>METAR SBGL 190300Z 13005KT CAVOK 27/22 Q1012=
2025-02-19 04:00:00<>METAR SBGL 190400Z 16006KT CAVOK 26/22 Q1012=
2025-02-19 05:00:00<>METAR SBGL 190500Z 18006KT CAVOK 26/22 Q1012=
2025-02-19 06:00:00<>METAR SBGL 190600Z 19005KT 8000 NSC 25/22 Q1011=
2025-02-19 07:00:00<>METAR SBGL 190700Z 21005KT 8000 NSC 25/22 Q1011=
2025-02-19 08:00:00<>METAR SBGL 190800Z 22010KT 9999 FEW026 27/23 Q1013=
2025-02-19 09:00:00<>METAR SBGL 190900Z 03009KT 9999 FEW026 26/23 Q1013=
2025-02-19 10:00:00<>METAR SBGL 191000Z 11005KT 9999 SCT023 28/23 Q1014=
2025-02-19 11:00:00<>METAR SBGL 191100Z 36005KT 320V030 9999 FEW019 BKN025 29/23 Q1014=
2025-02-19 12:00:00<>METAR SBGL 191200Z 02006KT 340V070 9999 SCT022 30/23 Q1014=
2025-02-19 13:00:00<>METAR SBGL 191300Z 05007KT 010V110 9999 FEW026 31/23 Q1014=
2025-02-19 14:00:00<>METAR SBGL 191400Z 01008KT 340V040 9999 FEW030 32/22 Q1014=
2025-02-19 15:00:00<>METAR SBGL 191500Z 01008KT 9999 FEW030 32/21 Q1013=
2025-02-19 16:00:00<>METAR SBGL 191600Z 12009KT 060V160 9999 FEW030 33/22 Q1012=
2025-02-19 17:00:00<>METAR SBGL 191700Z 12013KT 100V160 9999 FEW030 32/21 Q1012=
2025-02-19 18:00:00<>METAR SBGL 191800Z 13012KT 9999 FEW030 33/20 Q1011=
2025-02-19 19:00:00<>METAR SBGL 191900Z 13010KT 9999 FEW030 34/20 Q1010=
2025-02-19 20:00:00<>METAR SBGL 192000Z 13009KT 9999 FEW030 33/20 Q1010=
2025-02-19 21:00:00<>METAR SBGL 192100Z 14007KT 9999 FEW030 32/21 Q1010=
2025-02-19 22:00:00<>METAR SBGL 192200Z 12008KT CAVOK 31/21 Q1010=
2025-02-19 23:00:00<>METAR SBGL 192300Z 09010KT CAVOK 31/21 Q1011=
2025-02-20 00:00:00<>METAR SBGL 200000Z 09010KT CAVOK 30/20 Q1011=
2025-02-20 01:00:00<>METAR SBGL 200100Z 09006KT CAVOK 28/20 Q1012=
2025-02-20 02:00:00<>METAR SBGL 200200Z 10005KT CAVOK 27/20 Q1012=
2025-02-20 03:00:00<>METAR SBGL 200300Z 10001KT CAVOK 27/20 Q1012=
2025-02-20 04:00:00<>METAR SBGL 200400Z 04001KT CAVOK 26/20 Q1011=
2025-02-20 05:00:00<>METAR SBGL 200500Z 09003KT CAVOK 26/20 Q1012=
2025-02-20 06:00:00<>METAR SBGL 200600Z 11003KT CAVOK 25/20 Q1012=
2025-02-20 07:00:00<>METAR SBGL 200700Z 00000KT CAVOK 24/20 Q1012=
2025-02-20 08:00:00<>METAR SBGL 200800Z 08002KT CAVOK 24/20 Q1012=
2025-02-20 09:00:00<>METAR SBGL 200900Z 05001KT CAVOK 24/20 Q1013=
2025-02-20 10:00:00<>METAR SBGL 201000Z 07004KT CAVOK 27/22 Q1013=
2025-02-20 11:00:00<>METAR SBGL 201100Z VRB03KT CAVOK 29/21 Q1013=
2025-02-20 12:00:00<>METAR SBGL 201200Z 06005KT 330V070 CAVOK 29/22 Q1014=
2025-02-20 13:00:00<>METAR SBGL 201300Z VRB02KT CAVOK 33/20 Q1014=
2025-02-20 14:00:00<>METAR SBGL 201400Z VRB03KT CAVOK 34/19 Q1014=
2025-02-20 15:00:00<>METAR SBGL 201500Z VRB04KT CAVOK 35/20 Q1013=
2025-02-20 16:00:00<>METAR SBGL 201600Z 06006KT CAVOK 36/19 Q1013=
2025-02-20 17:00:00<>METAR SBGL 201700Z 13012KT CAVOK 34/21 Q1012=
2025-02-20 18:00:00<>METAR SBGL 201800Z 14012KT 9999 FEW035 34/20 Q1012=
2025-02-20 19:00:00<>METAR SBGL 201900Z 13010KT 9999 FEW035 34/21 Q1011=
2025-02-20 20:00:00<>METAR SBGL 202000Z 13010KT CAVOK 34/21 Q1012=
2025-02-20 21:00:00<>METAR SBGL 202100Z 15008KT CAVOK 33/21 Q1012=
2025-02-20 22:00:00<>METAR SBGL 202200Z VRB03KT CAVOK 31/22 Q1013=
2025-02-20 23:00:00<>METAR SBGL 202300Z 26006KT CAVOK 30/23 Q1014=
2025-02-21 00:00:00<>METAR SBGL 210000Z 25008KT CAVOK 29/23 Q1014=
2025-02-21 01:00:00<>METAR SBGL 210100Z 28008KT CAVOK 29/23 Q1014=
2025-02-21 02:00:00<>METAR SBGL 210200Z 26006KT CAVOK 28/23 Q1014=
2025-02-21 03:00:00<>METAR SBGL 210300Z 26007KT CAVOK 28/22 Q1014=
2025-02-21 04:00:00<>METAR SBGL 210400Z 27008KT CAVOK 28/22 Q1014=
2025-02-21 05:00:00<>METAR SBGL 210500Z 28005KT CAVOK 27/23 Q1014=
2025-02-21 06:00:00<>METAR SBGL 210600Z 27006KT CAVOK 27/23 Q1014=
2025-02-21 07:00:00<>METAR SBGL 210700Z 26005KT CAVOK 27/23 Q1013=
2025-02-21 08:00:00<>METAR SBGL 210800Z 28005KT CAVOK 27/24 Q1014=
2025-02-21 09:00:00<>METAR SBGL 210900Z 21005KT 140V250 CAVOK 27/23 Q1014=
2025-02-21 10:00:00<>METAR SBGL 211000Z 07007KT CAVOK 28/24 Q1015=
2025-02-21 11:00:00<>METAR SBGL 211100Z 17005KT 340V060 8000 NSC 29/23 Q1016=
2025-02-21 12:00:00<>METAR SBGL 211200Z 04005KT 8000 NSC 30/23 Q1016=
2025-02-21 13:00:00<>METAR SBGL 211300Z 35005KT 300V040 9999 FEW026 32/23 Q1016=
2025-02-21 14:00:00<>METAR SBGL 211400Z 10006KT 8000 FEW033 33/23 Q1016=
2025-02-21 15:00:00<>METAR SBGL 211500Z 13010KT 8000 FEW033 33/22 Q1015=
2025-02-21 16:00:00<>METAR SBGL 211600Z 12009KT 8000 NSC 33/25 Q1015=
2025-02-21 17:00:00<>METAR SBGL 211700Z 12013KT 9999 FEW025TCU 32/25 Q1014=
2025-02-21 18:00:00<>METAR SBGL 211800Z 12010KT 9999 FEW025TCU 34/23 Q1014=
2025-02-21 19:00:00<>METAR SBGL 211900Z 13011KT 9999 FEW025TCU 32/22 Q1014=
2025-02-21 20:00:00<>METAR SBGL 212000Z 16008KT 9999 FEW025TCU 31/23 Q1014=
2025-02-21 21:00:00<>METAR SBGL 212100Z 15005KT CAVOK 29/23 Q1015=
2025-02-21 22:00:00<>METAR SBGL 212200Z 12007KT 9999 FEW008 BKN055 28/23 Q1015=
2025-02-21 23:00:00<>METAR SBGL 212300Z 11007KT 9999 FEW010 SCT045 28/23 Q1016=
2025-02-22 00:00:00<>METAR SBGL 220000Z 12005KT 9999 FEW010 SCT045 28/22 Q1016=
2025-02-22 01:00:00<>METAR SBGL 220100Z 09004KT 9999 FEW010 SCT040 27/22 Q1016=
2025-02-22 02:00:00<>METAR SBGL 220200Z 12002KT 9999 FEW010 SCT040 27/21 Q1016=
2025-02-22 03:00:00<>METAR SBGL 220300Z 12002KT 9999 FEW010 SCT040 27/22 Q1016=
2025-02-22 04:00:00<>METAR SBGL 220400Z 09002KT 9999 FEW015 SCT070 27/22 Q1015=
2025-02-22 05:00:00<>METAR SBGL 220500Z 06004KT 9999 FEW015 SCT070 26/22 Q1015=
2025-02-22 06:00:00<>METAR SBGL 220600Z 07005KT 8000 FEW020 26/22 Q1014=
2025-02-22 07:00:00<>METAR SBGL 220700Z 07005KT 8000 NSC 26/23 Q1014=
2025-02-22 08:00:00<>METAR SBGL 220800Z 08003KT CAVOK 25/22 Q1015=
2025-02-22 09:00:00<>METAR SBGL 220900Z 08004KT 8000 FEW008 25/22 Q1015=
2025-02-22 10:00:00<>METAR SBGL 221000Z 08003KT 8000 FEW008 27/23 Q1016=
2025-02-22 11:00:00<>METAR SBGL 221100Z 10004KT 9000 FEW019 29/23 Q1016=
2025-02-22 12:00:00<>METAR SBGL 221200Z 32007KT 9999 FEW020 29/23 Q1016=
2025-02-22 13:00:00<>METAR SBGL 221300Z 05010KT 9999 FEW026 31/23 Q1016=
2025-02-22 14:00:00<>METAR SBGL 221400Z 07010KT 9999 FEW033 33/23 Q1016=
2025-02-22 15:00:00<>METAR SBGL 221500Z 15011KT 9999 FEW033 33/22 Q1015=
2025-02-22 16:00:00<>METAR SBGL 221600Z 11014KT 9999 FEW033 32/22 Q1014=
2025-02-22 17:00:00<>METAR SBGL 221700Z 13017KT 9999 FEW033 31/22 Q1014=
2025-02-22 18:00:00<>METAR SBGL 221800Z 13015KT 9999 FEW033 31/22 Q1013=
2025-02-22 19:00:00<>METAR SBGL 221900Z 13015KT 9999 FEW033 32/21 Q1013=
2025-02-22 20:00:00<>METAR SBGL 222000Z 13017KT 9999 FEW033 30/21 Q1013=
2025-02-22 21:00:00<>METAR SBGL 222100Z 15011KT 9999 FEW046 30/20 Q1014=
2025-02-22 22:00:00<>METAR SBGL 222200Z 17009KT 9999 SCT046 29/20 Q1014=
2025-02-22 23:00:00<>METAR SBGL 222300Z 12004KT CAVOK 29/21 Q1014=
2025-02-23 00:00:00<>METAR SBGL 230000Z 09003KT 9999 FEW008 BKN055 28/22 Q1015=
2025-02-23 01:00:00<>METAR SBGL 230100Z 10005KT 9999 FEW008 BKN055 28/22 Q1015=
2025-02-23 02:00:00<>METAR SBGL 230200Z 06003KT CAVOK 27/22 Q1015=
2025-02-23 03:00:00<>METAR SBGL 230300Z 06004KT CAVOK 26/22 Q1015=
2025-02-23 04:00:00<>METAR SBGL 230400Z 08003KT CAVOK 26/22 Q1015=
2025-02-23 05:00:00<>METAR SBGL 230500Z 08004KT CAVOK 26/23 Q1014=
2025-02-23 06:00:00<>METAR SBGL 230600Z 08003KT 8000 FEW018 26/22 Q1014=
2025-02-23 07:00:00<>METAR SBGL 230700Z 33005KT 9999 FEW018 26/23 Q1014=
2025-02-23 08:00:00<>METAR SBGL 230800Z 05002KT CAVOK 25/22 Q1014=
2025-02-23 09:00:00<>METAR SBGL 230900Z 08003KT 8000 FEW011 25/22 Q1014=
2025-02-23 10:00:00<>METAR SBGL 231000Z 08004KT 9999 FEW011 27/23 Q1015=
2025-02-23 11:00:00<>METAR SBGL 231100Z 03006KT 360V060 9999 FEW015 28/23 Q1016=
2025-02-23 12:00:00<>METAR SBGL 231200Z 02006KT 350V050 9999 FEW020 29/23 Q1016=
2025-02-23 13:00:00<>METAR SBGL 231300Z 01006KT 310V090 9999 FEW020 31/22 Q1016=
2025-02-23 14:00:00<>METAR SBGL 231400Z VRB03KT 9999 FEW030 32/21 Q1016=
2025-02-23 15:00:00<>METAR SBGL 231500Z 12005KT 070V230 9999 FEW030 34/20 Q1015=
2025-02-23 16:00:00<>METAR SBGL 231600Z 13009KT 9999 FEW030 33/22 Q1014=
2025-02-23 17:00:00<>METAR SBGL 231700Z 13014KT 9999 FEW030 32/22 Q1014=
2025-02-23 18:00:00<>METAR SBGL 231800Z 14014KT 9999 FEW030 FEW033TCU 32/22 Q1013=
2025-02-23 19:00:00<>METAR SBGL 231900Z 14013KT 9999 FEW030 FEW033TCU 32/22 Q1013=
2025-02-23 20:00:00<>METAR SBGL 232000Z 14011KT 9999 VCSH FEW025 FEW030TCU SCT070 31/22 Q1013=
2025-02-23 21:00:00<>METAR SBGL 232100Z 06010KT 9999 FEW030TCU 29/21 Q1013=
2025-02-23 22:00:00<>METAR SBGL 232200Z 11007KT 9999 FEW033 28/20 Q1013=
2025-02-23 23:00:00<>METAR SBGL 232300Z 08009KT 9999 FEW033 28/21 Q1014=
2025-02-24 00:00:00<>METAR SBGL 240000Z 10010KT 9999 FEW033 28/21 Q1014=
2025-02-24 01:00:00<>METAR SBGL 240100Z 08011KT CAVOK 27/21 Q1015=
2025-02-24 02:00:00<>METAR SBGL 240200Z 10011KT CAVOK 26/21 Q1015=
2025-02-24 03:00:00<>METAR SBGL 240300Z 12009KT CAVOK 26/21 Q1015=
2025-02-24 04:00:00<>METAR SBGL 240400Z 13009KT CAVOK 26/21 Q1014=
2025-02-24 05:00:00<>METAR SBGL 240500Z 18008KT CAVOK 25/21 Q1014=
2025-02-24 06:00:00<>METAR SBGL 240600Z 21007KT CAVOK 25/21 Q1014=
2025-02-24 07:00:00<>METAR SBGL 240700Z 22006KT CAVOK 25/21 Q1013=
2025-02-24 08:00:00<>METAR SBGL 240800Z 13003KT CAVOK 24/21 Q1015=
2025-02-24 09:00:00<>METAR SBGL 240900Z 07004KT CAVOK 24/21 Q1015=
2025-02-24 10:00:00<>METAR SBGL 241000Z 35004KT CAVOK 25/22 Q1016=
2025-02-24 11:00:00<>METAR SBGL 241100Z 36005KT 330V050 9999 FEW025 27/22 Q1016=
2025-02-24 12:00:00<>METAR SBGL 241200Z 01006KT CAVOK 28/21 Q1017=
2025-02-24 13:00:00<>METAR SBGL 241300Z 03007KT 350V070 9999 FEW025 31/19 Q1017=
2025-02-24 14:00:00<>METAR SBGL 241400Z 05007KT 360V090 9999 FEW025 32/19 Q1016=
2025-02-24 15:00:00<>METAR SBGL 241500Z 02008KT 340V060 9999 FEW025 34/18 Q1015=
2025-02-24 16:00:00<>METAR SBGL 241600Z 11011KT 9999 FEW030 34/20 Q1015=
2025-02-24 17:00:00<>METAR SBGL 241700Z 13012KT 100V160 9999 FEW030 33/22 Q1014=
2025-02-24 18:00:00<>METAR SBGL 241800Z 15013KT 9999 FEW030 FEW035TCU 33/22 Q1014=
2025-02-24 19:00:00<>METAR SBGL 241900Z 13014KT 9999 VCTS FEW030 FEW035CB 32/22 Q1014=
2025-02-24 20:00:00<>METAR SBGL 242000Z 09010KT 9999 FEW030 FEW035TCU 32/19 Q1013=
2025-02-24 21:00:00<>METAR SBGL 242100Z 09010KT 9999 FEW030 30/22 Q1014=
2025-02-24 22:00:00<>METAR SBGL 242200Z 08009KT 9999 VCTS FEW030 FEW035CB 29/22 Q1014=
2025-02-24 23:00:00<>METAR SBGL 242300Z 10007KT 9999 FEW030 FEW035TCU 28/22 Q1015=
2025-02-25 00:00:00<>METAR SBGL 250000Z 10007KT 9999 FEW030 28/22 Q1016=
2025-02-25 01:00:00<>METAR SBGL 250100Z 08009KT 9999 FEW040 27/22 Q1016=
2025-02-25 02:00:00<>METAR SBGL 250200Z 11005KT CAVOK 27/23 Q1016=
2025-02-25 03:00:00<>METAR SBGL 250300Z 14003KT CAVOK 27/22 Q1016=
2025-02-25 04:00:00<>METAR SBGL 250400Z 14002KT 9999 FEW008 26/22 Q1016=
2025-02-25 05:00:00<>METAR SBGL 250500Z 12005KT 9999 FEW008 25/22 Q1016=
2025-02-25 06:00:00<>METAR SBGL 250600Z 09003KT 9999 FEW008 25/22 Q1016=
2025-02-25 07:00:00<>METAR SBGL 250700Z 11003KT 9999 FEW010 25/22 Q1016=
2025-02-25 08:00:00<>METAR SBGL 250800Z 10003KT 9999 FEW010 25/22 Q1016=
2025-02-25 09:00:00<>METAR SBGL 250900Z 10001KT 9999 FEW011 24/22 Q1017=
2025-02-25 10:00:00<>METAR SBGL 251000Z 08002KT 9999 FEW015 27/22 Q1017=
2025-02-25 11:00:00<>METAR SBGL 251100Z 36005KT 320V030 9999 FEW020 28/23 Q1018=
2025-02-25 12:00:00<>METAR SBGL 251200Z 34006KT 310V020 9999 FEW020 29/23 Q1018=
2025-02-25 13:00:00<>METAR SBGL 251300Z 01006KT 310V060 9999 FEW025 30/23 Q1018=
2025-02-25 14:00:00<>METAR SBGL 251400Z VRB06KT 9999 FEW025 33/22 Q1017=
2025-02-25 15:00:00<>METAR SBGL 251500Z 01007KT 340V060 9999 FEW030 34/21 Q1017=
2025-02-25 16:00:00<>METAR SBGL 251600Z 13007KT 090V160 9999 FEW030 34/21 Q1016=
2025-02-25 17:00:00<>METAR SBGL 251700Z 13007KT 9999 FEW030 35/20 Q1015=
2025-02-25 18:00:00<>METAR SBGL 251800Z 14010KT 9999 FEW030 FEW033TCU 34/21 Q1015=
2025-02-25 19:00:00<>METAR SBGL 251900Z 14012KT 9999 FEW030 FEW033TCU 33/21 Q1014=
2025-02-25 20:00:00<>METAR SBGL 252000Z 15013KT 9999 FEW030 FEW033TCU 31/22 Q1014=
2025-02-25 21:00:00<>METAR SBGL 252100Z 14009KT 9999 FEW030 FEW033TCU 30/22 Q1014=
2025-02-25 22:00:00<>METAR SBGL 252200Z 13007KT 9999 FEW030 FEW033TCU 29/22 Q1014=
2025-02-25 23:00:00<>METAR SBGL 252300Z 10012KT 9999 FEW030 29/21 Q1015=
2025-02-26 00:00:00<>METAR SBGL 260000Z 10010KT 9999 FEW030 28/22 Q1015=
2025-02-26 01:00:00<>METAR SBGL 260100Z 10009KT 9999 FEW030 28/22 Q1016=
2025-02-26 02:00:00<>METAR SBGL 260200Z 10006KT 9999 FEW045 27/22 Q1016=
2025-02-26 03:00:00<>METAR SBGL 260300Z 12007KT 9999 FEW045 27/22 Q1016=
2025-02-26 04:00:00<>METAR SBGL 260400Z 10005KT CAVOK 26/21 Q1016=
2025-02-26 05:00:00<>METAR SBGL 260500Z 11005KT CAVOK 26/21 Q1016=
2025-02-26 06:00:00<>METAR SBGL 260600Z 12003KT CAVOK 25/21 Q1016=
2025-02-26 07:00:00<>METAR SBGL 260700Z 12004KT CAVOK 25/21 Q1016=
2025-02-26 08:00:00<>METAR SBGL 260800Z 11002KT CAVOK 24/21 Q1016=
2025-02-26 09:00:00<>METAR SBGL 260900Z 11002KT CAVOK 24/21 Q1016=
2025-02-26 10:00:00<>METAR SBGL 261000Z VRB02KT CAVOK 27/21 Q1017=
2025-02-26 11:00:00<>METAR SBGL 261100Z VRB03KT CAVOK 28/22 Q1018=
2025-02-26 12:00:00<>METAR SBGL 261200Z 02007KT 9999 FEW022 29/22 Q1018=
2025-02-26 13:00:00<>METAR SBGL 261300Z 35006KT CAVOK 30/21 Q1018=
2025-02-26 14:00:00<>METAR SBGL 261400Z 16004KT 9999 FEW035 32/22 Q1017=
2025-02-26 15:00:00<>METAR SBGL 261500Z 05007KT 9999 FEW035 33/18 Q1016=
2025-02-26 16:00:00<>METAR SBGL 261600Z 13007KT 9999 FEW035 33/19 Q1015=
2025-02-26 17:00:00<>METAR SBGL 261700Z 13013KT 9999 FEW035 33/20 Q1014=
2025-02-26 18:00:00<>METAR SBGL 261800Z 13016KT 9999 FEW035 33/20 Q1014=
2025-02-26 19:00:00<>METAR SBGL 261900Z 12014KT 9999 FEW035 31/20 Q1013=
2025-02-26 20:00:00<>METAR SBGL 262000Z 15011KT CAVOK 31/21 Q1013=
2025-02-26 21:00:00<>METAR SBGL 262100Z 14015KT CAVOK 29/22 Q1013=
2025-02-26 22:00:00<>METAR SBGL 262200Z 14011KT CAVOK 27/22 Q1013=
2025-02-26 23:00:00<>METAR SBGL 262300Z 12007KT CAVOK 27/22 Q1014=
2025-02-27 00:00:00<>METAR SBGL 270000Z 15004KT CAVOK 27/22 Q1014=
2025-02-27 01:00:00<>METAR SBGL 270100Z 12004KT CAVOK 27/22 Q1014=
2025-02-27 02:00:00<>METAR SBGL 270200Z 10005KT CAVOK 27/22 Q1015=
2025-02-27 03:00:00<>METAR SBGL 270300Z 08005KT CAVOK 26/22 Q1015=
2025-02-27 04:00:00<>METAR SBGL 270400Z 09004KT CAVOK 26/22 Q1015=
2025-02-27 05:00:00<>METAR SBGL 270500Z 10003KT CAVOK 26/22 Q1014=
2025-02-27 06:00:00<>METAR SBGL 270600Z 10003KT 070V130 CAVOK 25/22 Q1014=
2025-02-27 07:00:00<>METAR SBGL 270700Z 07004KT CAVOK 25/22 Q1014=
2025-02-27 08:00:00<>METAR SBGL 270800Z 08005KT CAVOK 24/22 Q1014=
2025-02-27 09:00:00<>METAR SBGL 270900Z 09004KT CAVOK 25/22 Q1014=
2025-02-27 10:00:00<>METAR SBGL 271000Z 10003KT 060V120 CAVOK 26/22 Q1014=
2025-02-27 11:00:00<>METAR SBGL 271100Z 13004KT CAVOK 29/21 Q1015=
2025-02-27 12:00:00<>METAR SBGL 271200Z 02008KT CAVOK 28/22 Q1015=
2025-02-27 13:00:00<>METAR SBGL 271300Z 36005KT CAVOK 32/22 Q1015=
2025-02-27 14:00:00<>METAR SBGL 271400Z 01007KT CAVOK 33/21 Q1015=
2025-02-27 15:00:00<>METAR SBGL 271500Z 08009KT 9999 FEW030 35/19 Q1014=
2025-02-27 16:00:00<>METAR SBGL 271600Z 13010KT 9999 FEW030 35/20 Q1013=
2025-02-27 17:00:00<>METAR SBGL 271700Z 13010KT 9999 FEW030 35/20 Q1013=
2025-02-27 18:00:00<>METAR SBGL 271800Z 13013KT 9999 FEW030 FEW033TCU 33/20 Q1012=
2025-02-27 19:00:00<>METAR SBGL 271900Z 13013KT 9999 VCSH FEW030 FEW033TCU 34/20 Q1012=
2025-02-27 20:00:00<>METAR SBGL 272000Z 14011KT 9999 FEW030 FEW033TCU SCT070 33/21 Q1012=
2025-02-27 21:00:00<>METAR SBGL 272100Z 10008KT 9999 FEW030 FEW033TCU SCT070 30/21 Q1012=
2025-02-27 22:00:00<>METAR SBGL 272200Z 10010KT 9999 FEW030 30/20 Q1013=
2025-02-27 23:00:00<>METAR SBGL 272300Z 09011KT 9999 FEW030 29/21 Q1013=
2025-02-28 00:00:00<>METAR SBGL 280000Z 10010KT 9999 FEW030 28/22 Q1014=
2025-02-28 01:00:00<>METAR SBGL 280100Z 10005KT 9999 FEW030 28/22 Q1014=
2025-02-28 02:00:00<>METAR SBGL 280200Z 10007KT CAVOK 27/22 Q1015=
2025-02-28 03:00:00<>METAR SBGL 280300Z 11006KT CAVOK 26/22 Q1015=
2025-02-28 04:00:00<>METAR SBGL 280400Z 11004KT CAVOK 26/22 Q1014=
2025-02-28 05:00:00<>METAR SBGL 280500Z 14003KT CAVOK 25/21 Q1014=
2025-02-28 06:00:00<>METAR SBGL 280600Z 09003KT CAVOK 25/21 Q1014=
2025-02-28 07:00:00<>METAR SBGL 280700Z 14002KT CAVOK 25/21 Q1014=
2025-02-28 08:00:00<>METAR SBGL 280800Z 11002KT CAVOK 25/21 Q1015=
2025-02-28 09:00:00<>METAR SBGL 280900Z 08002KT CAVOK 25/21 Q1015=
2025-02-28 10:00:00<>METAR SBGL 281000Z 08007KT CAVOK 26/22 Q1016=
2025-02-28 11:00:00<>METAR SBGL 281100Z 08004KT 040V130 CAVOK 28/21 Q1016=
2025-02-28 12:00:00<>METAR SBGL 281200Z VRB02KT CAVOK 30/21 Q1016=
2025-02-28 13:00:00<>METAR SBGL 281300Z 07007KT 030V100 9999 FEW025 32/18 Q1016=
2025-02-28 14:00:00<>METAR SBGL 281400Z 06006KT 020V150 9999 FEW025 33/18 Q1016=
2025-02-28 15:00:00<>METAR SBGL 281500Z 14009KT 9999 FEW030 34/20 Q1015=
2025-02-28 16:00:00<>METAR SBGL 281600Z 13007KT 100V160 9999 FEW030 34/19 Q1015=
2025-02-28 17:00:00<>METAR SBGL 281700Z 12011KT 9999 FEW030 35/19 Q1014=
2025-02-28 18:00:00<>METAR SBGL 281800Z 15012KT 9999 FEW030 34/20 Q1013=
2025-02-28 19:00:00<>METAR SBGL 281900Z 15011KT 9999 FEW030 FEW033TCU 33/21 Q1013=
2025-02-28 20:00:00<>METAR SBGL 282000Z 15011KT 9999 FEW030 FEW033TCU 32/21 Q1013=
2025-02-28 21:00:00<>METAR SBGL 282100Z 14009KT 9999 FEW030 FEW033TCU 30/21 Q1013=
2025-02-28 22:00:00<>METAR SBGL 282200Z 11011KT 9999 FEW030 30/21 Q1013=
2025-02-28 23:00:00<>METAR SBGL 282300Z 12009KT 9999 FEW025 29/21 Q1014=
2025-03-01 00:00:00<>METAR SBGL 010000Z 12008KT 9999 FEW025 29/21 Q1015=
2025-03-01 01:00:00<>METAR SBGL 010100Z 12010KT 9999 FEW046 28/21 Q1015=
2025-03-01 02:00:00<>METAR SBGL 010200Z 11012KT 9999 FEW046 27/21 Q1016=
2025-03-01 03:00:00<>METAR SBGL 010300Z 10009KT 9999 FEW046 27/21 Q1016=
2025-03-01 04:00:00<>METAR SBGL 010400Z 13009KT CAVOK 26/21 Q1016=
2025-03-01 05:00:00<>METAR SBGL 010500Z 15008KT CAVOK 26/21 Q1015=
2025-03-01 06:00:00<>METAR SBGL 010600Z 18007KT 8000 FEW046 25/21 Q1015=
2025-03-01 07:00:00<>METAR SBGL 010700Z 16006KT 8000 FEW046 25/21 Q1014=
2025-03-01 08:00:00<>METAR SBGL 010800Z 10002KT 9999 FEW046 24/20 Q1016=
2025-03-01 09:00:00<>METAR SBGL 010900Z 14003KT 9999 FEW046 24/20 Q1016=
2025-03-01 10:00:00<>METAR SBGL 011000Z 07003KT CAVOK 27/21 Q1017=
2025-03-01 11:00:00<>METAR SBGL 011100Z 02004KT 340V070 CAVOK 28/21 Q1018=
2025-03-01 12:00:00<>METAR SBGL 011200Z 02005KT 340V080 CAVOK 29/20 Q1018=
2025-03-01 13:00:00<>METAR SBGL 011300Z 35006KT 310V020 9999 FEW025 31/18 Q1017=
2025-03-01 14:00:00<>METAR SBGL 011400Z 06007KT 010V110 9999 FEW025 33/19 Q1017=
2025-03-01 15:00:00<>METAR SBGL 011500Z 05008KT 350V090 9999 FEW025 34/19 Q1016=
2025-03-01 16:00:00<>METAR SBGL 011600Z 07008KT 9999 FEW025 35/19 Q1015=
2025-03-01 17:00:00<>METAR SBGL 011700Z 11007KT 9999 FEW025 35/20 Q1015=
2025-03-01 18:00:00<>METAR SBGL 011800Z 15010KT 9999 FEW030 34/20 Q1014=
2025-03-01 19:00:00<>METAR SBGL 011900Z 15009KT 9999 FEW030 34/21 Q1014=
2025-03-01 20:00:00<>METAR SBGL 012000Z 16009KT 9999 FEW030 32/21 Q1014=
2025-03-01 21:00:00<>METAR SBGL 012100Z 17010KT 9999 FEW030 30/21 Q1014=
2025-03-01 22:00:00<>METAR SBGL 012200Z 10010KT 9999 FEW030 30/22 Q1014=
2025-03-01 23:00:00<>METAR SBGL 012300Z 08012KT CAVOK 29/21 Q1015=
2025-03-02 00:00:00<>METAR SBGL 020000Z 11008KT CAVOK 29/21 Q1015=
2025-03-02 01:00:00<>METAR SBGL 020100Z 10008KT CAVOK 28/21 Q1016=
2025-03-02 02:00:00<>METAR SBGL 020200Z 11007KT CAVOK 27/21 Q1016=
2025-03-02 03:00:00<>METAR SBGL 020300Z 08007KT CAVOK 26/21 Q1016=
2025-03-02 04:00:00<>METAR SBGL 020400Z 11006KT CAVOK 26/20 Q1015=
2025-03-02 05:00:00<>METAR SBGL 020500Z 12003KT CAVOK 25/20 Q1015=
2025-03-02 06:00:00<>METAR SBGL 020600Z 12005KT CAVOK 25/20 Q1015=
2025-03-02 07:00:00<>METAR SBGL 020700Z 12003KT CAVOK 24/20 Q1015=
2025-03-02 08:00:00<>METAR SBGL 020800Z 14005KT CAVOK 24/20 Q1016=
2025-03-02 09:00:00<>METAR SBGL 020900Z 06002KT 8000 NSC 23/20 Q1016=
2025-03-02 10:00:00<>METAR SBGL 021000Z 08002KT 8000 NSC 26/21 Q1017=
2025-03-02 11:00:00<>METAR SBGL 021100Z 11003KT 040V190 CAVOK 28/21 Q1018=
2025-03-02 12:00:00<>METAR SBGL 021200Z 02005KT 320V070 CAVOK 29/19 Q1018=
2025-03-02 13:00:00<>METAR SBGL 021300Z 34005KT 260V030 9999 FEW020 SCT100 31/20 Q1017=
2025-03-02 14:00:00<>METAR SBGL 021400Z 08006KT 9999 FEW020 32/19 Q1017=
2025-03-02 15:00:00<>METAR SBGL 021500Z 01006G16KT 9999 FEW025 34/19 Q1016=
2025-03-02 16:00:00<>METAR SBGL 021600Z 15010KT 9999 FEW030 34/19 Q1015=
2025-03-02 17:00:00<>METAR SBGL 021700Z 13011KT 9999 FEW030 35/18 Q1015=
2025-03-02 18:00:00<>METAR SBGL 021800Z 12012KT 9999 FEW030 34/19 Q1014=
2025-03-02 19:00:00<>METAR SBGL 021900Z 14012KT 110V170 9999 FEW030 32/20 Q1013=
2025-03-02 20:00:00<>METAR SBGL 022000Z 14013KT 9999 FEW030 30/21 Q1013=
2025-03-02 21:00:00<>METAR SBGL 022100Z 15012KT 9999 FEW030 SCT080 29/21 Q1014=
2025-03-02 22:00:00<>METAR SBGL 022200Z 12010KT CAVOK 28/21 Q1014=
2025-03-02 23:00:00<>METAR SBGL 022300Z 10013KT CAVOK 29/21 Q1015=
2025-03-03 00:00:00<>METAR SBGL 030000Z 10010KT CAVOK 28/21 Q1016=
2025-03-03 01:00:00<>METAR SBGL 030100Z 10008KT CAVOK 27/22 Q1016=
2025-03-03 02:00:00<>METAR SBGL 030200Z 10006KT CAVOK 27/22 Q1016=
2025-03-03 03:00:00<>METAR SBGL 030300Z 10005KT CAVOK 27/22 Q1016=
2025-03-03 04:00:00<>METAR SBGL 030400Z 10004KT CAVOK 26/21 Q1016=
2025-03-03 05:00:00<>METAR SBGL 030500Z 10004KT CAVOK 26/21 Q1015=
2025-03-03 06:00:00<>METAR SBGL 030600Z 10003KT CAVOK 25/21 Q1015=
2025-03-03 07:00:00<>METAR SBGL 030700Z 14004KT CAVOK 25/21 Q1015=
2025-03-03 08:00:00<>METAR SBGL 030800Z 11004KT CAVOK 25/22 Q1016=
2025-03-03 09:00:00<>METAR SBGL 030900Z 11003KT CAVOK 25/21 Q1016=
2025-03-03 10:00:00<>METAR SBGL 031000Z 09004KT CAVOK 27/21 Q1017=
2025-03-03 11:00:00<>METAR SBGL 031100Z 14002KT CAVOK 28/21 Q1017=
2025-03-03 12:00:00<>METAR SBGL 031200Z 35005KT CAVOK 29/23 Q1017=
2025-03-03 13:00:00<>METAR SBGL 031300Z 15003KT CAVOK 31/21 Q1017=
2025-03-03 14:00:00<>METAR SBGL 031400Z 13008KT CAVOK 32/18 Q1017=
2025-03-03 15:00:00<>METAR SBGL 031500Z 14010KT CAVOK 33/20 Q1016=
2025-03-03 16:00:00<>METAR SBGL 031600Z 13013KT CAVOK 33/20 Q1016=
2025-03-03 17:00:00<>METAR SBGL 031700Z 15012KT CAVOK 33/21 Q1015=
2025-03-03 18:00:00<>METAR SBGL 031800Z 15012KT CAVOK 33/21 Q1014=
2025-03-03 19:00:00<>METAR SBGL 031900Z 15012KT 9999 FEW030 SCT070 33/21 Q1014=
2025-03-03 20:00:00<>METAR SBGL 032000Z 07004KT 8000 -RA FEW040 BKN080 29/22 Q1015=
2025-03-03 21:00:00<>METAR SBGL 032100Z 10003KT 8000 FEW040 29/23 Q1015=
2025-03-03 22:00:00<>METAR SBGL 032200Z 13007KT 8000 FEW040 SCT100 28/21 Q1015=
2025-03-03 23:00:00<>METAR SBGL 032300Z 11013KT CAVOK 28/21 Q1016=
2025-03-04 00:00:00<>METAR SBGL 040000Z 11011KT CAVOK 27/21 Q1017=
2025-03-04 01:00:00<>METAR SBGL 040100Z 11008KT CAVOK 27/21 Q1017=
2025-03-04 02:00:00<>METAR SBGL 040200Z 09009KT 070V130 CAVOK 26/21 Q1017=
2025-03-04 03:00:00<>METAR SBGL 040300Z 09008KT CAVOK 26/21 Q1017=
2025-03-04 04:00:00<>METAR SBGL 040400Z 10006KT CAVOK 25/21 Q1016=
2025-03-04 05:00:00<>METAR SBGL 040500Z 10006KT CAVOK 25/21 Q1016=
2025-03-04 06:00:00<>METAR SBGL 040600Z 11004KT CAVOK 24/21 Q1016=
2025-03-04 07:00:00<>METAR SBGL 040700Z 14004KT CAVOK 24/21 Q1016=
2025-03-04 08:00:00<>METAR SBGL 040800Z 01003KT 340V050 CAVOK 24/21 Q1017=
2025-03-04 09:00:00<>METAR SBGL 040900Z VRB02KT CAVOK 24/21 Q1017=
2025-03-04 10:00:00<>METAR SBGL 041000Z 01004KT 340V080 9999 FEW020 25/22 Q1018=
2025-03-04 11:00:00<>METAR SBGL 041100Z 04005KT 9999 FEW020 26/22 Q1018=
2025-03-04 12:00:00<>METAR SBGL 041200Z 34006KT 9999 FEW020 29/21 Q1018=
2025-03-04 13:00:00<>METAR SBGL 041300Z 06009KT 9999 FEW020 31/20 Q1018=
2025-03-04 14:00:00<>METAR SBGL 041400Z 36009KT 9999 FEW033 31/20 Q1017=
2025-03-04 15:00:00<>METAR SBGL 041500Z 36010KT 9999 FEW033 33/19 Q1017=
2025-03-04 16:00:00<>METAR SBGL 041600Z 04010KT 9999 SCT040 SCT080 34/17 Q1016=
2025-03-04 17:00:00<>METAR SBGL 041700Z 15012KT 9999 SCT040 33/20 Q1015=
2025-03-04 18:00:00<>METAR SBGL 041800Z 17015KT 9999 BKN040 32/20 Q1015=
2025-03-04 19:00:00<>METAR SBGL 041900Z 17016KT 9999 SCT040 31/20 Q1014=
2025-03-04 20:00:00<>METAR SBGL 042000Z 17015KT 9999 SCT040 30/20 Q1014=
2025-03-04 21:00:00<>METAR SBGL 042100Z 15010KT 9999 SCT040 29/20 Q1015=
2025-03-04 22:00:00<>METAR SBGL 042200Z 10013KT 9999 FEW040 29/20 Q1015=
2025-03-04 23:00:00<>METAR SBGL 042300Z 10013KT CAVOK 28/19 Q1016=
2025-03-05 00:00:00<>METAR SBGL 050000Z 11010KT 9999 FEW040 27/20 Q1016=
2025-03-05 01:00:00<>METAR SBGL 050100Z 10008KT 9999 FEW040 27/21 Q1016=
2025-03-05 02:00:00<>METAR SBGL 050200Z 11006KT 9999 FEW040 26/21 Q1016=
2025-03-05 03:00:00<>METAR SBGL 050300Z 10005KT 9999 FEW040 26/21 Q1016=
2025-03-05 04:00:00<>METAR SBGL 050400Z 12005KT 9999 FEW040 25/21 Q1016=
2025-03-05 05:00:00<>METAR SBGL 050500Z 12004KT 9999 FEW040 25/21 Q1016=
2025-03-05 06:00:00<>METAR SBGL 050600Z 11003KT 9999 FEW040 24/20 Q1016=
2025-03-05 07:00:00<>METAR SBGL 050700Z 12003KT CAVOK 24/20 Q1016=
2025-03-05 08:00:00<>METAR SBGL 050800Z 08003KT CAVOK 24/21 Q1017=
2025-03-05 09:00:00<>METAR SBGL 050900Z 34004KT CAVOK 24/21 Q1017=
2025-03-05 10:00:00<>METAR SBGL 051000Z 10002KT CAVOK 26/21 Q1018=
2025-03-05 11:00:00<>METAR SBGL 051100Z 35005KT 9999 FEW012 26/22 Q1018=
2025-03-05 12:00:00<>METAR SBGL 051200Z 35004KT 8000 FEW012 28/20 Q1018=
2025-03-05 13:00:00<>METAR SBGL 051300Z 05005KT 8000 FEW020 31/19 Q1018=
2025-03-05 14:00:00<>METAR SBGL 051400Z 04006KT 9999 FEW020 32/18 Q1018=
2025-03-05 15:00:00<>METAR SBGL 051500Z 03008KT 9999 FEW025 32/18 Q1017=
2025-03-05 16:00:00<>METAR SBGL 051600Z 02005KT 9999 FEW030 33/17 Q1016=
2025-03-05 17:00:00<>METAR SBGL 051700Z 13013KT 9999 FEW030 33/19 Q1016=
2025-03-05 18:00:00<>METAR SBGL 051800Z 14014KT 9999 FEW030 32/20 Q1015=
2025-03-05 19:00:00<>METAR SBGL 051900Z 14013KT 9999 FEW030 31/20 Q1015=
2025-03-05 20:00:00<>METAR SBGL 052000Z 15013KT 9999 FEW035 30/20 Q1015=
2025-03-05 21:00:00<>METAR SBGL 052100Z 15013KT 9999 FEW035 29/20 Q1015=
2025-03-05 22:00:00<>METAR SBGL 052200Z 14008KT 9999 FEW035 28/20 Q1015=
2025-03-05 23:00:00<>METAR SBGL 052300Z 11015KT 9999 FEW036 28/19 Q1016=
2025-03-06 00:00:00<>METAR SBGL 060000Z 12012KT 9999 FEW036 27/19 Q1017=
2025-03-06 01:00:00<>METAR SBGL 060100Z 10012KT CAVOK 27/19 Q1017=
2025-03-06 02:00:00<>METAR SBGL 060200Z 11010KT CAVOK 27/19 Q1017=
2025-03-06 03:00:00<>METAR SBGL 060300Z 11011KT 9999 FEW046 26/19 Q1017=
2025-03-06 04:00:00<>METAR SBGL 060400Z 12010KT CAVOK 26/19 Q1017=
2025-03-06 05:00:00<>METAR SBGL 060500Z 13009KT CAVOK 25/19 Q1017=
2025-03-06 06:00:00<>METAR SBGL 060600Z 15008KT 8000 NSC 25/19 Q1016=
2025-03-06 07:00:00<>METAR SBGL 060700Z 18007KT 8000 NSC 25/19 Q1016=
2025-03-06 08:00:00<>METAR SBGL 060800Z 06002KT 9999 FEW046 SCT100 24/20 Q1017=
2025-03-06 09:00:00<>METAR SBGL 060900Z 32003KT 9999 FEW046 BKN100 25/21 Q1018=
2025-03-06 10:00:00<>METAR SBGL 061000Z 33003KT 9999 FEW046 BKN100 26/21 Q1018=
2025-03-06 11:00:00<>METAR SBGL 061100Z 36004KT 320V120 9999 FEW020 BKN100 28/20 Q1019=
2025-03-06 12:00:00<>METAR SBGL 061200Z 35005KT 9999 FEW025 29/20 Q1019=
2025-03-06 13:00:00<>METAR SBGL 061300Z 35007KT 320V040 9999 FEW025 30/19 Q1019=
2025-03-06 14:00:00<>METAR SBGL 061400Z VRB05KT 9999 FEW025 32/19 Q1019=
2025-03-06 15:00:00<>METAR SBGL 061500Z 14010KT 090V170 9999 FEW025 32/20 Q1019=
2025-03-06 16:00:00<>METAR SBGL 061600Z 13012KT 100V170 9999 FEW025 33/20 Q1018=
2025-03-06 17:00:00<>METAR SBGL 061700Z 15015KT 9999 FEW030 30/21 Q1017=
2025-03-06 18:00:00<>METAR SBGL 061800Z 13016KT 9999 FEW030 30/21 Q1017=
2025-03-06 19:00:00<>METAR SBGL 061900Z 14016KT 9999 FEW030 30/21 Q1017=
2025-03-06 20:00:00<>METAR SBGL 062000Z 14012KT 9999 FEW030 FEW035TCU SCT050 28/22 Q1018=
2025-03-06 21:00:00<>METAR SBGL 062100Z 15012KT 9999 FEW030 FEW035TCU SCT050 28/22 Q1018=
2025-03-06 22:00:00<>METAR SBGL 062200Z 15009KT 9999 FEW030 BKN050 27/22 Q1019=
2025-03-06 23:00:00<>METAR SBGL 062300Z 15011KT 9999 FEW015 BKN050 27/22 Q1019=
2025-03-07 00:00:00<>METAR SBGL 070000Z 15008KT 9999 FEW015 SCT050 27/23 Q1019=
2025-03-07 01:00:00<>METAR SBGL 070100Z 14006KT 9999 FEW015 SCT050 26/22 Q1020=
2025-03-07 02:00:00<>METAR SBGL 070200Z 14006KT 9999 FEW045 26/22 Q1020=
2025-03-07 03:00:00<>METAR SBGL 070300Z 15005KT 9999 FEW045 26/23 Q1019=
2025-03-07 04:00:00<>METAR SBGL 070400Z 15003KT 9999 FEW040 26/22 Q1019=
2025-03-07 05:00:00<>METAR SBGL 070500Z 12003KT 9999 FEW040 25/22 Q1018=
2025-03-07 06:00:00<>METAR SBGL 070600Z 13002KT 9999 FEW040 SCT080 25/22 Q1018=
2025-03-07 07:00:00<>METAR SBGL 070700Z 12003KT 9000 FEW040 SCT080 25/22 Q1018=
2025-03-07 08:00:00<>METAR SBGL 070800Z 12004KT 9000 FEW040 SCT080 25/22 Q1018=
2025-03-07 09:00:00<>METAR SBGL 070900Z 12004KT 9999 FEW030 SCT080 25/22 Q1019=
2025-03-07 10:00:00<>METAR SBGL 071000Z 08003KT 9999 FEW025 SCT080 26/23 Q1019=
2025-03-07 11:00:00<>METAR SBGL 071100Z 05006KT 9999 FEW012 SCT035 27/22 Q1020=
2025-03-07 12:00:00<>METAR SBGL 071200Z 35004KT 310V030 9999 FEW045 BKN075 28/22 Q1020=
2025-03-07 13:00:00<>METAR SBGL 071300Z 03007KT 350V070 9999 FEW040 SCT065 BKN080 29/21 Q1020=
2025-03-07 14:00:00<>METAR SBGL 071400Z 13008KT 9999 FEW040 BKN050 BKN070 28/22 Q1019=
2025-03-07 15:00:00<>METAR SBGL 071500Z 16007KT 9999 FEW020 SCT040 BKN060 28/24 Q1019=
2025-03-07 16:00:00<>METAR SBGL 071600Z 12012KT 9999 FEW020 SCT070 32/21 Q1018=
2025-03-07 17:00:00<>METAR SBGL 071700Z 13014KT 9999 FEW025 SCT065 31/20 Q1017=
2025-03-07 18:00:00<>METAR SBGL 071800Z 13014KT 110V170 9999 FEW025 31/21 Q1017=
2025-03-07 19:00:00<>METAR SBGL 071900Z 13013KT 9999 FEW025 30/22 Q1016=
2025-03-07 20:00:00<>METAR SBGL 072000Z 14012KT 9999 FEW025 SCT050 30/22 Q1017=
2025-03-07 21:00:00<>METAR SBGL 072100Z 14011KT 9999 FEW020 BKN050 28/22 Q1017=
2025-03-07 22:00:00<>METAR SBGL 072200Z 14010KT 9999 FEW020 BKN050 27/22 Q1017=
2025-03-07 23:00:00<>METAR SBGL 072300Z 15009KT 9999 FEW018 BKN040 27/22 Q1018=
2025-03-08 00:00:00<>METAR SBGL 080000Z 14006KT 9999 FEW018 BKN040 27/23 Q1018=
2025-03-08 01:00:00<>METAR SBGL 080100Z 14007KT 9999 FEW018 26/23 Q1018=
2025-03-08 02:00:00<>METAR SBGL 080200Z 13005KT 9999 FEW018 26/23 Q1018=
2025-03-08 03:00:00<>METAR SBGL 080300Z 14005KT 9999 FEW018 26/23 Q1017=
2025-03-08 04:00:00<>METAR SBGL 080400Z 14003KT 9999 FEW018 25/23 Q1017=
2025-03-08 05:00:00<>METAR SBGL 080500Z VRB01KT 9999 FEW018 25/23 Q1016=
2025-03-08 06:00:00<>METAR SBGL 080600Z 12001KT 9999 FEW018 25/23 Q1016=
2025-03-08 07:00:00<>METAR SBGL 080700Z 08002KT 9999 FEW018 SCT045 25/23 Q1016=
2025-03-08 08:00:00<>METAR SBGL 080800Z VRB01KT 9999 FEW018 SCT040 25/23 Q1016=
2025-03-08 09:00:00<>METAR SBGL 080900Z 33005KT 9999 SCT011 SCT040 25/23 Q1016=
2025-03-08 10:00:00<>METAR SBGL 081000Z 33004KT 9000 FEW011 25/23 Q1017=
2025-03-08 11:00:00<>METAR SBGL 081100Z 36005KT 9999 FEW013 27/23 Q1017=
2025-03-08 12:00:00<>METAR SBGL 081200Z 36004KT 9999 FEW013 29/22 Q1017=
2025-03-08 13:00:00<>METAR SBGL 081300Z 36007KT 9999 FEW025 30/21 Q1017=
2025-03-08 14:00:00<>METAR SBGL 081400Z 05006KT 9999 FEW032 32/20 Q1016=
2025-03-08 15:00:00<>METAR SBGL 081500Z 05006KT 9999 FEW045 32/21 Q1016=
2025-03-08 16:00:00<>METAR SBGL 081600Z 12009KT 9999 FEW045 33/21 Q1015=
2025-03-08 17:00:00<>METAR SBGL 081700Z 14014KT 9999 FEW045 31/20 Q1014=
2025-03-08 18:00:00<>METAR SBGL 081800Z 13014KT CAVOK 30/21 Q1014=
2025-03-08 19:00:00<>METAR SBGL 081900Z 13013KT 9999 FEW025 29/22 Q1014=
2025-03-08 20:00:00<>METAR SBGL 082000Z 13013KT 9999 FEW025 29/22 Q1014=
2025-03-08 21:00:00<>METAR SBGL 082100Z 13013KT CAVOK 28/23 Q1014=
2025-03-08 22:00:00<>METAR SBGL 082200Z 14010KT 9999 FEW030 SCT055 BKN070 28/22 Q1015=
2025-03-08 23:00:00<>METAR SBGL 082300Z 14006KT 9999 SCT035 27/22 Q1015=
2025-03-09 00:00:00<>METAR SBGL 090000Z 13005KT 9999 FEW035 27/22 Q1015=
2025-03-09 01:00:00<>METAR SBGL 090100Z 12005KT CAVOK 26/23 Q1015=
2025-03-09 02:00:00<>METAR SBGL 090200Z 12005KT CAVOK 26/23 Q1015=
2025-03-09 03:00:00<>METAR SBGL 090300Z 10004KT CAVOK 26/23 Q1014=
2025-03-09 04:00:00<>METAR SBGL 090400Z 08004KT CAVOK 25/21 Q1014=
2025-03-09 05:00:00<>METAR SBGL 090500Z 05003KT 340V070 CAVOK 25/21 Q1013=
2025-03-09 06:00:00<>METAR SBGL 090600Z 08003KT CAVOK 25/22 Q1013=
2025-03-09 07:00:00<>METAR SBGL 090700Z 07004KT CAVOK 24/22 Q1013=
2025-03-09 08:00:00<>METAR SBGL 090800Z 09003KT CAVOK 25/22 Q1013=
2025-03-09 09:00:00<>METAR SBGL 090900Z 05003KT CAVOK 24/22 Q1013=
2025-03-09 10:00:00<>METAR SBGL 091000Z 06006KT 9999 FEW018 26/23 Q1014=
2025-03-09 11:00:00<>METAR SBGL 091100Z 06009KT 9999 FEW011 27/23 Q1013=
2025-03-09 12:00:00<>METAR SBGL 091200Z 09007KT 9999 FEW019 29/23 Q1013=
2025-03-09 13:00:00<>METAR SBGL 091300Z 05008KT CAVOK 31/22 Q1013=
2025-03-09 14:00:00<>METAR SBGL 091400Z 35008KT CAVOK 32/20 Q1012=
2025-03-09 15:00:00<>METAR SBGL 091500Z 34009KT 9999 FEW030 33/21 Q1011=
2025-03-09 16:00:00<>METAR SBGL 091600Z 09007KT 9999 FEW030 35/20 Q1010=
2025-03-09 17:00:00<>METAR SBGL 091700Z 12012KT 9999 FEW030 35/21 Q1009=
2025-03-09 18:00:00<>METAR SBGL 091800Z 12014KT 9999 FEW030 33/21 Q1009=
2025-03-09 19:00:00<>METAR SBGL 091900Z 13014KT 9999 FEW030 33/21 Q1008=
2025-03-09 20:00:00<>METAR SBGL 092000Z 16014KT 9999 FEW030 32/20 Q1009=
2025-03-09 21:00:00<>METAR SBGL 092100Z 15009KT 9999 FEW030TCU SCT070 31/19 Q1010=
2025-03-09 22:00:00<>METAR SBGL 092200Z 19008KT 9999 FEW030TCU SCT100 31/18 Q1010=
2025-03-09 23:00:00<>METAR SBGL 092300Z 26006KT 9999 FEW030TCU SCT100 29/21 Q1011=
2025-03-09 23:11:00<>SPECI SBGL 092311Z 22005KT 9999 TS FEW030CB SCT100 29/21 Q1011=
2025-03-10 00:00:00<>METAR COR SBGL 100000Z 22005KT 9999 FEW030TCU SCT100 29/21 Q1011 RETS=
2025-03-10 00:00:00<>SPECI SBGL 100000Z 22005KT 9999 FEW030TCU SCT100 29/21 Q1011 RETS=
2025-03-10 00:10:00<>SPECI COR SBGL 100010Z 22005KT 9999 FEW030 SCT100 29/21 Q1011 RETS=
2025-03-10 01:00:00<>METAR SBGL 100100Z 28006KT 9999 FEW030 SCT100 28/22 Q1012=
2025-03-10 02:00:00<>METAR SBGL 100200Z 25005KT 8000 FEW030 SCT100 28/22 Q1011=
2025-03-10 03:00:00<>METAR SBGL 100300Z 27008KT 8000 FEW030 SCT100 27/22 Q1011=
2025-03-10 04:00:00<>METAR SBGL 100400Z 27006KT 9999 FEW030 SCT100 27/21 Q1011=
2025-03-10 05:00:00<>METAR SBGL 100500Z 32005KT 9999 FEW030 SCT100 26/21 Q1011=
2025-03-10 06:00:00<>METAR SBGL 100600Z 30005KT 9999 FEW030 SCT100 27/22 Q1011=
2025-03-10 07:00:00<>METAR SBGL 100700Z 28004KT 9999 FEW030 SCT100 27/20 Q1011=
2025-03-10 08:00:00<>METAR SBGL 100800Z 11002KT 9999 FEW030 SCT100 26/21 Q1011=
2025-03-10 09:00:00<>METAR SBGL 100900Z 23007KT 9999 FEW030 SCT100 27/20 Q1011=
2025-03-10 10:00:00<>METAR SBGL 101000Z 10003KT 9999 FEW030 SCT100 27/22 Q1011=
2025-03-10 11:00:00<>METAR SBGL 101100Z 24007KT 9999 FEW020 SCT100 29/22 Q1012=
2025-03-10 12:00:00<>METAR SBGL 101200Z 24008KT 9999 FEW022 SCT100 30/22 Q1012=
2025-03-10 13:00:00<>METAR SBGL 101300Z 21008KT 9999 SCT025 32/22 Q1013=
2025-03-10 14:00:00<>METAR SBGL 101400Z 26004KT 9999 FEW023 33/20 Q1012=
2025-03-10 15:00:00<>METAR SBGL 101500Z 21010KT 9999 SCT030 33/21 Q1012=
2025-03-10 16:00:00<>METAR SBGL 101600Z 19009KT 9999 FEW033 32/21 Q1011=
2025-03-10 17:00:00<>METAR SBGL 101700Z 20016KT 9999 FEW033 33/21 Q1011=
2025-03-10 18:00:00<>METAR SBGL 101800Z 21019KT 9999 FEW040 31/21 Q1011=
2025-03-10 19:00:00<>METAR SBGL 101900Z 21018KT 9999 FEW025 SCT070 31/21 Q1011=
2025-03-10 20:00:00<>METAR SBGL 102000Z 20013KT 9999 FEW030 BKN070 29/21 Q1012=
2025-03-10 21:00:00<>METAR SBGL 102100Z 21012KT 9999 FEW030 FEW035TCU BKN050 28/21 Q1013=
2025-03-10 22:00:00<>METAR SBGL 102200Z 23007KT 9999 FEW030 FEW035TCU BKN060 28/22 Q1013=
2025-03-10 23:00:00<>METAR SBGL 102300Z 22009KT 9999 FEW030 FEW035TCU BKN070 28/21 Q1014=
2025-03-11 00:00:00<>METAR SBGL 110000Z 20007KT 9999 SCT030 FEW036TCU SCT070 28/21 Q1014=
2025-03-11 01:00:00<>METAR SBGL 110100Z 24008KT 9999 SCT026 SCT050 28/21 Q1015=
2025-03-11 02:00:00<>METAR SBGL 110200Z 26006KT 9999 SCT030 27/22 Q1015=
2025-03-11 03:00:00<>METAR SBGL 110300Z 29004KT 9999 SCT033 26/22 Q1014=
2025-03-11 04:00:00<>METAR SBGL 110400Z 28005KT 9999 SCT033 26/22 Q1014=
2025-03-11 05:00:00<>METAR SBGL 110500Z 31005KT 9999 SCT033 26/22 Q1014=
2025-03-11 06:00:00<>METAR SBGL 110600Z 32004KT 8000 SCT033 25/22 Q1013=
2025-03-11 07:00:00<>METAR SBGL 110700Z 33004KT 8000 SCT033 25/22 Q1013=
2025-03-11 08:00:00<>METAR SBGL 110800Z 27004KT 8000 SCT046 26/22 Q1014=
2025-03-11 09:00:00<>METAR SBGL 110900Z 28003KT 9999 SCT046 26/22 Q1015=
2025-03-11 10:00:00<>METAR SBGL 111000Z 36005KT 9999 FEW046 26/22 Q1015=
2025-03-11 11:00:00<>METAR SBGL 111100Z 35003KT 320V030 9999 FEW011 27/22 Q1016=
2025-03-11 12:00:00<>METAR SBGL 111200Z 07004KT 9999 FEW011 30/22 Q1016=
2025-03-11 13:00:00<>METAR SBGL 111300Z 07007KT 9999 FEW020 30/22 Q1016=
2025-03-11 14:00:00<>METAR SBGL 111400Z 02008KT 9999 FEW030 31/21 Q1015=
2025-03-11 15:00:00<>METAR SBGL 111500Z 12008KT 9999 FEW030 32/21 Q1015=
2025-03-11 16:00:00<>METAR SBGL 111600Z 12012KT 9999 FEW030 32/20 Q1015=
2025-03-11 17:00:00<>METAR SBGL 111700Z 12014KT 9999 FEW030 FEW033TCU 31/21 Q1014=
2025-03-11 18:00:00<>METAR SBGL 111800Z 14015KT 9999 FEW030 FEW033TCU 31/21 Q1013=
2025-03-11 19:00:00<>METAR SBGL 111900Z 13014KT 9999 FEW030 FEW033TCU 30/22 Q1013=
2025-03-11 20:00:00<>METAR SBGL 112000Z 14013KT 9999 VCSH VCTS FEW030 FEW033CB BKN045 28/22 Q1013=
2025-03-11 20:41:00<>SPECI SBGL 112041Z 15009KT 8000 2000S TSRA FEW030 FEW033CB BKN040 27/23 Q1014=
2025-03-11 21:00:00<>METAR SBGL 112100Z 15009KT 8000 2000S -TSRA FEW030 FEW033CB BKN040 26/23 Q1014 RERA=
2025-03-11 21:18:00<>SPECI SBGL 112118Z 15008KT 9999 FEW018 FEW033TCU BKN040 27/23 Q1014 RETS=
2025-03-11 22:00:00<>METAR SBGL 112200Z 14009KT 9999 FEW018 BKN040 27/23 Q1014=
2025-03-11 23:00:00<>METAR SBGL 112300Z 15007KT 9999 VCSH FEW018 BKN040 27/23 Q1015=
2025-03-12 00:00:00<>METAR SBGL 120000Z 15008KT 9999 VCSH FEW018 BKN035 FEW037TCU 27/23 Q1016=
2025-03-12 01:00:00<>METAR SBGL 120100Z 14005KT 9999 SCT020 FEW025TCU BKN030 27/23 Q1017=
2025-03-12 02:00:00<>METAR SBGL 120200Z 14004KT 7000 -RA SCT020 FEW025TCU BKN030 27/23 Q1017=
2025-03-12 03:00:00<>METAR SBGL 120300Z 14003KT 7000 -RA SCT020 FEW025TCU BKN030 25/23 Q1016=
2025-03-12 04:00:00<>METAR SBGL 120400Z 12001KT 9999 FEW020 BKN040 25/23 Q1016=
2025-03-12 05:00:00<>METAR SBGL 120500Z 17001KT 9999 FEW025 SCT070 25/23 Q1015=
2025-03-12 06:00:00<>METAR SBGL 120600Z 14001KT 9999 FEW025 SCT070 25/23 Q1015=
2025-03-12 07:00:00<>METAR SBGL 120700Z 00000KT 9999 FEW030 SCT100 25/23 Q1015=
2025-03-12 08:00:00<>METAR SBGL 120800Z 09002KT 9999 FEW030 SCT100 25/23 Q1015=
2025-03-12 09:00:00<>METAR SBGL 120900Z 09003KT 8000 FEW030 24/23 Q1015=
2025-03-12 10:00:00<>METAR SBGL 121000Z 09005KT 9999 FEW030 26/23 Q1016=
2025-03-12 11:00:00<>METAR SBGL 121100Z 06007KT 9999 FEW018 26/24 Q1016=
2025-03-12 12:00:00<>METAR SBGL 121200Z 08004KT 030V190 9999 FEW020 28/23 Q1016=
2025-03-12 13:00:00<>METAR SBGL 121300Z 33004KT 270V030 9999 FEW025 29/24 Q1016=
2025-03-12 14:00:00<>METAR SBGL 121400Z 02005KT 340V090 9999 FEW025 31/24 Q1016=
2025-03-12 15:00:00<>METAR SBGL 121500Z VRB06KT 9999 FEW030 33/21 Q1015=
2025-03-12 16:00:00<>METAR SBGL 121600Z 12010KT 9999 FEW030 33/23 Q1014=
2025-03-12 17:00:00<>METAR SBGL 121700Z 14009KT 9999 FEW030 33/22 Q1013=
2025-03-12 18:00:00<>METAR SBGL 121800Z 13013KT 9999 FEW030 FEW035TCU 31/22 Q1012=
2025-03-12 19:00:00<>METAR SBGL 121900Z 14014KT 9999 FEW030 FEW035TCU SCT050 30/22 Q1012=
2025-03-12 20:00:00<>METAR SBGL 122000Z 15013KT 9999 FEW030 FEW035TCU BKN080 30/21 Q1012=
2025-03-12 21:00:00<>METAR SBGL 122100Z 15009KT 9999 FEW030 FEW035TCU BKN055 29/22 Q1013=
2025-03-12 21:40:00<>SPECI SBGL 122140Z 06015KT 8000 -TSRA FEW015 FEW035CB BKN050 26/24 Q1013=
2025-03-12 22:00:00<>METAR SBGL 122200Z 07008KT 040V100 9999 TS FEW015 SCT020 FEW035CB BKN055 25/23 Q1014=
2025-03-12 23:00:00<>METAR SBGL 122300Z 15005KT 9999 VCTS SCT020 FEW035CB BKN050 26/21 Q1014 RETS=
2025-03-13 00:00:00<>METAR SBGL 130000Z VRB02KT 9999 FEW020 BKN100 26/23 Q1014=
2025-03-13 01:00:00<>METAR SBGL 130100Z 11003KT 9999 FEW020 BKN100 26/23 Q1014=
2025-03-13 02:00:00<>METAR SBGL 130200Z VRB02KT 9999 -RA FEW020 BKN100 26/23 Q1014=
2025-03-13 03:00:00<>METAR SBGL 130300Z VRB02KT 9999 FEW020 BKN100 26/24 Q1013=
2025-03-13 04:00:00<>METAR SBGL 130400Z 15003KT 9999 FEW017 BKN100 25/23 Q1012=
2025-03-13 05:00:00<>METAR SBGL 130500Z VRB02KT 9999 BKN017 BKN100 26/24 Q1012=
2025-03-13 06:00:00<>METAR SBGL 130600Z 13004KT 9999 FEW009 BKN100 25/23 Q1012=
2025-03-13 07:00:00<>METAR SBGL 130700Z 06003KT 9999 FEW015 25/23 Q1012=
2025-03-13 08:00:00<>METAR SBGL 130800Z 10002KT 9999 FEW010 25/23 Q1012=
2025-03-13 09:00:00<>METAR SBGL 130900Z 33004KT 290V020 6000 2000NE R10/1200U R28/P2000N R15/P2000N R33/P2000N FEW010 25/24 Q1012=
2025-03-13 10:00:00<>METAR SBGL 131000Z VRB02KT 6000 FEW009 26/23 Q1012=
2025-03-13 11:00:00<>METAR SBGL 131100Z 29002KT 7000 FEW014 27/23 Q1013=
2025-03-13 12:00:00<>METAR SBGL 131200Z 36003KT 7000 FEW015 29/24 Q1013=
2025-03-13 13:00:00<>METAR SBGL 131300Z 02005KT 7000 FEW015 30/24 Q1013=
2025-03-13 14:00:00<>METAR SBGL 131400Z 13011KT 7000 FEW015 30/23 Q1013=
2025-03-13 15:00:00<>METAR SBGL 131500Z 12011KT 8000 FEW015 31/23 Q1012=
2025-03-13 16:00:00<>METAR SBGL 131600Z 12012KT 9999 FEW015 31/23 Q1011=
2025-03-13 17:00:00<>METAR SBGL 131700Z 14012KT 9999 FEW015 30/23 Q1010=
2025-03-13 18:00:00<>METAR SBGL 131800Z 13011KT CAVOK 31/23 Q1010=
2025-03-13 19:00:00<>METAR SBGL 131900Z 12010KT 9999 FEW015 FEW025TCU 30/23 Q1010=
2025-03-13 20:00:00<>METAR SBGL 132000Z 12012KT 8000 FEW015 FEW025TCU 27/23 Q1011=
2025-03-13 21:00:00<>METAR SBGL 132100Z 12010KT 7000 FEW025TCU SCT050 26/23 Q1012=
2025-03-13 22:00:00<>METAR SBGL 132200Z 15002KT 8000 FEW025TCU BKN040 27/24 Q1012=
2025-03-13 23:00:00<>METAR SBGL 132300Z 24008KT 8000 -RA OVC020 27/23 Q1013=
2025-03-14 00:00:00<>METAR SBGL 140000Z 25005KT 210V280 7000 -RA BKN030 OVC090 26/23 Q1013=
2025-03-14 01:00:00<>METAR SBGL 140100Z 25007KT 210V300 9999 FEW030 BKN045 25/23 Q1013=
2025-03-14 02:00:00<>METAR SBGL 140200Z 30005KT 280V010 9999 BKN030 26/24 Q1012=
2025-03-14 03:00:00<>METAR SBGL 140300Z 26004KT 230V290 9999 BKN028 26/23 Q1012=
2025-03-14 04:00:00<>METAR SBGL 140400Z 33003KT 300V070 9999 BKN030 26/23 Q1011=
2025-03-14 05:00:00<>METAR SBGL 140500Z 33004KT 320V020 8000 BKN030 25/23 Q1011=
2025-03-14 06:00:00<>METAR SBGL 140600Z 29004KT 9999 SCT030 25/23 Q1011=
2025-03-14 07:00:00<>METAR SBGL 140700Z 28004KT 7000 SCT030 BKN090 25/23 Q1011=
2025-03-14 08:00:00<>METAR SBGL 140800Z 31005KT 8000 SCT010 BKN014 BKN030 25/23 Q1011=
2025-03-14 09:00:00<>METAR SBGL 140900Z 31005KT 7000 FEW014 BKN030 25/23 Q1011=
2025-03-14 10:00:00<>METAR SBGL 141000Z 29006KT 8000 FEW014 BKN030 26/23 Q1012=
2025-03-14 11:00:00<>METAR SBGL 141100Z 27004KT 7000 FEW015 BKN040 27/23 Q1012=
2025-03-14 12:00:00<>METAR SBGL 141200Z 36004KT 7000 FEW017 BKN040 27/23 Q1013=
2025-03-14 13:00:00<>METAR SBGL 141300Z 36005KT 7000 FEW017 SCT040 29/23 Q1013=
2025-03-14 14:00:00<>METAR SBGL 141400Z 33009KT 8000 SCT040 31/22 Q1012=
2025-03-14 15:00:00<>METAR SBGL 141500Z 14011KT 8000 SCT030 29/22 Q1012=
2025-03-14 16:00:00<>METAR SBGL 141600Z 13011KT 8000 SCT030 31/22 Q1011=
2025-03-14 17:00:00<>METAR SBGL 141700Z 12011KT 9000 FEW030 31/22 Q1010=
2025-03-14 18:00:00<>METAR SBGL 141800Z 13011KT 9000 FEW030 31/21 Q1010=
2025-03-14 19:00:00<>METAR SBGL 141900Z 12011KT 9999 FEW030 31/21 Q1010=
2025-03-14 20:00:00<>METAR SBGL 142000Z 21011KT CAVOK 30/21 Q1011=
2025-03-14 21:00:00<>METAR COR SBGL 142100Z 23007KT 9999 FEW043 29/21 Q1011=
2025-03-14 22:00:00<>METAR SBGL 142200Z 21009KT 9999 FEW040 SCT100 28/21 Q1012=
2025-03-14 23:00:00<>METAR SBGL 142300Z 21006KT 9999 BKN040 BKN100 27/21 Q1013=
2025-03-15 00:00:00<>METAR SBGL 150000Z 23006KT 9999 BKN040 27/22 Q1013=
2025-03-15 01:00:00<>METAR SBGL 150100Z 26006KT 9999 OVC040 27/22 Q1014=
2025-03-15 02:00:00<>METAR SBGL 150200Z 26006KT 8000 FEW023 OVC040 27/22 Q1014=
2025-03-15 03:00:00<>METAR SBGL 150300Z 27005KT 9999 FEW025 BKN055 27/22 Q1013=
2025-03-15 04:00:00<>METAR SBGL 150400Z 26003KT 8000 FEW023 SCT040 26/22 Q1013=
2025-03-15 05:00:00<>METAR SBGL 150500Z 29006KT 7000 FEW023 SCT040 26/22 Q1013=
2025-03-15 06:00:00<>METAR SBGL 150600Z 26005KT 8000 FEW023 26/23 Q1012=
2025-03-15 07:00:00<>METAR SBGL 150700Z 25004KT 9999 FEW023 26/22 Q1012=
2025-03-15 08:00:00<>METAR SBGL 150800Z 25003KT 9999 FEW023 SCT080 26/23 Q1012=
2025-03-15 09:00:00<>METAR SBGL 150900Z 21004KT 9999 FEW008 26/22 Q1013=
2025-03-15 10:00:00<>METAR SBGL 151000Z 25006KT 9999 FEW008 SCT100 26/22 Q1013=
2025-03-15 11:00:00<>METAR SBGL 151100Z 27005KT 9999 FEW008 BKN080 27/22 Q1014=
2025-03-15 12:00:00<>METAR SBGL 151200Z 28004KT 9999 FEW015 BKN080 29/22 Q1014=
2025-03-15 13:00:00<>METAR SBGL 151300Z 29005KT 9999 FEW020 BKN080 30/22 Q1014=
2025-03-15 14:00:00<>METAR SBGL 151400Z 25004KT 9999 FEW025 SCT080 32/21 Q1014=
2025-03-15 15:00:00<>METAR SBGL 151500Z 11006KT 9999 SCT025 SCT080 31/22 Q1013=
2025-03-15 16:00:00<>METAR SBGL 151600Z 13008KT 9999 SCT030 SCT080 30/22 Q1013=
2025-03-15 17:00:00<>METAR SBGL 151700Z 12010KT 9999 SCT030 BKN070 31/22 Q1012=
2025-03-15 18:00:00<>METAR SBGL 151800Z 12009KT 9999 SCT035 BKN070 30/22 Q1012=
2025-03-15 19:00:00<>METAR SBGL 151900Z 12010KT 9999 VCSH SCT035 BKN070 28/23 Q1012=
2025-03-15 20:00:00<>METAR SBGL 152000Z 13011KT 9999 SCT035 BKN070 26/22 Q1013=
2025-03-15 21:00:00<>METAR SBGL 152100Z 15013KT 9999 BKN036 BKN070 26/22 Q1013=
2025-03-15 22:00:00<>METAR SBGL 152200Z 12010KT 9999 BKN036 BKN070 26/22 Q1014=
2025-03-15 23:00:00<>METAR SBGL 152300Z 14008KT 9999 BKN046 26/22 Q1015=
2025-03-16 00:00:00<>METAR SBGL 160000Z 13006KT 9999 BKN046 26/21 Q1016=
2025-03-16 01:00:00<>METAR SBGL 160100Z 12006KT 9999 BKN036 26/22 Q1016=
2025-03-16 02:00:00<>METAR SBGL 160200Z 13005KT 9999 SCT019 BKN036 26/22 Q1016=
2025-03-16 02:25:00<>SPECI SBGL 160225Z 11008KT 5000 -RA BKN015 OVC030 25/22 Q1016=
2025-03-16 03:00:00<>METAR SBGL 160300Z 17006KT 4000 -RA BKN013 OVC026 24/23 Q1015=
2025-03-16 04:00:00<>METAR SBGL 160400Z 26003KT 8000 SCT013 BKN026 24/23 Q1015=
2025-03-16 05:00:00<>METAR SBGL 160500Z 15003KT 8000 SCT013 BKN026 24/23 Q1015=
2025-03-16 06:00:00<>METAR SBGL 160600Z 18003KT 8000 SCT013 BKN026 24/23 Q1014=
2025-03-16 07:00:00<>METAR SBGL 160700Z 21003KT 8000 SCT013 BKN026 24/23 Q1014=
2025-03-16 08:00:00<>METAR SBGL 160800Z 13004KT 9999 FEW017 SCT026 24/22 Q1014=
2025-03-16 09:00:00<>METAR SBGL 160900Z 10003KT 9999 FEW017 SCT026 24/22 Q1015=
2025-03-16 10:00:00<>METAR SBGL 161000Z 14002KT 9999 FEW017 SCT026 25/23 Q1016=
2025-03-16 11:00:00<>METAR SBGL 161100Z VRB02KT 9999 FEW017 SCT023 BKN080 27/23 Q1017=
2025-03-16 12:00:00<>METAR SBGL 161200Z VRB03KT 9999 FEW017 SCT023 BKN080 28/22 Q1017=
2025-03-16 13:00:00<>METAR SBGL 161300Z 08005KT 340V040 9999 FEW019 SCT023 BKN080 28/23 Q1017=
2025-03-16 14:00:00<>METAR SBGL 161400Z 13005KT 090V170 9999 SCT023 BKN080 29/22 Q1017=
2025-03-16 15:00:00<>METAR SBGL 161500Z 13008KT 100V180 9999 SCT023 BKN080 31/22 Q1017=
2025-03-16 16:00:00<>METAR SBGL 161600Z 14011KT 9999 SCT025 BKN080 29/22 Q1016=
2025-03-16 17:00:00<>METAR SBGL 161700Z 12011KT 9999 FEW025 BKN080 29/22 Q1016=
2025-03-16 18:00:00<>METAR SBGL 161800Z 13010KT 9999 VCSH FEW025 SCT040 BKN080 28/22 Q1015=
2025-03-16 19:00:00<>METAR SBGL 161900Z 14010KT 9999 VCSH FEW025 SCT040 BKN080 28/22 Q1015=
2025-03-16 20:00:00<>METAR SBGL 162000Z 13010KT 9999 VCSH FEW025 SCT050 BKN080 27/22 Q1015=
2025-03-16 21:00:00<>METAR SBGL 162100Z 14010KT 9999 VCSH FEW025 BKN050 27/22 Q1015=
2025-03-16 22:00:00<>METAR SBGL 162200Z 14008KT 9999 VCTS FEW018 FEW030CB BKN050 27/22 Q1016=
2025-03-16 23:00:00<>METAR SBGL 162300Z 13007KT 9999 FEW020 FEW035TCU BKN050 27/22 Q1017=
2025-03-17 00:00:00<>METAR SBGL 170000Z 06007KT 9999 FEW020 FEW035TCU BKN050 26/23 Q1017=
2025-03-17 01:00:00<>METAR SBGL 170100Z 06007KT 9999 VCSH SCT020 FEW035TCU BKN050 26/22 Q1018=
2025-03-17 02:00:00<>METAR SBGL 170200Z 07005KT 9999 SCT020 FEW035TCU BKN040 25/22 Q1017=
2025-03-17 03:00:00<>METAR SBGL 170300Z 14003KT 9999 FEW020 BKN040 25/21 Q1017=
2025-03-17 04:00:00<>METAR SBGL 170400Z 15002KT 9999 FEW025 BKN050 26/22 Q1017=
2025-03-17 05:00:00<>METAR SBGL 170500Z 00000KT 9999 FEW025 BKN065 25/22 Q1016=
2025-03-17 06:00:00<>METAR SBGL 170600Z 02002KT 9999 FEW025 BKN070 25/22 Q1016=
2025-03-17 07:00:00<>METAR SBGL 170700Z 35003KT 9999 FEW025 BKN070 25/22 Q1016=
2025-03-17 08:00:00<>METAR SBGL 170800Z 32002KT 9999 FEW025 BKN080 25/22 Q1016=
2025-03-17 09:00:00<>METAR SBGL 170900Z 35005KT 8000 FEW020 BKN080 25/22 Q1017=
2025-03-17 10:00:00<>METAR SBGL 171000Z 35003KT 8000 FEW008 BKN070 25/22 Q1017=
2025-03-17 11:00:00<>METAR SBGL 171100Z 36003KT 7000 -RA BKN014 SCT040 BKN070 25/22 Q1018=
2025-03-17 12:00:00<>METAR SBGL 171200Z 33005KT 4000 -RA BR BKN012 BKN035 BKN070 24/22 Q1018=
2025-03-17 13:00:00<>METAR SBGL 171300Z 33004KT 4000 -RA BR BKN008 BKN030 BKN070 25/23 Q1019=
2025-03-17 14:00:00<>METAR SBGL 171400Z 36003KT 330V060 4000 -RA BR BKN007 OVC040 25/23 Q1018=
2025-03-17 15:00:00<>METAR SBGL 171500Z 36003KT 330V030 4000 -RA BR BKN007 OVC040 25/23 Q1017=
2025-03-17 16:00:00<>METAR SBGL 171600Z 26005KT 4000 -RA BR BKN009 OVC016 25/23 Q1016=
2025-03-17 17:00:00<>METAR SBGL 171700Z 26005KT 4000 -RA BR BKN009 OVC016 25/23 Q1016=
2025-03-17 18:00:00<>METAR SBGL 171800Z 04002KT 6000 FEW014 SCT032 27/22 Q1016=
2025-03-17 19:00:00<>METAR SBGL 171900Z 12005KT 9999 FEW014 SCT018 BKN040 26/22 Q1015=
2025-03-17 20:00:00<>METAR SBGL 172000Z 11006KT 9999 FEW021 OVC040 26/21 Q1016=
2025-03-17 21:00:00<>METAR SBGL 172100Z 12006KT 9999 FEW029 OVC055 26/22 Q1016=
2025-03-17 22:00:00<>METAR SBGL 172200Z 12005KT 9999 FEW032 OVC040 25/22 Q1016=
2025-03-17 23:00:00<>METAR SBGL 172300Z 13003KT 9999 FEW016 BKN030 25/22 Q1017=
2025-03-18 00:00:00<>METAR SBGL 180000Z 12003KT 9999 FEW016 BKN030 25/22 Q1017=
2025-03-18 01:00:00<>METAR SBGL 180100Z 06005KT 9999 FEW015 BKN040 26/22 Q1017=
2025-03-18 02:00:00<>METAR SBGL 180200Z VRB01KT 9999 FEW015 25/22 Q1017=
2025-03-18 03:00:00<>METAR SBGL 180300Z 09001KT 9999 FEW009 24/22 Q1016=
2025-03-18 04:00:00<>METAR SBGL 180400Z VRB01KT 9999 FEW011 24/22 Q1015=
2025-03-18 05:00:00<>METAR SBGL 180500Z 07001KT 9999 FEW011 24/22 Q1015=
2025-03-18 06:00:00<>METAR SBGL 180600Z 35003KT 320V020 7000 FEW011 24/22 Q1014=
2025-03-18 07:00:00<>METAR SBGL 180700Z 35003KT 6000 FEW006 23/22 Q1014=
2025-03-18 08:00:00<>METAR SBGL 180800Z 35002KT 6000 FEW008 23/22 Q1014=
2025-03-18 09:00:00<>METAR SBGL 180900Z VRB01KT 4500 BR FEW008 23/21 Q1014=
2025-03-18 10:00:00<>METAR SBGL 181000Z VRB02KT 4500 BR FEW008 24/22 Q1015=
2025-03-18 10:19:00<>SPECI SBGL 181019Z VRB02KT 6000 FEW010 24/22 Q1015=
2025-03-18 11:00:00<>METAR SBGL 181100Z 05004KT 020V080 8000 SCT015 26/22 Q1015=
2025-03-18 12:00:00<>METAR SBGL 181200Z 01005KT 330V040 9999 SCT015 27/22 Q1015=
2025-03-18 13:00:00<>METAR SBGL 181300Z 36007KT 9999 FEW020 27/23 Q1015=
2025-03-18 14:00:00<>METAR SBGL 181400Z VRB05KT 9999 FEW025 30/20 Q1014=
2025-03-18 15:00:00<>METAR SBGL 181500Z 34006KT 310V050 9999 FEW025 31/20 Q1013=
2025-03-18 16:00:00<>METAR SBGL 181600Z VRB06KT 9999 FEW030 33/20 Q1013=
2025-03-18 17:00:00<>METAR SBGL 181700Z 12012KT 9999 FEW030 31/21 Q1012=
2025-03-18 18:00:00<>METAR SBGL 181800Z 12012KT 9999 FEW030 31/21 Q1011=
2025-03-18 19:00:00<>METAR SBGL 181900Z 14014KT 9999 FEW030 30/21 Q1010=
2025-03-18 20:00:00<>METAR SBGL 182000Z 14014KT 9999 FEW025 29/21 Q1010=
2025-03-18 21:00:00<>METAR SBGL 182100Z 15012KT 9999 FEW020 28/20 Q1010=
2025-03-18 22:00:00<>METAR SBGL 182200Z 14012KT CAVOK 27/20 Q1011=
2025-03-18 23:00:00<>METAR SBGL 182300Z 14007KT CAVOK 27/21 Q1011=
2025-03-19 00:00:00<>METAR SBGL 190000Z 13004KT CAVOK 27/22 Q1012=
2025-03-19 01:00:00<>METAR SBGL 190100Z 17004KT CAVOK 27/22 Q1012=
2025-03-19 02:00:00<>METAR SBGL 190200Z 11002KT 8000 FEW040 27/23 Q1012=
2025-03-19 03:00:00<>METAR SBGL 190300Z 27008KT CAVOK 26/22 Q1012=
2025-03-19 04:00:00<>METAR SBGL 190400Z 26005KT 9999 FEW040 26/22 Q1012=
2025-03-19 05:00:00<>METAR SBGL 190500Z 28007KT 9999 FEW012 SCT060 BKN100 26/23 Q1011=
2025-03-19 06:00:00<>METAR SBGL 190600Z 28007KT 7000 FEW012 SCT060 BKN100 26/23 Q1011=
2025-03-19 07:00:00<>METAR SBGL 190700Z 26008KT 7000 -RA FEW012 SCT040 BKN100 24/21 Q1011=
2025-03-19 08:00:00<>METAR SBGL 190800Z 24006KT 7000 -RA FEW012 SCT040 BKN100 24/21 Q1011=
2025-03-19 09:00:00<>METAR SBGL 190900Z 35004KT 8000 FEW012 SCT040 BKN100 24/22 Q1011=
2025-03-19 10:00:00<>METAR SBGL 191000Z 33003KT 290V040 8000 -RA FEW012 SCT040 BKN100 24/22 Q1011=
2025-03-19 11:00:00<>METAR SBGL 191100Z 24003KT 9999 BKN040 BKN100 25/22 Q1012=
2025-03-19 12:00:00<>METAR SBGL 191200Z 02006KT 9999 SCT023 BKN100 26/23 Q1012=
2025-03-19 13:00:00<>METAR SBGL 191300Z 33006KT 9999 SCT023 BKN100 28/23 Q1013=
2025-03-19 14:00:00<>METAR SBGL 191400Z 25007KT 9999 SCT026 BKN100 29/21 Q1013=
2025-03-19 15:00:00<>METAR SBGL 191500Z 30007KT 9999 BKN030 BKN100 30/21 Q1012=
2025-03-19 16:00:00<>METAR SBGL 191600Z 12011KT 9999 BKN030 BKN100 30/23 Q1012=
2025-03-19 17:00:00<>METAR SBGL 191700Z 11009KT 9999 BKN033 FEW050TCU BKN070 29/22 Q1011=
2025-03-19 18:00:00<>METAR SBGL 191800Z 20012KT 9999 BKN033 FEW050TCU BKN070 30/22 Q1011=
2025-03-19 19:00:00<>METAR SBGL 191900Z 20016KT 9999 BKN033 FEW050TCU BKN070 28/21 Q1011=
2025-03-19 20:00:00<>METAR SBGL 192000Z 22015KT 9000 VCSH BKN033 FEW050TCU BKN070 28/22 Q1012=
2025-03-19 21:00:00<>METAR SBGL 192100Z 23011KT 8000 VCSH FEW019 BKN030 FEW050TCU BKN070 27/22 Q1012=
2025-03-19 22:00:00<>METAR SBGL 192200Z 15006KT 7000 -TSRA FEW019 BKN023 FEW050CB BKN070 26/22 Q1013=
2025-03-19 23:00:00<>METAR SBGL 192300Z 26006KT 6000 -TSRA FEW015 BKN023 FEW050CB BKN070 24/23 Q1014=
2025-03-20 00:00:00<>METAR SBGL 200000Z 27006KT 7000 -RA VCTS FEW010 SCT023 FEW050CB BKN070 24/22 Q1015 RETS=
2025-03-20 01:00:00<>METAR SBGL 200100Z 30007KT 7000 -RA FEW007 SCT020 FEW040TCU BKN070 23/22 Q1015=
2025-03-20 02:00:00<>METAR SBGL 200200Z 25006KT 6000 -RA FEW007 SCT018 FEW040TCU BKN070 23/22 Q1015=
2025-03-20 03:00:00<>METAR SBGL 200300Z 29003KT 9999 FEW007 SCT018 BKN070 23/22 Q1015=
2025-03-20 03:31:00<>SPECI SBGL 200331Z 17004KT 4000 RA BR SCT008 BKN020 OVC070 23/22 Q1015=
2025-03-20 04:00:00<>METAR SBGL 200400Z 17004KT 4000 RA BR SCT008 BKN020 OVC070 23/21 Q1015=
2025-03-20 04:22:00<>SPECI SBGL 200422Z 16002KT 6000 -RA SCT008 BKN020 BKN070 22/20 Q1015 RERA=
2025-03-20 05:00:00<>METAR SBGL 200500Z 34002KT 7000 -RA FEW008 SCT025 BKN070 22/20 Q1014=
2025-03-20 05:47:00<>SPECI SBGL 200547Z 11002KT 3000 -RA BR FEW008 BKN020 BKN070 22/20 Q1015=
2025-03-20 06:00:00<>METAR SBGL 200600Z 22003KT 3000 RA BR FEW007 BKN016 OVC050 22/20 Q1014=
2025-03-20 06:42:00<>SPECI SBGL 200642Z 32006KT 6000 -RA FEW007 SCT016 BKN040 22/21 Q1014 RERA=
2025-03-20 07:00:00<>METAR SBGL 200700Z 31006KT 6000 -RA FEW007 SCT016 BKN040 22/21 Q1014 RERA=
2025-03-20 08:00:00<>METAR SBGL 200800Z 31005KT 7000 FEW007 SCT018 BKN050 23/21 Q1014=
2025-03-20 09:00:00<>METAR SBGL 200900Z 33004KT 8000 SCT015 BKN070 22/21 Q1015=
2025-03-20 10:00:00<>METAR SBGL 201000Z 32004KT 8000 FEW012 SCT020 BKN070 23/21 Q1016=
2025-03-20 11:00:00<>METAR COR SBGL 201100Z 28006KT 9999 FEW012 SCT020 BKN070 24/21 Q1017=
2025-03-20 12:00:00<>METAR SBGL 201200Z 22005KT 6000 -RA BKN013 BKN028 BKN100 24/21 Q1017=
2025-03-20 12:34:00<>SPECI SBGL 201234Z 15005KT 2500 -RA BR BKN006 BKN027 OVC100 23/22 Q1018=
2025-03-20 13:00:00<>METAR SBGL 201300Z 10005KT 4000 -RA BR BKN008 BKN035 OVC100 23/22 Q1018=
2025-03-20 14:00:00<>METAR SBGL 201400Z 36003KT 320V030 5000 -RA BR BKN008 OVC040 24/22 Q1017=
2025-03-20 15:00:00<>METAR SBGL 201500Z 02004KT 8000 -RA BKN008 OVC040 25/22 Q1017=
2025-03-20 15:29:00<>SPECI SBGL 201529Z 07006KT 4000 -RA BR BKN010 OVC021 24/21 Q1017=
2025-03-20 16:00:00<>METAR SBGL 201600Z 06005KT 7000 -RA BKN010 OVC021 24/22 Q1017=
2025-03-20 17:00:00<>METAR SBGL 201700Z 04006KT 6000 -RA BKN010 OVC021 24/22 Q1016=
2025-03-20 18:00:00<>METAR SBGL 201800Z 06006KT 8000 FEW008 OVC055 25/22 Q1016=
2025-03-20 19:00:00<>METAR SBGL 201900Z 03006KT 9999 FEW013 BKN027 OVC100 24/21 Q1016=
2025-03-20 20:00:00<>METAR SBGL 202000Z 03005KT 9999 FEW014 SCT020 BKN030 24/21 Q1016=
2025-03-20 21:00:00<>METAR SBGL 202100Z 03005KT 9999 FEW015 SCT020 BKN030 24/21 Q1017=
2025-03-20 22:00:00<>METAR COR SBGL 202200Z 32003KT 9999 FEW045 BKN080 24/21 Q1018=
2025-03-20 23:00:00<>METAR SBGL 202300Z 31003KT 9999 FEW045 BKN080 24/21 Q1018=
2025-03-21 00:00:00<>METAR SBGL 210000Z 28003KT 9999 FEW026 BKN080 24/21 Q1018=
2025-03-21 01:00:00<>METAR SBGL 210100Z 07002KT 9999 BKN023 BKN080 23/21 Q1018=
2025-03-21 02:00:00<>METAR SBGL 210200Z 04005KT 9999 FEW009 SCT023 BKN050 24/21 Q1018=
2025-03-21 03:00:00<>METAR SBGL 210300Z 35003KT 7000 FEW007 SCT023 BKN040 23/21 Q1018=
2025-03-21 03:30:00<>SPECI SBGL 210330Z 13003KT 4500 -RA BR BKN007 BKN033 23/21 Q1018=
2025-03-21 04:00:00<>METAR SBGL 210400Z 04004KT 6000 SCT007 BKN043 23/21 Q1018=
2025-03-21 05:00:00<>METAR SBGL 210500Z 03004KT 6000 SCT009 BKN043 22/21 Q1017=
2025-03-21 06:00:00<>METAR SBGL 210600Z 01004KT 6000 SCT009 BKN043 22/21 Q1017=
2025-03-21 07:00:00<>METAR SBGL 210700Z 36003KT 6000 SCT009 BKN043 22/21 Q1017=
2025-03-21 08:00:00<>METAR SBGL 210800Z 29002KT 8000 SCT030 BKN043 23/21 Q1017=
2025-03-21 09:00:00<>METAR SBGL 210900Z 16002KT 8000 SCT017 BKN030 23/21 Q1017=
2025-03-21 10:00:00<>METAR SBGL 211000Z 08002KT 8000 SCT017 BKN030 24/21 Q1018=
2025-03-21 11:00:00<>METAR SBGL 211100Z 04005KT 010V110 9999 FEW007 SCT060 24/21 Q1018=
2025-03-21 12:00:00<>METAR SBGL 211200Z 02004KT 330V070 9999 FEW013 26/21 Q1019=
2025-03-21 13:00:00<>METAR SBGL 211300Z 35005KT 310V010 9999 SCT023 27/21 Q1019=
2025-03-21 14:00:00<>METAR SBGL 211400Z VRB04KT 9999 SCT028 28/21 Q1018=
2025-03-21 15:00:00<>METAR SBGL 211500Z 14009KT 110V180 9999 FEW031 29/20 Q1017=
2025-03-21 16:00:00<>METAR SBGL 211600Z 13013KT 9999 FEW025 SCT060 28/21 Q1017=
2025-03-21 17:00:00<>METAR SBGL 211700Z 13011KT 100V160 9999 FEW025 SCT050 28/20 Q1016=
2025-03-21 18:00:00<>METAR SBGL 211800Z 12010KT 9999 FEW025 BKN050 28/20 Q1016=
2025-03-21 19:00:00<>METAR SBGL 211900Z 13011KT 9999 FEW025 BKN050 27/20 Q1016=
2025-03-21 20:00:00<>METAR SBGL 212000Z 14012KT 9999 FEW025 SCT050 27/20 Q1016=
2025-03-21 21:00:00<>METAR SBGL 212100Z 14009KT 9999 FEW020 BKN050 26/20 Q1017=
2025-03-21 22:00:00<>METAR SBGL 212200Z 13009KT 9999 FEW020 BKN040 26/21 Q1017=
2025-03-21 23:00:00<>METAR SBGL 212300Z 13007KT 9999 FEW020 BKN035 26/21 Q1018=
2025-03-22 00:00:00<>METAR SBGL 220000Z 13005KT 9999 FEW020 BKN035 26/21 Q1019=
2025-03-22 01:00:00<>METAR SBGL 220100Z 12005KT 9999 FEW020 BKN040 26/20 Q1019=
2025-03-22 02:00:00<>METAR SBGL 220200Z 11004KT 9999 FEW025 BKN040 25/20 Q1018=
2025-03-22 03:00:00<>METAR SBGL 220300Z 11003KT 9999 FEW025 BKN040 25/21 Q1018=
2025-03-22 04:00:00<>METAR SBGL 220400Z 10003KT 9999 FEW025 BKN040 25/21 Q1018=
2025-03-22 05:00:00<>METAR SBGL 220500Z 05002KT 9999 BKN040 24/21 Q1017=
2025-03-22 06:00:00<>METAR SBGL 220600Z 06002KT 9999 SCT045 24/21 Q1017=
2025-03-22 07:00:00<>METAR SBGL 220700Z 08002KT 9999 BKN045 24/21 Q1017=
2025-03-22 08:00:00<>METAR SBGL 220800Z 10001KT 9999 BKN045 24/21 Q1017=
2025-03-22 09:00:00<>METAR SBGL 220900Z 08002KT 9999 FEW005 SCT070 24/21 Q1017=
2025-03-22 10:00:00<>METAR SBGL 221000Z 08003KT 9999 FEW018 25/21 Q1017=
2025-03-22 11:00:00<>METAR SBGL 221100Z 08004KT 9999 FEW014 26/21 Q1018=
2025-03-22 12:00:00<>METAR SBGL 221200Z 07006KT 9999 FEW019 27/20 Q1018=
2025-03-22 13:00:00<>METAR SBGL 221300Z 01007KT 9999 FEW027 28/20 Q1018=
2025-03-22 14:00:00<>METAR SBGL 221400Z 02007KT 9999 FEW027 29/21 Q1017=
2025-03-22 15:00:00<>METAR SBGL 221500Z 04005KT 9999 FEW027 31/20 Q1016=
2025-03-22 16:00:00<>METAR SBGL 221600Z 14007KT 9999 FEW027 30/20 Q1015=
2025-03-22 17:00:00<>METAR SBGL 221700Z 13009KT 100V160 9999 FEW030 30/20 Q1014=
2025-03-22 18:00:00<>METAR SBGL 221800Z 13012KT 9999 FEW030 30/20 Q1013=
2025-03-22 19:00:00<>METAR SBGL 221900Z 14013KT 9999 FEW030 29/20 Q1013=
2025-03-22 20:00:00<>METAR SBGL 222000Z 16013KT 9999 FEW030 28/20 Q1013=
2025-03-22 21:00:00<>METAR SBGL 222100Z 15013KT 9999 FEW045 27/20 Q1014=
2025-03-22 22:00:00<>METAR SBGL 222200Z 14013KT 9999 SCT047 26/21 Q1014=
2025-03-22 23:00:00<>METAR SBGL 222300Z 14008KT 9999 SCT040 26/21 Q1015=
2025-03-23 00:00:00<>METAR SBGL 230000Z 10007KT 9999 SCT040 26/20 Q1016=
2025-03-23 01:00:00<>METAR SBGL 230100Z 10008KT 9999 FEW040 26/21 Q1016=
2025-03-23 02:00:00<>METAR SBGL 230200Z 10007KT CAVOK 26/21 Q1016=
2025-03-23 03:00:00<>METAR SBGL 230300Z 10006KT 9999 BKN033 26/21 Q1016=
2025-03-23 04:00:00<>METAR SBGL 230400Z 10005KT 9999 FEW033 25/21 Q1014=
2025-03-23 05:00:00<>METAR SBGL 230500Z 14002KT 9999 FEW033 24/21 Q1014=
2025-03-23 06:00:00<>METAR SBGL 230600Z 12003KT CAVOK 24/21 Q1013=
2025-03-23 07:00:00<>METAR SBGL 230700Z 10002KT 9999 FEW040 24/21 Q1014=
2025-03-23 08:00:00<>METAR SBGL 230800Z 03001KT CAVOK 23/21 Q1014=
2025-03-23 09:00:00<>METAR SBGL 230900Z VRB02KT 9999 FEW018 SCT100 24/22 Q1014=
2025-03-23 10:00:00<>METAR SBGL 231000Z 34003KT 9999 FEW020 25/22 Q1015=
2025-03-23 11:00:00<>METAR SBGL 231100Z 34004KT CAVOK 26/22 Q1015=
2025-03-23 12:00:00<>METAR SBGL 231200Z 02005KT 9999 FEW015 SCT100 27/22 Q1015=
2025-03-23 13:00:00<>METAR SBGL 231300Z 36007KT 9999 FEW015 SCT100 28/22 Q1015=
2025-03-23 14:00:00<>METAR SBGL 231400Z 02008KT 9999 FEW015 SCT100 30/22 Q1014=
2025-03-23 15:00:00<>METAR SBGL 231500Z 05007KT 9999 FEW030 SCT100 32/22 Q1014=
2025-03-23 16:00:00<>METAR SBGL 231600Z 17010KT 9999 FEW030 SCT100 33/20 Q1013=
2025-03-23 17:00:00<>METAR SBGL 231700Z 13009KT 9999 FEW030 SCT100 32/21 Q1012=
2025-03-23 18:00:00<>METAR SBGL 231800Z 14012KT 9999 FEW030 SCT100 31/21 Q1011=
2025-03-23 19:00:00<>METAR SBGL 231900Z 14010KT 9999 FEW030 SCT100 30/21 Q1010=
2025-03-23 20:00:00<>METAR SBGL 232000Z 08010KT 9999 FEW030 SCT100 29/21 Q1011=
2025-03-23 21:00:00<>METAR SBGL 232100Z 07007KT 9999 FEW030 SCT100 28/21 Q1011=
2025-03-23 22:00:00<>METAR SBGL 232200Z 08005KT 9999 TS FEW025CB SCT030 28/23 Q1012=
2025-03-23 23:00:00<>METAR SBGL 232300Z 05004KT 9999 -TSRA FEW025CB SCT050 BKN100 27/23 Q1013=
2025-03-24 00:00:00<>METAR SBGL 240000Z 06005KT 9999 FEW025 SCT100 26/24 Q1014 RETS=
2025-03-24 01:00:00<>METAR SBGL 240100Z 02004KT 340V080 9999 SCT020 BKN080 27/23 Q1014=
2025-03-24 02:00:00<>METAR SBGL 240200Z 33002KT 9999 FEW027 BKN095 26/24 Q1014=
2025-03-24 03:00:00<>METAR SBGL 240300Z 30006KT 5000 -RA BR FEW010 OVC014 26/24 Q1014=
2025-03-24 04:00:00<>METAR SBGL 240400Z 28006KT 8000 SCT009 OVC015 25/23 Q1013=
2025-03-24 05:00:00<>METAR SBGL 240500Z 26008KT 8000 -RA BKN011 BKN060 24/22 Q1013=
2025-03-24 06:00:00<>METAR SBGL 240600Z 29006KT 9999 SCT011 BKN055 24/22 Q1013=
2025-03-24 07:00:00<>METAR SBGL 240700Z 24004KT 210V280 9999 SCT011 BKN060 24/22 Q1012=
2025-03-24 08:00:00<>METAR SBGL 240800Z 32003KT 9999 SCT011 24/22 Q1012=
2025-03-24 09:00:00<>METAR SBGL 240900Z 35006KT 310V050 9999 SCT007 24/22 Q1012=
2025-03-24 10:00:00<>METAR SBGL 241000Z 35005KT 330V030 9999 FEW017 BKN030 24/23 Q1013=
2025-03-24 11:00:00<>METAR SBGL 241100Z 00000KT 9999 FEW009 SCT030 BKN100 25/23 Q1013=
2025-03-24 12:00:00<>METAR SBGL 241200Z 19002KT 8000 SCT009 BKN080 26/23 Q1014=
2025-03-24 13:00:00<>METAR SBGL 241300Z 18002KT 8000 SCT009 BKN080 26/23 Q1014=
2025-03-24 14:00:00<>METAR SBGL 241400Z 34004KT 8000 SCT012 BKN080 27/23 Q1013=
2025-03-24 15:00:00<>METAR SBGL 241500Z 15003KT 8000 SCT011 BKN100 28/23 Q1012=
2025-03-24 16:00:00<>METAR SBGL 241600Z 13006KT 7000 SCT015 BKN100 28/23 Q1011=
2025-03-24 17:00:00<>METAR SBGL 241700Z 11004KT 7000 SCT020 BKN080 28/23 Q1011=
2025-03-24 18:00:00<>METAR SBGL 241800Z 14004KT 9999 SCT020 BKN080 29/23 Q1010=
2025-03-24 19:00:00<>METAR SBGL 241900Z 14005KT 9999 FEW020 BKN080 28/23 Q1010=
2025-03-24 20:00:00<>METAR SBGL 242000Z 14007KT 9999 FEW025 BKN080 27/23 Q1011=
2025-03-24 21:00:00<>METAR SBGL 242100Z 15005KT 8000 VCSH FEW025 FEW030TCU BKN080 27/23 Q1011=
2025-03-24 22:00:00<>METAR SBGL 242200Z 10008KT 9999 TS VCSH SCT020 FEW030CB BKN070 27/23 Q1012=
2025-03-24 23:00:00<>METAR SBGL 242300Z 07009KT 7000 -TSRA SCT014 FEW030CB BKN070 25/23 Q1012=
2025-03-25 00:00:00<>METAR SBGL 250000Z VRB02KT 8000 -RA SCT014 FEW030TCU BKN070 25/22 Q1012 RETS=
2025-03-25 01:00:00<>METAR SBGL 250100Z 09002KT 8000 -RA SCT014 FEW030TCU BKN070 24/22 Q1012=
2025-03-25 02:00:00<>METAR SBGL 250200Z VRB02KT 9999 SCT014 FEW030TCU BKN070 25/22 Q1012=
2025-03-25 03:00:00<>METAR SBGL 250300Z 27005KT 9999 FEW025TCU BKN070 25/23 Q1012=
2025-03-25 04:00:00<>METAR SBGL 250400Z 29003KT 9999 FEW025TCU BKN100 25/23 Q1012=
2025-03-25 05:00:00<>METAR SBGL 250500Z 15002KT 9999 FEW025TCU BKN100 24/22 Q1011=
2025-03-25 06:00:00<>METAR SBGL 250600Z 05003KT 9999 FEW025TCU BKN100 24/22 Q1011=
2025-03-25 07:00:00<>METAR SBGL 250700Z 05002KT 8000 BKN009 23/22 Q1011=
2025-03-25 08:00:00<>METAR SBGL 250800Z 35002KT 8000 FEW006 SCT012 24/22 Q1012=
2025-03-25 09:00:00<>METAR SBGL 250900Z 30002KT 7000 FEW006 SCT012 24/22 Q1013=
2025-03-25 10:00:00<>METAR SBGL 251000Z VRB02KT 8000 SCT015 25/23 Q1013=
2025-03-25 11:00:00<>METAR SBGL 251100Z VRB02KT 9000 SCT011 26/23 Q1014=
2025-03-25 12:00:00<>METAR SBGL 251200Z 35004KT 320V040 9000 FEW015 27/23 Q1014=
2025-03-25 13:00:00<>METAR SBGL 251300Z 36003KT 320V050 9999 FEW018 28/22 Q1014=
2025-03-25 14:00:00<>METAR SBGL 251400Z VRB03KT 9999 FEW027 30/22 Q1014=
2025-03-25 15:00:00<>METAR SBGL 251500Z 04006KT 330V080 7000 SCT035 31/23 Q1013=
2025-03-25 16:00:00<>METAR SBGL 251600Z 12008KT 090V160 9000 FEW040 31/23 Q1012=
2025-03-25 17:00:00<>METAR SBGL 251700Z 11008KT 090V160 9999 FEW040 31/23 Q1011=
2025-03-25 18:00:00<>METAR SBGL 251800Z 12009KT 9999 FEW040 31/23 Q1011=
2025-03-25 19:00:00<>METAR SBGL 251900Z 13009KT 9999 FEW040 29/24 Q1011=
2025-03-25 20:00:00<>METAR SBGL 252000Z 12008KT 9999 FEW040 29/23 Q1012=
2025-03-25 21:00:00<>METAR SBGL 252100Z 21008KT 9999 FEW030 FEW040TCU 28/21 Q1012=
2025-03-25 22:00:00<>METAR SBGL 252200Z 22007KT 9999 FEW025 FEW040TCU 27/22 Q1013=
2025-03-25 23:00:00<>METAR SBGL 252300Z 13006KT 9999 FEW025 27/22 Q1014=
2025-03-26 00:00:00<>METAR SBGL 260000Z 13007KT 9999 SCT030 26/22 Q1015=
2025-03-26 01:00:00<>METAR SBGL 260100Z 07004KT 9999 SCT021 26/23 Q1015=
2025-03-26 02:00:00<>METAR SBGL 260200Z 15005KT 9999 FEW017 SCT023 26/23 Q1015=
2025-03-26 03:00:00<>METAR SBGL 260300Z 13006KT 9999 FEW023 SCT040 26/23 Q1014=
2025-03-26 04:00:00<>METAR SBGL 260400Z 18006KT 9999 FEW023 SCT040 25/23 Q1014=
2025-03-26 05:00:00<>METAR SBGL 260500Z 21005KT 9999 FEW023 SCT040 25/22 Q1014=
2025-03-26 06:00:00<>METAR SBGL 260600Z 24005KT 8000 FEW023 SCT040 25/22 Q1013=
2025-03-26 07:00:00<>METAR SBGL 260700Z 29005KT 8000 FEW023 SCT040 24/22 Q1013=
2025-03-26 08:00:00<>METAR SBGL 260800Z 33003KT 8000 FEW007 SCT040 25/23 Q1013=
2025-03-26 09:00:00<>METAR SBGL 260900Z 33003KT 7000 FEW021 25/23 Q1014=
2025-03-26 10:00:00<>METAR SBGL 261000Z 06002KT 7000 FEW015 25/23 Q1014=
2025-03-26 11:00:00<>METAR SBGL 261100Z VRB03KT 8000 SCT010 27/23 Q1015=
2025-03-26 12:00:00<>METAR SBGL 261200Z 36005KT 340V050 9999 SCT014 28/22 Q1015=
2025-03-26 13:00:00<>METAR SBGL 261300Z 36007KT 9999 SCT025 29/21 Q1015=
2025-03-26 14:00:00<>METAR SBGL 261400Z 36006KT 330V030 9999 FEW028 30/21 Q1015=
2025-03-26 15:00:00<>METAR SBGL 261500Z 13008KT 9999 FEW035 31/21 Q1014=
2025-03-26 16:00:00<>METAR SBGL 261600Z 13012KT 9999 FEW035 30/23 Q1014=
2025-03-26 17:00:00<>METAR SBGL 261700Z 12015KT 9999 VCSH FEW035 FEW040TCU 29/22 Q1013=
2025-03-26 18:00:00<>METAR SBGL 261800Z 12014KT 9999 SCT035 SCT090 29/21 Q1013=
2025-03-26 19:00:00<>METAR SBGL 261900Z 13013KT 9999 FEW035 29/22 Q1013=
2025-03-26 20:00:00<>METAR SBGL 262000Z 13013KT 9999 FEW025 FEW035TCU SCT050 27/23 Q1013=
2025-03-26 21:00:00<>METAR SBGL 262100Z 13009KT 9999 VCSH FEW025 FEW035TCU BKN050 27/22 Q1014=
2025-03-26 22:00:00<>METAR SBGL 262200Z 14008KT 9999 FEW015 BKN050 26/22 Q1015=
2025-03-26 23:00:00<>METAR SBGL 262300Z 14005KT 9999 FEW015 SCT050 26/22 Q1015=
2025-03-27 00:00:00<>METAR SBGL 270000Z 12006KT 9999 FEW015 SCT050 26/22 Q1015=
2025-03-27 01:00:00<>METAR SBGL 270100Z 13004KT 9999 FEW020 SCT050 26/22 Q1016=
2025-03-27 02:00:00<>METAR SBGL 270200Z 12003KT 9999 FEW020 SCT050 26/22 Q1015=
2025-03-27 03:00:00<>METAR SBGL 270300Z 08004KT 9999 FEW020 SCT070 25/22 Q1015=
2025-03-27 04:00:00<>METAR SBGL 270400Z 14003KT 9999 FEW020 SCT070 25/22 Q1014=
2025-03-27 05:00:00<>METAR SBGL 270500Z 14002KT 9999 FEW020 SCT070 25/22 Q1014=
2025-03-27 06:00:00<>METAR SBGL 270600Z 02002KT 9999 FEW020 SCT070 25/22 Q1013=
2025-03-27 07:00:00<>METAR SBGL 270700Z 31004KT 9000 SCT018 BKN070 25/22 Q1014=
2025-03-27 08:00:00<>METAR SBGL 270800Z 04001KT 9000 FEW018 SCT080 24/22 Q1014=
2025-03-27 09:00:00<>METAR SBGL 270900Z 35004KT 8000 FEW020 24/22 Q1014=
2025-03-27 10:00:00<>METAR SBGL 271000Z 32004KT 9999 SCT025 25/22 Q1015=
2025-03-27 11:00:00<>METAR SBGL 271100Z 33005KT 9999 FEW025 27/22 Q1016=
2025-03-27 12:00:00<>METAR SBGL 271200Z 35003KT 300V030 9999 SCT025 28/22 Q1016=
2025-03-27 13:00:00<>METAR SBGL 271300Z 07006KT 020V130 9999 SCT025 29/21 Q1016=
2025-03-27 14:00:00<>METAR SBGL 271400Z 04008KT 9999 FEW025 30/22 Q1016=
2025-03-27 15:00:00<>METAR SBGL 271500Z VRB07KT 9999 FEW030 FEW035TCU 30/21 Q1015=
2025-03-27 16:00:00<>METAR SBGL 271600Z 13013KT 9999 FEW030 FEW035TCU 31/20 Q1014=
2025-03-27 17:00:00<>METAR SBGL 271700Z 12011KT 9999 FEW030 FEW035TCU 31/20 Q1013=
2025-03-27 18:00:00<>METAR SBGL 271800Z 13012KT 9999 FEW030 FEW035TCU 30/21 Q1012=
2025-03-27 19:00:00<>METAR SBGL 271900Z 13012KT 9999 FEW030 FEW035TCU 29/22 Q1012=
2025-03-27 20:00:00<>METAR SBGL 272000Z 14013KT 9999 FEW030 FEW035TCU 28/22 Q1012=
2025-03-27 21:00:00<>METAR SBGL 272100Z 14012KT 9999 FEW030TCU SCT050 27/22 Q1013=
2025-03-27 22:00:00<>METAR SBGL 272200Z 14010KT 9999 FEW025 BKN040 27/22 Q1013=
2025-03-27 23:00:00<>METAR SBGL 272300Z 14007KT 9999 FEW020 BKN040 27/22 Q1014=
2025-03-28 00:00:00<>METAR SBGL 280000Z 11007KT 9999 FEW020 BKN040 27/22 Q1014=
2025-03-28 01:00:00<>METAR SBGL 280100Z 12006KT 9999 FEW018 BKN040 26/21 Q1015=
2025-03-28 02:00:00<>METAR SBGL 280200Z 09003KT 9999 FEW021 SCT040 26/21 Q1015=
2025-03-28 03:00:00<>METAR SBGL 280300Z 10005KT 9999 BKN019 25/22 Q1014=
2025-03-28 04:00:00<>METAR SBGL 280400Z 09003KT 9999 SCT017 25/22 Q1014=
2025-03-28 05:00:00<>METAR SBGL 280500Z 10003KT 9999 FEW017 24/22 Q1013=
2025-03-28 06:00:00<>METAR SBGL 280600Z VRB02KT 9999 FEW013 24/22 Q1013=
2025-03-28 07:00:00<>METAR SBGL 280700Z VRB02KT 9999 FEW013 24/22 Q1013=
2025-03-28 08:00:00<>METAR SBGL 280800Z 36003KT 330V030 CAVOK 24/22 Q1013=
2025-03-28 09:00:00<>METAR SBGL 280900Z 33002KT 8000 2500NE FEW012 24/22 Q1013=
2025-03-28 10:00:00<>METAR SBGL 281000Z VRB02KT 9000 FEW015 25/22 Q1014=
2025-03-28 11:00:00<>METAR SBGL 281100Z 34004KT 8000 FEW019 26/22 Q1015=
2025-03-28 12:00:00<>METAR SBGL 281200Z 36006KT 9000 FEW019 27/21 Q1015=
2025-03-28 13:00:00<>METAR SBGL 281300Z 01009KT 9999 FEW023 29/22 Q1014=
2025-03-28 14:00:00<>METAR SBGL 281400Z 11006KT 9999 FEW030 30/20 Q1014=
2025-03-28 15:00:00<>METAR SBGL 281500Z 34007KT 9999 FEW030 31/20 Q1013=
2025-03-28 16:00:00<>METAR SBGL 281600Z 13011KT 9999 FEW030 31/22 Q1012=
2025-03-28 17:00:00<>METAR SBGL 281700Z 13012KT 9999 FEW030 30/22 Q1011=
2025-03-28 18:00:00<>METAR SBGL 281800Z 13013KT 9999 FEW030 30/21 Q1011=
2025-03-28 19:00:00<>METAR SBGL 281900Z 14013KT 9999 FEW030 29/22 Q1011=
2025-03-28 20:00:00<>METAR SBGL 282000Z 15013KT 9999 FEW030 28/20 Q1011=
2025-03-28 21:00:00<>METAR SBGL 282100Z 14010KT 9999 FEW030 27/21 Q1012=
2025-03-28 22:00:00<>METAR SBGL 282200Z 14008KT 9999 FEW030 BKN045 27/21 Q1012=
2025-03-28 23:00:00<>METAR SBGL 282300Z 14009KT 9999 BKN040 27/20 Q1013=
2025-03-29 00:00:00<>METAR SBGL 290000Z 12008KT 9999 FEW040 26/21 Q1013=
2025-03-29 01:00:00<>METAR SBGL 290100Z 10010KT 9999 FEW040 26/21 Q1013=
2025-03-29 02:00:00<>METAR SBGL 290200Z 10007KT CAVOK 25/21 Q1013=
2025-03-29 03:00:00<>METAR SBGL 290300Z 12006KT CAVOK 25/21 Q1013=
2025-03-29 04:00:00<>METAR SBGL 290400Z 10005KT CAVOK 25/21 Q1012=
2025-03-29 05:00:00<>METAR SBGL 290500Z 06003KT CAVOK 24/21 Q1012=
2025-03-29 06:00:00<>METAR SBGL 290600Z 07002KT CAVOK 24/21 Q1012=
2025-03-29 07:00:00<>METAR SBGL 290700Z 13002KT CAVOK 24/21 Q1011=
2025-03-29 08:00:00<>METAR SBGL 290800Z 14003KT CAVOK 24/21 Q1012=
2025-03-29 09:00:00<>METAR SBGL 290900Z 07003KT CAVOK 23/21 Q1012=
2025-03-29 10:00:00<>METAR SBGL 291000Z 34003KT 9999 FEW012 24/22 Q1012=
2025-03-29 11:00:00<>METAR SBGL 291100Z 01005KT 7000 FEW017 26/22 Q1013=
2025-03-29 12:00:00<>METAR SBGL 291200Z 04007KT 8000 FEW020 29/22 Q1013=
2025-03-29 13:00:00<>METAR SBGL 291300Z 15009KT 9999 FEW026 29/22 Q1013=
2025-03-29 14:00:00<>METAR SBGL 291400Z 02005KT 9999 FEW026 30/21 Q1013=
2025-03-29 15:00:00<>METAR SBGL 291500Z 16010KT 9999 FEW030 31/20 Q1012=
2025-03-29 16:00:00<>METAR SBGL 291600Z 10008KT 9999 FEW030 31/21 Q1011=
2025-03-29 17:00:00<>METAR SBGL 291700Z 12010KT 9999 FEW030 31/22 Q1010=
2025-03-29 18:00:00<>METAR SBGL 291800Z 13013KT 9999 FEW030 30/22 Q1010=
2025-03-29 19:00:00<>METAR SBGL 291900Z 14011KT 9999 FEW030 30/22 Q1010=
2025-03-29 20:00:00<>METAR SBGL 292000Z 14011KT 9999 FEW035 FEW040TCU 29/22 Q1010=
2025-03-29 21:00:00<>METAR SBGL 292100Z 15010KT 9999 FEW035 FEW040TCU 28/21 Q1010=
2025-03-29 22:00:00<>METAR SBGL 292200Z 15009KT 9999 FEW030 SCT050 27/22 Q1011=
2025-03-29 23:00:00<>METAR SBGL 292300Z 17007KT 9999 FEW030 SCT050 27/22 Q1012=
2025-03-30 00:00:00<>METAR SBGL 300000Z 14006KT 9999 FEW030 SCT055 27/22 Q1013=
2025-03-30 01:00:00<>METAR SBGL 300100Z 14005KT 9999 FEW030 BKN055 26/23 Q1013=
2025-03-30 02:00:00<>METAR SBGL 300200Z 13003KT 9999 FEW030 BKN055 26/23 Q1013=
2025-03-30 03:00:00<>METAR SBGL 300300Z 12003KT 9999 FEW030 BKN055 26/22 Q1013=
2025-03-30 04:00:00<>METAR SBGL 300400Z 10002KT 9999 FEW030 BKN055 25/22 Q1013=
2025-03-30 05:00:00<>METAR SBGL 300500Z 16004KT 9999 BKN025 26/22 Q1012=
2025-03-30 06:00:00<>METAR SBGL 300600Z 14003KT 9999 BKN025 26/22 Q1012=
2025-03-30 07:00:00<>METAR SBGL 300700Z 14002KT 9999 FEW017 BKN031 26/22 Q1011=
2025-03-30 08:00:00<>METAR SBGL 300800Z 14003KT 9999 FEW015 25/22 Q1012=
2025-03-30 09:00:00<>METAR SBGL 300900Z 07002KT 9999 FEW035 24/22 Q1012=
2025-03-30 10:00:00<>METAR SBGL 301000Z 06002KT 9999 FEW035 26/23 Q1012=
2025-03-30 11:00:00<>METAR SBGL 301100Z VRB02KT 9999 FEW015 27/22 Q1013=
2025-03-30 12:00:00<>METAR SBGL 301200Z VRB05KT 9999 SCT018 28/23 Q1014=
2025-03-30 13:00:00<>METAR SBGL 301300Z 01005KT 340V050 9999 FEW020 29/23 Q1013=
2025-03-30 14:00:00<>METAR SBGL 301400Z 01005KT 290V040 9999 FEW025 31/21 Q1013=
2025-03-30 15:00:00<>METAR SBGL 301500Z 01007KT 350V050 9999 FEW030 31/21 Q1012=
2025-03-30 16:00:00<>METAR SBGL 301600Z 11008KT 080V170 9999 FEW030 32/21 Q1011=
2025-03-30 17:00:00<>METAR SBGL 301700Z 13013KT 9999 FEW030 30/22 Q1011=
2025-03-30 18:00:00<>METAR SBGL 301800Z 13014KT 9999 VCSH FEW030 FEW035TCU 28/22 Q1010=
2025-03-30 19:00:00<>METAR SBGL 301900Z 13015KT 9999 FEW030 FEW035TCU SCT070 28/23 Q1010=
2025-03-30 20:00:00<>METAR SBGL 302000Z 14010KT 9999 FEW030 FEW035TCU SCT070 28/22 Q1011=
2025-03-30 21:00:00<>METAR SBGL 302100Z 14008KT 9999 FEW030 FEW035TCU BKN070 28/21 Q1012=
2025-03-30 22:00:00<>METAR SBGL 302200Z 12008KT 9999 FEW046 FEW050TCU SCT070 27/21 Q1012=
2025-03-30 23:00:00<>METAR SBGL 302300Z 15006KT 9999 SCT046 27/22 Q1013=
2025-03-31 00:00:00<>METAR SBGL 310000Z 12007KT 9999 SCT046 27/22 Q1013=
2025-03-31 01:00:00<>METAR SBGL 310100Z 10009KT 9999 SCT046 27/22 Q1013=
2025-03-31 02:00:00<>METAR SBGL 310200Z 09009KT 9999 SCT046 26/22 Q1013=
2025-03-31 03:00:00<>METAR SBGL 310300Z 10006KT 9999 FEW030 26/22 Q1013=
2025-03-31 04:00:00<>METAR SBGL 310400Z 11005KT 9999 FEW030 26/22 Q1013=
2025-03-31 05:00:00<>METAR SBGL 310500Z 17005KT 9999 FEW030 25/22 Q1012=
2025-03-31 06:00:00<>METAR SBGL 310600Z 22004KT 8000 FEW030 25/22 Q1012=
2025-03-31 07:00:00<>METAR SBGL 310700Z 25004KT 8000 FEW030 25/22 Q1012=
2025-03-31 08:00:00<>METAR SBGL 310800Z 09002KT 9999 FEW030 25/22 Q1013=
2025-03-31 09:00:00<>METAR SBGL 310900Z 07002KT 9999 FEW013 25/22 Q1013=
2025-03-31 10:00:00<>METAR SBGL 311000Z 03003KT 9999 FEW017 26/23 Q1014=
2025-03-31 11:00:00<>METAR SBGL 311100Z 36005KT 320V040 9999 SCT013 27/23 Q1015=
2025-03-31 12:00:00<>METAR SBGL 311200Z 01005KT 340V050 9999 SCT016 27/23 Q1015=
2025-03-31 13:00:00<>METAR SBGL 311300Z 06005KT 020V090 9999 SCT015 27/23 Q1015=
2025-03-31 14:00:00<>METAR SBGL 311400Z 01004KT 320V050 9999 FEW017 28/23 Q1015=
2025-03-31 15:00:00<>METAR SBGL 311500Z 01004KT 320V060 7000 FEW020 29/22 Q1015=
2025-03-31 16:00:00<>METAR SBGL 311600Z 04005KT 010V070 9999 FEW020 29/23 Q1014=
2025-03-31 17:00:00<>METAR SBGL 311700Z 04006KT 9999 FEW020 29/23 Q1013=
2025-03-31 18:00:00<>METAR SBGL 311800Z 06007KT 9999 FEW020 30/22 Q1013=
2025-03-31 19:00:00<>METAR SBGL 311900Z 13007KT 9999 FEW020 30/22 Q1013=
2025-03-31 20:00:00<>METAR SBGL 312000Z 10003KT 9999 FEW020 29/22 Q1013=
2025-03-31 21:00:00<>METAR SBGL 312100Z 12004KT 9999 FEW020 28/23 Q1013=
2025-03-31 22:00:00<>METAR SBGL 312200Z 13004KT 9999 FEW020 BKN050 28/23 Q1014=
2025-03-31 23:00:00<>METAR SBGL 312300Z 13004KT 9999 FEW020 BKN050 28/23 Q1014=
2025-04-01 00:00:00<>METAR SBGL 010000Z 14004KT 9999 FEW020 BKN050 27/24 Q1014=
2025-04-01 01:00:00<>METAR SBGL 010100Z 09003KT 9999 FEW020 BKN050 27/24 Q1014=
2025-04-01 02:00:00<>METAR SBGL 010200Z 15002KT 9999 FEW020 SCT060 27/23 Q1014=
2025-04-01 03:00:00<>METAR SBGL 010300Z 08002KT 9999 FEW020 SCT060 26/23 Q1014=
2025-04-01 04:00:00<>METAR SBGL 010400Z 34002KT 6000 FEW020 BKN060 27/24 Q1014=
2025-04-01 05:00:00<>METAR SBGL 010500Z 32004KT 6000 FEW020 BKN060 26/24 Q1014=
2025-04-01 06:00:00<>METAR SBGL 010600Z 03002KT 6000 FEW018 BKN060 26/24 Q1014=
2025-04-01 07:00:00<>METAR SBGL 010700Z 35003KT 6000 FEW018 BKN060 26/24 Q1014=
2025-04-01 08:00:00<>METAR SBGL 010800Z 03001KT 7000 FEW015 BKN060 26/23 Q1014=
2025-04-01 09:00:00<>METAR SBGL 010900Z 03003KT 6000 FEW015 BKN070 26/23 Q1014=
2025-04-01 10:00:00<>METAR SBGL 011000Z 04003KT 6000 FEW014 BKN070 26/24 Q1014=
2025-04-01 11:00:00<>METAR SBGL 011100Z 02003KT 9999 SCT015 BKN070 27/23 Q1015=
2025-04-01 12:00:00<>METAR SBGL 011200Z 04004KT 9999 SCT015 BKN070 28/24 Q1015=
2025-04-01 13:00:00<>METAR SBGL 011300Z 07004KT 9999 SCT015 BKN070 30/24 Q1015=
2025-04-01 14:00:00<>METAR SBGL 011400Z 02006KT 9999 FEW020 31/24 Q1014=
2025-04-01 15:00:00<>METAR SBGL 011500Z 14003KT 9999 FEW020 33/22 Q1014=
2025-04-01 16:00:00<>METAR SBGL 011600Z 12010KT 9999 FEW020 31/23 Q1013=
2025-04-01 17:00:00<>METAR SBGL 011700Z 13006KT 9999 FEW020 31/24 Q1012=
2025-04-01 18:00:00<>METAR SBGL 011800Z 14007KT 9999 FEW020 30/23 Q1012=
2025-04-01 19:00:00<>METAR SBGL 011900Z 12006KT 9999 FEW020 30/23 Q1013=
2025-04-01 20:00:00<>METAR SBGL 012000Z 11005KT 9999 FEW020 29/22 Q1013=
2025-04-01 21:00:00<>METAR SBGL 012100Z 09005KT 9999 FEW020 28/23 Q1014=
2025-04-01 21:06:00<>SPECI SBGL 012106Z 08006KT 8000 TS VCSH FEW020 FEW025CB 28/23 Q1014=
2025-04-01 22:00:00<>METAR SBGL 012200Z 06009KT 8000 TS VCSH FEW020 FEW025CB 26/22 Q1015=
2025-04-01 23:00:00<>METAR SBGL 012300Z 32008KT 9999 FEW020 SCT050 25/22 Q1015 RETS=
2025-04-02 00:00:00<>METAR SBGL 020000Z 31003KT 280V030 9999 FEW020 BKN100 26/22 Q1015=
2025-04-02 01:00:00<>METAR SBGL 020100Z VRB02KT CAVOK 26/22 Q1015=
2025-04-02 02:00:00<>METAR SBGL 020200Z 04003KT CAVOK 25/22 Q1015=
2025-04-02 03:00:00<>METAR SBGL 020300Z 06003KT CAVOK 25/22 Q1015=
2025-04-02 04:00:00<>METAR SBGL 020400Z 00000KT CAVOK 25/22 Q1014=
2025-04-02 05:00:00<>METAR SBGL 020500Z VRB02KT 9999 FEW010 24/22 Q1014=
2025-04-02 06:00:00<>METAR SBGL 020600Z 33004KT 9000 FEW010 24/22 Q1014=
2025-04-02 07:00:00<>METAR SBGL 020700Z 00000KT 9999 FEW010 24/22 Q1014=
2025-04-02 08:00:00<>METAR SBGL 020800Z 03003KT 9999 FEW007 24/22 Q1014=
2025-04-02 08:38:00<>SPECI SBGL 020838Z 03004KT 9000 BKN006 24/22 Q1014=
2025-04-02 09:00:00<>METAR SBGL 020900Z 06004KT 9000 BKN006 24/23 Q1014=
2025-04-02 09:15:00<>SPECI SBGL 020915Z 06005KT 7000 SCT006 24/23 Q1014=
2025-04-02 10:00:00<>METAR SBGL 021000Z 09005KT 7000 SCT006 24/23 Q1015=
2025-04-02 11:00:00<>METAR SBGL 021100Z 07007KT 9999 FEW015 26/22 Q1015=
2025-04-02 12:00:00<>METAR SBGL 021200Z 06008KT 9999 FEW018 27/22 Q1015=
2025-04-02 13:00:00<>METAR SBGL 021300Z 03008KT 9999 FEW020 29/23 Q1015=
2025-04-02 14:00:00<>METAR SBGL 021400Z 01008KT 9999 FEW020 29/22 Q1015=
2025-04-02 15:00:00<>METAR SBGL 021500Z 01008KT 340V050 9999 FEW025 32/21 Q1014=
2025-04-02 16:00:00<>METAR SBGL 021600Z 04007KT 330V100 9999 FEW030 33/20 Q1012=
2025-04-02 17:00:00<>METAR SBGL 021700Z VRB04KT 9999 FEW030 34/21 Q1012=
2025-04-02 18:00:00<>METAR SBGL 021800Z 06005KT 340V100 9999 FEW035 34/20 Q1011=
2025-04-02 19:00:00<>METAR SBGL 021900Z 11008KT 9999 FEW035 34/20 Q1011=
2025-04-02 20:00:00<>METAR SBGL 022000Z 12009KT 9999 FEW035 31/22 Q1010=
2025-04-02 21:00:00<>METAR SBGL 022100Z 13008KT CAVOK 30/22 Q1010=
2025-04-02 22:00:00<>METAR SBGL 022200Z 12008KT CAVOK 29/22 Q1010=
2025-04-02 23:00:00<>METAR SBGL 022300Z 09007KT CAVOK 29/22 Q1011=
2025-04-03 00:00:00<>METAR SBGL 030000Z 07007KT CAVOK 28/22 Q1011=
2025-04-03 01:00:00<>METAR SBGL 030100Z 12003KT CAVOK 27/22 Q1012=
2025-04-03 02:00:00<>METAR SBGL 030200Z 10002KT CAVOK 27/22 Q1011=
2025-04-03 03:00:00<>METAR SBGL 030300Z 10003KT CAVOK 27/22 Q1011=
2025-04-03 04:00:00<>METAR SBGL 030400Z 09003KT CAVOK 26/22 Q1011=
2025-04-03 05:00:00<>METAR SBGL 030500Z 04002KT CAVOK 25/22 Q1011=
2025-04-03 06:00:00<>METAR SBGL 030600Z 04002KT CAVOK 25/22 Q1010=
2025-04-03 07:00:00<>METAR SBGL 030700Z 11002KT CAVOK 25/22 Q1010=
2025-04-03 08:00:00<>METAR SBGL 030800Z 06003KT CAVOK 24/22 Q1010=
2025-04-03 09:00:00<>METAR SBGL 030900Z 07002KT 9999 FEW030 25/22 Q1011=
2025-04-03 10:00:00<>METAR SBGL 031000Z 07003KT 9999 FEW030 25/22 Q1012=
2025-04-03 11:00:00<>METAR SBGL 031100Z 35004KT 9999 FEW030 28/23 Q1012=
2025-04-03 12:00:00<>METAR SBGL 031200Z 04005KT 9999 FEW030 29/23 Q1012=
2025-04-03 13:00:00<>METAR SBGL 031300Z 30005KT CAVOK 31/22 Q1012=
2025-04-03 14:00:00<>METAR COR SBGL 031400Z 03008KT CAVOK 33/22 Q1011=
2025-04-03 15:00:00<>METAR SBGL 031500Z 01005KT CAVOK 35/22 Q1011=
2025-04-03 16:00:00<>METAR SBGL 031600Z 36011KT 9999 FEW030 SCT100 35/21 Q1010=
2025-04-03 17:00:00<>METAR SBGL 031700Z 25008KT 9999 FEW046 SCT100 36/20 Q1009=
2025-04-03 18:00:00<>METAR COR SBGL 031800Z 12009KT 9999 VCSH SCT046 FEW050TCU SCT100 32/22 Q1009=
2025-04-03 19:00:00<>METAR COR SBGL 031900Z 31010KT 290V020 9999 VCSH TS FEW030CB SCT046 BKN080 30/22 Q1010=
2025-04-03 20:00:00<>METAR SBGL 032000Z 30006KT 260V330 9999 VCSH FEW030 SCT046 BKN060 30/23 Q1010 RETS=
2025-04-03 21:00:00<>METAR SBGL 032100Z 33009KT 9999 SCT046 BKN070 28/23 Q1011=
2025-04-03 22:00:00<>METAR SBGL 032200Z 29006KT 9999 SCT046 BKN100 28/23 Q1011=
2025-04-03 23:00:00<>METAR SBGL 032300Z 31006KT 9999 FEW046 BKN080 29/24 Q1012=
2025-04-04 00:00:00<>METAR SBGL 040000Z 32006KT 9999 FEW040 BKN075 28/23 Q1012=
2025-04-04 01:00:00<>METAR SBGL 040100Z 31004KT 290V350 9999 FEW045 SCT080 28/23 Q1013=
2025-04-04 02:00:00<>METAR SBGL 040200Z 31003KT 270V010 9999 FEW045 28/23 Q1013=
2025-04-04 03:00:00<>METAR SBGL 040300Z 25006KT CAVOK 28/23 Q1013=
2025-04-04 04:00:00<>METAR SBGL 040400Z 26005KT CAVOK 28/23 Q1012=
2025-04-04 05:00:00<>METAR SBGL 040500Z 29004KT 270V340 CAVOK 27/23 Q1012=
2025-04-04 06:00:00<>METAR SBGL 040600Z 27004KT 9999 FEW020 SCT065 27/23 Q1011=
2025-04-04 07:00:00<>METAR SBGL 040700Z 32005KT 290V350 9999 FEW035 SCT060 BKN075 27/23 Q1012=
2025-04-04 08:00:00<>METAR SBGL 040800Z 31006KT 9999 FEW045 BKN060 27/23 Q1012=
2025-04-04 08:33:00<>SPECI SBGL 040833Z 31005KT 9999 VCTS FEW035CB SCT060 27/23 Q1012=
2025-04-04 09:00:00<>METAR SBGL 040900Z 31006KT 9999 VCTS FEW035CB SCT060 27/23 Q1012=
2025-04-04 10:00:00<>METAR SBGL 041000Z 24010KT 7000 -RA VCTS FEW022 FEW035CB BKN040 25/23 Q1014=
2025-04-04 11:00:00<>METAR SBGL 041100Z 24008KT 7000 -RA VCTS FEW020 FEW035CB BKN040 25/23 Q1015=
2025-04-04 12:00:00<>METAR SBGL 041200Z 30004KT 9000 -RA SCT025 FEW035TCU BKN040 25/23 Q1015=
2025-04-04 13:00:00<>METAR SBGL 041300Z 32005KT 9999 FEW007 FEW035TCU BKN040 27/24 Q1015=
2025-04-04 14:00:00<>METAR SBGL 041400Z 32005KT 9999 FEW007 BKN040 27/24 Q1015=
2025-04-04 15:00:00<>METAR SBGL 041500Z 32005KT 9999 FEW020 BKN050 27/24 Q1015=
2025-04-04 16:00:00<>METAR SBGL 041600Z 32005KT 9999 FEW020 FEW030TCU BKN050 27/24 Q1015=
2025-04-04 17:00:00<>METAR SBGL 041700Z 32005KT 9999 -RA SCT030 FEW035TCU BKN070 27/24 Q1015=
2025-04-04 17:33:00<>SPECI SBGL 041733Z 32005KT 9999 TS VCSH SCT030 FEW035CB BKN070 27/24 Q1015=
2025-04-04 18:00:00<>METAR SBGL 041800Z 32005KT 9999 TS VCSH SCT030 FEW035CB BKN070 27/24 Q1015=
2025-04-04 19:00:00<>METAR SBGL 041900Z 32005KT 9999 VCSH SCT030 FEW035TCU BKN070 27/24 Q1015 RETS=
2025-04-04 20:00:00<>METAR SBGL 042000Z 32005KT 8000 -RA BKN030 FEW035TCU BKN070 27/24 Q1015=
2025-04-04 21:00:00<>METAR SBGL 042100Z 07004KT 8000 -RA SCT025 FEW035TCU BKN070 25/24 Q1015=
2025-04-04 22:00:00<>METAR SBGL 042200Z 01006KT 9999 -RA SCT025 FEW030TCU BKN070 25/23 Q1015=
2025-04-04 22:15:00<>SPECI SBGL 042215Z 17010KT 1500 R28/1200 R15/1300 R10/1300 R33/1700 +RA BKN005 BKN013 23/22 Q1016=
2025-04-04 23:00:00<>METAR SBGL 042300Z 04003KT 7000 -RA BKN017 BKN070 23/22 Q1017 RERA=
2025-04-05 00:00:00<>METAR SBGL 050000Z 34006KT 7000 -RA SCT019 OVC080 23/22 Q1017=
2025-04-05 01:00:00<>METAR SBGL 050100Z 03007KT 6000 -RA SCT007 BKN013 BKN019 24/22 Q1018=
2025-04-05 01:10:00<>SPECI SBGL 050110Z 35006KT 4000 RA SCT005 BKN011 BKN019 24/22 Q1018=
2025-04-05 02:00:00<>METAR SBGL 050200Z 05006KT 5000 -RA BR SCT009 BKN011 BKN013 24/22 Q1018 RERA=
2025-04-05 03:00:00<>METAR SBGL 050300Z 30003KT 7000 -RA SCT007 BKN019 BKN023 24/22 Q1018=
2025-04-05 04:00:00<>METAR SBGL 050400Z 29003KT 7000 -RA SCT007 BKN011 BKN015 23/22 Q1017=
2025-04-05 04:15:00<>SPECI SBGL 050415Z 19007KT 4000 RA SCT005 BKN007 OVC015 23/22 Q1017=
2025-04-05 05:00:00<>METAR SBGL 050500Z 18006KT 3500 RA BKN005 BKN007 OVC011 23/22 Q1017=
2025-04-05 06:00:00<>METAR SBGL 050600Z 06003KT 5000 -RA BR BKN005 BKN007 OVC017 23/22 Q1017 RERA=
2025-04-05 07:00:00<>METAR SBGL 050700Z 12004KT 5000 -RA BR SCT005 BKN007 OVC017 22/21 Q1017=
2025-04-05 08:00:00<>METAR SBGL 050800Z 14007KT 3500 RA BKN006 BKN008 OVC023 22/21 Q1018=
2025-04-05 09:00:00<>METAR SBGL 050900Z 09005KT 4500 -RA BR BKN006 BKN009 OVC011 22/21 Q1018 RERA=
2025-04-05 10:00:00<>METAR SBGL 051000Z 16011KT 6000 -RA SCT009 BKN013 OVC017 24/22 Q1019=
2025-04-05 10:15:00<>SPECI SBGL 051015Z 13008G19KT 090V170 3000 RA BR SCT006 BKN013 OVC017 24/22 Q1019=
2025-04-05 10:32:00<>SPECI COR SBGL 051032Z 14009KT 0700 R33/1900 R28/P2000 R10/2000 R15/P2000 RA SCT006 BKN013 OVC017 23/22 Q1020=
2025-04-05 11:00:00<>METAR SBGL 051100Z 14007KT 110V170 4500 2000NE -RA BR SCT006 BKN013 OVC020 23/22 Q1020 RERA=
2025-04-05 12:00:00<>METAR SBGL 051200Z 16009KT 3000 -RA BR FEW006 BKN011 OVC019 24/21 Q1020=
2025-04-05 12:20:00<>SPECI SBGL 051220Z 16011KT 6000 FEW006 SCT011 OVC019 24/21 Q1021=
2025-04-05 13:00:00<>METAR SBGL 051300Z 16012KT 8000 VCSH SCT015 OVC020 25/20 Q1021=
2025-04-05 13:07:00<>SPECI SBGL 051307Z 14014KT 4000 -RA BR SCT015 OVC020 24/21 Q1021=
2025-04-05 14:00:00<>METAR SBGL 051400Z 17013KT 5000 BR VCSH FEW015 OVC020 24/20 Q1021=
2025-04-05 15:00:00<>METAR SBGL 051500Z 16011KT 3000 -RA BR SCT015 OVC020 23/21 Q1021=
2025-04-05 15:19:00<>SPECI SBGL 051519Z 16009KT 2000 -RA BR FEW009 BKN013 OVC020 23/21 Q1021=
2025-04-05 16:00:00<>METAR SBGL 051600Z 17009KT 140V200 4500 -RA BR FEW009 SCT013 OVC020 23/20 Q1021=
2025-04-05 17:00:00<>METAR SBGL 051700Z 16008KT 5000 -RA BR SCT011 OVC020 23/20 Q1022=
2025-04-05 17:11:00<>SPECI SBGL 051711Z 18009KT 3000 -RA BR SCT011 OVC020 22/19 Q1022=
2025-04-05 18:00:00<>METAR SBGL 051800Z 10006KT 4500 2000S -RA BR FEW015 SCT020 OVC040 21/19 Q1022=
2025-04-05 18:24:00<>SPECI SBGL 051824Z 05001KT 8000 VCSH FEW015 BKN025 OVC040 21/20 Q1022=
2025-04-05 19:00:00<>METAR SBGL 051900Z VRB02KT 9999 SCT025 OVC066 22/19 Q1022=
2025-04-05 19:45:00<>SPECI SBGL 051945Z 34005KT 310V040 3000 -RA BR FEW009 SCT025 OVC066 22/19 Q1022=
2025-04-05 20:00:00<>METAR SBGL 052000Z 32004KT 290V350 3000 -RA BR FEW009 BKN030 OVC066 22/19 Q1022=
2025-04-05 20:27:00<>SPECI SBGL 052027Z 32005KT 6000 -RA FEW009 BKN030 OVC066 21/20 Q1023=
2025-04-05 21:00:00<>METAR SBGL 052100Z 33005KT 310V010 7000 -RA FEW007 BKN030 OVC050 21/20 Q1023=
2025-04-05 22:00:00<>METAR SBGL 052200Z 35006KT 340V040 8000 -RA FEW007 BKN030 OVC050 21/19 Q1023=
2025-04-05 23:00:00<>METAR SBGL 052300Z 33007KT 8000 -RA FEW007 BKN030 OVC050 21/19 Q1024=
2025-04-06 00:00:00<>METAR SBGL 060000Z 27003KT 220V360 8000 -RA FEW007 BKN030 OVC050 21/20 Q1024=
2025-04-06 01:00:00<>METAR SBGL 060100Z 22003KT 7000 -RA FEW007 BKN025 OVC040 21/19 Q1024=
2025-04-06 02:00:00<>METAR SBGL 060200Z 21005KT 9000 FEW007 BKN025 OVC040 21/18 Q1024=
2025-04-06 03:00:00<>METAR SBGL 060300Z 30005KT 9999 FEW008 SCT025 OVC070 21/19 Q1024=
2025-04-06 04:00:00<>METAR SBGL 060400Z 32007KT 9999 SCT025 OVC070 21/19 Q1024=
2025-04-06 05:00:00<>METAR SBGL 060500Z 32004KT 9999 SCT025 BKN050 21/19 Q1023=
2025-04-06 06:00:00<>METAR SBGL 060600Z 32006KT 9999 SCT025 BKN045 21/19 Q1023=
2025-04-06 07:00:00<>METAR SBGL 060700Z 31005KT 9000 SCT025 BKN045 21/19 Q1022=
2025-04-06 08:00:00<>METAR SBGL 060800Z 34006KT 9000 FEW020 BKN045 21/19 Q1022=
2025-04-06 09:00:00<>METAR SBGL 060900Z 31005KT 9000 FEW008 SCT025 BKN050 21/19 Q1023=
2025-04-06 10:00:00<>METAR SBGL 061000Z 29004KT 8000 FEW008 SCT025 BKN050 21/19 Q1023=
2025-04-06 11:00:00<>METAR SBGL 061100Z VRB02KT 8000 3000SE SCT010 BKN030 OVC050 22/19 Q1024=
2025-04-06 11:07:00<>SPECI SBGL 061107Z 18003KT 160V250 3000 -RA BR SCT010 BKN020 OVC035 22/19 Q1024=
2025-04-06 11:31:00<>SPECI SBGL 061131Z 31003KT 270V360 8000 SCT018 BKN025 21/19 Q1024=
2025-04-06 12:00:00<>METAR SBGL 061200Z 31003KT 280V010 8000 BKN017 OVC040 21/20 Q1024=
2025-04-06 12:37:00<>SPECI SBGL 061237Z 15006KT 110V200 3000 -RA BR FEW008 BKN011 OVC025 22/19 Q1025=
2025-04-06 13:00:00<>METAR SBGL 061300Z 12007KT 090V150 3000 -RA BR FEW005 SCT007 OVC009 22/20 Q1025=
2025-04-06 14:00:00<>METAR SBGL 061400Z 03008KT 8000 SCT005 BKN030 OVC050 22/20 Q1024=
2025-04-06 15:00:00<>METAR SBGL 061500Z VRB04KT 9999 SCT010 BKN017 OVC070 23/19 Q1024=
2025-04-06 16:00:00<>METAR SBGL 061600Z 20008KT 160V230 9999 SCT011 BKN017 OVC040 22/20 Q1023=
2025-04-06 17:00:00<>METAR SBGL 061700Z 13006KT 9999 BKN040 OVC070 24/18 Q1022=
2025-04-06 18:00:00<>METAR SBGL 061800Z 04006KT 010V080 9999 FEW020 BKN030 OVC060 23/19 Q1022=
2025-04-06 19:00:00<>METAR SBGL 061900Z 06005KT 030V090 9999 FEW017 OVC030 23/19 Q1022=
2025-04-06 19:14:00<>SPECI SBGL 061914Z 18006KT 080V180 3500 -RA BR SCT018 OVC030 22/19 Q1022=
2025-04-06 20:00:00<>METAR SBGL 062000Z 16004KT 110V210 4000 -RA BR BKN011 OVC018 22/19 Q1022=
2025-04-06 20:32:00<>SPECI SBGL 062032Z 15003KT 9999 SCT008 BKN035 OVC050 21/19 Q1022=
2025-04-06 21:00:00<>METAR SBGL 062100Z 18005KT 9999 SCT019 BKN027 OVC060 21/19 Q1022=
2025-04-06 22:00:00<>METAR SBGL 062200Z 13005KT 100V160 9999 SCT008 BKN040 OVC055 21/19 Q1023=
2025-04-06 23:00:00<>METAR SBGL 062300Z 15008KT 5000 -RA BR BKN011 BKN015 OVC023 21/19 Q1023=
2025-04-07 00:00:00<>METAR SBGL 070000Z 15009KT 5000 -RA BR SCT011 BKN015 OVC026 21/19 Q1024=
2025-04-07 00:10:00<>SPECI SBGL 070010Z 08008KT 4000 -RA BR BKN007 BKN015 OVC026 21/19 Q1023=
2025-04-07 00:30:00<>SPECI SBGL 070030Z 08008KT 7000 -RA SCT011 BKN017 OVC050 20/19 Q1023=
2025-04-07 01:00:00<>METAR SBGL 070100Z 08009KT 8000 SCT013 BKN023 OVC080 21/19 Q1023=
2025-04-07 02:00:00<>METAR SBGL 070200Z 09005KT 8000 SCT030 BKN040 OVC080 21/19 Q1023=
2025-04-07 03:00:00<>METAR SBGL 070300Z 32005KT 9999 SCT011 BKN019 OVC050 21/19 Q1022=
2025-04-07 04:00:00<>METAR SBGL 070400Z 29005KT 9999 SCT011 BKN019 OVC050 21/19 Q1022=
2025-04-07 05:00:00<>METAR SBGL 070500Z 31005KT 9999 SCT011 BKN019 OVC050 21/19 Q1021=
2025-04-07 06:00:00<>METAR SBGL 070600Z 33004KT 8000 SCT011 BKN019 OVC050 20/19 Q1021=
2025-04-07 07:00:00<>METAR SBGL 070700Z 35004KT 7000 SCT011 BKN019 OVC050 20/19 Q1021=
2025-04-07 08:00:00<>METAR SBGL 070800Z 32002KT 8000 SCT007 SCT019 OVC066 20/19 Q1020=
2025-04-07 09:00:00<>METAR SBGL 070900Z 28003KT 9000 FEW005 SCT019 BKN066 21/19 Q1020=
2025-04-07 10:00:00<>METAR SBGL 071000Z 29003KT 9000 FEW006 BKN036 21/19 Q1021=
2025-04-07 11:00:00<>METAR SBGL 071100Z 32002KT 9999 FEW006 BKN036 22/19 Q1021=
2025-04-07 12:00:00<>METAR SBGL 071200Z 32003KT CAVOK 24/18 Q1021=
2025-04-07 13:00:00<>METAR SBGL 071300Z 34004KT 9999 FEW009 24/17 Q1021=
2025-04-07 14:00:00<>METAR SBGL 071400Z 01004KT 9999 FEW009 26/17 Q1021=
2025-04-07 15:00:00<>METAR SBGL 071500Z 02006KT 9999 FEW040 26/15 Q1020=
2025-04-07 16:00:00<>METAR SBGL 071600Z 05004KT 9999 FEW040 28/16 Q1019=
2025-04-07 17:00:00<>METAR SBGL 071700Z 14004KT 9999 FEW040 27/16 Q1018=
2025-04-07 18:00:00<>METAR SBGL 071800Z 13009KT 9999 FEW040 27/17 Q1018=
2025-04-07 19:00:00<>METAR SBGL 071900Z 13010KT CAVOK 26/17 Q1018=
2025-04-07 20:00:00<>METAR SBGL 072000Z 14008KT CAVOK 25/18 Q1018=
2025-04-07 21:00:00<>METAR SBGL 072100Z 14007KT 9999 FEW040 24/18 Q1018=
2025-04-07 22:00:00<>METAR SBGL 072200Z 15006KT 9999 FEW040 24/17 Q1019=
2025-04-07 23:00:00<>METAR SBGL 072300Z 15006KT 130V190 9999 SCT045 24/18 Q1019=
2025-04-08 00:00:00<>METAR SBGL 080000Z 15007KT 120V180 9999 BKN040 24/18 Q1020=
2025-04-08 01:00:00<>METAR SBGL 080100Z 15005KT 110V170 9999 BKN040 24/19 Q1020=
2025-04-08 02:00:00<>METAR SBGL 080200Z 11006KT 070V130 9999 FEW035 BKN050 23/19 Q1019=
2025-04-08 03:00:00<>METAR SBGL 080300Z 08005KT 9999 BKN045 23/19 Q1019=
2025-04-08 04:00:00<>METAR SBGL 080400Z 13003KT 090V160 9999 SCT045 22/18 Q1019=
2025-04-08 05:00:00<>METAR SBGL 080500Z VRB02KT 9999 FEW045 21/19 Q1018=
2025-04-08 06:00:00<>METAR SBGL 080600Z 07002KT CAVOK 20/18 Q1018=
2025-04-08 07:00:00<>METAR SBGL 080700Z 32004KT CAVOK 21/19 Q1017=
2025-04-08 08:00:00<>METAR SBGL 080800Z 31004KT CAVOK 20/19 Q1017=
2025-04-08 09:00:00<>METAR SBGL 080900Z VRB02KT 9000 FEW013 20/19 Q1018=
2025-04-08 10:00:00<>METAR SBGL 081000Z 33003KT 310V030 9999 FEW015 21/19 Q1018=
2025-04-08 11:00:00<>METAR SBGL 081100Z 01003KT 9999 FEW009 22/19 Q1019=
2025-04-08 12:00:00<>METAR SBGL 081200Z 03004KT 9999 FEW011 24/19 Q1019=
2025-04-08 13:00:00<>METAR SBGL 081300Z 03005KT 350V060 9999 FEW015 25/18 Q1019=
2025-04-08 14:00:00<>METAR SBGL 081400Z VRB04KT 9999 FEW025 27/18 Q1018=
2025-04-08 15:00:00<>METAR SBGL 081500Z 04009KT 9999 FEW030 27/17 Q1017=
2025-04-08 16:00:00<>METAR SBGL 081600Z 02007KT 350V060 9999 FEW030 28/16 Q1016=
2025-04-08 17:00:00<>METAR SBGL 081700Z 11007KT 9999 FEW030 28/18 Q1015=
2025-04-08 18:00:00<>METAR SBGL 081800Z 13010KT 9999 FEW030 27/19 Q1014=
2025-04-08 19:00:00<>METAR SBGL 081900Z 14008KT 9999 FEW035 27/19 Q1014=
2025-04-08 20:00:00<>METAR SBGL 082000Z 15010KT 9999 FEW035 27/19 Q1015=
2025-04-08 21:00:00<>METAR SBGL 082100Z 15010KT 9999 FEW040 26/19 Q1015=
2025-04-08 22:00:00<>METAR SBGL 082200Z 13006KT 9999 FEW025 SCT080 25/20 Q1015=
2025-04-08 23:00:00<>METAR SBGL 082300Z 10010KT 9999 FEW025 BKN100 25/19 Q1016=
2025-04-09 00:00:00<>METAR SBGL 090000Z 09011KT 9999 FEW025 SCT080 24/18 Q1016=
2025-04-09 01:00:00<>METAR SBGL 090100Z 09009KT 9999 FEW025 SCT080 23/19 Q1016=
2025-04-09 02:00:00<>METAR SBGL 090200Z 12006KT 9999 FEW025 SCT080 23/19 Q1016=
2025-04-09 03:00:00<>METAR SBGL 090300Z 13004KT 9999 FEW025 22/19 Q1015=
2025-04-09 04:00:00<>METAR SBGL 090400Z 14005KT CAVOK 22/19 Q1014=
2025-04-09 05:00:00<>METAR SBGL 090500Z 15005KT CAVOK 22/18 Q1014=
2025-04-09 06:00:00<>METAR SBGL 090600Z 21004KT 8000 FEW025 22/18 Q1014=
2025-04-09 07:00:00<>METAR SBGL 090700Z 27004KT 8000 FEW025 21/18 Q1013=
2025-04-09 08:00:00<>METAR SBGL 090800Z 03002KT 9999 FEW025 21/19 Q1014=
2025-04-09 09:00:00<>METAR SBGL 090900Z 33004KT CAVOK 22/20 Q1014=
2025-04-09 10:00:00<>METAR SBGL 091000Z 14003KT CAVOK 22/20 Q1015=
2025-04-09 11:00:00<>METAR SBGL 091100Z 14001KT CAVOK 25/19 Q1015=
2025-04-09 12:00:00<>METAR SBGL 091200Z 01005KT 9999 FEW020 25/20 Q1015=
2025-04-09 13:00:00<>METAR SBGL 091300Z 02006KT 9999 FEW020 26/20 Q1014=
2025-04-09 14:00:00<>METAR SBGL 091400Z 05003KT 360V100 9999 FEW020 29/19 Q1013=
2025-04-09 15:00:00<>METAR SBGL 091500Z 03002KT 9999 FEW020 30/19 Q1012=
2025-04-09 16:00:00<>METAR SBGL 091600Z 35003KT 9999 FEW030 31/19 Q1012=
2025-04-09 17:00:00<>METAR SBGL 091700Z 02005KT 9999 FEW030 32/19 Q1011=
2025-04-09 18:00:00<>METAR SBGL 091800Z 03005KT CAVOK 32/20 Q1011=
2025-04-09 19:00:00<>METAR SBGL 091900Z 09002KT CAVOK 33/19 Q1011=
2025-04-09 20:00:00<>METAR SBGL 092000Z 12005KT 9999 FEW030 SCT100 30/21 Q1010=
2025-04-09 21:00:00<>METAR SBGL 092100Z 14005KT 9999 FEW030 SCT080 28/22 Q1010=
2025-04-09 22:00:00<>METAR SBGL 092200Z 15004KT 9999 FEW030 SCT080 28/22 Q1011=
2025-04-09 23:00:00<>METAR SBGL 092300Z 16005KT 9999 FEW030 SCT080 28/21 Q1011=
2025-04-09 23:09:00<>SPECI SBGL 092309Z 25015KT 4000 -TSRA HZ FEW025CB SCT060 BKN080 27/22 Q1012=
2025-04-09 23:21:00<>SPECI SBGL 092321Z 18011KT 1200 R10/0200U R28/0200U R15/0200U R33/0200U TSRA BR BKN010 FEW025CB SCT060 BKN080 25/23 Q1013=
2025-04-09 23:39:00<>SPECI SBGL 092339Z 21005KT 5000 -TSRA BKN022 FEW025CB SCT060 BKN080 25/23 Q1013 RERA=
2025-04-10 00:00:00<>METAR SBGL 100000Z 24007KT 3000 -TSRA BKN019 FEW025CB OVC070 25/23 Q1013 RERA=
2025-04-10 01:00:00<>METAR SBGL 100100Z 29004KT 7000 -RA BKN019 FEW025TCU OVC070 24/22 Q1013 RETS=
2025-04-10 02:00:00<>METAR SBGL 100200Z 31008KT 7000 BKN019 FEW025TCU OVC070 24/22 Q1013=
2025-04-10 02:22:00<>SPECI SBGL 100222Z 30007KT 7000 TS BKN019 FEW025CB OVC070 24/22 Q1013=
2025-04-10 03:00:00<>METAR SBGL 100300Z 25005KT 7000 TS BKN019 FEW025CB OVC070 24/22 Q1013=
2025-04-10 04:00:00<>METAR SBGL 100400Z 25004KT 7000 TS BKN019 FEW025CB OVC070 24/22 Q1012=
2025-04-10 05:00:00<>METAR SBGL 100500Z 26004KT 8000 BKN019 BKN070 24/22 Q1012 RETS=
2025-04-10 06:00:00<>METAR SBGL 100600Z 26005KT 9999 BKN019 BKN070 24/21 Q1011=
2025-04-10 07:00:00<>METAR SBGL 100700Z 25003KT 7000 FEW008 BKN070 24/21 Q1011=
2025-04-10 08:00:00<>METAR SBGL 100800Z 05002KT 8000 FEW008 BKN070 24/21 Q1011=
2025-04-10 09:00:00<>METAR SBGL 100900Z 07002KT CAVOK 24/21 Q1012=
2025-04-10 10:00:00<>METAR SBGL 101000Z VRB01KT 9999 FEW006 SCT066 BKN083 24/22 Q1012=
2025-04-10 11:00:00<>METAR SBGL 101100Z 01005KT 340V040 9999 FEW009 25/22 Q1012=
2025-04-10 12:00:00<>METAR SBGL 101200Z 33005KT 9999 FEW015 27/22 Q1012=
2025-04-10 13:00:00<>METAR SBGL 101300Z 26005KT 230V290 9999 FEW018 29/21 Q1013=
2025-04-10 14:00:00<>METAR SBGL 101400Z 26007KT 230V290 9999 FEW020 SCT100 30/20 Q1012=
2025-04-10 15:00:00<>METAR SBGL 101500Z 13008KT 9999 BKN030 SCT100 29/21 Q1012=
2025-04-10 15:20:00<>SPECI SBGL 101520Z 21015KT 200V300 9999 BKN030 SCT100 29/21 Q1012=
2025-04-10 16:00:00<>METAR SBGL 101600Z 20011KT 170V230 9999 BKN035 FEW040TCU BKN100 29/21 Q1011=
2025-04-10 17:00:00<>METAR SBGL 101700Z 20013KT 9999 BKN040 FEW045TCU BKN083 27/19 Q1011=
2025-04-10 18:00:00<>METAR SBGL 101800Z 23014KT 9999 VCSH FEW030 BKN040 FEW045TCU BKN083 27/20 Q1011=
2025-04-10 18:33:00<>SPECI SBGL 101833Z 15018KT 9000 -RA SCT020 BKN040 FEW045TCU BKN083 24/19 Q1011=
2025-04-10 19:00:00<>METAR SBGL 101900Z 15013G23KT 9000 -RA VCSH BKN020 BKN040 FEW045TCU 23/19 Q1012=
2025-04-10 20:00:00<>METAR SBGL 102000Z 12006KT 9999 BKN035 BKN040 24/20 Q1012=
2025-04-10 21:00:00<>METAR SBGL 102100Z 09005KT 9999 VCSH BKN033 BKN040 24/20 Q1012=
2025-04-10 21:29:00<>SPECI SBGL 102129Z 04003KT 320V090 9000 -RA TS BKN030 FEW035CB BKN040 23/20 Q1012=
2025-04-10 22:00:00<>METAR SBGL 102200Z 18007G21KT 0700 R10/P2000 R28/P2000 R33/2000 R15/2000 +TSRA BKN020 BKN030 FEW035CB BKN040 23/20 Q1014=
2025-04-10 22:30:00<>SPECI SBGL 102230Z 10010KT 6000 -TSRA SCT015 SCT030 FEW035CB BKN100 21/19 Q1013 RERA=
2025-04-10 23:00:00<>METAR SBGL 102300Z 04008KT 8000 VCSH VCTS SCT030 FEW035CB BKN100 22/20 Q1013 RETS=
2025-04-11 00:00:00<>METAR SBGL 110000Z 28003KT 9999 SCT019 SCT100 22/20 Q1013=
2025-04-11 01:00:00<>METAR SBGL 110100Z 18007KT 9999 SCT019 SCT080 22/20 Q1014=
2025-04-11 02:00:00<>METAR SBGL 110200Z 23002KT 9999 SCT019 SCT070 21/20 Q1013=
2025-04-11 03:00:00<>METAR SBGL 110300Z 31006KT 9999 FEW019 SCT070 22/20 Q1013=
2025-04-11 04:00:00<>METAR SBGL 110400Z 29005KT 9999 FEW040 22/20 Q1013=
2025-04-11 05:00:00<>METAR SBGL 110500Z 34004KT 9999 FEW040 21/20 Q1012=
2025-04-11 06:00:00<>METAR SBGL 110600Z 32004KT 8000 FEW040 21/20 Q1012=
2025-04-11 07:00:00<>METAR SBGL 110700Z 35004KT 8000 FEW040 21/20 Q1012=
2025-04-11 08:00:00<>METAR SBGL 110800Z 35005KT 8000 FEW002 SCT040 21/20 Q1012=
2025-04-11 09:00:00<>METAR SBGL 110900Z 10003KT 8000 FEW009 SCT050 21/19 Q1013=
2025-04-11 10:00:00<>METAR SBGL 111000Z 01003KT 8000 FEW007 SCT050 22/20 Q1013=
2025-04-11 11:00:00<>METAR SBGL 111100Z 35004KT 330V030 8000 SCT007 23/20 Q1014=
2025-04-11 12:00:00<>METAR SBGL 111200Z 01004KT 330V080 9999 SCT007 24/20 Q1014=
2025-04-11 13:00:00<>METAR SBGL 111300Z VRB04KT 9999 SCT017 26/21 Q1014=
2025-04-11 14:00:00<>METAR SBGL 111400Z 04006KT 350V080 9999 FEW025 27/20 Q1014=
2025-04-11 15:00:00<>METAR SBGL 111500Z 12009KT 090V160 9999 FEW030 SCT080 28/20 Q1014=
2025-04-11 16:00:00<>METAR SBGL 111600Z 12011KT 9999 FEW030 SCT065 BKN080 27/19 Q1013=
2025-04-11 17:00:00<>METAR SBGL 111700Z 13009KT 9999 FEW030 SCT080 28/20 Q1012=
2025-04-11 18:00:00<>METAR SBGL 111800Z 13012KT 9999 FEW030 SCT065 BKN080 27/19 Q1012=
2025-04-11 19:00:00<>METAR SBGL 111900Z 12010KT 9999 FEW030 SCT055 BKN080 26/20 Q1013=
2025-04-11 20:00:00<>METAR SBGL 112000Z 13010KT 9999 FEW025 BKN055 26/19 Q1013=
2025-04-11 21:00:00<>METAR SBGL 112100Z 14009KT 9999 FEW020 BKN060 25/19 Q1013=
2025-04-11 22:00:00<>METAR SBGL 112200Z 14008KT 9999 FEW020 BKN060 25/20 Q1014=
2025-04-11 23:00:00<>METAR SBGL 112300Z 12005KT 9999 FEW017 SCT060 BKN083 24/20 Q1015=
2025-04-12 00:00:00<>METAR SBGL 120000Z 10004KT 9999 FEW017 BKN083 24/21 Q1015=
2025-04-12 01:00:00<>METAR SBGL 120100Z 10002KT 9999 FEW017 SCT046 BKN083 24/21 Q1016=
2025-04-12 02:00:00<>METAR SBGL 120200Z 11003KT 9999 FEW015 SCT040 BKN083 24/21 Q1015=
2025-04-12 03:00:00<>METAR SBGL 120300Z 10003KT 9999 SCT035 SCT083 23/20 Q1015=
2025-04-12 04:00:00<>METAR SBGL 120400Z 11004KT 9999 FEW030 23/20 Q1015=
2025-04-12 05:00:00<>METAR SBGL 120500Z 07002KT 9999 SCT033 23/20 Q1015=
2025-04-12 06:00:00<>METAR SBGL 120600Z 34003KT 9999 FEW007 BKN030 23/21 Q1015=
2025-04-12 06:33:00<>SPECI SBGL 120633Z 08003KT 9999 BKN007 BKN030 22/21 Q1015=
2025-04-12 07:00:00<>METAR SBGL 120700Z 02003KT 350V050 9999 SCT007 SCT050 22/21 Q1015=
2025-04-12 08:00:00<>METAR SBGL 120800Z VRB02KT 9999 FEW007 22/20 Q1015=
2025-04-12 09:00:00<>METAR SBGL 120900Z 00000KT 9999 FEW009 22/20 Q1015=
2025-04-12 10:00:00<>METAR SBGL 121000Z VRB01KT 9999 FEW009 22/20 Q1016=
2025-04-12 11:00:00<>METAR SBGL 121100Z VRB02KT 9999 SCT010 24/20 Q1016=
2025-04-12 12:00:00<>METAR SBGL 121200Z 16002KT 9999 FEW010 26/21 Q1016=
2025-04-12 13:00:00<>METAR SBGL 121300Z 36004KT 9999 FEW010 26/20 Q1016=
2025-04-12 14:00:00<>METAR SBGL 121400Z 01007KT 9999 FEW025 SCT040 27/19 Q1016=
2025-04-12 15:00:00<>METAR SBGL 121500Z 11005KT 9999 FEW030 SCT050 28/20 Q1015=
2025-04-12 16:00:00<>METAR SBGL 121600Z 14009KT 9999 FEW030 SCT070 28/20 Q1014=
2025-04-12 17:00:00<>METAR SBGL 121700Z 14011KT 9999 FEW030 SCT070 28/21 Q1013=
2025-04-12 18:00:00<>METAR SBGL 121800Z 15011KT 9999 FEW030 SCT070 28/19 Q1013=
2025-04-12 19:00:00<>METAR SBGL 121900Z 14010KT 9999 FEW040 SCT070 27/19 Q1013=
2025-04-12 20:00:00<>METAR SBGL 122000Z 15011KT CAVOK 26/20 Q1014=
2025-04-12 21:00:00<>METAR SBGL 122100Z 14009KT CAVOK 25/20 Q1014=
2025-04-12 22:00:00<>METAR SBGL 122200Z 13006KT 9999 SCT048 BKN070 25/20 Q1015=
2025-04-12 23:00:00<>METAR SBGL 122300Z 11010KT 9999 FEW045 SCT065 25/20 Q1016=
2025-04-13 00:00:00<>METAR SBGL 130000Z 10011KT 9999 BKN045 25/20 Q1016=
2025-04-13 01:00:00<>METAR SBGL 130100Z 10009KT 9999 FEW045 24/20 Q1016=
2025-04-13 02:00:00<>METAR SBGL 130200Z 11008KT CAVOK 24/20 Q1016=
2025-04-13 03:00:00<>METAR SBGL 130300Z 13007KT CAVOK 23/20 Q1016=
2025-04-13 04:00:00<>METAR SBGL 130400Z 11009KT CAVOK 23/19 Q1016=
2025-04-13 05:00:00<>METAR SBGL 130500Z 09008KT CAVOK 23/19 Q1015=
2025-04-13 06:00:00<>METAR SBGL 130600Z 11005KT CAVOK 23/20 Q1015=
2025-04-13 07:00:00<>METAR SBGL 130700Z 09005KT CAVOK 22/20 Q1015=
2025-04-13 08:00:00<>METAR SBGL 130800Z 11004KT CAVOK 22/20 Q1015=
2025-04-13 09:00:00<>METAR SBGL 130900Z 10004KT 9999 FEW011 22/20 Q1015=
2025-04-13 10:00:00<>METAR SBGL 131000Z 11002KT 9999 FEW010 23/21 Q1016=
2025-04-13 11:00:00<>METAR SBGL 131100Z 08003KT 050V120 9999 FEW009 24/21 Q1016=
2025-04-13 12:00:00<>METAR SBGL 131200Z 01003KT 320V060 9999 FEW009 24/21 Q1016=
2025-04-13 13:00:00<>METAR SBGL 131300Z 04004KT 340V110 9999 FEW013 27/21 Q1016=
2025-04-13 14:00:00<>METAR SBGL 131400Z 01004KT 330V080 9999 FEW020 28/19 Q1015=
2025-04-13 15:00:00<>METAR SBGL 131500Z VRB05KT 9999 FEW025 28/19 Q1014=
2025-04-13 16:00:00<>METAR SBGL 131600Z 12005KT 060V160 9999 FEW025 29/19 Q1013=
2025-04-13 17:00:00<>METAR SBGL 131700Z 15006KT 100V180 9999 FEW025 30/18 Q1012=
2025-04-13 18:00:00<>METAR SBGL 131800Z 14007KT 9999 FEW025 29/20 Q1012=
2025-04-13 19:00:00<>METAR SBGL 131900Z 12006KT 080V150 9999 FEW025 29/20 Q1011=
2025-04-13 20:00:00<>METAR SBGL 132000Z 14005KT 9999 FEW025 28/21 Q1011=
2025-04-13 21:00:00<>METAR SBGL 132100Z 14005KT CAVOK 27/21 Q1011=
2025-04-13 22:00:00<>METAR SBGL 132200Z 12006KT 9999 FEW030 27/21 Q1011=
2025-04-13 23:00:00<>METAR SBGL 132300Z 11006KT 9999 FEW030 26/21 Q1011=
2025-04-14 00:00:00<>METAR SBGL 140000Z 12005KT CAVOK 26/21 Q1011=
2025-04-14 01:00:00<>METAR SBGL 140100Z 11004KT CAVOK 25/21 Q1012=
2025-04-14 02:00:00<>METAR SBGL 140200Z 09004KT 8000 FEW008 25/21 Q1011=
2025-04-14 03:00:00<>METAR SBGL 140300Z 09003KT CAVOK 25/21 Q1011=
2025-04-14 04:00:00<>METAR SBGL 140400Z 15003KT CAVOK 25/21 Q1011=
2025-04-14 05:00:00<>METAR SBGL 140500Z 05003KT CAVOK 24/21 Q1010=
2025-04-14 06:00:00<>METAR SBGL 140600Z 08002KT CAVOK 24/21 Q1010=
2025-04-14 07:00:00<>METAR SBGL 140700Z 03003KT 6000 -RA FEW008 BKN100 24/22 Q1010=
2025-04-14 08:00:00<>METAR SBGL 140800Z 14004KT 7000 FEW008 BKN100 24/22 Q1010=
2025-04-14 09:00:00<>METAR SBGL 140900Z 13001KT 9999 FEW008 BKN100 24/22 Q1011=
2025-04-14 10:00:00<>METAR SBGL 141000Z 20005KT 9999 FEW008 BKN100 25/21 Q1012=
2025-04-14 11:00:00<>METAR SBGL 141100Z 25004KT 9999 SCT025 BKN090 26/21 Q1013=
2025-04-14 12:00:00<>METAR SBGL 141200Z 20006KT 8000 -RA SCT020 BKN080 24/21 Q1014=
2025-04-14 13:00:00<>METAR SBGL 141300Z 27007KT 8000 -RA SCT025 BKN080 24/22 Q1014=
2025-04-14 14:00:00<>METAR SBGL 141400Z 27006KT 9999 FEW025 BKN080 26/22 Q1014=
2025-04-14 15:00:00<>METAR SBGL 141500Z 25007KT 9999 SCT018 SCT100 28/22 Q1013=
2025-04-14 16:00:00<>METAR SBGL 141600Z 22006KT 9999 BKN025 SCT100 28/21 Q1013=
2025-04-14 17:00:00<>METAR SBGL 141700Z 24012KT 9999 BKN025 SCT100 28/20 Q1012=
2025-04-14 18:00:00<>METAR SBGL 141800Z 22013KT 9999 VCSH SCT030 FEW040TCU 28/20 Q1012=
2025-04-14 19:00:00<>METAR SBGL 141900Z 23011KT 9999 SCT030 SCT070 26/18 Q1013=
2025-04-14 20:00:00<>METAR SBGL 142000Z 24011KT 9999 SCT030 SCT070 26/19 Q1013=
2025-04-14 21:00:00<>METAR SBGL 142100Z 22007KT 9999 BKN025 BKN080 25/19 Q1014=
2025-04-14 22:00:00<>METAR SBGL 142200Z 24011KT 9999 FEW020 BKN030 25/20 Q1014=
2025-04-14 23:00:00<>METAR SBGL 142300Z 28009KT 9999 BKN019 BKN030 24/20 Q1014=
2025-04-15 00:00:00<>METAR SBGL 150000Z 12008KT 7000 RA BKN019 BKN033 24/21 Q1015=
2025-04-15 01:00:00<>METAR SBGL 150100Z 28004KT 9999 SCT017 BKN050 23/21 Q1015 RERA=
2025-04-15 02:00:00<>METAR SBGL 150200Z 33008KT 9999 FEW011 SCT017 BKN050 23/21 Q1015=
2025-04-15 03:00:00<>METAR SBGL 150300Z 33006KT 9999 SCT017 SCT033 23/21 Q1015=
2025-04-15 04:00:00<>METAR SBGL 150400Z 31006KT 9999 SCT017 SCT033 23/21 Q1015=
2025-04-15 05:00:00<>METAR SBGL 150500Z 34005KT 9999 SCT017 SCT033 22/21 Q1015=
2025-04-15 06:00:00<>METAR SBGL 150600Z 35005KT 8000 SCT017 SCT033 22/21 Q1014=
2025-04-15 07:00:00<>METAR SBGL 150700Z 32005KT 8000 SCT017 SCT033 22/21 Q1014=
2025-04-15 08:00:00<>METAR SBGL 150800Z 30004KT 9999 SCT019 SCT050 22/21 Q1015=
2025-04-15 09:00:00<>METAR SBGL 150900Z 29004KT 9999 SCT019 SCT050 22/21 Q1015=
2025-04-15 10:00:00<>METAR SBGL 151000Z 30006KT 9999 FEW019 SCT050 23/21 Q1016=
2025-04-15 11:00:00<>METAR SBGL 151100Z VRB03KT 9999 FEW013 SCT050 24/20 Q1016=
2025-04-15 12:00:00<>METAR SBGL 151200Z 36004KT 320V060 9999 SCT019 BKN050 25/20 Q1016=
2025-04-15 13:00:00<>METAR SBGL 151300Z 35004KT 320V030 9999 SCT023 SCT050 26/21 Q1016=
2025-04-15 14:00:00<>METAR SBGL 151400Z 36004KT 280V030 9999 SCT026 BKN050 27/20 Q1016=
2025-04-15 15:00:00<>METAR SBGL 151500Z 12007KT 9999 SCT026 BKN050 27/20 Q1015=
2025-04-15 16:00:00<>METAR SBGL 151600Z 13007KT 9999 FEW030 BKN050 26/20 Q1015=
2025-04-15 17:00:00<>METAR SBGL 151700Z 12006KT 090V150 9999 FEW030 BKN050 27/19 Q1014=
2025-04-15 18:00:00<>METAR SBGL 151800Z 13008KT 9999 VCSH FEW030 SCT050 27/19 Q1014=
2025-04-15 19:00:00<>METAR SBGL 151900Z 12010KT 9999 VCSH FEW025 BKN040 26/19 Q1013=
2025-04-15 20:00:00<>METAR SBGL 152000Z 13008KT 9999 FEW025 BKN040 25/20 Q1013=
2025-04-15 21:00:00<>METAR SBGL 152100Z 13008KT 9999 FEW012 BKN040 25/19 Q1014=
2025-04-15 22:00:00<>METAR SBGL 152200Z 14006KT 9999 FEW036 BKN046 24/20 Q1014=
2025-04-15 23:00:00<>METAR SBGL 152300Z 11004KT 9999 FEW030 BKN045 24/20 Q1015=
2025-04-16 00:00:00<>METAR SBGL 160000Z 10003KT 9999 FEW030 BKN045 24/21 Q1015=
2025-04-16 01:00:00<>METAR SBGL 160100Z 09004KT 9999 FEW030 BKN060 24/21 Q1015=
2025-04-16 02:00:00<>METAR SBGL 160200Z 14003KT 9999 FEW030 BKN060 23/21 Q1015=
2025-04-16 03:00:00<>METAR SBGL 160300Z 14002KT 9999 FEW025 BKN070 24/21 Q1015=
2025-04-16 04:00:00<>METAR SBGL 160400Z 08003KT 9999 FEW025 BKN070 23/21 Q1014=
2025-04-16 05:00:00<>METAR SBGL 160500Z 09002KT 9999 FEW025 BKN080 23/20 Q1013=
2025-04-16 06:00:00<>METAR SBGL 160600Z 13002KT 9999 FEW025 BKN080 23/20 Q1013=
2025-04-16 07:00:00<>METAR SBGL 160700Z 29003KT 9999 FEW018 BKN080 23/21 Q1013=
2025-04-16 08:00:00<>METAR SBGL 160800Z 27004KT 9999 FEW018 BKN080 23/21 Q1013=
2025-04-16 09:00:00<>METAR SBGL 160900Z 05001KT 8000 FEW018 BKN100 23/21 Q1013=
2025-04-16 10:00:00<>METAR SBGL 161000Z 05003KT 8000 FEW020 BKN100 23/21 Q1014=
2025-04-16 11:00:00<>METAR SBGL 161100Z 01008KT 8000 FEW010 23/21 Q1013=
2025-04-16 12:00:00<>METAR SBGL 161200Z 03003KT 340V080 9999 -RA FEW045 BKN090 24/21 Q1013=
2025-04-16 13:00:00<>METAR SBGL 161300Z 03007KT 9999 -RA FEW045 SCT060 BKN080 24/21 Q1013=
2025-04-16 14:00:00<>METAR SBGL 161400Z 25006KT 200V330 9999 -RA FEW013 SCT050 BKN075 24/21 Q1013=
2025-04-16 15:00:00<>METAR SBGL 161500Z 19008KT 9999 SCT040 26/20 Q1012=
2025-04-16 16:00:00<>METAR SBGL 161600Z 11007KT 080V150 9999 SCT040 26/21 Q1012=
2025-04-16 17:00:00<>METAR SBGL 161700Z 10008KT 9999 SCT045 26/21 Q1012=
2025-04-16 18:00:00<>METAR SBGL 161800Z 11006KT 9999 FEW030 BKN060 26/21 Q1012=
2025-04-16 19:00:00<>METAR SBGL 161900Z 02005KT 360V060 9999 SCT045 BKN065 25/20 Q1012=
2025-04-16 20:00:00<>METAR SBGL 162000Z 03004KT 360V060 CAVOK 25/21 Q1012=
2025-04-16 21:00:00<>METAR SBGL 162100Z 08004KT CAVOK 24/21 Q1012=
2025-04-16 22:00:00<>METAR SBGL 162200Z 16004KT 9999 FEW045 SCT080 24/21 Q1013=
2025-04-16 23:00:00<>METAR SBGL 162300Z VRB02KT 9999 FEW045 24/21 Q1013=
2025-04-17 00:00:00<>METAR SBGL 170000Z VRB02KT 9999 FEW040 24/21 Q1014=
2025-04-17 01:00:00<>METAR SBGL 170100Z VRB02KT 9999 FEW040 23/21 Q1013=
2025-04-17 02:00:00<>METAR SBGL 170200Z VRB03KT 9999 FEW040 SCT100 23/20 Q1014=
2025-04-17 03:00:00<>METAR SBGL 170300Z 32004KT 300V010 7000 FEW040 SCT066 23/22 Q1014=
2025-04-17 04:00:00<>METAR SBGL 170400Z 32003KT 6000 NSC 23/21 Q1014=
2025-04-17 05:00:00<>METAR SBGL 170500Z 00000KT 6000 NSC 22/21 Q1014=
2025-04-17 06:00:00<>METAR SBGL 170600Z 05003KT 5000 BR NSC 22/21 Q1014=
2025-04-17 07:00:00<>METAR SBGL 170700Z 01004KT 350V060 5000 BR NSC 22/20 Q1013=
2025-04-17 08:00:00<>METAR SBGL 170800Z VRB01KT 5000 BR FEW020 21/20 Q1013=
2025-04-17 09:00:00<>METAR SBGL 170900Z 00000KT 6000 FEW009 21/20 Q1014=
2025-04-17 09:07:00<>SPECI SBGL 170907Z 05002KT 4000 BR FEW009 21/20 Q1014=
2025-04-17 10:00:00<>METAR SBGL 171000Z 36003KT 340V070 4000 BR FEW009 22/20 Q1015=
2025-04-17 11:00:00<>METAR SBGL 171100Z VRB02KT 6000 FEW008 SCT013 23/21 Q1015=
2025-04-17 12:00:00<>METAR SBGL 171200Z 01003KT 6000 FEW016 25/21 Q1016=
2025-04-17 13:00:00<>METAR SBGL 171300Z 02002KT 7000 FEW008 26/21 Q1016=
2025-04-17 14:00:00<>METAR SBGL 171400Z 36005KT 8000 FEW020 27/21 Q1016=
2025-04-17 15:00:00<>METAR SBGL 171500Z 09003KT 9999 FEW020 29/20 Q1015=
2025-04-17 16:00:00<>METAR SBGL 171600Z 03006KT 350V090 9999 FEW020 29/20 Q1014=
2025-04-17 17:00:00<>METAR SBGL 171700Z 12010KT 9999 FEW035 29/20 Q1014=
2025-04-17 18:00:00<>METAR SBGL 171800Z 12011KT 9999 FEW035 28/21 Q1013=
2025-04-17 19:00:00<>METAR SBGL 171900Z 13009KT 9999 FEW035 27/21 Q1014=
2025-04-17 20:00:00<>METAR SBGL 172000Z 13009KT 9999 FEW035 26/21 Q1014=
2025-04-17 21:00:00<>METAR SBGL 172100Z 12007KT 9999 FEW035 25/21 Q1014=
2025-04-17 22:00:00<>METAR SBGL 172200Z 13007KT 9999 SCT040 25/21 Q1015=
2025-04-17 23:00:00<>METAR SBGL 172300Z 12008KT 9999 BKN040 25/21 Q1017=
2025-04-18 00:00:00<>METAR SBGL 180000Z 13006KT 9999 FEW040 BKN055 25/22 Q1016=
2025-04-18 01:00:00<>METAR SBGL 180100Z 13005KT 9999 FEW027 BKN060 24/21 Q1016=
2025-04-18 02:00:00<>METAR SBGL 180200Z 13004KT 9999 FEW027 BKN060 24/22 Q1016=
2025-04-18 03:00:00<>METAR SBGL 180300Z 08003KT 060V120 9999 FEW018 24/22 Q1016=
2025-04-18 04:00:00<>METAR SBGL 180400Z 13004KT 9999 FEW019 24/22 Q1015=
2025-04-18 05:00:00<>METAR SBGL 180500Z 15002KT 9999 FEW019 SCT070 23/21 Q1015=
2025-04-18 06:00:00<>METAR SBGL 180600Z 07002KT 9999 FEW016 BKN018 23/21 Q1015=
2025-04-18 07:00:00<>METAR SBGL 180700Z 12004KT 020V150 9999 BKN018 BKN070 23/21 Q1014=
2025-04-18 08:00:00<>METAR SBGL 180800Z 33005KT 9999 SCT010 BKN020 23/21 Q1014=
2025-04-18 09:00:00<>METAR SBGL 180900Z VRB02KT 8000 SCT008 BKN020 23/21 Q1015=
2025-04-18 10:00:00<>METAR SBGL 181000Z VRB01KT 6000 SCT006 BKN023 BKN070 24/22 Q1016=
2025-04-18 11:00:00<>METAR SBGL 181100Z VRB02KT 5000 BR FEW009 BKN011 25/22 Q1016=
2025-04-18 12:00:00<>METAR SBGL 181200Z 01007KT 6000 FEW015 SCT100 25/22 Q1016=
2025-04-18 13:00:00<>METAR SBGL 181300Z 05005KT 010V160 9000 FEW015 SCT100 27/22 Q1016=
2025-04-18 14:00:00<>METAR SBGL 181400Z 03004KT 320V080 9000 FEW015 SCT100 27/21 Q1016=
2025-04-18 15:00:00<>METAR SBGL 181500Z 01007KT 340V050 9999 FEW020 SCT100 27/21 Q1016=
2025-04-18 16:00:00<>METAR SBGL 181600Z VRB06KT 9999 FEW025 29/21 Q1014=
2025-04-18 17:00:00<>METAR SBGL 181700Z 11008KT 9999 FEW025 28/21 Q1013=
2025-04-18 18:00:00<>METAR SBGL 181800Z 13008KT 9999 FEW025 28/22 Q1013=
2025-04-18 19:00:00<>METAR SBGL 181900Z 14008KT 9999 FEW030 27/22 Q1013=
2025-04-18 20:00:00<>METAR SBGL 182000Z 14006KT 9999 FEW030 27/22 Q1013=
2025-04-18 21:00:00<>METAR SBGL 182100Z 13007KT 9999 FEW030 26/22 Q1013=
2025-04-18 22:00:00<>METAR SBGL 182200Z 14004KT 9999 FEW030 SCT100 25/22 Q1014=
2025-04-18 23:00:00<>METAR SBGL 182300Z 13006KT 9999 FEW030 SCT100 26/22 Q1014=
2025-04-19 00:00:00<>METAR SBGL 190000Z 11004KT 9999 FEW030 25/21 Q1015=
2025-04-19 01:00:00<>METAR SBGL 190100Z 11005KT 9999 FEW030 25/21 Q1015=
2025-04-19 02:00:00<>METAR SBGL 190200Z 10003KT 9999 FEW030 25/22 Q1015=
2025-04-19 03:00:00<>METAR SBGL 190300Z 11003KT 9999 FEW030 24/22 Q1014=
2025-04-19 04:00:00<>METAR SBGL 190400Z 13003KT CAVOK 24/22 Q1014=
2025-04-19 05:00:00<>METAR SBGL 190500Z 11002KT 9999 FEW030 24/22 Q1013=
2025-04-19 06:00:00<>METAR SBGL 190600Z 11004KT 9999 FEW030 24/22 Q1013=
2025-04-19 07:00:00<>METAR SBGL 190700Z 10002KT 9999 FEW030 24/22 Q1013=
2025-04-19 08:00:00<>METAR SBGL 190800Z 10002KT 9999 FEW030 24/22 Q1012=
2025-04-19 09:00:00<>METAR SBGL 190900Z 12002KT 9999 FEW030 SCT080 24/22 Q1013=
2025-04-19 10:00:00<>METAR SBGL 191000Z 14003KT 9999 FEW030 SCT080 24/22 Q1013=
2025-04-19 11:00:00<>METAR SBGL 191100Z 06004KT 9999 FEW030 SCT080 26/22 Q1013=
2025-04-19 12:00:00<>METAR SBGL 191200Z 06003KT 9999 FEW013 SCT100 26/22 Q1013=
2025-04-19 13:00:00<>METAR SBGL 191300Z 03005KT 9999 FEW015 SCT100 26/22 Q1013=
2025-04-19 14:00:00<>METAR SBGL 191400Z 04006KT 9999 FEW020 SCT100 28/22 Q1012=
2025-04-19 15:00:00<>METAR SBGL 191500Z 08005KT 9999 FEW020 30/21 Q1011=
2025-04-19 16:00:00<>METAR SBGL 191600Z 15005KT 9999 FEW025 30/21 Q1010=
2025-04-19 17:00:00<>METAR SBGL 191700Z 04005KT 9999 FEW025 30/21 Q1009=
2025-04-19 18:00:00<>METAR SBGL 191800Z 05004KT 9999 FEW030 32/21 Q1008=
2025-04-19 19:00:00<>METAR SBGL 191900Z 06003KT 9999 FEW030 32/20 Q1008=
2025-04-19 20:00:00<>METAR SBGL 192000Z 09005KT 9999 FEW030 SCT100 30/21 Q1008=
2025-04-19 21:00:00<>METAR SBGL 192100Z 13007KT 9999 FEW030 FEW035TCU SCT080 28/22 Q1008=
2025-04-19 22:00:00<>METAR SBGL 192200Z 15005KT 9999 VCTS FEW030 FEW040CB SCT070 28/22 Q1008=
2025-04-19 23:00:00<>METAR SBGL 192300Z 27005KT 9000 TS FEW030 BKN040 FEW040CB 29/22 Q1010=
2025-04-19 23:22:00<>SPECI SBGL 192322Z 28006KT 250V340 4000 -TSRA HZ FEW020 FEW030CB BKN040 27/23 Q1010=
2025-04-20 00:00:00<>METAR SBGL 200000Z 31012KT 290V010 3500 -TSRA BR FEW008 FEW030CB BKN032 25/23 Q1011=
2025-04-20 00:16:00<>SPECI SBGL 200016Z 34014KT 310V010 3000 TSRA BR FEW008 FEW030CB BKN032 24/22 Q1011=
2025-04-20 00:31:00<>SPECI SBGL 200031Z 01015KT 340V040 2000 +TSRA BR BKN004 BKN010 FEW030CB 24/23 Q1011 RERA=
2025-04-20 01:00:00<>METAR SBGL 200100Z VRB07G17KT 5000 -TSRA BR FEW004 BKN009 BKN015 FEW030CB 21/20 Q1012 RERA=
2025-04-20 02:00:00<>METAR SBGL 200200Z 32005KT 270V020 9000 FEW006 BKN009 BKN030 23/21 Q1011 RETS=
2025-04-20 03:00:00<>METAR SBGL 200300Z 29003KT 260V320 9999 SCT007 BKN050 23/21 Q1010=
2025-04-20 04:00:00<>METAR SBGL 200400Z 19005KT 9999 FEW009 BKN100 23/21 Q1010=
2025-04-20 05:00:00<>METAR SBGL 200500Z VRB02KT 9999 FEW010 BKN100 23/21 Q1010=
2025-04-20 06:00:00<>METAR SBGL 200600Z 30005KT 9999 FEW010 SCT080 24/21 Q1011=
2025-04-20 07:00:00<>METAR SBGL 200700Z 27003KT 9999 FEW010 BKN030 23/21 Q1010=
2025-04-20 08:00:00<>METAR SBGL 200800Z 32003KT 9999 FEW015 BKN030 23/21 Q1010=
2025-04-20 09:00:00<>METAR SBGL 200900Z VRB02KT 9999 FEW015 BKN020 BKN030 24/21 Q1011=
2025-04-20 10:00:00<>METAR SBGL 201000Z 30003KT 260V020 9999 VCSH FEW015 BKN020 BKN030 24/22 Q1011=
2025-04-20 11:00:00<>METAR SBGL 201100Z 23006KT 190V250 9999 FEW015 BKN020 25/21 Q1012=
2025-04-20 12:00:00<>METAR SBGL 201200Z 27006KT 9999 FEW015 SCT023 BKN040 25/21 Q1012=
2025-04-20 13:00:00<>METAR SBGL 201300Z 30005KT 280V340 9999 VCSH FEW015 BKN023 26/21 Q1013=
2025-04-20 14:00:00<>METAR SBGL 201400Z 24010KT 9999 VCSH FEW017 BKN019 26/21 Q1012=
2025-04-20 15:00:00<>METAR SBGL 201500Z 24009KT 9999 VCSH BKN023 27/21 Q1012=
2025-04-20 16:00:00<>METAR SBGL 201600Z 25008KT 9999 VCSH BKN023 28/21 Q1011=
2025-04-20 17:00:00<>METAR SBGL 201700Z 22015KT 9999 VCSH BKN025 SCT040 28/20 Q1011=
2025-04-20 18:00:00<>METAR SBGL 201800Z 20012KT 9999 SCT025 28/21 Q1011=
2025-04-20 19:00:00<>METAR SBGL 201900Z 20009KT 170V230 9999 SCT026 28/20 Q1011=
2025-04-20 20:00:00<>METAR SBGL 202000Z 23011KT 9999 VCSH SCT026 26/20 Q1012=
2025-04-20 21:00:00<>METAR SBGL 202100Z 21009KT 9999 VCSH SCT026 BKN050 25/20 Q1012=
2025-04-20 22:00:00<>METAR SBGL 202200Z 21007KT 9999 SCT021 BKN050 25/21 Q1013=
2025-04-20 23:00:00<>METAR SBGL 202300Z 24006KT 9999 SCT020 BKN040 25/20 Q1013=
2025-04-21 00:00:00<>METAR SBGL 210000Z 14001KT 9999 VCSH FEW015 BKN030 24/21 Q1013=
2025-04-21 01:00:00<>METAR SBGL 210100Z 15003KT 3000 RA SCT011 BKN017 24/21 Q1014=
2025-04-21 01:13:00<>SPECI SBGL 210113Z 33002KT 6000 -RA SCT011 BKN017 23/21 Q1014 RERA=
2025-04-21 02:00:00<>METAR SBGL 210200Z 12003KT 7000 SCT016 BKN030 23/20 Q1014 RERA=
2025-04-21 03:00:00<>METAR SBGL 210300Z 02003KT 9000 FEW017 BKN030 23/21 Q1014=
2025-04-21 04:00:00<>METAR SBGL 210400Z 03002KT 9999 FEW017 BKN025 23/21 Q1013=
2025-04-21 05:00:00<>METAR SBGL 210500Z 30002KT 7000 -RA FEW005 BKN018 OVC030 23/21 Q1013=
2025-04-21 06:00:00<>METAR SBGL 210600Z 27003KT 8000 FEW006 BKN018 OVC030 22/21 Q1012=
2025-04-21 07:00:00<>METAR SBGL 210700Z 22003KT 3000 -RA BR FEW006 BKN013 OVC030 23/21 Q1012=
2025-04-21 08:00:00<>METAR SBGL 210800Z 15006KT 3000 -RA BR FEW006 BKN011 OVC030 21/19 Q1013=
2025-04-21 09:00:00<>METAR SBGL 210900Z 16003KT 3000 -RA BR FEW005 BKN010 OVC030 22/20 Q1013=
2025-04-21 10:00:00<>METAR SBGL 211000Z 08003KT 6000 -RA FEW005 BKN010 OVC030 22/20 Q1014=
2025-04-21 11:00:00<>METAR SBGL 211100Z 05002KT 6000 -RA BKN007 BKN012 OVC015 22/20 Q1015=
2025-04-21 11:46:00<>SPECI SBGL 211146Z 07003KT 010V120 3000 -RA BR BKN007 OVC031 22/20 Q1016=
2025-04-21 12:00:00<>METAR SBGL 211200Z 11005KT 2500 -RA BR BKN007 OVC032 22/20 Q1016=
2025-04-21 13:00:00<>METAR SBGL 211300Z 04005KT 5000 -RA BR BKN007 BKN035 21/20 Q1016=
2025-04-21 14:00:00<>METAR SBGL 211400Z 03003KT 5000 -RA BR BKN007 BKN027 22/20 Q1016=
2025-04-21 15:00:00<>METAR SBGL 211500Z 02005KT 7000 BKN008 BKN027 BKN070 23/20 Q1015=
2025-04-21 16:00:00<>METAR SBGL 211600Z 02004KT 8000 BKN010 OVC035 23/19 Q1014=
2025-04-21 16:25:00<>SPECI SBGL 211625Z 03006KT 9999 3500SW -RA SCT012 BKN017 OVC030 23/19 Q1014=
2025-04-21 17:00:00<>METAR SBGL 211700Z VRB02KT 9999 SCT012 BKN035 OVC045 23/19 Q1014=
2025-04-21 18:00:00<>METAR SBGL 211800Z 27004KT 9999 FEW015 OVC050 23/19 Q1014=
2025-04-21 19:00:00<>METAR SBGL 211900Z 28005KT 9999 FEW015 BKN040 OVC055 23/19 Q1014=
2025-04-21 20:00:00<>METAR SBGL 212000Z 30005KT 190V330 9999 FEW015 BKN040 OVC060 22/20 Q1014=
2025-04-21 20:37:00<>SPECI SBGL 212037Z 22006KT 3000 -RA BR SCT008 BKN025 OVC040 22/20 Q1014=
2025-04-21 21:00:00<>METAR SBGL 212100Z 21008KT 3500 -RA BR SCT008 BKN019 OVC023 21/19 Q1014=
2025-04-21 21:31:00<>SPECI SBGL 212131Z VRB04KT 8000 SCT006 BKN019 OVC035 21/19 Q1015=
2025-04-21 22:00:00<>METAR SBGL 212200Z 05007KT 9999 SCT007 BKN025 OVC040 21/19 Q1015=
2025-04-21 23:00:00<>METAR SBGL 212300Z 03005KT 360V060 9999 SCT009 OVC045 21/19 Q1015=
2025-04-22 00:00:00<>METAR SBGL 220000Z 35005KT 320V030 9999 FEW007 OVC050 21/18 Q1015=
2025-04-22 01:00:00<>METAR SBGL 220100Z 28003KT 250V310 9999 FEW009 OVC050 21/18 Q1015=
2025-04-22 02:00:00<>METAR SBGL 220200Z 23003KT 180V250 9999 FEW009 OVC050 21/18 Q1015=
2025-04-22 03:00:00<>METAR SBGL 220300Z VRB02KT 9999 FEW009 OVC050 21/18 Q1015=
2025-04-22 04:00:00<>METAR SBGL 220400Z 08002KT 9999 FEW011 OVC050 21/19 Q1015=
2025-04-22 05:00:00<>METAR SBGL 220500Z 34004KT 310V030 9999 FEW011 BKN050 21/18 Q1014=
2025-04-22 06:00:00<>METAR SBGL 220600Z 00000KT 9999 FEW011 BKN050 BKN066 21/19 Q1014=
2025-04-22 07:00:00<>METAR SBGL 220700Z 33003KT 310V060 9999 FEW007 BKN050 BKN066 21/19 Q1014=
2025-04-22 08:00:00<>METAR SBGL 220800Z 31003KT 9999 FEW007 BKN066 21/19 Q1015=
2025-04-22 09:00:00<>METAR SBGL 220900Z 32003KT 270V010 9999 FEW007 BKN043 21/19 Q1015=
2025-04-22 10:00:00<>METAR SBGL 221000Z VRB02KT 9999 FEW007 BKN043 21/19 Q1016=
2025-04-22 11:00:00<>METAR SBGL 221100Z 16001KT 9999 FEW012 BKN040 22/20 Q1016=
2025-04-22 12:00:00<>METAR SBGL 221200Z 35005KT 320V030 9000 FEW008 BKN040 22/20 Q1017=
2025-04-22 13:00:00<>METAR SBGL 221300Z 33003KT 290V360 9000 FEW013 BKN040 23/19 Q1017=
2025-04-22 14:00:00<>METAR SBGL 221400Z 01004KT 310V100 9999 FEW015 BKN050 24/19 Q1017=
2025-04-22 15:00:00<>METAR SBGL 221500Z 03004KT 360V070 9999 FEW015 BKN045 24/19 Q1016=
2025-04-22 16:00:00<>METAR SBGL 221600Z VRB01KT 9999 FEW015 BKN040 25/18 Q1015=
2025-04-22 17:00:00<>METAR SBGL 221700Z 15005KT 9999 FEW015 BKN040 23/19 Q1015=
2025-04-22 18:00:00<>METAR COR SBGL 221800Z 15013KT 9999 FEW010 23/18 Q1015=
2025-04-22 19:00:00<>METAR SBGL 221900Z 12003KT 9999 FEW015 BKN048 23/19 Q1015=
2025-04-22 20:00:00<>METAR SBGL 222000Z 12003KT 9999 FEW015 BKN048 23/19 Q1015=
2025-04-22 21:00:00<>METAR SBGL 222100Z 11003KT 9999 FEW015 BKN060 23/19 Q1015=
2025-04-22 22:00:00<>METAR SBGL 222200Z 12004KT 9999 FEW015 BKN060 23/18 Q1015=
2025-04-22 23:00:00<>METAR SBGL 222300Z 13003KT 9999 FEW045 BKN100 22/18 Q1016=
2025-04-23 00:00:00<>METAR SBGL 230000Z VRB02KT 9999 FEW040 BKN065 23/18 Q1016=
2025-04-23 01:00:00<>METAR SBGL 230100Z VRB02KT 9999 FEW040 BKN065 22/19 Q1016=
2025-04-23 02:00:00<>METAR SBGL 230200Z 34003KT 320V020 9999 FEW040 BKN065 23/19 Q1016=
2025-04-23 03:00:00<>METAR SBGL 230300Z 33002KT 9999 SCT045 BKN070 22/19 Q1016=
2025-04-23 04:00:00<>METAR SBGL 230400Z VRB02KT 9999 FEW014 BKN070 22/19 Q1015=
2025-04-23 05:00:00<>METAR SBGL 230500Z VRB02KT 9999 FEW014 SCT060 20/19 Q1015=
2025-04-23 06:00:00<>METAR SBGL 230600Z 19002KT 9999 FEW009 BKN060 21/19 Q1015=
2025-04-23 07:00:00<>METAR SBGL 230700Z 18003KT 9999 FEW008 BKN055 21/19 Q1015=
2025-04-23 08:00:00<>METAR SBGL 230800Z 02003KT 340V080 9999 FEW008 BKN050 21/19 Q1016=
2025-04-23 09:00:00<>METAR SBGL 230900Z 34003KT 300V030 9999 FEW009 BKN055 21/19 Q1016=
2025-04-23 10:00:00<>METAR SBGL 231000Z 33005KT 320V020 9999 FEW009 SCT050 22/19 Q1017=
2025-04-23 11:00:00<>METAR SBGL 231100Z 35003KT 330V030 9000 FEW015 23/19 Q1017=
2025-04-23 12:00:00<>METAR SBGL 231200Z 35004KT 320V050 9000 FEW015 24/19 Q1017=
2025-04-23 13:00:00<>METAR SBGL 231300Z 36005KT 320V030 9999 FEW017 25/20 Q1017=
2025-04-23 14:00:00<>METAR SBGL 231400Z 15004KT 090V200 9999 FEW020 26/19 Q1016=
2025-04-23 15:00:00<>METAR SBGL 231500Z 05005KT 340V140 9999 FEW020 27/19 Q1015=
2025-04-23 16:00:00<>METAR SBGL 231600Z 09003KT 350V130 9999 FEW020 27/19 Q1015=
2025-04-23 17:00:00<>METAR SBGL 231700Z 14006KT 9999 FEW020 SCT050 26/18 Q1014=
2025-04-23 18:00:00<>METAR SBGL 231800Z 13010KT 9999 FEW020 SCT050 26/19 Q1014=
2025-04-23 19:00:00<>METAR SBGL 231900Z 14010KT 9999 SCT040 26/19 Q1014=
2025-04-23 20:00:00<>METAR SBGL 232000Z 14008KT 9999 SCT040 25/20 Q1014=
2025-04-23 21:00:00<>METAR SBGL 232100Z 14010KT 9999 BKN040 25/20 Q1014=
2025-04-23 22:00:00<>METAR SBGL 232200Z 13008KT 9999 BKN045 24/20 Q1015=
2025-04-23 23:00:00<>METAR SBGL 232300Z 11008KT 9999 FEW010 24/19 Q1015=
2025-04-24 00:00:00<>METAR SBGL 240000Z 11008KT 9999 BKN035 24/19 Q1016=
2025-04-24 01:00:00<>METAR SBGL 240100Z 10008KT 9999 BKN035 24/19 Q1015=
2025-04-24 02:00:00<>METAR SBGL 240200Z 10005KT 9999 FEW033 BKN060 23/19 Q1015=
2025-04-24 03:00:00<>METAR SBGL 240300Z 11004KT 9999 FEW033 BKN060 23/19 Q1015=
2025-04-24 04:00:00<>METAR SBGL 240400Z 11004KT 9999 FEW033 BKN060 22/19 Q1015=
2025-04-24 05:00:00<>METAR SBGL 240500Z 12003KT 9999 FEW033 BKN060 22/19 Q1014=
2025-04-24 06:00:00<>METAR SBGL 240600Z 11003KT 9999 FEW033 BKN060 21/19 Q1014=
2025-04-24 07:00:00<>METAR SBGL 240700Z 12005KT 9999 FEW033 BKN060 21/19 Q1013=
2025-04-24 08:00:00<>METAR SBGL 240800Z 10004KT 9999 FEW033 21/19 Q1013=
2025-04-24 09:00:00<>METAR SBGL 240900Z 08002KT 9999 FEW033 21/19 Q1013=
2025-04-24 10:00:00<>METAR SBGL 241000Z 08002KT 9999 FEW025 21/19 Q1014=
2025-04-24 11:00:00<>METAR SBGL 241100Z VRB02KT 9999 FEW008 23/20 Q1014=
2025-04-24 12:00:00<>METAR SBGL 241200Z VRB03KT CAVOK 25/19 Q1014=
2025-04-24 13:00:00<>METAR SBGL 241300Z 13004KT 080V170 CAVOK 26/20 Q1014=
2025-04-24 14:00:00<>METAR SBGL 241400Z 01005KT CAVOK 26/21 Q1013=
2025-04-24 15:00:00<>METAR SBGL 241500Z 35005KT 9999 FEW020 27/20 Q1012=
2025-04-24 16:00:00<>METAR SBGL 241600Z 06004KT 020V100 9999 FEW025 28/20 Q1011=
2025-04-24 17:00:00<>METAR SBGL 241700Z 11003KT 9999 FEW025 30/19 Q1010=
2025-04-24 18:00:00<>METAR SBGL 241800Z 10004KT 9999 FEW025 30/20 Q1009=
2025-04-24 19:00:00<>METAR SBGL 241900Z 14005KT 9999 FEW030 28/21 Q1009=
2025-04-24 20:00:00<>METAR SBGL 242000Z 14006KT 9999 FEW030 SCT080 27/21 Q1009=
2025-04-24 21:00:00<>METAR SBGL 242100Z 14007KT 9999 FEW030 SCT080 26/21 Q1009=
2025-04-24 22:00:00<>METAR SBGL 242200Z 13006KT 9999 FEW030 SCT070 26/21 Q1009=
2025-04-24 23:00:00<>METAR SBGL 242300Z 13003KT 9999 FEW020 BKN060 26/21 Q1010=
2025-04-25 00:00:00<>METAR SBGL 250000Z VRB01KT 9999 FEW020 BKN060 25/22 Q1010=
2025-04-25 01:00:00<>METAR SBGL 250100Z 25004KT 9999 FEW020 BKN060 26/21 Q1010=
2025-04-25 02:00:00<>METAR SBGL 250200Z 24004KT 9999 FEW020 BKN065 26/21 Q1010=
2025-04-25 03:00:00<>METAR SBGL 250300Z 26007KT 230V290 9999 FEW020 BKN065 25/22 Q1010=
2025-04-25 03:44:00<>SPECI SBGL 250344Z 26010KT 4000 RA BR BKN010 BKN040 24/22 Q1010=
2025-04-25 04:00:00<>METAR SBGL 250400Z 25010KT 4000 -RA BR BKN008 BKN040 24/22 Q1010 RERA=
2025-04-25 05:00:00<>METAR SBGL 250500Z 22004KT 190V260 4000 -RA BR SCT013 BKN040 24/22 Q1010=
2025-04-25 05:12:00<>SPECI SBGL 250512Z 32003KT 240V360 3000 RA BR BKN012 BKN040 23/22 Q1009=
2025-04-25 06:00:00<>METAR SBGL 250600Z 02003KT 350V070 4000 -RA BR BKN020 BKN040 23/22 Q1008 RERA=
2025-04-25 07:00:00<>METAR SBGL 250700Z 09004KT 050V130 7000 -RA FEW012 BKN065 22/20 Q1008=
2025-04-25 08:00:00<>METAR SBGL 250800Z 16003KT 9000 FEW020 BKN065 22/20 Q1008=
2025-04-25 09:00:00<>METAR SBGL 250900Z 22003KT 9999 FEW020 BKN100 23/21 Q1009=
2025-04-25 10:00:00<>METAR SBGL 251000Z 25004KT 9999 -RA FEW015 BKN100 23/21 Q1010=
2025-04-25 11:00:00<>METAR SBGL 251100Z 27004KT 8000 -RA FEW015 SCT035 BKN100 23/21 Q1010=
2025-04-25 12:00:00<>METAR SBGL 251200Z 27005KT 7000 FEW007 SCT035 BKN100 24/22 Q1010=
2025-04-25 13:00:00<>METAR SBGL 251300Z 25009KT 8000 FEW008 BKN014 BKN020 25/22 Q1010=
2025-04-25 14:00:00<>METAR SBGL 251400Z 26013KT 9999 SCT014 OVC026 26/22 Q1011=
2025-04-25 15:00:00<>METAR SBGL 251500Z 24011KT 7000 -RA FEW014 BKN035 BKN065 25/22 Q1010=
2025-04-25 16:00:00<>METAR SBGL 251600Z 23009KT 9000 -RA BKN013 BKN030 BKN065 25/22 Q1010=
2025-04-25 17:00:00<>METAR SBGL 251700Z 23009KT 9999 -RA SCT011 BKN030 24/22 Q1010=
2025-04-25 18:00:00<>METAR SBGL 251800Z 22012KT 9999 -RA VCSH BKN013 BKN030 24/21 Q1009=
2025-04-25 19:00:00<>METAR SBGL 251900Z 21008KT 9999 -RA VCSH FEW009 BKN011 BKN030 24/21 Q1010=
2025-04-25 19:29:00<>SPECI SBGL 251929Z 13010KT 9000 -RA VCSH BKN011 BKN030 22/20 Q1010=
2025-04-25 20:00:00<>METAR SBGL 252000Z 14008KT 9999 VCSH SCT009 BKN011 BKN030 23/21 Q1010=
2025-04-25 20:37:00<>SPECI SBGL 252037Z 15009KT 3800 -RA BKN009 BKN011 OVC030 23/20 Q1011=
2025-04-25 21:00:00<>METAR SBGL 252100Z 14010KT 4000 -RA BKN009 BKN011 OVC025 22/20 Q1011=
2025-04-25 21:23:00<>SPECI SBGL 252123Z 13007KT 110V170 6000 -RA SCT009 BKN011 OVC025 22/20 Q1012=
2025-04-25 22:00:00<>METAR SBGL 252200Z 12006KT 9999 -RA BKN013 OVC025 22/20 Q1012=
2025-04-25 23:00:00<>METAR SBGL 252300Z 10005KT 9999 -RA BKN013 OVC030 22/20 Q1013=
2025-04-26 00:00:00<>METAR SBGL 260000Z 09003KT 9999 FEW012 BKN020 OVC040 22/20 Q1013=
2025-04-26 01:00:00<>METAR SBGL 260100Z 09003KT 9999 FEW009 SCT016 OVC050 22/20 Q1013=
2025-04-26 02:00:00<>METAR SBGL 260200Z 13003KT 9999 FEW011 OVC070 22/20 Q1013=
2025-04-26 03:00:00<>METAR SBGL 260300Z 14003KT 9999 FEW011 BKN060 22/20 Q1012=
2025-04-26 04:00:00<>METAR SBGL 260400Z 17002KT 9999 FEW012 BKN070 22/20 Q1012=
2025-04-26 05:00:00<>METAR SBGL 260500Z 13004KT 9999 FEW012 BKN070 22/19 Q1012=
2025-04-26 06:00:00<>METAR SBGL 260600Z 10002KT 9999 FEW015 BKN100 21/19 Q1011=
2025-04-26 07:00:00<>METAR SBGL 260700Z 08003KT 9999 FEW015 BKN100 21/20 Q1011=
2025-04-26 08:00:00<>METAR SBGL 260800Z 05002KT 9999 FEW015 BKN100 21/19 Q1011=
2025-04-26 09:00:00<>METAR SBGL 260900Z 14001KT 9999 SCT018 BKN100 21/20 Q1012=
2025-04-26 10:00:00<>METAR SBGL 261000Z 10004KT 9999 FEW017 SCT100 21/19 Q1013=
2025-04-26 11:00:00<>METAR SBGL 261100Z 14005KT 9999 FEW008 BKN080 23/20 Q1014=
2025-04-26 12:00:00<>METAR SBGL 261200Z 12004KT 9999 FEW008 BKN080 24/20 Q1014=
2025-04-26 13:00:00<>METAR SBGL 261300Z 06006KT 9999 FEW019 BKN080 25/20 Q1014=
2025-04-26 14:00:00<>METAR SBGL 261400Z 04005KT 9999 FEW040 BKN080 25/19 Q1013=
2025-04-26 15:00:00<>METAR SBGL 261500Z 04006KT 9999 FEW040 BKN080 26/20 Q1012=
2025-04-26 16:00:00<>METAR SBGL 261600Z 03006KT 9999 FEW045 BKN080 26/20 Q1011=
2025-04-26 17:00:00<>METAR SBGL 261700Z 05006KT 010V090 9999 SCT023 BKN085 27/21 Q1011=
2025-04-26 18:00:00<>METAR SBGL 261800Z 15006KT 110V190 9999 SCT026 27/20 Q1010=
2025-04-26 19:00:00<>METAR SBGL 261900Z 14009KT 9999 SCT024 26/21 Q1010=
2025-04-26 20:00:00<>METAR SBGL 262000Z 14006KT 9999 BKN028 26/21 Q1010=
2025-04-26 21:00:00<>METAR SBGL 262100Z 14008KT 9999 BKN023 25/21 Q1011=
2025-04-26 22:00:00<>METAR SBGL 262200Z 10011KT 9999 SCT027 BKN045 25/19 Q1011=
2025-04-26 23:00:00<>METAR SBGL 262300Z 10007KT 9999 BKN027 BKN045 24/20 Q1012=
2025-04-27 00:00:00<>METAR SBGL 270000Z 10007KT 9999 BKN030 24/20 Q1013=
2025-04-27 01:00:00<>METAR SBGL 270100Z 10003KT 9999 BKN026 24/20 Q1013=
2025-04-27 02:00:00<>METAR SBGL 270200Z 12004KT 9999 FEW026 BKN050 23/20 Q1013=
2025-04-27 03:00:00<>METAR SBGL 270300Z 11009KT 9999 FEW026 SCT050 23/19 Q1012=
2025-04-27 04:00:00<>METAR SBGL 270400Z 09002KT 9999 FEW046 22/19 Q1012=
2025-04-27 05:00:00<>METAR SBGL 270500Z 13004KT 9999 FEW046 22/20 Q1012=
2025-04-27 06:00:00<>METAR SBGL 270600Z 10002KT CAVOK 22/19 Q1011=
2025-04-27 07:00:00<>METAR SBGL 270700Z 00000KT CAVOK 21/19 Q1011=
2025-04-27 08:00:00<>METAR SBGL 270800Z 11002KT CAVOK 21/19 Q1011=
2025-04-27 09:00:00<>METAR SBGL 270900Z 14002KT CAVOK 21/19 Q1012=
2025-04-27 10:00:00<>METAR SBGL 271000Z VRB02KT 9999 FEW009 SCT100 22/20 Q1013=
2025-04-27 11:00:00<>METAR SBGL 271100Z 10003KT 060V150 9999 FEW020 24/20 Q1013=
2025-04-27 12:00:00<>METAR SBGL 271200Z 01005KT 340V050 9999 FEW013 24/21 Q1013=
2025-04-27 13:00:00<>METAR SBGL 271300Z 03004KT 340V090 CAVOK 26/21 Q1013=
2025-04-27 14:00:00<>METAR SBGL 271400Z 02004KT 340V070 CAVOK 28/21 Q1013=
2025-04-27 15:00:00<>METAR SBGL 271500Z 14005KT 080V190 CAVOK 28/19 Q1012=
2025-04-27 16:00:00<>METAR SBGL 271600Z 14003KT 070V240 9999 FEW025 29/21 Q1011=
2025-04-27 17:00:00<>METAR SBGL 271700Z 05005KT 9999 FEW025 29/21 Q1010=
2025-04-27 18:00:00<>METAR SBGL 271800Z 14006KT 9999 FEW025 28/21 Q1009=
2025-04-27 19:00:00<>METAR SBGL 271900Z 13008KT 9999 FEW025 28/21 Q1009=
2025-04-27 20:00:00<>METAR SBGL 272000Z 13007KT 9999 FEW025 27/21 Q1009=
2025-04-27 21:00:00<>METAR SBGL 272100Z 13006KT 9999 FEW025 26/21 Q1009=
2025-04-27 22:00:00<>METAR SBGL 272200Z 12004KT 9999 FEW025 25/21 Q1009=
2025-04-27 23:00:00<>METAR SBGL 272300Z 10007KT 9999 SCT040 25/21 Q1010=
2025-04-28 00:00:00<>METAR SBGL 280000Z 09005KT 050V120 9999 SCT036 24/21 Q1010=
2025-04-28 01:00:00<>METAR SBGL 280100Z VRB03KT 9999 FEW034 24/21 Q1010=
2025-04-28 02:00:00<>METAR SBGL 280200Z 11004KT CAVOK 23/21 Q1010=
2025-04-28 03:00:00<>METAR SBGL 280300Z VRB02KT CAVOK 24/21 Q1010=
2025-04-28 04:00:00<>METAR SBGL 280400Z 12003KT CAVOK 24/21 Q1009=
2025-04-28 05:00:00<>METAR SBGL 280500Z VRB02KT CAVOK 23/21 Q1009=
2025-04-28 06:00:00<>METAR SBGL 280600Z 10004KT CAVOK 23/21 Q1008=
2025-04-28 07:00:00<>METAR SBGL 280700Z 06004KT 050V110 CAVOK 23/21 Q1008=
2025-04-28 08:00:00<>METAR SBGL 280800Z VRB02KT CAVOK 22/21 Q1008=
2025-04-28 09:00:00<>METAR SBGL 280900Z 36004KT 340V040 9999 SCT006 23/21 Q1008=
2025-04-28 10:00:00<>METAR SBGL 281000Z 02003KT 340V070 8000 FEW008 23/22 Q1009=
2025-04-28 11:00:00<>METAR SBGL 281100Z 34004KT 8000 FEW008 24/22 Q1009=
2025-04-28 12:00:00<>METAR SBGL 281200Z 01003KT 8000 FEW010 27/22 Q1009=
2025-04-28 13:00:00<>METAR SBGL 281300Z 04002KT 9999 FEW016 28/22 Q1009=
2025-04-28 14:00:00<>METAR SBGL 281400Z 36002KT 9999 FEW020 29/22 Q1009=
2025-04-28 15:00:00<>METAR SBGL 281500Z 04004KT 8000 FEW030 29/22 Q1008=
2025-04-28 16:00:00<>METAR SBGL 281600Z 34004KT 250V030 9999 FEW030 31/22 Q1008=
2025-04-28 17:00:00<>METAR SBGL 281700Z 27012KT 220V290 9999 FEW020 33/17 Q1007=
2025-04-28 18:00:00<>METAR SBGL 281800Z 21015KT 9000 -RA FEW020 BKN050 29/20 Q1007=
2025-04-28 19:00:00<>METAR SBGL 281900Z 22015KT 9999 FEW020 BKN060 27/20 Q1008=
2025-04-28 20:00:00<>METAR SBGL 282000Z 21009KT 9999 FEW015 BKN050 26/21 Q1009=
2025-04-28 21:00:00<>METAR SBGL 282100Z 35006KT 9000 FEW015 SCT030 BKN040 24/22 Q1009=
2025-04-28 22:00:00<>METAR SBGL 282200Z 33005KT 8000 FEW015 SCT030 BKN040 25/23 Q1010=
2025-04-28 23:00:00<>METAR SBGL 282300Z 28003KT 7000 -RA FEW015 SCT030 BKN040 25/22 Q1010=
2025-04-28 23:41:00<>SPECI SBGL 282341Z 31003KT 3000 -RA BR FEW020 SCT040 BKN070 24/22 Q1010=
2025-04-29 00:00:00<>METAR SBGL 290000Z 30004KT 3000 -RA FEW020 SCT040 BKN070 24/22 Q1011=
2025-04-29 00:24:00<>SPECI SBGL 290024Z 29006KT 1500 RA BR FEW005 SCT010 BKN026 24/23 Q1011=
2025-04-29 01:00:00<>METAR SBGL 290100Z 25009KT 1500 R33/2000N R15/2000N R28/2000N R10/2000N RA BR BKN006 BKN017 23/22 Q1011=
2025-04-29 02:00:00<>METAR SBGL 290200Z 23005KT 6000 -RA BKN008 BKN048 OVC070 23/21 Q1012 RERA=
2025-04-29 03:00:00<>METAR SBGL 290300Z 25004KT 8000 -RA BKN010 BKN030 OVC070 23/21 Q1012=
2025-04-29 04:00:00<>METAR COR SBGL 290400Z 30005KT 4000 -RA BR BKN010 BKN030 OVC070 23/21 Q1012=
2025-04-29 05:00:00<>METAR SBGL 290500Z 30004KT 4000 -RA BR BKN007 OVC035 22/21 Q1012=
2025-04-29 05:25:00<>SPECI SBGL 290525Z 28003KT 2500 -RA BR BKN004 OVC017 23/21 Q1012=
2025-04-29 06:00:00<>METAR SBGL 290600Z 32002KT 4000 -RA BR BKN006 OVC035 22/21 Q1011=
2025-04-29 07:00:00<>METAR SBGL 290700Z 11003KT 9999 BKN005 BKN028 BKN040 22/21 Q1011=
2025-04-29 08:00:00<>METAR SBGL 290800Z 26007KT 6000 -RA BKN005 BKN030 BKN048 22/20 Q1011=
2025-04-29 08:17:00<>SPECI SBGL 290817Z 30003KT 7000 FEW005 OVC040 22/20 Q1011=
2025-04-29 09:00:00<>METAR SBGL 290900Z 29004KT 7000 FEW005 OVC040 22/20 Q1012=
2025-04-29 09:18:00<>SPECI SBGL 290918Z 29005KT 2500 -RA BR BKN008 OVC035 22/20 Q1012=
2025-04-29 10:00:00<>METAR SBGL 291000Z 27003KT 8000 -RA FEW004 BKN021 OVC048 21/19 Q1013=
2025-04-29 11:00:00<>METAR SBGL 291100Z 33006KT 9000 FEW015 BKN030 BKN050 22/19 Q1014=
2025-04-29 12:00:00<>METAR SBGL 291200Z 33008KT 310V020 9000 FEW006 BKN035 BKN050 22/20 Q1015=
2025-04-29 13:00:00<>METAR SBGL 291300Z 33007KT 290V010 9999 FEW015 BKN050 23/19 Q1015=
2025-04-29 14:00:00<>METAR SBGL 291400Z 35004KT 9000 VCSH FEW020 BKN035 BKN040 23/18 Q1015=
2025-04-29 15:00:00<>METAR SBGL 291500Z 10005KT 9000 -RA FEW015 BKN040 21/19 Q1014=
2025-04-29 16:00:00<>METAR SBGL 291600Z 33003KT 300V010 9000 -RA FEW010 SCT018 BKN030 21/19 Q1014=
2025-04-29 16:36:00<>SPECI SBGL 291636Z VRB02KT 4000 -DZ BKN017 BKN030 21/19 Q1014=
2025-04-29 17:00:00<>METAR SBGL 291700Z VRB01KT 3000 -DZ FEW008 BKN017 OVC030 21/19 Q1014=
2025-04-29 17:39:00<>SPECI SBGL 291739Z 01003KT 7000 SCT016 OVC030 21/19 Q1014=
2025-04-29 18:00:00<>METAR SBGL 291800Z 36005KT 9000 FEW008 BKN030 21/19 Q1014=
2025-04-29 19:00:00<>METAR SBGL 291900Z 36004KT 340V050 9000 FEW007 BKN040 21/19 Q1014=
2025-04-29 20:00:00<>METAR SBGL 292000Z 02002KT 9999 FEW007 BKN040 21/19 Q1014=
2025-04-29 21:00:00<>METAR SBGL 292100Z 01003KT 9999 FEW016 BKN040 21/19 Q1014=
2025-04-29 22:00:00<>METAR SBGL 292200Z 15001KT 9999 FEW018 BKN040 22/19 Q1015=
2025-04-29 23:00:00<>METAR SBGL 292300Z VRB02KT 9999 FEW015 BKN050 BKN066 21/19 Q1015=
2025-04-30 00:00:00<>METAR SBGL 300000Z 04003KT 9999 SCT023 BKN050 BKN066 22/19 Q1015=
2025-04-30 01:00:00<>METAR SBGL 300100Z 33003KT 290V020 9000 -RA SCT023 BKN050 BKN066 22/19 Q1016=
2025-04-30 02:00:00<>METAR SBGL 300200Z 33003KT 290V030 9999 FEW023 BKN036 BKN050 22/19 Q1016=
2025-04-30 03:00:00<>METAR SBGL 300300Z VRB02KT 9999 FEW023 SCT036 BKN050 21/19 Q1015=
2025-04-30 04:00:00<>METAR SBGL 300400Z 33003KT 9999 FEW023 BKN043 BKN083 21/18 Q1015=
2025-04-30 05:00:00<>METAR SBGL 300500Z 31003KT 290V010 9999 FEW023 SCT043 21/18 Q1015=
2025-04-30 06:00:00<>METAR SBGL 300600Z 34003KT 9999 FEW018 20/18 Q1015=
2025-04-30 07:00:00<>METAR SBGL 300700Z 34004KT 9999 FEW018 BKN066 20/18 Q1015=
2025-04-30 08:00:00<>METAR SBGL 300800Z VRB02KT 9000 SCT025 BKN066 20/18 Q1015=
2025-04-30 09:00:00<>METAR SBGL 300900Z 07001KT 9000 -RA FEW011 SCT025 BKN066 20/19 Q1016=
2025-04-30 10:00:00<>METAR SBGL 301000Z VRB02KT 9999 SCT025 BKN066 21/19 Q1016=
2025-04-30 11:00:00<>METAR SBGL 301100Z 33004KT 310V010 9999 FEW025 BKN070 22/19 Q1017=
2025-04-30 12:00:00<>METAR SBGL 301200Z 30004KT 250V360 9999 FEW025 BKN070 23/19 Q1017=
2025-04-30 13:00:00<>METAR SBGL 301300Z 31005KT 240V340 9999 FEW020 SCT075 24/17 Q1017=
2025-04-30 14:00:00<>METAR SBGL 301400Z 34006KT 300V010 9999 BKN030 BKN065 25/16 Q1017=
2025-04-30 15:00:00<>METAR SBGL 301500Z 21006KT 150V250 9999 FEW030 SCT040 BKN065 25/17 Q1017=
2025-04-30 16:00:00<>METAR SBGL 301600Z 21008KT 9999 SCT030 BKN065 25/16 Q1016=
2025-04-30 17:00:00<>METAR SBGL 301700Z 21008KT 9999 FEW020 SCT035 BKN050 26/16 Q1015=
2025-04-30 18:00:00<>METAR SBGL 301800Z 22006KT 9999 FEW020 SCT040 BKN060 25/16 Q1015=
2025-04-30 19:00:00<>METAR SBGL 301900Z 16003KT 110V210 9999 FEW020 BKN050 24/17 Q1015=
2025-04-30 20:00:00<>METAR SBGL 302000Z 20005KT 9999 FEW020 SCT030 BKN050 24/17 Q1016=
2025-04-30 21:00:00<>METAR SBGL 302100Z 19003KT 9999 FEW020 BKN050 23/17 Q1016=
2025-04-30 22:00:00<>METAR SBGL 302200Z VRB02KT 9999 FEW020 BKN060 23/17 Q1017=
2025-04-30 23:00:00<>METAR SBGL 302300Z 16002KT 9999 FEW020 BKN050 23/17 Q1017=
2025-05-01 00:00:00<>METAR SBGL 010000Z 00000KT 9999 FEW020 BKN050 23/17 Q1018=
2025-05-01 01:00:00<>METAR SBGL 010100Z 33003KT 9999 FEW025 BKN050 23/18 Q1018=
2025-05-01 02:00:00<>METAR SBGL 010200Z 32003KT 9999 FEW025 BKN050 23/18 Q1018=
2025-05-01 03:00:00<>METAR SBGL 010300Z 34004KT 9999 FEW025 BKN050 23/18 Q1018=
2025-05-01 04:00:00<>METAR SBGL 010400Z 30003KT 9999 FEW025 BKN050 22/18 Q1018=
2025-05-01 05:00:00<>METAR SBGL 010500Z 27004KT 9999 FEW030 BKN050 22/17 Q1017=
2025-05-01 06:00:00<>METAR SBGL 010600Z 00000KT 9999 FEW030 BKN050 21/18 Q1017=
2025-05-01 07:00:00<>METAR SBGL 010700Z 32003KT 9999 FEW030 21/19 Q1017=
2025-05-01 08:00:00<>METAR SBGL 010800Z 29003KT 9999 FEW030 21/18 Q1017=
2025-05-01 09:00:00<>METAR SBGL 010900Z 31001KT 9000 FEW020 20/18 Q1018=
2025-05-01 10:00:00<>METAR SBGL 011000Z 33004KT 260V020 8000 FEW020 21/19 Q1018=
2025-05-01 11:00:00<>METAR SBGL 011100Z 34004KT 310V030 9999 FEW025 22/18 Q1019=
2025-05-01 12:00:00<>METAR SBGL 011200Z 01003KT 330V050 9999 SCT025 23/19 Q1020=
2025-05-01 13:00:00<>METAR SBGL 011300Z 35004KT 320V020 9999 FEW030 SCT045 25/18 Q1020=
2025-05-01 14:00:00<>METAR SBGL 011400Z 36005KT 330V040 9999 SCT030 26/16 Q1019=
2025-05-01 15:00:00<>METAR SBGL 011500Z 04006KT 9999 SCT035 26/17 Q1018=
2025-05-01 16:00:00<>METAR SBGL 011600Z 14009KT 110V170 9999 FEW035 25/15 Q1018=
2025-05-01 17:00:00<>METAR SBGL 011700Z 14009KT 110V170 9999 SCT035 26/16 Q1017=
2025-05-01 18:00:00<>METAR SBGL 011800Z 13012KT 9999 FEW035 BKN070 26/17 Q1017=
2025-05-01 19:00:00<>METAR SBGL 011900Z 13011KT 9999 FEW035 25/16 Q1017=
2025-05-01 20:00:00<>METAR SBGL 012000Z 13010KT 9999 FEW030 24/17 Q1018=
2025-05-01 21:00:00<>METAR SBGL 012100Z 13009KT 9999 FEW025 23/17 Q1018=
2025-05-01 22:00:00<>METAR SBGL 012200Z 14008KT CAVOK 22/18 Q1019=
2025-05-01 23:00:00<>METAR SBGL 012300Z 14006KT 9999 FEW043 22/17 Q1019=
2025-05-02 00:00:00<>METAR SBGL 020000Z 10003KT 9999 SCT046 22/17 Q1019=
2025-05-02 01:00:00<>METAR SBGL 020100Z 12004KT 9999 SCT043 21/17 Q1019=
2025-05-02 02:00:00<>METAR SBGL 020200Z 14004KT 100V250 9999 SCT046 23/18 Q1019=
2025-05-02 03:00:00<>METAR SBGL 020300Z 08002KT 9999 FEW046 20/17 Q1019=
2025-05-02 04:00:00<>METAR SBGL 020400Z 06002KT CAVOK 20/17 Q1019=
2025-05-02 05:00:00<>METAR SBGL 020500Z 11003KT CAVOK 19/17 Q1019=
2025-05-02 06:00:00<>METAR SBGL 020600Z 06003KT CAVOK 19/17 Q1018=
2025-05-02 07:00:00<>METAR SBGL 020700Z VRB02KT 9000 NSC 20/18 Q1018=
2025-05-02 08:00:00<>METAR SBGL 020800Z VRB01KT 9000 FEW008 18/17 Q1018=
2025-05-02 09:00:00<>METAR SBGL 020900Z VRB02KT 8000 2500NE FEW008 20/18 Q1019=
2025-05-02 10:00:00<>METAR SBGL 021000Z 35003KT 320V070 9000 2500NE FEW008 20/18 Q1019=
2025-05-02 11:00:00<>METAR SBGL 021100Z 04003KT 9999 FEW009 21/19 Q1020=
2025-05-02 12:00:00<>METAR SBGL 021200Z 03004KT 9999 FEW009 22/19 Q1020=
2025-05-02 13:00:00<>METAR SBGL 021300Z 35005KT 9999 FEW009 23/19 Q1020=
2025-05-02 14:00:00<>METAR SBGL 021400Z 05004KT 9999 FEW009 26/17 Q1020=
2025-05-02 15:00:00<>METAR SBGL 021500Z 11003KT 9999 FEW009 26/16 Q1020=
2025-05-02 16:00:00<>METAR SBGL 021600Z 02007KT 9999 FEW009 27/16 Q1019=
2025-05-02 17:00:00<>METAR SBGL 021700Z 11006KT 9999 FEW009 26/16 Q1018=
2025-05-02 18:00:00<>METAR SBGL 021800Z 13009KT 9999 FEW009 SCT070 26/17 Q1018=
2025-05-02 19:00:00<>METAR SBGL 021900Z 14009KT 9999 FEW009 SCT070 25/16 Q1018=
2025-05-02 20:00:00<>METAR SBGL 022000Z 15008KT 9999 FEW009 SCT070 24/16 Q1019=
2025-05-02 21:00:00<>METAR SBGL 022100Z 14008KT 9999 FEW009 SCT060 24/16 Q1019=
2025-05-02 22:00:00<>METAR SBGL 022200Z 13006KT 9999 FEW009 SCT060 23/16 Q1019=
2025-05-02 23:00:00<>METAR SBGL 022300Z 12005KT CAVOK 23/16 Q1020=
2025-05-03 00:00:00<>METAR SBGL 030000Z 09005KT CAVOK 21/16 Q1020=
2025-05-03 01:00:00<>METAR SBGL 030100Z 11007KT CAVOK 22/15 Q1020=
2025-05-03 02:00:00<>METAR SBGL 030200Z 12008KT CAVOK 21/16 Q1020=
2025-05-03 03:00:00<>METAR SBGL 030300Z 10007KT CAVOK 21/16 Q1020=
2025-05-03 04:00:00<>METAR SBGL 030400Z 10005KT CAVOK 20/16 Q1020=
2025-05-03 05:00:00<>METAR SBGL 030500Z 14001KT CAVOK 18/16 Q1019=
2025-05-03 06:00:00<>METAR SBGL 030600Z VRB01KT CAVOK 18/16 Q1019=
2025-05-03 07:00:00<>METAR SBGL 030700Z 09002KT CAVOK 18/16 Q1018=
2025-05-03 08:00:00<>METAR SBGL 030800Z 01003KT 330V040 CAVOK 18/17 Q1018=
2025-05-03 09:00:00<>METAR SBGL 030900Z VRB02KT CAVOK 19/17 Q1018=
2025-05-03 10:00:00<>METAR SBGL 031000Z 34003KT 290V030 CAVOK 19/17 Q1019=
2025-05-03 11:00:00<>METAR SBGL 031100Z 01004KT CAVOK 21/18 Q1019=
2025-05-03 12:00:00<>METAR SBGL 031200Z 14003KT CAVOK 23/18 Q1019=
2025-05-03 13:00:00<>METAR SBGL 031300Z 04005KT CAVOK 23/18 Q1019=
2025-05-03 14:00:00<>METAR SBGL 031400Z 04006KT CAVOK 25/18 Q1019=
2025-05-03 15:00:00<>METAR SBGL 031500Z 16006KT CAVOK 27/16 Q1018=
2025-05-03 16:00:00<>METAR SBGL 031600Z 10007KT 9999 FEW023 27/15 Q1017=
2025-05-03 17:00:00<>METAR SBGL 031700Z 14006KT 9999 FEW023 27/17 Q1017=
2025-05-03 18:00:00<>METAR SBGL 031800Z 13009KT 9999 FEW023 27/17 Q1017=
2025-05-03 19:00:00<>METAR SBGL 031900Z 13010KT 9999 FEW023 26/17 Q1017=
2025-05-03 20:00:00<>METAR SBGL 032000Z 14013KT 9999 FEW023 25/18 Q1018=
2025-05-03 21:00:00<>METAR SBGL 032100Z 15010KT 9999 FEW040 24/18 Q1018=
2025-05-03 22:00:00<>METAR SBGL 032200Z 14009KT 9999 SCT040 23/18 Q1018=
2025-05-03 23:00:00<>METAR SBGL 032300Z 11007KT 9999 FEW040 23/18 Q1019=
2025-05-04 00:00:00<>METAR SBGL 040000Z 10007KT 9999 FEW040 23/17 Q1019=
2025-05-04 01:00:00<>METAR SBGL 040100Z 07004KT 9999 FEW008 22/18 Q1019=
2025-05-04 02:00:00<>METAR SBGL 040200Z 10003KT 9999 FEW008 21/18 Q1019=
2025-05-04 03:00:00<>METAR SBGL 040300Z 12002KT 9999 FEW008 20/18 Q1018=
2025-05-04 04:00:00<>METAR SBGL 040400Z 03002KT 9999 FEW008 20/18 Q1018=
2025-05-04 05:00:00<>METAR SBGL 040500Z 04002KT 9999 FEW008 19/17 Q1017=
2025-05-04 06:00:00<>METAR SBGL 040600Z 09002KT 9999 FEW008 20/18 Q1018=
2025-05-04 07:00:00<>METAR SBGL 040700Z 33004KT 9999 FEW008 20/18 Q1018=
2025-05-04 08:00:00<>METAR SBGL 040800Z 32004KT 9999 FEW008 20/18 Q1018=
2025-05-04 09:00:00<>METAR SBGL 040900Z 32002KT 9999 FEW008 20/17 Q1019=
2025-05-04 10:00:00<>METAR SBGL 041000Z 02002KT 9999 FEW008 20/18 Q1019=
2025-05-04 11:00:00<>METAR SBGL 041100Z 01004KT 9999 FEW010 21/18 Q1020=
2025-05-04 12:00:00<>METAR SBGL 041200Z 01005KT 9999 FEW010 22/18 Q1020=
2025-05-04 13:00:00<>METAR SBGL 041300Z 01004KT 9999 FEW016 24/19 Q1020=
2025-05-04 14:00:00<>METAR SBGL 041400Z 34003KT 9999 FEW020 26/18 Q1020=
2025-05-04 15:00:00<>METAR SBGL 041500Z 35005KT 9999 FEW025 27/17 Q1019=
2025-05-04 16:00:00<>METAR SBGL 041600Z 04004KT 9999 FEW030 27/17 Q1018=
2025-05-04 17:00:00<>METAR SBGL 041700Z 12006KT 9999 FEW030 27/17 Q1018=
2025-05-04 18:00:00<>METAR SBGL 041800Z 13010KT 9999 FEW030 26/19 Q1017=
2025-05-04 19:00:00<>METAR SBGL 041900Z 13010KT 9999 FEW030 25/19 Q1018=
2025-05-04 20:00:00<>METAR SBGL 042000Z 13009KT 9999 FEW030 24/19 Q1018=
2025-05-04 21:00:00<>METAR SBGL 042100Z 14009KT 9999 FEW030 23/19 Q1019=
2025-05-04 22:00:00<>METAR SBGL 042200Z 14010KT 9999 SCT046 23/19 Q1019=
2025-05-04 23:00:00<>METAR SBGL 042300Z 11011KT 9999 SCT046 23/18 Q1020=
2025-05-05 00:00:00<>METAR SBGL 050000Z 09006KT 9999 SCT030 22/18 Q1020=
2025-05-05 01:00:00<>METAR SBGL 050100Z 12004KT 9999 FEW030 21/18 Q1020=
2025-05-05 02:00:00<>METAR SBGL 050200Z 10006KT 9999 FEW023 22/18 Q1020=
2025-05-05 03:00:00<>METAR SBGL 050300Z 12003KT 9999 SCT046 22/18 Q1020=
2025-05-05 04:00:00<>METAR SBGL 050400Z 13005KT 9999 SCT040 22/18 Q1020=
2025-05-05 05:00:00<>METAR SBGL 050500Z 17005KT 9999 SCT040 21/18 Q1020=
2025-05-05 06:00:00<>METAR SBGL 050600Z 18004KT 8000 SCT040 21/18 Q1019=
2025-05-05 07:00:00<>METAR SBGL 050700Z 19004KT 8000 SCT040 21/18 Q1019=
2025-05-05 08:00:00<>METAR SBGL 050800Z 00000KT 9999 FEW040 20/18 Q1019=
2025-05-05 09:00:00<>METAR SBGL 050900Z 33004KT 9999 FEW009 SCT066 21/19 Q1020=
2025-05-05 10:00:00<>METAR SBGL 051000Z 33003KT 310V030 7000 FEW009 SCT066 21/19 Q1020=
2025-05-05 11:00:00<>METAR SBGL 051100Z VRB02KT 8000 FEW009 SCT066 22/19 Q1020=
2025-05-05 12:00:00<>METAR SBGL 051200Z 01003KT 320V040 9999 FEW012 24/20 Q1021=
2025-05-05 13:00:00<>METAR SBGL 051300Z 01003KT 310V090 9999 FEW020 25/19 Q1021=
2025-05-05 14:00:00<>METAR SBGL 051400Z 12005KT 100V160 9999 FEW023 26/20 Q1020=
2025-05-05 15:00:00<>METAR SBGL 051500Z 14007KT 9999 FEW025 27/19 Q1019=
2025-05-05 16:00:00<>METAR SBGL 051600Z 12007KT 9999 FEW025 27/18 Q1018=
2025-05-05 17:00:00<>METAR SBGL 051700Z 13010KT 9999 FEW025 26/18 Q1018=
2025-05-05 18:00:00<>METAR SBGL 051800Z 14009KT 9999 FEW025 26/19 Q1017=
2025-05-05 19:00:00<>METAR SBGL 051900Z 13010KT 9999 FEW025 25/19 Q1018=
2025-05-05 20:00:00<>METAR SBGL 052000Z 14009KT 9999 FEW025 24/19 Q1018=
2025-05-05 21:00:00<>METAR SBGL 052100Z 14008KT 9999 FEW025 BKN066 24/19 Q1018=
2025-05-05 22:00:00<>METAR SBGL 052200Z 13007KT 9999 FEW025 SCT066 24/19 Q1018=
2025-05-05 23:00:00<>METAR SBGL 052300Z 10007KT 9999 FEW025 SCT060 23/19 Q1019=
2025-05-06 00:00:00<>METAR SBGL 060000Z 10007KT CAVOK 23/18 Q1019=
2025-05-06 01:00:00<>METAR SBGL 060100Z 11006KT CAVOK 22/18 Q1019=
2025-05-06 02:00:00<>METAR SBGL 060200Z 10004KT CAVOK 22/19 Q1019=
2025-05-06 03:00:00<>METAR SBGL 060300Z 13002KT CAVOK 21/18 Q1019=
2025-05-06 04:00:00<>METAR SBGL 060400Z 12004KT CAVOK 21/19 Q1018=
2025-05-06 05:00:00<>METAR SBGL 060500Z 10003KT 9999 FEW012 20/19 Q1018=
2025-05-06 06:00:00<>METAR SBGL 060600Z 13003KT CAVOK 20/18 Q1017=
2025-05-06 07:00:00<>METAR SBGL 060700Z 07002KT CAVOK 20/18 Q1017=
2025-05-06 08:00:00<>METAR SBGL 060800Z 02002KT CAVOK 20/19 Q1017=
2025-05-06 09:00:00<>METAR SBGL 060900Z 34004KT CAVOK 20/19 Q1018=
2025-05-06 10:00:00<>METAR SBGL 061000Z 33004KT 9000 FEW012 20/18 Q1018=
2025-05-06 11:00:00<>METAR SBGL 061100Z VRB05KT 9999 FEW018 23/20 Q1019=
2025-05-06 12:00:00<>METAR SBGL 061200Z 02003KT 330V060 9999 SCT012 24/19 Q1019=
2025-05-06 13:00:00<>METAR SBGL 061300Z 05005KT 020V090 9999 FEW020 25/20 Q1019=
2025-05-06 14:00:00<>METAR SBGL 061400Z 04007KT 9999 FEW020 26/19 Q1018=
2025-05-06 15:00:00<>METAR SBGL 061500Z 06006KT 010V090 9999 FEW025 27/18 Q1017=
2025-05-06 16:00:00<>METAR SBGL 061600Z 03006KT 340V060 9999 FEW025 27/17 Q1016=
2025-05-06 17:00:00<>METAR SBGL 061700Z 04007KT 9999 FEW030 SCT080 27/17 Q1015=
2025-05-06 18:00:00<>METAR SBGL 061800Z 13007KT 9999 FEW030 SCT065 BKN095 27/18 Q1015=
2025-05-06 19:00:00<>METAR SBGL 061900Z 13008KT 9999 FEW030 SCT080 BKN095 26/19 Q1015=
2025-05-06 20:00:00<>METAR SBGL 062000Z 14007KT 9999 FEW030 BKN100 26/18 Q1016=
2025-05-06 21:00:00<>METAR SBGL 062100Z 14006KT CAVOK 25/19 Q1016=
2025-05-06 22:00:00<>METAR SBGL 062200Z 14006KT CAVOK 25/20 Q1017=
2025-05-06 23:00:00<>METAR SBGL 062300Z 10006KT CAVOK 25/19 Q1017=
2025-05-07 00:00:00<>METAR SBGL 070000Z 09006KT CAVOK 24/19 Q1018=
2025-05-07 01:00:00<>METAR SBGL 070100Z 11004KT CAVOK 24/19 Q1018=
2025-05-07 02:00:00<>METAR SBGL 070200Z 10005KT CAVOK 23/19 Q1017=
2025-05-07 03:00:00<>METAR SBGL 070300Z 15002KT CAVOK 23/19 Q1017=
2025-05-07 04:00:00<>METAR SBGL 070400Z 13003KT 090V200 CAVOK 23/19 Q1017=
2025-05-07 05:00:00<>METAR SBGL 070500Z 12002KT CAVOK 23/19 Q1017=
2025-05-07 06:00:00<>METAR SBGL 070600Z VRB01KT CAVOK 23/19 Q1016=
2025-05-07 07:00:00<>METAR SBGL 070700Z 11003KT CAVOK 22/19 Q1016=
2025-05-07 08:00:00<>METAR SBGL 070800Z VRB02KT CAVOK 22/19 Q1016=
2025-05-07 09:00:00<>METAR SBGL 070900Z VRB03KT CAVOK 22/20 Q1017=
2025-05-07 10:00:00<>METAR SBGL 071000Z 06003KT 020V090 CAVOK 22/20 Q1017=
2025-05-07 11:00:00<>METAR SBGL 071100Z 06004KT CAVOK 24/20 Q1018=
2025-05-07 12:00:00<>METAR SBGL 071200Z 06006KT 9999 FEW012 25/19 Q1018=
2025-05-07 13:00:00<>METAR COR SBGL 071300Z 05005KT 9999 FEW012 26/20 Q1018=
2025-05-07 14:00:00<>METAR SBGL 071400Z 04005KT CAVOK 27/21 Q1017=
2025-05-07 15:00:00<>METAR SBGL 071500Z 36006KT CAVOK 28/20 Q1016=
2025-05-07 16:00:00<>METAR SBGL 071600Z 13004KT 9999 FEW010 28/19 Q1016=
2025-05-07 17:00:00<>METAR SBGL 071700Z 14004KT CAVOK 29/19 Q1015=
2025-05-07 18:00:00<>METAR SBGL 071800Z 12009KT CAVOK 28/20 Q1015=
2025-05-07 19:00:00<>METAR SBGL 071900Z 14008KT 9999 FEW040 28/20 Q1015=
2025-05-07 20:00:00<>METAR SBGL 072000Z 14008KT 9999 FEW040 27/20 Q1015=
2025-05-07 21:00:00<>METAR SBGL 072100Z 13005KT 9999 FEW040 26/21 Q1016=
2025-05-07 22:00:00<>METAR SBGL 072200Z 10007KT 9999 FEW040 26/20 Q1016=
2025-05-07 23:00:00<>METAR SBGL 072300Z 09007KT CAVOK 24/20 Q1017=
2025-05-08 00:00:00<>METAR SBGL 080000Z 09006KT CAVOK 24/20 Q1017=
2025-05-08 01:00:00<>METAR SBGL 080100Z 13004KT CAVOK 23/20 Q1017=
2025-05-08 02:00:00<>METAR SBGL 080200Z VRB02KT CAVOK 23/20 Q1018=
2025-05-08 03:00:00<>METAR SBGL 080300Z 07002KT CAVOK 23/20 Q1018=
2025-05-08 04:00:00<>METAR SBGL 080400Z 07003KT CAVOK 22/20 Q1017=
2025-05-08 05:00:00<>METAR SBGL 080500Z 08004KT CAVOK 22/20 Q1017=
2025-05-08 06:00:00<>METAR SBGL 080600Z 07004KT CAVOK 22/20 Q1017=
2025-05-08 07:00:00<>METAR SBGL 080700Z 07003KT 030V100 CAVOK 21/19 Q1017=
2025-05-08 08:00:00<>METAR SBGL 080800Z 09003KT 9999 FEW008 21/19 Q1017=
2025-05-08 09:00:00<>METAR SBGL 080900Z 10004KT 9999 FEW008 21/19 Q1017=
2025-05-08 10:00:00<>METAR SBGL 081000Z 08003KT 9999 FEW011 21/19 Q1017=
2025-05-08 11:00:00<>METAR SBGL 081100Z 07004KT 9999 FEW011 23/20 Q1018=
2025-05-08 12:00:00<>METAR SBGL 081200Z 36003KT 320V070 CAVOK 24/20 Q1018=
2025-05-08 13:00:00<>METAR SBGL 081300Z 34003KT CAVOK 27/19 Q1018=
2025-05-08 14:00:00<>METAR SBGL 081400Z 09004KT CAVOK 29/19 Q1017=
2025-05-08 15:00:00<>METAR SBGL 081500Z 03008KT CAVOK 28/19 Q1016=
2025-05-08 16:00:00<>METAR SBGL 081600Z 09008KT 9999 FEW026 30/18 Q1015=
2025-05-08 17:00:00<>METAR SBGL 081700Z 14006KT 9999 FEW026 30/19 Q1014=
2025-05-08 18:00:00<>METAR SBGL 081800Z 06005KT 9999 FEW026 30/18 Q1014=
2025-05-08 19:00:00<>METAR SBGL 081900Z 15003KT 9999 FEW026 30/19 Q1014=
2025-05-08 20:00:00<>METAR SBGL 082000Z 11008KT 9999 FEW026 27/20 Q1014=
2025-05-08 21:00:00<>METAR SBGL 082100Z 11008KT 9999 FEW026 26/20 Q1014=
2025-05-08 22:00:00<>METAR SBGL 082200Z 07010KT CAVOK 26/21 Q1015=
2025-05-08 23:00:00<>METAR SBGL 082300Z 08008KT CAVOK 25/22 Q1015=
2025-05-09 00:00:00<>METAR SBGL 090000Z 09005KT CAVOK 24/21 Q1015=
2025-05-09 01:00:00<>METAR SBGL 090100Z 09003KT CAVOK 24/21 Q1015=
2025-05-09 02:00:00<>METAR SBGL 090200Z 16002KT CAVOK 23/21 Q1015=
2025-05-09 03:00:00<>METAR SBGL 090300Z 00000KT CAVOK 23/21 Q1014=
2025-05-09 04:00:00<>METAR SBGL 090400Z 08002KT CAVOK 22/20 Q1014=
2025-05-09 05:00:00<>METAR SBGL 090500Z 00000KT CAVOK 22/20 Q1013=
2025-05-09 06:00:00<>METAR SBGL 090600Z 36003KT CAVOK 22/21 Q1013=
2025-05-09 07:00:00<>METAR SBGL 090700Z 09001KT CAVOK 22/20 Q1013=
2025-05-09 08:00:00<>METAR SBGL 090800Z 08002KT CAVOK 21/20 Q1013=
2025-05-09 09:00:00<>METAR SBGL 090900Z 19003KT 9999 FEW016 22/21 Q1013=
2025-05-09 10:00:00<>METAR SBGL 091000Z 07003KT 9999 FEW016 22/21 Q1013=
2025-05-09 11:00:00<>METAR SBGL 091100Z VRB02KT 9999 FEW016 25/22 Q1014=
2025-05-09 12:00:00<>METAR SBGL 091200Z VRB02KT 9999 FEW030 26/22 Q1015=
2025-05-09 13:00:00<>METAR SBGL 091300Z 32007KT 9999 FEW030 30/20 Q1015=
2025-05-09 14:00:00<>METAR SBGL 091400Z 04006KT 360V070 9999 FEW030 30/21 Q1014=
2025-05-09 15:00:00<>METAR COR SBGL 091500Z 36007KT 9999 FEW030 33/12 Q1013=
2025-05-09 16:00:00<>METAR SBGL 091600Z 32011KT 9999 FEW030 33/17 Q1013=
2025-05-09 17:00:00<>METAR SBGL 091700Z 35012KT 9999 FEW030 33/17 Q1012=
2025-05-09 18:00:00<>METAR SBGL 091800Z 03009KT 9999 FEW030 33/19 Q1012=
2025-05-09 19:00:00<>METAR SBGL 091900Z 03009KT 9999 FEW030 32/20 Q1011=
2025-05-09 20:00:00<>METAR SBGL 092000Z 01013KT 9999 FEW030 31/20 Q1012=
2025-05-09 21:00:00<>METAR SBGL 092100Z 02011KT 9999 FEW030 30/20 Q1012=
2025-05-09 22:00:00<>METAR SBGL 092200Z 01012KT 9999 FEW030 30/19 Q1012=
2025-05-09 23:00:00<>METAR SBGL 092300Z 35008KT 9999 FEW030 29/19 Q1012=
2025-05-10 00:00:00<>METAR SBGL 100000Z 36011KT 9999 FEW030 29/19 Q1012=
2025-05-10 01:00:00<>METAR SBGL 100100Z 35008KT CAVOK 29/19 Q1012=
2025-05-10 02:00:00<>METAR SBGL 100200Z 28009KT CAVOK 27/19 Q1013=
2025-05-10 03:00:00<>METAR SBGL 100300Z 35011KT CAVOK 29/19 Q1012=
2025-05-10 04:00:00<>METAR SBGL 100400Z 34009KT CAVOK 28/19 Q1012=
2025-05-10 05:00:00<>METAR SBGL 100500Z 33008KT CAVOK 27/19 Q1012=
2025-05-10 06:00:00<>METAR SBGL 100600Z 31009KT CAVOK 27/19 Q1012=
2025-05-10 07:00:00<>METAR SBGL 100700Z 36008KT CAVOK 26/19 Q1011=
2025-05-10 08:00:00<>METAR SBGL 100800Z 22004KT CAVOK 24/19 Q1012=
2025-05-10 09:00:00<>METAR SBGL 100900Z 02003KT CAVOK 23/19 Q1013=
2025-05-10 10:00:00<>METAR SBGL 101000Z VRB02KT CAVOK 23/19 Q1014=
2025-05-10 11:00:00<>METAR SBGL 101100Z 03006KT CAVOK 27/22 Q1015=
2025-05-10 12:00:00<>METAR SBGL 101200Z 04003KT 360V090 CAVOK 28/20 Q1016=
2025-05-10 13:00:00<>METAR SBGL 101300Z 04003KT 340V100 CAVOK 31/21 Q1016=
2025-05-10 14:00:00<>METAR SBGL 101400Z 32003KT 270V360 CAVOK 33/20 Q1015=
2025-05-10 15:00:00<>METAR SBGL 101500Z 34005KT 290V020 CAVOK 32/20 Q1014=
2025-05-10 16:00:00<>METAR SBGL 101600Z 25014KT CAVOK 34/18 Q1013=
2025-05-10 17:00:00<>METAR SBGL 101700Z 22017KT 9999 FEW020 31/20 Q1014=
2025-05-10 18:00:00<>METAR SBGL 101800Z 22017KT 9999 FEW025 30/21 Q1014=
2025-05-10 19:00:00<>METAR SBGL 101900Z 23015KT 9999 FEW025 28/21 Q1015=
2025-05-10 20:00:00<>METAR SBGL 102000Z 20012KT 9999 FEW025 SCT040 27/21 Q1016=
2025-05-10 21:00:00<>METAR SBGL 102100Z 20006KT 170V230 9999 FEW020 BKN040 27/21 Q1017=
2025-05-10 22:00:00<>METAR SBGL 102200Z 13008KT 9999 SCT023 BKN045 26/21 Q1018=
2025-05-10 23:00:00<>METAR SBGL 102300Z 15009KT 9999 SCT025 BKN045 25/21 Q1018=
2025-05-11 00:00:00<>METAR SBGL 110000Z 14008KT 9999 SCT025 BKN045 25/20 Q1019=
2025-05-11 01:00:00<>METAR SBGL 110100Z 13004KT 9999 SCT024 BKN040 25/20 Q1019=
2025-05-11 02:00:00<>METAR SBGL 110200Z 10002KT 9999 SCT024 BKN040 25/21 Q1019=
2025-05-11 03:00:00<>METAR SBGL 110300Z 10004KT 9999 SCT020 BKN040 25/21 Q1019=
2025-05-11 04:00:00<>METAR SBGL 110400Z VRB01KT 9999 SCT020 BKN040 25/21 Q1018=
2025-05-11 05:00:00<>METAR SBGL 110500Z 27003KT 6000 -RA FEW013 OVC020 24/21 Q1018=
2025-05-11 06:00:00<>METAR SBGL 110600Z 25007KT 9000 VCSH FEW013 OVC020 23/21 Q1018=
2025-05-11 07:00:00<>METAR SBGL 110700Z 26008KT 9999 VCSH FEW015 OVC020 23/21 Q1018=
2025-05-11 08:00:00<>METAR SBGL 110800Z 27004KT 9999 SCT012 OVC020 23/21 Q1018=
2025-05-11 09:00:00<>METAR SBGL 110900Z 26005KT 6000 -RA FEW007 BKN012 OVC022 22/20 Q1019=
2025-05-11 09:07:00<>SPECI SBGL 110907Z 25010KT 3000 -RA FEW007 BKN012 OVC022 22/20 Q1019=
2025-05-11 10:00:00<>METAR SBGL 111000Z 22011KT 8000 VCSH FEW007 BKN017 OVC025 21/19 Q1020=
2025-05-11 11:00:00<>METAR SBGL 111100Z 24008KT 9999 SCT012 BKN019 OVC040 21/19 Q1021=
2025-05-11 12:00:00<>METAR SBGL 111200Z 24003KT 190V280 8000 3000SE -DZ SCT017 BKN030 OVC035 22/19 Q1023=
2025-05-11 13:00:00<>METAR SBGL 111300Z 29004KT 8000 -RA SCT011 BKN030 OVC040 21/19 Q1023=
2025-05-11 14:00:00<>METAR SBGL 111400Z 24006KT 210V280 4000 -RA BR SCT008 OVC014 22/19 Q1023=
2025-05-11 15:00:00<>METAR SBGL 111500Z 27006KT 3500 -RA BR SCT005 BKN010 OVC017 21/19 Q1022=
2025-05-11 16:00:00<>METAR SBGL 111600Z 25006KT 4000 -RA BR SCT004 BKN014 OVC030 21/20 Q1022=
2025-05-11 16:28:00<>SPECI SBGL 111628Z 14008KT 6000 -RA BKN007 OVC030 21/19 Q1022=
2025-05-11 17:00:00<>METAR SBGL 111700Z 17009KT 140V200 5000 -RA BR SCT005 BKN007 OVC023 20/18 Q1022=
2025-05-11 17:28:00<>SPECI SBGL 111728Z 16006KT 9999 SCT007 BKN022 OVC027 20/16 Q1022=
2025-05-11 18:00:00<>METAR SBGL 111800Z 10004KT 040V120 9999 FEW007 OVC030 21/18 Q1022=
2025-05-11 19:00:00<>METAR SBGL 111900Z 36009KT 9999 FEW006 BKN035 OVC050 21/18 Q1022=
2025-05-11 20:00:00<>METAR SBGL 112000Z 31008KT 9999 FEW008 BKN030 OVC060 20/17 Q1023=
2025-05-11 21:00:00<>METAR SBGL 112100Z 28003KT 250V320 9999 BKN020 OVC035 20/17 Q1023=
2025-05-11 22:00:00<>METAR SBGL 112200Z VRB02KT 9999 BKN018 OVC035 19/17 Q1024=
2025-05-11 23:00:00<>METAR SBGL 112300Z VRB02KT 9000 -DZ BKN008 BKN018 OVC035 20/17 Q1024=
2025-05-11 23:06:00<>SPECI SBGL 112306Z VRB02KT 4000 R33/1400N R10/P2000 R28/P2000 R15/P2000 DZ BKN008 BKN018 OVC035 20/17 Q1025=
2025-05-12 00:00:00<>METAR SBGL 120000Z 32003KT 280V050 9000 -DZ BKN006 BKN018 OVC035 19/18 Q1025 REDZ=
2025-05-12 00:27:00<>SPECI SBGL 120027Z 35003KT 320V040 3700 -DZ BR BKN006 BKN018 OVC035 19/18 Q1025=
2025-05-12 01:00:00<>METAR SBGL 120100Z 35003KT 320V070 8000 BKN006 OVC035 19/18 Q1025=
2025-05-12 02:00:00<>METAR SBGL 120200Z VRB01KT 4500 2000NE DZ BR BKN007 BKN015 OVC035 20/18 Q1025=
2025-05-12 02:30:00<>SPECI SBGL 120230Z 30005KT 270V360 7000 BKN007 BKN015 OVC035 20/18 Q1025 REDZ=
2025-05-12 03:00:00<>METAR SBGL 120300Z 36005KT 7000 BKN007 BKN035 OVC050 19/18 Q1024=
2025-05-12 04:00:00<>METAR SBGL 120400Z 30004KT 280V340 9000 BKN006 BKN035 OVC050 19/18 Q1024=
2025-05-12 05:00:00<>METAR SBGL 120500Z 26003KT 230V290 9999 FEW006 BKN035 OVC066 19/18 Q1024=
2025-05-12 06:00:00<>METAR SBGL 120600Z 21003KT 170V240 9999 FEW007 SCT050 OVC066 20/18 Q1023=
2025-05-12 07:00:00<>METAR SBGL 120700Z 13003KT 100V160 9999 FEW007 BKN033 OVC066 20/18 Q1023=
2025-05-12 07:45:00<>SPECI SBGL 120745Z 15001KT 4500 -DZ FEW007 BKN033 OVC066 20/18 Q1023=
2025-05-12 08:00:00<>METAR SBGL 120800Z 22003KT 4500 -DZ FEW007 BKN033 OVC066 20/18 Q1023=
2025-05-12 08:15:00<>SPECI SBGL 120815Z VRB02KT 8000 FEW007 BKN033 OVC066 20/19 Q1023=
2025-05-12 09:00:00<>METAR SBGL 120900Z 32005KT 290V360 8000 BKN006 BKN030 OVC066 20/18 Q1023=
2025-05-12 09:40:00<>SPECI SBGL 120940Z 30003KT 270V360 9000 SCT006 BKN050 OVC066 20/18 Q1024=
2025-05-12 10:00:00<>METAR SBGL 121000Z 30003KT 280V010 9000 SCT006 BKN050 OVC066 20/18 Q1024=
2025-05-12 11:00:00<>METAR SBGL 121100Z 25002KT 7000 FEW006 BKN035 OVC055 20/18 Q1024=
2025-05-12 12:00:00<>METAR SBGL 121200Z 01003KT 350V060 8000 FEW013 BKN060 21/18 Q1025=
2025-05-12 13:00:00<>METAR SBGL 121300Z 03002KT 9000 FEW014 BKN070 22/18 Q1025=
2025-05-12 14:00:00<>METAR SBGL 121400Z 32002KT CAVOK 24/19 Q1024=
2025-05-12 15:00:00<>METAR SBGL 121500Z 06004KT 9999 FEW023 SCT027 25/18 Q1024=
2025-05-12 16:00:00<>METAR SBGL 121600Z 07005KT 030V120 9999 FEW026 SCT050 BKN070 25/18 Q1023=
2025-05-12 17:00:00<>METAR SBGL 121700Z 13006KT 9999 FEW029 SCT050 BKN070 25/18 Q1022=
2025-05-12 18:00:00<>METAR SBGL 121800Z 13008KT 9999 FEW029 BKN040 24/18 Q1022=
2025-05-12 19:00:00<>METAR SBGL 121900Z 14007KT 9999 FEW029 BKN040 23/18 Q1023=
2025-05-12 20:00:00<>METAR SBGL 122000Z 13008KT 9999 FEW029 BKN040 23/18 Q1023=
2025-05-12 21:00:00<>METAR SBGL 122100Z 14008KT 8000 BKN040 OVC100 22/19 Q1023=
2025-05-12 22:00:00<>METAR SBGL 122200Z 14006KT 9999 BKN040 OVC100 22/19 Q1023=
2025-05-12 23:00:00<>METAR SBGL 122300Z 12005KT 9999 FEW017 OVC055 22/18 Q1024=
2025-05-13 00:00:00<>METAR SBGL 130000Z 10007KT 9999 SCT023 OVC050 22/19 Q1024=
2025-05-13 01:00:00<>METAR SBGL 130100Z 07006KT 9999 SCT036 OVC050 22/19 Q1024=
2025-05-13 02:00:00<>METAR SBGL 130200Z 14003KT 9999 SCT036 BKN050 21/19 Q1023=
2025-05-13 03:00:00<>METAR SBGL 130300Z 11006KT 9999 FEW026 BKN033 21/18 Q1023=
2025-05-13 04:00:00<>METAR SBGL 130400Z 10005KT 9999 FEW030 BKN036 21/18 Q1023=
2025-05-13 05:00:00<>METAR SBGL 130500Z 10005KT 9999 FEW030 BKN036 21/18 Q1022=
2025-05-13 06:00:00<>METAR SBGL 130600Z 17005KT 9999 FEW030 BKN036 20/18 Q1022=
2025-05-13 07:00:00<>METAR SBGL 130700Z 18004KT 8000 FEW030 BKN036 20/18 Q1022=
2025-05-13 08:00:00<>METAR SBGL 130800Z 13004KT 8000 FEW030 BKN050 20/18 Q1021=
2025-05-13 09:00:00<>METAR SBGL 130900Z 02003KT 8000 FEW030 BKN050 20/18 Q1021=
2025-05-13 10:00:00<>METAR SBGL 131000Z 34003KT 9999 FEW030 BKN050 21/19 Q1022=
2025-05-13 11:00:00<>METAR SBGL 131100Z 34003KT 310V030 9999 FEW020 BKN090 21/18 Q1023=
2025-05-13 12:00:00<>METAR SBGL 131200Z 36004KT 340V040 9999 FEW025 BKN095 23/19 Q1023=
2025-05-13 13:00:00<>METAR SBGL 131300Z 36006KT 9999 FEW018 23/19 Q1023=
2025-05-13 14:00:00<>METAR SBGL 131400Z 01007KT 9999 FEW021 25/19 Q1023=
2025-05-13 15:00:00<>METAR SBGL 131500Z 02006KT 360V070 9999 FEW025 BKN080 25/18 Q1022=
2025-05-13 16:00:00<>METAR SBGL 131600Z 13006KT 070V180 9999 FEW030 BKN085 26/16 Q1022=
2025-05-13 17:00:00<>METAR SBGL 131700Z 14010KT 9999 FEW030 SCT080 25/17 Q1021=
2025-05-13 18:00:00<>METAR SBGL 131800Z 14009KT 110V170 9999 FEW030 BKN080 25/17 Q1021=
2025-05-13 19:00:00<>METAR SBGL 131900Z 14007KT 9999 FEW025 BKN080 24/17 Q1021=
2025-05-13 20:00:00<>METAR SBGL 132000Z 15009KT 9999 FEW020 BKN085 23/17 Q1021=
2025-05-13 21:00:00<>METAR SBGL 132100Z 14008KT 9999 FEW035 BKN100 23/17 Q1021=
2025-05-13 22:00:00<>METAR SBGL 132200Z 13009KT 9999 SCT035 22/17 Q1022=
2025-05-13 23:00:00<>METAR SBGL 132300Z 13005KT 9999 SCT040 BKN093 22/17 Q1022=
2025-05-14 00:00:00<>METAR SBGL 140000Z 13006KT 9999 FEW045 BKN090 22/17 Q1022=
2025-05-14 01:00:00<>METAR SBGL 140100Z 11004KT 9999 FEW045 BKN090 21/17 Q1023=
2025-05-14 02:00:00<>METAR SBGL 140200Z 10005KT 9999 FEW045 20/17 Q1023=
2025-05-14 03:00:00<>METAR SBGL 140300Z 12003KT CAVOK 20/20 Q1022=
2025-05-14 04:00:00<>METAR SBGL 140400Z 10004KT CAVOK 20/18 Q1022=
2025-05-14 05:00:00<>METAR SBGL 140500Z 10002KT 9999 FEW008 20/17 Q1021=
2025-05-14 06:00:00<>METAR SBGL 140600Z 34004KT 310V010 9999 FEW008 BKN090 20/18 Q1021=
2025-05-14 07:00:00<>METAR SBGL 140700Z 03002KT CAVOK 20/18 Q1021=
2025-05-14 08:00:00<>METAR SBGL 140800Z 34002KT 9999 FEW048 19/17 Q1021=
2025-05-14 09:00:00<>METAR SBGL 140900Z 35004KT 9999 FEW048 19/17 Q1021=
2025-05-14 10:00:00<>METAR SBGL 141000Z 30002KT 9999 FEW048 18/16 Q1022=
2025-05-14 11:00:00<>METAR SBGL 141100Z 34003KT 9999 FEW020 BKN080 20/17 Q1023=
2025-05-14 12:00:00<>METAR SBGL 141200Z 00000KT 9999 SCT020 BKN083 21/17 Q1024=
2025-05-14 13:00:00<>METAR SBGL 141300Z 01004KT 9999 SCT020 BKN083 22/17 Q1024=
2025-05-14 14:00:00<>METAR SBGL 141400Z 35004KT 9999 FEW030 SCT100 24/17 Q1023=
2025-05-14 15:00:00<>METAR SBGL 141500Z 04005KT 9999 FEW030 26/15 Q1022=
2025-05-14 16:00:00<>METAR SBGL 141600Z 05008KT 9999 SCT030 SCT080 26/14 Q1021=
2025-05-14 17:00:00<>METAR SBGL 141700Z 13009KT 9999 SCT030 SCT080 25/17 Q1021=
2025-05-14 18:00:00<>METAR SBGL 141800Z 13010KT 9999 SCT030 BKN080 24/17 Q1021=
2025-05-14 19:00:00<>METAR SBGL 141900Z 14008KT 9999 VCSH SCT030 BKN080 24/17 Q1021=
2025-05-14 20:00:00<>METAR SBGL 142000Z 11006KT 9999 SCT035 BKN070 23/16 Q1022=
2025-05-14 21:00:00<>METAR SBGL 142100Z 08009KT 9999 FEW035 BKN070 23/17 Q1022=
2025-05-14 22:00:00<>METAR SBGL 142200Z 09012KT 9999 FEW035 BKN070 22/16 Q1023=
2025-05-14 23:00:00<>METAR SBGL 142300Z 10008KT 9999 FEW035 BKN070 22/16 Q1023=
2025-05-15 00:00:00<>METAR SBGL 150000Z 08008KT 9999 FEW035 BKN080 21/17 Q1024=
2025-05-15 01:00:00<>METAR SBGL 150100Z 11006KT 9999 FEW046 BKN080 21/17 Q1024=
2025-05-15 02:00:00<>METAR SBGL 150200Z 09008KT 9999 FEW046 BKN080 21/17 Q1024=
2025-05-15 03:00:00<>METAR SBGL 150300Z 10009KT 9999 SCT040 BKN080 21/17 Q1023=
2025-05-15 04:00:00<>METAR SBGL 150400Z 12006KT 9999 FEW030 BKN040 20/17 Q1023=
2025-05-15 05:00:00<>METAR SBGL 150500Z 15005KT 9999 FEW030 BKN040 20/17 Q1023=
2025-05-15 06:00:00<>METAR SBGL 150600Z 17005KT 8000 FEW030 BKN040 20/17 Q1022=
2025-05-15 07:00:00<>METAR SBGL 150700Z 18005KT 8000 FEW030 BKN040 19/17 Q1022=
2025-05-15 08:00:00<>METAR SBGL 150800Z 11003KT 8000 SCT040 BKN070 20/17 Q1022=
2025-05-15 09:00:00<>METAR SBGL 150900Z 14004KT 9999 SCT040 BKN070 20/17 Q1022=
2025-05-15 10:00:00<>METAR SBGL 151000Z 14005KT 9999 FEW018 BKN066 20/17 Q1022=
2025-05-15 11:00:00<>METAR SBGL 151100Z VRB02KT CAVOK 22/17 Q1023=
2025-05-15 12:00:00<>METAR SBGL 151200Z 01005KT 9999 FEW015 23/17 Q1024=
2025-05-15 13:00:00<>METAR SBGL 151300Z 36006KT 9999 FEW015 24/17 Q1024=
2025-05-15 14:00:00<>METAR SBGL 151400Z 02006KT 9999 FEW020 25/17 Q1023=
2025-05-15 15:00:00<>METAR SBGL 151500Z 03005KT 350V060 9999 FEW025 26/17 Q1022=
2025-05-15 16:00:00<>METAR SBGL 151600Z 13009KT 9999 FEW025 26/17 Q1021=
2025-05-15 17:00:00<>METAR SBGL 151700Z 15009KT 9999 FEW025 26/17 Q1021=
2025-05-15 18:00:00<>METAR SBGL 151800Z 14011KT 9999 FEW025 25/18 Q1020=
2025-05-15 19:00:00<>METAR SBGL 151900Z 14010KT 9999 FEW025 25/18 Q1020=
2025-05-15 20:00:00<>METAR SBGL 152000Z 15009KT 9999 FEW030 23/18 Q1021=
2025-05-15 21:00:00<>METAR SBGL 152100Z 14008KT 9999 FEW030 23/17 Q1021=
2025-05-15 22:00:00<>METAR SBGL 152200Z 14006KT 9999 FEW020 22/18 Q1022=
2025-05-15 23:00:00<>METAR SBGL 152300Z 13004KT 9999 FEW020 22/18 Q1022=
2025-05-16 00:00:00<>METAR SBGL 160000Z 10007KT 9999 FEW020 22/18 Q1022=
2025-05-16 01:00:00<>METAR SBGL 160100Z 10006KT 9999 FEW030 21/18 Q1023=
2025-05-16 02:00:00<>METAR SBGL 160200Z 10006KT 9999 FEW030 21/18 Q1023=
2025-05-16 03:00:00<>METAR SBGL 160300Z 10006KT 9999 FEW030 21/18 Q1023=
2025-05-16 04:00:00<>METAR SBGL 160400Z 13004KT 9999 FEW030 20/18 Q1023=
2025-05-16 05:00:00<>METAR SBGL 160500Z 12005KT 9999 FEW030 20/18 Q1022=
2025-05-16 06:00:00<>METAR SBGL 160600Z 09002KT 9999 FEW030 19/17 Q1022=
2025-05-16 07:00:00<>METAR SBGL 160700Z 35002KT 9999 FEW035 19/17 Q1022=
2025-05-16 08:00:00<>METAR SBGL 160800Z 02002KT 9999 FEW045 19/17 Q1022=
2025-05-16 09:00:00<>METAR SBGL 160900Z 31001KT 9999 FEW045 19/17 Q1022=
2025-05-16 10:00:00<>METAR SBGL 161000Z 01002KT 8000 FEW045 19/17 Q1023=
2025-05-16 11:00:00<>METAR SBGL 161100Z VRB01KT CAVOK 22/18 Q1024=
2025-05-16 12:00:00<>METAR SBGL 161200Z VRB02KT 9999 FEW025 23/18 Q1024=
2025-05-16 13:00:00<>METAR SBGL 161300Z VRB02KT 9999 FEW030 24/17 Q1024=
2025-05-16 14:00:00<>METAR SBGL 161400Z 07007KT 030V110 9999 FEW030 25/16 Q1023=
2025-05-16 15:00:00<>METAR SBGL 161500Z 07007KT 030V110 9999 FEW035 27/17 Q1022=
2025-05-16 16:00:00<>METAR SBGL 161600Z 06007KT 030V090 9999 FEW035 27/17 Q1021=
2025-05-16 17:00:00<>METAR SBGL 161700Z 04008KT 010V070 9999 FEW035 27/18 Q1020=
2025-05-16 18:00:00<>METAR SBGL 161800Z 13007KT 9999 FEW035 27/16 Q1020=
2025-05-16 19:00:00<>METAR SBGL 161900Z 15009KT 9999 FEW035 26/18 Q1019=
2025-05-16 20:00:00<>METAR SBGL 162000Z 15008KT CAVOK 25/17 Q1020=
2025-05-16 21:00:00<>METAR SBGL 162100Z 14008KT CAVOK 24/18 Q1020=
2025-05-16 22:00:00<>METAR SBGL 162200Z 11009KT 9999 SCT045 24/16 Q1020=
2025-05-16 23:00:00<>METAR SBGL 162300Z 09007KT 9999 SCT046 23/17 Q1021=
2025-05-17 00:00:00<>METAR SBGL 170000Z 13004KT 100V160 CAVOK 22/17 Q1021=
2025-05-17 01:00:00<>METAR SBGL 170100Z 13004KT 090V150 CAVOK 21/17 Q1021=
2025-05-17 02:00:00<>METAR SBGL 170200Z 10004KT CAVOK 21/18 Q1021=
2025-05-17 03:00:00<>METAR SBGL 170300Z VRB01KT CAVOK 20/17 Q1021=
2025-05-17 04:00:00<>METAR SBGL 170400Z 00000KT CAVOK 20/17 Q1021=
2025-05-17 05:00:00<>METAR SBGL 170500Z 11003KT CAVOK 19/17 Q1021=
2025-05-17 06:00:00<>METAR SBGL 170600Z 11002KT CAVOK 19/17 Q1020=
2025-05-17 07:00:00<>METAR SBGL 170700Z 08002KT CAVOK 18/16 Q1020=
2025-05-17 08:00:00<>METAR SBGL 170800Z VRB02KT CAVOK 18/17 Q1020=
2025-05-17 09:00:00<>METAR SBGL 170900Z VRB02KT CAVOK 18/16 Q1021=
2025-05-17 10:00:00<>METAR SBGL 171000Z 33004KT 310V040 CAVOK 19/17 Q1021=
2025-05-17 11:00:00<>METAR SBGL 171100Z VRB02KT CAVOK 21/18 Q1022=
2025-05-17 12:00:00<>METAR SBGL 171200Z 17002KT CAVOK 23/19 Q1022=
2025-05-17 13:00:00<>METAR SBGL 171300Z 02006KT 360V080 CAVOK 23/19 Q1022=
2025-05-17 14:00:00<>METAR SBGL 171400Z 12002KT CAVOK 26/16 Q1021=
2025-05-17 15:00:00<>METAR SBGL 171500Z 34004KT 300V080 CAVOK 26/17 Q1020=
2025-05-17 16:00:00<>METAR SBGL 171600Z 14004KT CAVOK 27/16 Q1019=
2025-05-17 17:00:00<>METAR SBGL 171700Z 11007KT CAVOK 28/17 Q1018=
2025-05-17 18:00:00<>METAR SBGL 171800Z 11006KT CAVOK 27/18 Q1018=
2025-05-17 19:00:00<>METAR SBGL 171900Z 11006KT CAVOK 27/17 Q1018=
2025-05-17 20:00:00<>METAR SBGL 172000Z 13005KT CAVOK 25/18 Q1017=
2025-05-17 21:00:00<>METAR SBGL 172100Z 12005KT CAVOK 24/19 Q1018=
2025-05-17 22:00:00<>METAR SBGL 172200Z 13003KT CAVOK 22/19 Q1018=
2025-05-17 23:00:00<>METAR SBGL 172300Z 13006KT CAVOK 23/19 Q1019=
2025-05-18 00:00:00<>METAR SBGL 180000Z 12007KT CAVOK 23/19 Q1019=
2025-05-18 01:00:00<>METAR SBGL 180100Z 09005KT CAVOK 22/18 Q1019=
2025-05-18 02:00:00<>METAR SBGL 180200Z 11006KT CAVOK 21/18 Q1019=
2025-05-18 03:00:00<>METAR SBGL 180300Z 10004KT CAVOK 20/18 Q1019=
2025-05-18 04:00:00<>METAR SBGL 180400Z 10005KT CAVOK 20/18 Q1018=
2025-05-18 05:00:00<>METAR SBGL 180500Z 11004KT CAVOK 19/17 Q1018=
2025-05-18 06:00:00<>METAR SBGL 180600Z 07003KT CAVOK 19/17 Q1018=
2025-05-18 07:00:00<>METAR SBGL 180700Z 07003KT CAVOK 19/17 Q1018=
2025-05-18 08:00:00<>METAR SBGL 180800Z 01003KT CAVOK 18/17 Q1018=
2025-05-18 09:00:00<>METAR SBGL 180900Z VRB01KT CAVOK 18/17 Q1019=
2025-05-18 10:00:00<>METAR SBGL 181000Z VRB01KT CAVOK 18/17 Q1019=
2025-05-18 11:00:00<>METAR SBGL 181100Z 17003KT CAVOK 22/18 Q1020=
2025-05-18 12:00:00<>METAR SBGL 181200Z 12003KT CAVOK 23/19 Q1020=
2025-05-18 13:00:00<>METAR SBGL 181300Z 01004KT CAVOK 24/19 Q1020=
2025-05-18 14:00:00<>METAR SBGL 181400Z 01006KT CAVOK 26/18 Q1019=
2025-05-18 15:00:00<>METAR SBGL 181500Z 33003KT CAVOK 28/17 Q1019=
2025-05-18 16:00:00<>METAR SBGL 181600Z 14008KT CAVOK 28/16 Q1018=
2025-05-18 17:00:00<>METAR SBGL 181700Z 06007KT CAVOK 29/16 Q1017=
2025-05-18 18:00:00<>METAR SBGL 181800Z 01005KT CAVOK 29/16 Q1017=
2025-05-18 19:00:00<>METAR SBGL 181900Z 14006KT CAVOK 27/17 Q1017=
2025-05-18 20:00:00<>METAR SBGL 182000Z 14007KT CAVOK 26/17 Q1017=
2025-05-18 21:00:00<>METAR SBGL 182100Z 14007KT CAVOK 24/17 Q1018=
2025-05-18 22:00:00<>METAR SBGL 182200Z 13006KT CAVOK 24/18 Q1018=
2025-05-18 23:00:00<>METAR SBGL 182300Z 07002KT CAVOK 23/18 Q1018=
2025-05-19 00:00:00<>METAR SBGL 190000Z 12002KT CAVOK 22/18 Q1019=
2025-05-19 01:00:00<>METAR SBGL 190100Z 12002KT CAVOK 22/18 Q1019=
2025-05-19 02:00:00<>METAR SBGL 190200Z 10004KT CAVOK 21/19 Q1018=
2025-05-19 03:00:00<>METAR SBGL 190300Z 07003KT CAVOK 20/18 Q1018=
2025-05-19 04:00:00<>METAR SBGL 190400Z 07003KT CAVOK 20/18 Q1018=
2025-05-19 05:00:00<>METAR SBGL 190500Z 09002KT CAVOK 20/18 Q1018=
2025-05-19 06:00:00<>METAR SBGL 190600Z 08001KT CAVOK 19/17 Q1017=
2025-05-19 07:00:00<>METAR SBGL 190700Z 09003KT CAVOK 18/16 Q1017=
2025-05-19 08:00:00<>METAR SBGL 190800Z 09002KT CAVOK 18/16 Q1017=
2025-05-19 09:00:00<>METAR SBGL 190900Z 15002KT CAVOK 18/16 Q1017=
2025-05-19 10:00:00<>METAR SBGL 191000Z 08003KT CAVOK 19/17 Q1018=
2025-05-19 11:00:00<>METAR SBGL 191100Z VRB01KT CAVOK 23/18 Q1019=
2025-05-19 12:00:00<>METAR SBGL 191200Z 30003KT 350V060 CAVOK 24/18 Q1019=
2025-05-19 13:00:00<>METAR SBGL 191300Z 35004KT CAVOK 25/19 Q1019=
2025-05-19 14:00:00<>METAR SBGL 191400Z 05003KT 350V090 CAVOK 27/18 Q1018=
2025-05-19 15:00:00<>METAR SBGL 191500Z 01004KT 320V040 CAVOK 28/16 Q1017=
2025-05-19 16:00:00<>METAR SBGL 191600Z 06004KT 010V100 CAVOK 30/17 Q1016=
2025-05-19 17:00:00<>METAR SBGL 191700Z 05005KT CAVOK 30/16 Q1016=
2025-05-19 18:00:00<>METAR SBGL 191800Z 06005KT CAVOK 30/16 Q1016=
2025-05-19 19:00:00<>METAR SBGL 191900Z 10004KT 080V140 CAVOK 29/17 Q1016=
2025-05-19 20:00:00<>METAR SBGL 192000Z 13006KT CAVOK 26/18 Q1016=
2025-05-19 21:00:00<>METAR SBGL 192100Z 14005KT CAVOK 25/17 Q1017=
2025-05-19 22:00:00<>METAR SBGL 192200Z 02005KT 340V080 CAVOK 26/17 Q1017=
2025-05-19 23:00:00<>METAR SBGL 192300Z 06005KT CAVOK 23/17 Q1017=
2025-05-20 00:00:00<>METAR SBGL 200000Z 08004KT CAVOK 21/18 Q1018=
2025-05-20 01:00:00<>METAR SBGL 200100Z 06004KT CAVOK 22/18 Q1018=
2025-05-20 02:00:00<>METAR SBGL 200200Z 07003KT CAVOK 21/18 Q1018=
2025-05-20 03:00:00<>METAR SBGL 200300Z 08003KT CAVOK 20/18 Q1018=
2025-05-20 04:00:00<>METAR SBGL 200400Z 09003KT CAVOK 20/17 Q1017=
2025-05-20 05:00:00<>METAR SBGL 200500Z 18003KT CAVOK 19/17 Q1017=
2025-05-20 06:00:00<>METAR SBGL 200600Z 25003KT CAVOK 19/17 Q1017=
2025-05-20 07:00:00<>METAR SBGL 200700Z 36003KT 8000 NSC 18/17 Q1016=
2025-05-20 08:00:00<>METAR SBGL 200800Z 07003KT 8000 NSC 18/16 Q1017=
2025-05-20 09:00:00<>METAR SBGL 200900Z 06002KT 8000 NSC 18/17 Q1017=
2025-05-20 10:00:00<>METAR SBGL 201000Z 06003KT 8000 NSC 18/16 Q1018=
2025-05-20 11:00:00<>METAR SBGL 201100Z 02004KT 350V060 7000 NSC 21/18 Q1019=
2025-05-20 12:00:00<>METAR SBGL 201200Z 03003KT 330V090 8000 NSC 23/19 Q1019=
2025-05-20 13:00:00<>METAR SBGL 201300Z VRB02KT 8000 NSC 25/18 Q1019=
2025-05-20 14:00:00<>METAR SBGL 201400Z 36003KT 320V040 9000 NSC 27/16 Q1018=
2025-05-20 15:00:00<>METAR SBGL 201500Z 05005KT 020V090 CAVOK 28/17 Q1017=
2025-05-20 16:00:00<>METAR SBGL 201600Z 05003KT 340V090 CAVOK 30/14 Q1016=
2025-05-20 17:00:00<>METAR SBGL 201700Z 04004KT 350V080 CAVOK 30/14 Q1015=
2025-05-20 18:00:00<>METAR SBGL 201800Z 04005KT CAVOK 30/15 Q1015=
2025-05-20 19:00:00<>METAR SBGL 201900Z 12006KT CAVOK 28/16 Q1015=
2025-05-20 20:00:00<>METAR SBGL 202000Z 13008KT CAVOK 26/17 Q1015=
2025-05-20 21:00:00<>METAR SBGL 202100Z 13007KT CAVOK 24/17 Q1015=
2025-05-20 22:00:00<>METAR SBGL 202200Z 14007KT CAVOK 24/17 Q1016=
2025-05-20 23:00:00<>METAR SBGL 202300Z 08004KT CAVOK 23/18 Q1016=
2025-05-21 00:00:00<>METAR SBGL 210000Z 12003KT CAVOK 21/17 Q1016=
2025-05-21 01:00:00<>METAR SBGL 210100Z 07004KT CAVOK 21/18 Q1017=
2025-05-21 02:00:00<>METAR SBGL 210200Z 07002KT CAVOK 20/17 Q1017=
2025-05-21 03:00:00<>METAR SBGL 210300Z 09003KT CAVOK 19/17 Q1017=
2025-05-21 04:00:00<>METAR SBGL 210400Z 01002KT CAVOK 19/17 Q1016=
2025-05-21 05:00:00<>METAR SBGL 210500Z 34002KT 9000 NSC 20/17 Q1016=
2025-05-21 06:00:00<>METAR SBGL 210600Z 07001KT 9000 NSC 18/16 Q1016=
2025-05-21 07:00:00<>METAR SBGL 210700Z 04003KT 020V080 9000 NSC 17/16 Q1016=
2025-05-21 08:00:00<>METAR SBGL 210800Z 36004KT 320V020 CAVOK 18/15 Q1016=
2025-05-21 09:00:00<>METAR SBGL 210900Z VRB02KT 9000 NSC 18/15 Q1016=
2025-05-21 10:00:00<>METAR SBGL 211000Z 36004KT 9000 NSC 18/15 Q1017=
2025-05-21 11:00:00<>METAR SBGL 211100Z 36004KT CAVOK 21/16 Q1018=
2025-05-21 12:00:00<>METAR SBGL 211200Z 01004KT 340V040 CAVOK 23/16 Q1018=
2025-05-21 13:00:00<>METAR SBGL 211300Z 04005KT 360V070 CAVOK 24/16 Q1018=
2025-05-21 14:00:00<>METAR SBGL 211400Z VRB02KT CAVOK 27/16 Q1018=
2025-05-21 15:00:00<>METAR SBGL 211500Z 36005KT 330V030 9000 NSC 28/15 Q1017=
2025-05-21 16:00:00<>METAR SBGL 211600Z 12005KT 090V150 8000 FEW030 28/18 Q1016=
2025-05-21 17:00:00<>METAR SBGL 211700Z 13008KT 9999 FEW030 28/19 Q1015=
2025-05-21 18:00:00<>METAR SBGL 211800Z 13007KT 9999 FEW030 28/18 Q1015=
2025-05-21 19:00:00<>METAR SBGL 211900Z 13006KT CAVOK 28/19 Q1016=
2025-05-21 20:00:00<>METAR SBGL 212000Z 19005KT CAVOK 26/19 Q1016=
2025-05-21 21:00:00<>METAR SBGL 212100Z 25006KT CAVOK 25/19 Q1017=
2025-05-21 22:00:00<>METAR SBGL 212200Z 25007KT CAVOK 24/18 Q1017=
2025-05-21 23:00:00<>METAR SBGL 212300Z 31005KT CAVOK 23/18 Q1018=
2025-05-22 00:00:00<>METAR SBGL 220000Z 26004KT CAVOK 23/18 Q1018=
2025-05-22 01:00:00<>METAR SBGL 220100Z VRB01KT CAVOK 22/18 Q1018=
2025-05-22 02:00:00<>METAR SBGL 220200Z VRB02KT 9000 NSC 21/18 Q1018=
2025-05-22 03:00:00<>METAR SBGL 220300Z 06001KT 8000 NSC 20/18 Q1018=
2025-05-22 04:00:00<>METAR SBGL 220400Z 07003KT 8000 NSC 20/18 Q1018=
2025-05-22 05:00:00<>METAR SBGL 220500Z 05003KT 8000 NSC 19/18 Q1017=
2025-05-22 06:00:00<>METAR SBGL 220600Z 01001KT 8000 NSC 20/18 Q1017=
2025-05-22 07:00:00<>METAR SBGL 220700Z VRB02KT 7000 NSC 18/17 Q1017=
2025-05-22 08:00:00<>METAR SBGL 220800Z 00000KT 7000 NSC 19/18 Q1017=
2025-05-22 09:00:00<>METAR SBGL 220900Z VRB02KT 6000 NSC 19/17 Q1018=
2025-05-22 09:13:00<>SPECI SBGL 220913Z 34002KT 4500 BR NSC 19/17 Q1018=
2025-05-22 10:00:00<>METAR SBGL 221000Z 05002KT 5000 BR NSC 19/17 Q1019=
2025-05-22 11:00:00<>METAR SBGL 221100Z 33004KT 6000 NSC 21/19 Q1020=
2025-05-22 12:00:00<>METAR SBGL 221200Z 03002KT 6000 NSC 24/19 Q1020=
2025-05-22 13:00:00<>METAR SBGL 221300Z VRB02KT 7000 NSC 24/19 Q1020=
2025-05-22 14:00:00<>METAR SBGL 221400Z 34003KT 290V030 8000 NSC 26/18 Q1019=
2025-05-22 15:00:00<>METAR COR SBGL 221500Z 13005KT 070V170 CAVOK 27/15 Q1016=
2025-05-22 16:00:00<>METAR SBGL 221600Z 13005KT 070V170 CAVOK 27/15 Q1016=
2025-05-22 17:00:00<>METAR SBGL 221700Z 07006KT 020V100 CAVOK 28/15 Q1015=
2025-05-22 18:00:00<>METAR SBGL 221800Z 03006KT CAVOK 28/17 Q1015=
2025-05-22 19:00:00<>METAR SBGL 221900Z 11006KT CAVOK 26/18 Q1015=
2025-05-22 20:00:00<>METAR SBGL 222000Z 15006KT CAVOK 24/19 Q1016=
2025-05-22 21:00:00<>METAR SBGL 222100Z 13006KT CAVOK 24/20 Q1016=
2025-05-22 22:00:00<>METAR SBGL 222200Z 13006KT CAVOK 23/20 Q1017=
2025-05-22 23:00:00<>METAR SBGL 222300Z VRB02KT CAVOK 23/20 Q1018=
2025-05-23 00:00:00<>METAR SBGL 230000Z 25008KT 9000 NSC 23/19 Q1018=
2025-05-23 01:00:00<>METAR SBGL 230100Z VRB04KT 8000 FEW030 22/19 Q1018=
2025-05-23 02:00:00<>METAR SBGL 230200Z 05005KT 9999 SCT030 22/19 Q1018=
2025-05-23 03:00:00<>METAR SBGL 230300Z VRB02KT 8000 FEW017 BKN035 22/19 Q1018=
2025-05-23 04:00:00<>METAR SBGL 230400Z 32005KT 6000 FEW013 SCT020 22/19 Q1017=
2025-05-23 05:00:00<>METAR SBGL 230500Z VRB01KT 6000 FEW013 21/19 Q1017=
2025-05-23 06:00:00<>METAR SBGL 230600Z 30004KT 6000 NSC 20/18 Q1017=
2025-05-23 07:00:00<>METAR SBGL 230700Z 32004KT 6000 NSC 20/18 Q1017=
2025-05-23 08:00:00<>METAR SBGL 230800Z 32005KT 7000 NSC 21/19 Q1017=
2025-05-23 09:00:00<>METAR SBGL 230900Z 32005KT 7000 NSC 20/19 Q1018=
2025-05-23 10:00:00<>METAR SBGL 231000Z VRB02KT 5000 BR NSC 21/19 Q1019=
2025-05-23 11:00:00<>METAR SBGL 231100Z 36005KT 6000 FEW009 BKN060 22/19 Q1019=
2025-05-23 12:00:00<>METAR SBGL 231200Z 34004KT 7000 FEW010 SCT050 24/19 Q1020=
2025-05-23 13:00:00<>METAR SBGL 231300Z 36005KT 8000 FEW010 SCT050 25/19 Q1020=
2025-05-23 14:00:00<>METAR SBGL 231400Z 24007KT 9000 FEW015 SCT030 BKN050 27/19 Q1019=
2025-05-23 14:43:00<>SPECI SBGL 231443Z 13007KT 4500 -RA HZ FEW010 BKN025 BKN030 25/20 Q1019=
2025-05-23 15:00:00<>METAR SBGL 231500Z 12006KT 100V160 6000 -RA FEW010 BKN023 BKN030 24/20 Q1019=
2025-05-23 16:00:00<>METAR SBGL 231600Z 19004KT 170V250 7000 FEW010 BKN017 BKN030 24/21 Q1019=
2025-05-23 17:00:00<>METAR SBGL 231700Z 22006KT 9000 VCSH SCT017 BKN021 25/20 Q1018=
2025-05-23 18:00:00<>METAR SBGL 231800Z 12010KT 8000 VCSH FEW017 SCT021 OVC050 24/20 Q1019=
2025-05-23 19:00:00<>METAR SBGL 231900Z 14006KT 9000 VCSH FEW019 BKN046 OVC100 23/20 Q1019=
2025-05-23 20:00:00<>METAR SBGL 232000Z 11005KT 6000 VCSH BKN017 SCT026 BKN100 23/20 Q1019=
2025-05-23 20:25:00<>SPECI SBGL 232025Z 14006KT 3000 -RA BR BKN011 BKN015 OVC019 23/20 Q1019=
2025-05-23 21:00:00<>METAR SBGL 232100Z 15008KT 4500 -RA BR BKN009 BKN013 OVC019 22/21 Q1020=
2025-05-23 22:00:00<>METAR SBGL 232200Z 14012KT 6000 -RA SCT013 BKN019 OVC050 22/20 Q1020=
2025-05-23 23:00:00<>METAR SBGL 232300Z 16011KT 8000 VCSH SCT013 BKN017 OVC050 22/20 Q1021=
2025-05-24 00:00:00<>METAR SBGL 240000Z 14010KT 8000 -RA FEW018 OVC035 22/19 Q1022=
2025-05-24 01:00:00<>METAR SBGL 240100Z 10005KT 7000 -RA BKN016 BKN021 OVC050 22/20 Q1022=
2025-05-24 02:00:00<>METAR SBGL 240200Z 11005KT 7000 -RA BKN018 OVC048 22/19 Q1022=
2025-05-24 03:00:00<>METAR SBGL 240300Z 10003KT 7000 -RA BKN018 OVC048 21/19 Q1022=
2025-05-24 04:00:00<>METAR SBGL 240400Z 08004KT 7000 -RA BKN017 BKN055 OVC100 21/19 Q1021=
2025-05-24 05:00:00<>METAR SBGL 240500Z 06006KT 9999 FEW009 SCT026 OVC100 21/19 Q1021=
2025-05-24 06:00:00<>METAR SBGL 240600Z 06005KT 7000 FEW008 SCT028 BKN040 21/19 Q1021=
2025-05-24 07:00:00<>METAR SBGL 240700Z 08004KT 7000 FEW010 BKN035 20/19 Q1021=
2025-05-24 08:00:00<>METAR SBGL 240800Z 09005KT 2500 -RA BR BKN007 BKN025 20/19 Q1021=
2025-05-24 09:00:00<>METAR SBGL 240900Z 08005KT 3000 -RA BR BKN010 BKN020 OVC035 20/19 Q1022=
2025-05-24 10:00:00<>METAR SBGL 241000Z 10004KT 7000 BKN007 OVC040 20/18 Q1023=
2025-05-24 10:27:00<>SPECI SBGL 241027Z 06004KT 9999 SCT007 SCT023 BKN040 20/19 Q1023=
2025-05-24 11:00:00<>METAR SBGL 241100Z 05006KT 9999 BKN008 SCT023 BKN040 20/19 Q1023=
2025-05-24 12:00:00<>METAR SBGL 241200Z 05006KT 9999 SCT009 SCT023 BKN040 21/18 Q1024=
2025-05-24 13:00:00<>METAR SBGL 241300Z 02005KT 350V060 9999 FEW011 BKN046 22/18 Q1024=
2025-05-24 14:00:00<>METAR SBGL 241400Z 05007KT 9999 FEW015 BKN050 22/18 Q1024=
2025-05-24 15:00:00<>METAR SBGL 241500Z 33003KT 290V020 9999 FEW020 BKN050 23/18 Q1023=
2025-05-24 16:00:00<>METAR SBGL 241600Z 36004KT 330V040 9999 FEW023 BKN050 23/17 Q1023=
2025-05-24 17:00:00<>METAR SBGL 241700Z 10004KT 060V130 9999 FEW015 BKN050 23/17 Q1022=
2025-05-24 18:00:00<>METAR SBGL 241800Z 02003KT 340V040 9999 FEW015 BKN050 23/17 Q1022=
2025-05-24 19:00:00<>METAR SBGL 241900Z 12004KT 9999 FEW020 BKN050 23/16 Q1022=
2025-05-24 20:00:00<>METAR SBGL 242000Z 13004KT 9999 FEW020 BKN050 23/15 Q1023=
2025-05-24 21:00:00<>METAR SBGL 242100Z 14006KT 9999 FEW020 BKN050 22/14 Q1023=
2025-05-24 22:00:00<>METAR SBGL 242200Z 12004KT 9999 FEW020 BKN050 22/15 Q1023=
2025-05-24 23:00:00<>METAR SBGL 242300Z 12007KT 9999 FEW020 BKN066 22/15 Q1023=
2025-05-25 00:00:00<>METAR SBGL 250000Z 09005KT 9999 FEW020 BKN066 21/16 Q1024=
2025-05-25 01:00:00<>METAR SBGL 250100Z 06005KT 9999 FEW020 BKN066 21/18 Q1024=
2025-05-25 02:00:00<>METAR SBGL 250200Z 05004KT 9999 FEW020 BKN066 21/17 Q1024=
2025-05-25 03:00:00<>METAR SBGL 250300Z 11004KT 9999 FEW020 BKN066 21/18 Q1023=
2025-05-25 04:00:00<>METAR SBGL 250400Z 09005KT 9999 FEW020 BKN066 20/18 Q1023=
2025-05-25 05:00:00<>METAR SBGL 250500Z 08004KT 9999 FEW020 BKN066 20/17 Q1023=
2025-05-25 06:00:00<>METAR SBGL 250600Z 11003KT 9999 FEW020 BKN066 20/17 Q1022=
2025-05-25 07:00:00<>METAR SBGL 250700Z 18003KT 8000 FEW020 BKN066 19/17 Q1022=
2025-05-25 08:00:00<>METAR SBGL 250800Z 04003KT 8000 FEW020 BKN066 19/17 Q1022=
2025-05-25 09:00:00<>METAR COR SBGL 250900Z 33005KT 9999 FEW020 19/17 Q1022=
2025-05-25 10:00:00<>METAR SBGL 251000Z 34004KT CAVOK 19/17 Q1022=
2025-05-25 11:00:00<>METAR SBGL 251100Z VRB02KT 9999 FEW017 20/17 Q1023=
2025-05-25 12:00:00<>METAR SBGL 251200Z 02004KT 340V060 CAVOK 22/17 Q1023=
2025-05-25 13:00:00<>METAR SBGL 251300Z 35005KT 330V030 9999 FEW018 23/18 Q1023=
2025-05-25 14:00:00<>METAR SBGL 251400Z 07006KT 030V090 9999 FEW020 25/16 Q1022=
2025-05-25 15:00:00<>METAR SBGL 251500Z 03006KT 9999 FEW025 25/16 Q1022=
2025-05-25 16:00:00<>METAR SBGL 251600Z 02006KT 9999 FEW025 25/17 Q1020=
2025-05-25 17:00:00<>METAR SBGL 251700Z 04006KT 9999 FEW025 26/16 Q1020=
2025-05-25 18:00:00<>METAR SBGL 251800Z 13006KT 100V160 9999 FEW025 26/18 Q1019=
2025-05-25 19:00:00<>METAR SBGL 251900Z 13006KT 110V170 9999 FEW025 25/18 Q1019=
2025-05-25 20:00:00<>METAR SBGL 252000Z 14006KT 9999 FEW025 24/19 Q1019=
2025-05-25 21:00:00<>METAR SBGL 252100Z 15005KT CAVOK 23/19 Q1020=
2025-05-25 22:00:00<>METAR SBGL 252200Z 11005KT CAVOK 23/19 Q1020=
2025-05-25 23:00:00<>METAR SBGL 252300Z 11006KT CAVOK 23/17 Q1021=
2025-05-26 00:00:00<>METAR SBGL 260000Z 11006KT 090V150 CAVOK 22/17 Q1021=
2025-05-26 01:00:00<>METAR SBGL 260100Z VRB02KT CAVOK 21/18 Q1021=
2025-05-26 02:00:00<>METAR SBGL 260200Z 10004KT CAVOK 21/17 Q1021=
2025-05-26 03:00:00<>METAR SBGL 260300Z VRB02KT CAVOK 20/17 Q1020=
2025-05-26 04:00:00<>METAR SBGL 260400Z 13003KT CAVOK 19/17 Q1020=
2025-05-26 05:00:00<>METAR SBGL 260500Z 08002KT CAVOK 19/17 Q1020=
2025-05-26 06:00:00<>METAR SBGL 260600Z 07001KT CAVOK 19/17 Q1020=
2025-05-26 07:00:00<>METAR SBGL 260700Z VRB02KT CAVOK 18/17 Q1019=
2025-05-26 08:00:00<>METAR SBGL 260800Z 02002KT CAVOK 18/17 Q1019=
2025-05-26 09:00:00<>METAR SBGL 260900Z VRB01KT CAVOK 18/17 Q1020=
2025-05-26 10:00:00<>METAR SBGL 261000Z VRB02KT CAVOK 18/17 Q1020=
2025-05-26 11:00:00<>METAR SBGL 261100Z 32003KT 280V360 9999 FEW005 20/18 Q1021=
2025-05-26 12:00:00<>METAR SBGL 261200Z VRB02KT 9999 FEW020 22/18 Q1022=
2025-05-26 13:00:00<>METAR SBGL 261300Z 03004KT 340V090 CAVOK 23/18 Q1021=
2025-05-26 14:00:00<>METAR SBGL 261400Z 02004KT 280V080 CAVOK 25/18 Q1021=
2025-05-26 15:00:00<>METAR SBGL 261500Z 04004KT 350V090 9999 FEW020 26/17 Q1020=
2025-05-26 16:00:00<>METAR SBGL 261600Z 36006KT 9999 FEW025 27/18 Q1019=
2025-05-26 17:00:00<>METAR SBGL 261700Z 02005KT 330V050 9999 FEW025 26/18 Q1018=
2025-05-26 18:00:00<>METAR SBGL 261800Z 02005KT 350V060 9999 FEW025 26/17 Q1018=
2025-05-26 19:00:00<>METAR SBGL 261900Z 05003KT 9999 FEW025 26/17 Q1018=
2025-05-26 20:00:00<>METAR SBGL 262000Z 08003KT 9999 FEW025 25/18 Q1018=
2025-05-26 21:00:00<>METAR SBGL 262100Z 11004KT CAVOK 24/18 Q1018=
2025-05-26 22:00:00<>METAR SBGL 262200Z 11005KT CAVOK 23/19 Q1019=
2025-05-26 23:00:00<>METAR SBGL 262300Z 10006KT CAVOK 23/19 Q1019=
2025-05-27 00:00:00<>METAR SBGL 270000Z 09008KT CAVOK 22/19 Q1019=
2025-05-27 01:00:00<>METAR SBGL 270100Z 10006KT CAVOK 22/19 Q1020=
2025-05-27 02:00:00<>METAR SBGL 270200Z 11004KT CAVOK 21/19 Q1019=
2025-05-27 03:00:00<>METAR SBGL 270300Z 13002KT CAVOK 20/18 Q1019=
2025-05-27 04:00:00<>METAR SBGL 270400Z 13002KT CAVOK 19/18 Q1019=
2025-05-27 05:00:00<>METAR SBGL 270500Z 14002KT CAVOK 19/18 Q1018=
2025-05-27 06:00:00<>METAR SBGL 270600Z 00000KT CAVOK 19/18 Q1018=
2025-05-27 07:00:00<>METAR SBGL 270700Z 00000KT CAVOK 19/17 Q1017=
2025-05-27 08:00:00<>METAR SBGL 270800Z VRB01KT CAVOK 19/17 Q1018=
2025-05-27 09:00:00<>METAR SBGL 270900Z 00000KT CAVOK 19/18 Q1018=
2025-05-27 10:00:00<>METAR SBGL 271000Z 07002KT CAVOK 19/17 Q1018=
2025-05-27 11:00:00<>METAR SBGL 271100Z 07003KT CAVOK 22/20 Q1019=
2025-05-27 12:00:00<>METAR SBGL 271200Z 36006KT CAVOK 23/19 Q1019=
2025-05-27 13:00:00<>METAR SBGL 271300Z 01004KT CAVOK 24/19 Q1019=
2025-05-27 14:00:00<>METAR SBGL 271400Z 07004KT CAVOK 26/19 Q1018=
2025-05-27 15:00:00<>METAR SBGL 271500Z 36006KT CAVOK 27/19 Q1017=
2025-05-27 16:00:00<>METAR SBGL 271600Z 08005KT 9999 FEW020 29/19 Q1017=
2025-05-27 17:00:00<>METAR SBGL 271700Z 33003KT 9999 FEW020 30/18 Q1016=
2025-05-27 18:00:00<>METAR SBGL 271800Z 34005KT 9999 FEW020 30/18 Q1016=
2025-05-27 19:00:00<>METAR SBGL 271900Z 02006KT 350V050 9999 FEW020 29/18 Q1016=
2025-05-27 20:00:00<>METAR SBGL 272000Z 36005KT 9999 FEW020 28/18 Q1016=
2025-05-27 21:00:00<>METAR SBGL 272100Z 07002KT CAVOK 26/19 Q1017=
2025-05-27 22:00:00<>METAR SBGL 272200Z VRB02KT CAVOK 24/19 Q1017=
2025-05-27 23:00:00<>METAR SBGL 272300Z 10008KT CAVOK 24/18 Q1018=
2025-05-28 00:00:00<>METAR SBGL 280000Z 10003KT CAVOK 23/19 Q1019=
2025-05-28 01:00:00<>METAR SBGL 280100Z 08003KT CAVOK 23/20 Q1019=
2025-05-28 02:00:00<>METAR SBGL 280200Z VRB02KT CAVOK 22/19 Q1018=
2025-05-28 03:00:00<>METAR SBGL 280300Z VRB02KT CAVOK 21/19 Q1018=
2025-05-28 04:00:00<>METAR SBGL 280400Z 08005KT CAVOK 21/19 Q1017=
2025-05-28 05:00:00<>METAR SBGL 280500Z VRB02KT CAVOK 20/18 Q1017=
2025-05-28 06:00:00<>METAR SBGL 280600Z VRB02KT CAVOK 20/18 Q1016=
2025-05-28 07:00:00<>METAR SBGL 280700Z 07003KT CAVOK 20/18 Q1015=
2025-05-28 08:00:00<>METAR SBGL 280800Z VRB02KT CAVOK 21/19 Q1015=
2025-05-28 09:00:00<>METAR SBGL 280900Z VRB02KT CAVOK 20/18 Q1015=
2025-05-28 10:00:00<>METAR SBGL 281000Z 11004KT 070V130 9999 FEW020 SCT100 20/18 Q1016=
2025-05-28 11:00:00<>METAR SBGL 281100Z 08004KT 9999 FEW020 23/20 Q1016=
2025-05-28 12:00:00<>METAR SBGL 281200Z 36004KT 340V040 9999 FEW020 25/20 Q1017=
2025-05-28 13:00:00<>METAR SBGL 281300Z 34003KT 290V090 9999 FEW020 28/18 Q1017=
2025-05-28 14:00:00<>METAR SBGL 281400Z 03008KT 350V070 9999 FEW020 30/18 Q1017=
2025-05-28 15:00:00<>METAR SBGL 281500Z 03005KT 350V090 9999 FEW020 SCT050 30/17 Q1016=
2025-05-28 16:00:00<>METAR SBGL 281600Z 01003KT 270V070 9999 FEW020 SCT050 30/17 Q1015=
2025-05-28 17:00:00<>METAR SBGL 281700Z 01007KT 9999 FEW033 30/16 Q1015=
2025-05-28 18:00:00<>METAR SBGL 281800Z 03008KT 9999 FEW033 30/17 Q1014=
2025-05-28 19:00:00<>METAR SBGL 281900Z 01010KT 9999 FEW040 30/18 Q1014=
2025-05-28 20:00:00<>METAR SBGL 282000Z 04008KT 9999 FEW040 28/18 Q1014=
2025-05-28 21:00:00<>METAR SBGL 282100Z 02010KT 9999 FEW040 27/18 Q1014=
2025-05-28 22:00:00<>METAR SBGL 282200Z 04012KT 9999 FEW040 28/18 Q1014=
2025-05-28 23:00:00<>METAR SBGL 282300Z 04010KT 9999 FEW040 28/18 Q1015=
2025-05-29 00:00:00<>METAR SBGL 290000Z 13003KT 060V160 9999 FEW040 24/19 Q1015=
2025-05-29 01:00:00<>METAR SBGL 290100Z 10005KT CAVOK 25/18 Q1015=
2025-05-29 02:00:00<>METAR SBGL 290200Z 09005KT CAVOK 24/18 Q1015=
2025-05-29 03:00:00<>METAR SBGL 290300Z 06004KT CAVOK 26/18 Q1015=
2025-05-29 04:00:00<>METAR SBGL 290400Z 11004KT CAVOK 25/18 Q1014=
2025-05-29 05:00:00<>METAR SBGL 290500Z 11004KT CAVOK 24/18 Q1014=
2025-05-29 06:00:00<>METAR SBGL 290600Z 18003KT CAVOK 24/18 Q1014=
2025-05-29 07:00:00<>METAR SBGL 290700Z 07005KT CAVOK 24/17 Q1013=
2025-05-29 08:00:00<>METAR SBGL 290800Z 15002KT CAVOK 24/18 Q1013=
2025-05-29 09:00:00<>METAR SBGL 290900Z 09002KT CAVOK 24/18 Q1013=
2025-05-29 10:00:00<>METAR SBGL 291000Z VRB02KT CAVOK 23/18 Q1014=
2025-05-29 11:00:00<>METAR SBGL 291100Z 23003KT 200V290 9999 FEW020 25/18 Q1015=
2025-05-29 12:00:00<>METAR SBGL 291200Z 25012KT 9999 FEW020 27/18 Q1016=
2025-05-29 13:00:00<>METAR SBGL 291300Z 25015KT 9999 FEW025 BKN066 27/19 Q1017=
2025-05-29 14:00:00<>METAR SBGL 291400Z 24014KT 9999 FEW025 BKN066 BKN100 26/19 Q1017=
2025-05-29 15:00:00<>METAR SBGL 291500Z 24010KT 9999 FEW025 SCT066 BKN100 26/19 Q1017=
2025-05-29 16:00:00<>METAR SBGL 291600Z 21008KT 9999 SCT025 SCT066 BKN100 25/19 Q1017=
2025-05-29 17:00:00<>METAR SBGL 291700Z 21009KT 9999 SCT025 BKN066 24/19 Q1017=
2025-05-29 18:00:00<>METAR SBGL 291800Z 22004KT 9999 FEW015 BKN025 24/19 Q1016=
2025-05-29 19:00:00<>METAR SBGL 291900Z 26006KT 9999 FEW020 BKN023 24/18 Q1017=
2025-05-29 20:00:00<>METAR SBGL 292000Z 10004KT 9999 FEW020 BKN021 23/19 Q1017=
2025-05-29 21:00:00<>METAR SBGL 292100Z VRB01KT 9999 FEW015 BKN021 23/18 Q1018=
2025-05-29 22:00:00<>METAR SBGL 292200Z 08003KT 9999 FEW015 BKN021 22/18 Q1018=
2025-05-29 23:00:00<>METAR SBGL 292300Z 09005KT 9999 FEW019 BKN021 22/18 Q1019=
2025-05-30 00:00:00<>METAR SBGL 300000Z 23007KT 9999 SCT019 BKN021 22/17 Q1019=
2025-05-30 01:00:00<>METAR SBGL 300100Z 21007KT 9999 SCT019 BKN021 22/17 Q1020=
2025-05-30 02:00:00<>METAR SBGL 300200Z 26008KT 9999 FEW017 SCT021 BKN026 21/18 Q1020=
2025-05-30 03:00:00<>METAR SBGL 300300Z 22006KT 8000 SCT015 BKN017 BKN023 21/17 Q1020=
2025-05-30 04:00:00<>METAR SBGL 300400Z 25007KT 7000 SCT015 BKN017 BKN023 20/17 Q1020=
2025-05-30 05:00:00<>METAR SBGL 300500Z 28006KT 7000 SCT015 BKN017 BKN023 20/17 Q1019=
2025-05-30 06:00:00<>METAR SBGL 300600Z 31006KT 7000 SCT015 BKN017 BKN023 20/17 Q1019=
2025-05-30 07:00:00<>METAR SBGL 300700Z 29006KT 7000 SCT015 BKN017 BKN023 19/17 Q1018=
2025-05-30 08:00:00<>METAR SBGL 300800Z 30004KT 8000 FEW015 BKN021 BKN033 20/16 Q1019=
2025-05-30 09:00:00<>METAR SBGL 300900Z 34004KT 8000 FEW017 BKN026 BKN033 19/17 Q1020=
2025-05-30 10:00:00<>METAR SBGL 301000Z 32008KT 9999 FEW006 BKN026 BKN033 19/17 Q1021=
2025-05-30 11:00:00<>METAR SBGL 301100Z 34007KT 9999 FEW008 OVC035 19/17 Q1021=
2025-05-30 12:00:00<>METAR SBGL 301200Z 34007KT 310V010 9999 SCT025 OVC035 20/16 Q1022=
2025-05-30 13:00:00<>METAR SBGL 301300Z 35006KT 9999 FEW020 BKN030 OVC040 20/16 Q1022=
2025-05-30 14:00:00<>METAR SBGL 301400Z 33005KT 300V360 9999 BKN025 OVC035 21/15 Q1022=
2025-05-30 15:00:00<>METAR SBGL 301500Z 36004KT 320V020 9999 SCT025 OVC035 21/15 Q1021=
2025-05-30 16:00:00<>METAR SBGL 301600Z 34004KT 9999 BKN025 OVC035 21/15 Q1021=
2025-05-30 17:00:00<>METAR SBGL 301700Z 36006KT 9999 SCT025 OVC033 21/15 Q1020=
2025-05-30 18:00:00<>METAR SBGL 301800Z 23005KT 200V300 9999 SCT025 OVC033 21/14 Q1020=
2025-05-30 19:00:00<>METAR SBGL 301900Z 22004KT 180V260 9999 FEW025 OVC033 21/14 Q1020=
2025-05-30 20:00:00<>METAR SBGL 302000Z 22004KT 9999 FEW025 OVC033 21/14 Q1020=
2025-05-30 21:00:00<>METAR SBGL 302100Z 34005KT 300V360 9999 FEW025 OVC040 20/16 Q1021=
2025-05-30 22:00:00<>METAR SBGL 302200Z 32006KT 9999 FEW025 OVC043 20/15 Q1021=
2025-05-30 23:00:00<>METAR SBGL 302300Z 31004KT 8000 FEW015 BKN045 20/15 Q1021=
2025-05-31 00:00:00<>METAR SBGL 310000Z 32004KT 9000 FEW015 BKN045 20/15 Q1021=
2025-05-31 01:00:00<>METAR SBGL 310100Z 31003KT 9000 FEW015 BKN045 20/15 Q1021=
2025-05-31 02:00:00<>METAR SBGL 310200Z 32002KT 9000 FEW015 BKN050 20/15 Q1021=
2025-05-31 03:00:00<>METAR SBGL 310300Z 35004KT 9000 FEW020 BKN050 20/16 Q1021=
2025-05-31 04:00:00<>METAR SBGL 310400Z 35004KT 9000 FEW020 BKN045 19/16 Q1021=
2025-05-31 05:00:00<>METAR SBGL 310500Z 35002KT 9000 FEW020 BKN045 19/16 Q1021=
2025-05-31 06:00:00<>METAR SBGL 310600Z 35002KT 9000 FEW020 BKN040 19/16 Q1020=
2025-05-31 07:00:00<>METAR SBGL 310700Z VRB02KT 9000 FEW020 BKN040 19/16 Q1020=
2025-05-31 08:00:00<>METAR SBGL 310800Z 33004KT 9000 FEW020 BKN040 19/16 Q1020=
2025-05-31 09:00:00<>METAR SBGL 310900Z 33004KT 9000 FEW020 BKN040 19/16 Q1020=
2025-05-31 10:00:00<>METAR SBGL 311000Z 34003KT 9999 FEW020 18/16 Q1021=
2025-05-31 11:00:00<>METAR SBGL 311100Z 33003KT 9999 FEW017 SCT100 20/17 Q1021=
2025-05-31 12:00:00<>METAR SBGL 311200Z 36003KT 9999 FEW017 21/16 Q1022=
2025-05-31 13:00:00<>METAR SBGL 311300Z 35003KT 9999 FEW017 22/15 Q1022=
2025-05-31 14:00:00<>METAR SBGL 311400Z 36005KT 330V040 9999 FEW017 23/13 Q1021=
2025-05-31 15:00:00<>METAR SBGL 311500Z 36006KT 9999 FEW017 24/15 Q1020=
2025-05-31 16:00:00<>METAR SBGL 311600Z 04006KT 9999 FEW020 25/15 Q1019=
2025-05-31 17:00:00<>METAR SBGL 311700Z 12009KT 9999 FEW025 25/17 Q1019=
2025-05-31 18:00:00<>METAR SBGL 311800Z 12011KT 9999 FEW025 24/17 Q1018=
2025-05-31 19:00:00<>METAR SBGL 311900Z 13011KT 9999 FEW025 23/17 Q1018=
2025-05-31 20:00:00<>METAR SBGL 312000Z 13009KT 9999 FEW045 22/17 Q1019=
2025-05-31 21:00:00<>METAR SBGL 312100Z 14010KT 9999 BKN035 22/17 Q1019=
2025-05-31 22:00:00<>METAR SBGL 312200Z 13008KT 9999 BKN033 22/18 Q1019=
2025-05-31 23:00:00<>METAR SBGL 312300Z 16003KT 9999 SCT026 BKN030 22/18 Q1020=
2025-06-01 00:00:00<>METAR SBGL 010000Z 13002KT 9999 SCT026 BKN030 22/18 Q1020=
2025-06-01 01:00:00<>METAR SBGL 010100Z 11003KT 9999 BKN021 BKN030 22/18 Q1020=
2025-06-01 02:00:00<>METAR SBGL 010200Z 12003KT 9999 BKN021 BKN030 22/18 Q1020=
2025-06-01 03:00:00<>METAR SBGL 010300Z 32004KT 9999 FEW021 BKN030 22/18 Q1020=
2025-06-01 04:00:00<>METAR SBGL 010400Z 34002KT 9999 FEW033 21/18 Q1019=
2025-06-01 05:00:00<>METAR SBGL 010500Z 00000KT 9999 FEW033 19/17 Q1019=
2025-06-01 06:00:00<>METAR SBGL 010600Z 00000KT 9999 FEW033 18/17 Q1019=
2025-06-01 07:00:00<>METAR SBGL 010700Z 27003KT CAVOK 18/17 Q1019=
2025-06-01 08:00:00<>METAR SBGL 010800Z 29004KT 9000 FEW040 19/17 Q1019=
2025-06-01 09:00:00<>METAR SBGL 010900Z 32005KT 8000 BKN036 19/17 Q1020=
2025-06-01 10:00:00<>METAR SBGL 011000Z 32004KT 8000 BKN040 20/18 Q1020=
2025-06-01 11:00:00<>METAR SBGL 011100Z 31003KT 9999 FEW040 21/18 Q1021=
2025-06-01 12:00:00<>METAR SBGL 011200Z 31003KT 8000 FEW040 22/18 Q1021=
2025-06-01 13:00:00<>METAR SBGL 011300Z 28003KT 8000 FEW040 24/18 Q1021=
2025-06-01 14:00:00<>METAR SBGL 011400Z 33003KT 9000 FEW040 26/18 Q1021=
2025-06-01 15:00:00<>METAR SBGL 011500Z 36004KT 9000 FEW032 27/18 Q1021=
2025-06-01 16:00:00<>METAR SBGL 011600Z 13010KT 9000 FEW032 25/19 Q1020=
2025-06-01 17:00:00<>METAR SBGL 011700Z 11009KT 9999 FEW032 25/19 Q1020=
2025-06-01 18:00:00<>METAR SBGL 011800Z 18007KT 9999 FEW032 25/18 Q1020=
2025-06-01 19:00:00<>METAR SBGL 011900Z 22008KT 9999 BKN025 BKN035 24/18 Q1021=
2025-06-01 20:00:00<>METAR SBGL 012000Z 23010KT 9999 BKN026 23/18 Q1021=
2025-06-01 21:00:00<>METAR SBGL 012100Z 22009KT 8000 BKN027 OVC040 23/17 Q1022=
2025-06-01 22:00:00<>METAR SBGL 012200Z 23010KT 9999 FEW031 BKN035 23/17 Q1023=
2025-06-01 23:00:00<>METAR SBGL 012300Z 24006KT 9999 SCT040 BKN055 23/17 Q1023=
2025-06-02 00:00:00<>METAR SBGL 020000Z 25008KT 9999 FEW045 BKN060 22/18 Q1024=
2025-06-02 01:00:00<>METAR SBGL 020100Z 27006KT 9999 BKN022 BKN060 22/18 Q1024=
2025-06-02 02:00:00<>METAR SBGL 020200Z 30005KT 9999 SCT023 BKN050 22/18 Q1024=
2025-06-02 03:00:00<>METAR SBGL 020300Z 32004KT 9999 BKN023 OVC030 22/19 Q1024=
2025-06-02 04:00:00<>METAR SBGL 020400Z 29004KT 9999 BKN021 OVC055 22/19 Q1024=
2025-06-02 05:00:00<>METAR SBGL 020500Z 31002KT 9999 SCT023 OVC055 22/19 Q1024=
2025-06-02 06:00:00<>METAR SBGL 020600Z 32004KT 9999 SCT024 OVC040 22/19 Q1023=
2025-06-02 07:00:00<>METAR SBGL 020700Z 31004KT 9999 SCT021 BKN040 BKN065 22/19 Q1023=
2025-06-02 08:00:00<>METAR SBGL 020800Z VRB02KT 9999 SCT021 BKN050 22/19 Q1023=
2025-06-02 09:00:00<>METAR SBGL 020900Z 30003KT 9999 OVC040 21/19 Q1023=
2025-06-02 09:39:00<>SPECI SBGL 020939Z 03006KT 4000 -RA BR FEW008 BKN012 OVC035 21/19 Q1024=
2025-06-02 10:00:00<>METAR SBGL 021000Z 02005KT 350V050 6000 -RA SCT008 BKN020 OVC030 21/19 Q1024=
2025-06-02 11:00:00<>METAR SBGL 021100Z 02005KT 9000 FEW009 BKN030 BKN040 21/19 Q1025=
2025-06-02 12:00:00<>METAR SBGL 021200Z 04005KT 6000 -RA FEW015 BKN020 BKN040 21/19 Q1026=
2025-06-02 13:00:00<>METAR SBGL 021300Z VRB02KT 9000 FEW020 BKN040 22/19 Q1025=
2025-06-02 14:00:00<>METAR SBGL 021400Z 04004KT 350V090 9999 FEW010 BKN030 BKN040 23/19 Q1025=
2025-06-02 15:00:00<>METAR SBGL 021500Z 05005KT 9999 FEW015 BKN030 BKN050 24/19 Q1024=
2025-06-02 16:00:00<>METAR SBGL 021600Z 04005KT 360V110 9999 FEW020 SCT050 25/19 Q1023=
2025-06-02 17:00:00<>METAR SBGL 021700Z 01006KT 350V050 9999 FEW020 25/18 Q1022=
2025-06-02 18:00:00<>METAR SBGL 021800Z 14007KT 9999 FEW020 BKN050 24/19 Q1022=
2025-06-02 19:00:00<>METAR SBGL 021900Z 14007KT 9999 FEW020 BKN050 24/19 Q1022=
2025-06-02 20:00:00<>METAR SBGL 022000Z 14007KT 9999 FEW020 BKN040 23/18 Q1022=
2025-06-02 21:00:00<>METAR SBGL 022100Z 13007KT 9999 FEW020 BKN030 BKN040 23/18 Q1022=
2025-06-02 22:00:00<>METAR SBGL 022200Z 13006KT 9999 FEW020 BKN030 BKN040 23/18 Q1023=
2025-06-02 23:00:00<>METAR SBGL 022300Z 12006KT 9999 FEW020 SCT048 22/17 Q1023=
2025-06-03 00:00:00<>METAR SBGL 030000Z 12006KT 9999 FEW020 SCT048 22/17 Q1023=
2025-06-03 01:00:00<>METAR SBGL 030100Z 12005KT 9999 FEW020 SCT048 21/18 Q1023=
2025-06-03 02:00:00<>METAR SBGL 030200Z 12004KT CAVOK 20/18 Q1022=
2025-06-03 03:00:00<>METAR SBGL 030300Z 10005KT 9999 FEW015 20/18 Q1022=
2025-06-03 04:00:00<>METAR SBGL 030400Z 11003KT 9999 FEW015 18/17 Q1022=
2025-06-03 05:00:00<>METAR SBGL 030500Z 18003KT 9999 FEW015 18/17 Q1022=
2025-06-03 06:00:00<>METAR SBGL 030600Z 07002KT 9999 FEW015 18/16 Q1021=
2025-06-03 07:00:00<>METAR SBGL 030700Z 35002KT CAVOK 19/17 Q1020=
2025-06-03 08:00:00<>METAR SBGL 030800Z 25002KT 8000 NSC 19/18 Q1020=
2025-06-03 09:00:00<>METAR SBGL 030900Z VRB02KT 6000 FEW010 18/17 Q1021=
2025-06-03 10:00:00<>METAR SBGL 031000Z 08002KT 6000 FEW010 18/17 Q1022=
2025-06-03 11:00:00<>METAR SBGL 031100Z 08005KT 6000 FEW009 20/19 Q1022=
2025-06-03 12:00:00<>METAR SBGL 031200Z 35003KT 7000 FEW008 22/19 Q1022=
2025-06-03 13:00:00<>METAR SBGL 031300Z 05006KT 8000 NSC 23/18 Q1022=
2025-06-03 14:00:00<>METAR SBGL 031400Z 03005KT 8000 NSC 24/18 Q1021=
2025-06-03 15:00:00<>METAR SBGL 031500Z 36005KT 8000 NSC 25/18 Q1020=
2025-06-03 16:00:00<>METAR SBGL 031600Z 12004KT 9000 NSC 27/18 Q1019=
2025-06-03 17:00:00<>METAR SBGL 031700Z 35004KT 9999 FEW030 27/18 Q1018=
2025-06-03 18:00:00<>METAR SBGL 031800Z 11006KT 9999 FEW030 SCT070 27/19 Q1017=
2025-06-03 19:00:00<>METAR SBGL 031900Z 11005KT 9999 FEW030 SCT080 25/19 Q1017=
2025-06-03 20:00:00<>METAR SBGL 032000Z 09006KT 9999 FEW030 SCT080 25/20 Q1016=
2025-06-03 21:00:00<>METAR SBGL 032100Z 10007KT 9999 FEW030 BKN100 24/19 Q1017=
2025-06-03 22:00:00<>METAR SBGL 032200Z 12006KT 9999 FEW030 BKN100 24/20 Q1017=
2025-06-03 23:00:00<>METAR SBGL 032300Z 13002KT 9999 FEW020 BKN100 23/19 Q1017=
2025-06-04 00:00:00<>METAR SBGL 040000Z 02003KT 9999 FEW020 22/19 Q1018=
2025-06-04 01:00:00<>METAR SBGL 040100Z VRB01KT CAVOK 22/20 Q1018=
2025-06-04 02:00:00<>METAR SBGL 040200Z 27004KT CAVOK 21/19 Q1018=
2025-06-04 03:00:00<>METAR SBGL 040300Z 27003KT 9999 FEW030 20/18 Q1017=
2025-06-04 04:00:00<>METAR SBGL 040400Z 33004KT 6000 FEW030 21/19 Q1017=
2025-06-04 05:00:00<>METAR SBGL 040500Z 08004KT 5000 BR FEW030 20/18 Q1016=
2025-06-04 06:00:00<>METAR SBGL 040600Z 03002KT 6000 FEW030 BKN100 20/18 Q1015=
2025-06-04 07:00:00<>METAR SBGL 040700Z VRB01KT 4000 BR FEW004 SCT100 19/18 Q1015=
2025-06-04 08:00:00<>METAR SBGL 040800Z 09003KT 3500 BR FEW004 SCT100 19/17 Q1015=
2025-06-04 09:00:00<>METAR SBGL 040900Z VRB02KT 3500 BR FEW004 20/18 Q1016=
2025-06-04 10:00:00<>METAR SBGL 041000Z 34005KT 2000 BR FEW004 20/19 Q1016=
2025-06-04 10:35:00<>SPECI SBGL 041035Z 01003KT 3700 0300NE R28/1600U R33/1900D R15/P2000N R10/P2000N BR FEW003 20/19 Q1017=
2025-06-04 11:00:00<>METAR SBGL 041100Z 03003KT 4500 0700SE R33/1100U R10/P2000N R28/P2000N R15/P2000N BR FEW002 21/19 Q1017=
2025-06-04 11:26:00<>SPECI SBGL 041126Z 03003KT 360V060 8000 3000NE FEW002 22/19 Q1017=
2025-06-04 12:00:00<>METAR SBGL 041200Z 04003KT 8000 NSC 23/18 Q1018=
2025-06-04 13:00:00<>METAR SBGL 041300Z VRB02KT 9000 NSC 26/18 Q1018=
2025-06-04 14:00:00<>METAR SBGL 041400Z 35003KT 300V010 CAVOK 27/17 Q1017=
2025-06-04 15:00:00<>METAR SBGL 041500Z 03003KT 330V100 CAVOK 28/18 Q1016=
2025-06-04 16:00:00<>METAR SBGL 041600Z VRB03KT CAVOK 30/17 Q1015=
2025-06-04 17:00:00<>METAR SBGL 041700Z 04005KT CAVOK 29/16 Q1014=
2025-06-04 18:00:00<>METAR SBGL 041800Z 12006KT 060V150 CAVOK 29/15 Q1014=
2025-06-04 19:00:00<>METAR SBGL 041900Z 12007KT CAVOK 27/19 Q1014=
2025-06-04 20:00:00<>METAR SBGL 042000Z 13009KT CAVOK 25/17 Q1015=
2025-06-04 21:00:00<>METAR SBGL 042100Z 13008KT CAVOK 24/18 Q1015=
2025-06-04 22:00:00<>METAR SBGL 042200Z 13007KT CAVOK 24/17 Q1016=
2025-06-04 23:00:00<>METAR SBGL 042300Z 04006KT 9999 FEW020 SCT100 23/16 Q1016=
2025-06-05 00:00:00<>METAR SBGL 050000Z 06003KT 9999 FEW020 SCT080 23/16 Q1017=
2025-06-05 01:00:00<>METAR SBGL 050100Z 08003KT 9999 FEW020 SCT080 21/16 Q1017=
2025-06-05 02:00:00<>METAR SBGL 050200Z 03002KT 8000 FEW020 SCT080 21/18 Q1017=
2025-06-05 03:00:00<>METAR SBGL 050300Z 02003KT 7000 FEW040 21/18 Q1017=
2025-06-05 04:00:00<>METAR SBGL 050400Z 35004KT 7000 FEW040 21/18 Q1017=
2025-06-05 05:00:00<>METAR SBGL 050500Z 36004KT 7000 FEW040 20/18 Q1016=
2025-06-05 06:00:00<>METAR SBGL 050600Z 29003KT 7000 FEW040 20/18 Q1016=
2025-06-05 07:00:00<>METAR SBGL 050700Z 27003KT 7000 FEW040 19/18 Q1016=
2025-06-05 08:00:00<>METAR SBGL 050800Z 23002KT 8000 FEW040 19/18 Q1015=
2025-06-05 09:00:00<>METAR SBGL 050900Z 31004KT 8000 FEW040 19/18 Q1015=
2025-06-05 10:00:00<>METAR SBGL 051000Z 27002KT 7000 NSC 20/18 Q1016=
2025-06-05 11:00:00<>METAR SBGL 051100Z 01005KT 8000 NSC 21/18 Q1016=
2025-06-05 12:00:00<>METAR SBGL 051200Z 07003KT 350V120 8000 NSC 24/18 Q1016=
2025-06-05 13:00:00<>METAR SBGL 051300Z 33004KT 300V010 8000 NSC 25/19 Q1016=
2025-06-05 14:00:00<>METAR SBGL 051400Z VRB02KT 9000 NSC 28/20 Q1015=
2025-06-05 15:00:00<>METAR SBGL 051500Z 33003KT 300V360 9000 NSC 30/19 Q1014=
2025-06-05 16:00:00<>METAR SBGL 051600Z VRB04KT CAVOK 32/17 Q1013=
2025-06-05 17:00:00<>METAR SBGL 051700Z 06005KT CAVOK 32/18 Q1012=
2025-06-05 18:00:00<>METAR SBGL 051800Z 02003KT 340V050 CAVOK 31/21 Q1012=
2025-06-05 19:00:00<>METAR SBGL 051900Z 03003KT CAVOK 30/20 Q1012=
2025-06-05 20:00:00<>METAR SBGL 052000Z 25017G29KT 200V270 CAVOK 28/19 Q1014=
2025-06-05 21:00:00<>METAR SBGL 052100Z 22017KT CAVOK 25/17 Q1015=
2025-06-05 22:00:00<>METAR SBGL 052200Z 25012KT CAVOK 24/19 Q1016=
2025-06-05 23:00:00<>METAR SBGL 052300Z 24012KT 9999 FEW017 SCT036 24/20 Q1017=
2025-06-06 00:00:00<>METAR SBGL 060000Z 22011KT 9999 BKN017 BKN021 BKN034 24/20 Q1018=
2025-06-06 01:00:00<>METAR SBGL 060100Z 21007KT 9999 FEW017 BKN040 24/19 Q1018=
2025-06-06 02:00:00<>METAR SBGL 060200Z 25007KT 9999 BKN019 BKN040 23/19 Q1017=
2025-06-06 03:00:00<>METAR SBGL 060300Z 26003KT 9999 BKN033 23/19 Q1017=
2025-06-06 04:00:00<>METAR SBGL 060400Z 23003KT 300V360 9999 SCT015 SCT021 BKN033 23/19 Q1016=
2025-06-06 05:00:00<>METAR SBGL 060500Z 04003KT 9999 FEW015 SCT017 BKN033 23/20 Q1015=
2025-06-06 06:00:00<>METAR SBGL 060600Z 32003KT 9999 FEW015 BKN017 BKN033 22/20 Q1015=
2025-06-06 07:00:00<>METAR SBGL 060700Z VRB01KT 9999 BKN017 22/20 Q1014=
2025-06-06 08:00:00<>METAR SBGL 060800Z 00000KT 9999 FEW017 BKN100 22/20 Q1014=
2025-06-06 09:00:00<>METAR SBGL 060900Z 14002KT 9999 FEW023 BKN083 21/19 Q1015=
2025-06-06 10:00:00<>METAR SBGL 061000Z 01003KT 9999 FEW023 BKN083 22/20 Q1016=
2025-06-06 11:00:00<>METAR SBGL 061100Z 32005KT 9999 FEW015 SCT083 22/20 Q1017=
2025-06-06 12:00:00<>METAR SBGL 061200Z 33004KT 300V360 9999 FEW015 SCT083 24/20 Q1017=
2025-06-06 13:00:00<>METAR SBGL 061300Z 36003KT 320V040 9999 FEW017 SCT083 25/20 Q1018=
2025-06-06 14:00:00<>METAR SBGL 061400Z 27009KT 9999 SCT025 SCT090 27/18 Q1017=
2025-06-06 15:00:00<>METAR SBGL 061500Z 26010KT 230V290 9999 SCT030 SCT100 28/17 Q1017=
2025-06-06 16:00:00<>METAR SBGL 061600Z 27011KT 9999 BKN040 BKN100 27/17 Q1016=
2025-06-06 17:00:00<>METAR COR SBGL 061700Z 25009KT 9999 SCT040 BKN100 27/18 Q1016=
2025-06-06 18:00:00<>METAR SBGL 061800Z 25009KT 9999 FEW012 SCT040 BKN100 26/18 Q1016=
2025-06-06 19:00:00<>METAR SBGL 061900Z 21007KT 180V240 9999 SCT017 BKN080 26/18 Q1016=
2025-06-06 20:00:00<>METAR SBGL 062000Z 21010KT 9999 SCT016 BKN070 24/18 Q1017=
2025-06-06 21:00:00<>METAR SBGL 062100Z 21008KT 180V250 9999 SCT014 BKN070 24/18 Q1018=
2025-06-06 22:00:00<>METAR SBGL 062200Z 22007KT 9999 FEW012 BKN070 24/18 Q1018=
2025-06-06 23:00:00<>METAR SBGL 062300Z 22010KT 9999 FEW035 BKN070 BKN100 23/18 Q1018=
2025-06-07 00:00:00<>METAR SBGL 070000Z 26006KT 9999 FEW040 BKN100 23/18 Q1018=
2025-06-07 01:00:00<>METAR SBGL 070100Z 25004KT 9999 SCT019 BKN040 BKN070 22/19 Q1019=
2025-06-07 02:00:00<>METAR SBGL 070200Z 33005KT 9999 BKN020 BKN035 22/19 Q1019=
2025-06-07 03:00:00<>METAR SBGL 070300Z 32005KT 9999 SCT020 BKN055 22/19 Q1018=
2025-06-07 04:00:00<>METAR SBGL 070400Z 34003KT 320V020 9999 SCT017 BKN040 BKN055 22/19 Q1018=
2025-06-07 05:00:00<>METAR SBGL 070500Z 33002KT 9999 SCT018 BKN055 22/19 Q1017=
2025-06-07 06:00:00<>METAR SBGL 070600Z 20003KT 9999 FEW015 BKN018 BKN040 22/19 Q1017=
2025-06-07 07:00:00<>METAR SBGL 070700Z 02004KT 8000 -RA FEW007 BKN045 OVC065 21/19 Q1017=
2025-06-07 08:00:00<>METAR SBGL 070800Z 05005KT 020V080 9999 FEW020 BKN045 BKN090 21/19 Q1017=
2025-06-07 09:00:00<>METAR SBGL 070900Z 02004KT 9999 FEW007 OVC045 21/19 Q1017=
2025-06-07 10:00:00<>METAR SBGL 071000Z 01004KT 9999 FEW009 BKN045 21/19 Q1018=
2025-06-07 11:00:00<>METAR SBGL 071100Z 34004KT 9999 FEW009 BKN015 21/19 Q1019=
2025-06-07 12:00:00<>METAR SBGL 071200Z 34002KT 9999 FEW009 SCT020 OVC040 21/19 Q1019=
2025-06-07 13:00:00<>METAR SBGL 071300Z 02002KT 9999 FEW013 OVC040 22/19 Q1019=
2025-06-07 14:00:00<>METAR SBGL 071400Z 01002KT 9999 FEW013 BKN040 24/19 Q1019=
2025-06-07 15:00:00<>METAR SBGL 071500Z 03004KT 9999 SCT016 BKN040 23/19 Q1018=
2025-06-07 16:00:00<>METAR SBGL 071600Z 02005KT 9999 SCT018 BKN040 23/19 Q1017=
2025-06-07 17:00:00<>METAR SBGL 071700Z 07005KT 9999 FEW020 BKN040 25/19 Q1016=
2025-06-07 18:00:00<>METAR SBGL 071800Z 13005KT 9999 FEW020 SCT050 24/19 Q1016=
2025-06-07 19:00:00<>METAR SBGL 071900Z 14004KT 9999 FEW022 SCT050 24/18 Q1016=
2025-06-07 20:00:00<>METAR SBGL 072000Z 14006KT 9999 FEW022 SCT040 23/18 Q1016=
2025-06-07 21:00:00<>METAR SBGL 072100Z 14005KT 9999 FEW022 BKN035 23/19 Q1016=
2025-06-07 22:00:00<>METAR SBGL 072200Z 12005KT 9999 FEW025 BKN035 23/19 Q1017=
2025-06-07 23:00:00<>METAR SBGL 072300Z 09006KT 9999 FEW025 BKN035 22/18 Q1017=
2025-06-08 00:00:00<>METAR SBGL 080000Z 11005KT 9999 FEW025 BKN035 21/17 Q1017=
2025-06-08 01:00:00<>METAR SBGL 080100Z 13004KT 9999 FEW025 BKN035 21/17 Q1017=
2025-06-08 02:00:00<>METAR SBGL 080200Z 07002KT 9999 FEW025 BKN035 27/17 Q1017=
2025-06-08 03:00:00<>METAR SBGL 080300Z 14004KT 9999 FEW025 BKN035 20/17 Q1017=
2025-06-08 04:00:00<>METAR SBGL 080400Z 12004KT 9999 FEW025 BKN035 20/17 Q1016=
2025-06-08 05:00:00<>METAR SBGL 080500Z 36001KT 9999 FEW025 BKN035 19/17 Q1016=
2025-06-08 06:00:00<>METAR SBGL 080600Z 36002KT 9999 FEW010 19/17 Q1014=
2025-06-08 07:00:00<>METAR SBGL 080700Z 06001KT 8000 FEW010 18/17 Q1014=
2025-06-08 08:00:00<>METAR SBGL 080800Z 31002KT 9999 FEW010 18/17 Q1014=
2025-06-08 09:00:00<>METAR SBGL 080900Z 33001KT 8000 FEW010 18/17 Q1014=
2025-06-08 10:00:00<>METAR SBGL 081000Z 07003KT 9000 FEW010 18/17 Q1014=
2025-06-08 11:00:00<>METAR SBGL 081100Z VRB02KT 8000 FEW006 20/19 Q1014=
2025-06-08 12:00:00<>METAR SBGL 081200Z VRB02KT 9999 FEW005 21/19 Q1014=
2025-06-08 13:00:00<>METAR SBGL 081300Z 35003KT 300V040 9999 FEW020 24/19 Q1014=
2025-06-08 14:00:00<>METAR SBGL 081400Z 34003KT 280V030 9999 SCT020 SCT100 26/19 Q1013=
2025-06-08 15:00:00<>METAR SBGL 081500Z 32004KT 280V350 9999 FEW025 SCT100 29/19 Q1013=
2025-06-08 16:00:00<>METAR SBGL 081600Z 28006KT 250V320 CAVOK 30/19 Q1011=
2025-06-08 17:00:00<>METAR SBGL 081700Z 22007KT 190V250 CAVOK 27/19 Q1011=
2025-06-08 18:00:00<>METAR SBGL 081800Z 23006KT CAVOK 27/18 Q1010=
2025-06-08 19:00:00<>METAR SBGL 081900Z 21006KT 170V240 8000 FEW040 BKN070 26/19 Q1010=
2025-06-08 20:00:00<>METAR SBGL 082000Z 13003KT 340V150 8000 FEW040 24/19 Q1011=
2025-06-08 21:00:00<>METAR SBGL 082100Z 06003KT 9999 FEW040 BKN100 24/19 Q1011=
2025-06-08 22:00:00<>METAR SBGL 082200Z VRB02KT 9999 FEW040 23/20 Q1012=
2025-06-08 23:00:00<>METAR SBGL 082300Z 12004KT 9999 FEW040 BKN100 23/19 Q1012=
2025-06-09 00:00:00<>METAR SBGL 090000Z 10006KT 9999 FEW040 BKN100 23/19 Q1013=
2025-06-09 01:00:00<>METAR SBGL 090100Z 34005KT 9999 SCT026 BKN050 BKN100 23/19 Q1014=
2025-06-09 02:00:00<>METAR SBGL 090200Z 28005KT 9999 BKN026 BKN100 23/19 Q1014=
2025-06-09 03:00:00<>METAR SBGL 090300Z 25005KT 9999 BKN033 BKN040 23/19 Q1014=
2025-06-09 04:00:00<>METAR SBGL 090400Z 25008KT 9999 BKN030 BKN040 23/19 Q1014=
2025-06-09 05:00:00<>METAR SBGL 090500Z 25007KT 9999 BKN030 BKN040 23/18 Q1013=
2025-06-09 06:00:00<>METAR SBGL 090600Z 28006KT 9999 BKN030 BKN040 22/18 Q1013=
2025-06-09 07:00:00<>METAR SBGL 090700Z 31006KT 8000 BKN030 BKN040 22/18 Q1012=
2025-06-09 08:00:00<>METAR SBGL 090800Z 26008KT 7000 -RA BKN026 BKN040 21/19 Q1014=
2025-06-09 08:30:00<>SPECI SBGL 090830Z 25006KT 6000 -RA FEW007 BKN011 OVC026 20/19 Q1014=
2025-06-09 09:00:00<>METAR SBGL 090900Z 25007KT 7000 -RA FEW009 BKN015 OVC026 20/19 Q1015=
2025-06-09 10:00:00<>METAR SBGL 091000Z 23006KT 9999 -RA FEW009 OVC036 20/18 Q1015=
2025-06-09 11:00:00<>METAR SBGL 091100Z 27008KT 9999 FEW009 OVC040 20/18 Q1016=
2025-06-09 12:00:00<>METAR SBGL 091200Z 30006KT 270V340 9999 FEW011 OVC040 20/18 Q1017=
2025-06-09 13:00:00<>METAR SBGL 091300Z 32005KT 9999 FEW023 OVC040 21/18 Q1017=
2025-06-09 14:00:00<>METAR SBGL 091400Z 28005KT 9999 FEW023 BKN050 BKN083 22/18 Q1016=
2025-06-09 15:00:00<>METAR SBGL 091500Z 26008KT 9999 -RA FEW019 OVC050 22/18 Q1016=
2025-06-09 16:00:00<>METAR SBGL 091600Z 26006KT 220V290 9999 FEW017 OVC050 23/18 Q1015=
2025-06-09 17:00:00<>METAR SBGL 091700Z 26006KT 240V300 9999 SCT019 OVC050 22/18 Q1014=
2025-06-09 18:00:00<>METAR SBGL 091800Z 22009KT 9999 VCSH FEW021 OVC033 22/17 Q1015=
2025-06-09 19:00:00<>METAR SBGL 091900Z 28004KT 9999 -RA FEW017 BKN026 OVC033 20/18 Q1015=
2025-06-09 20:00:00<>METAR SBGL 092000Z 24005KT 9999 VCSH FEW013 BKN024 OVC033 21/18 Q1015=
2025-06-09 21:00:00<>METAR SBGL 092100Z 00000KT 9999 FEW013 BKN021 OVC030 21/18 Q1015=
2025-06-09 22:00:00<>METAR SBGL 092200Z 12004KT 8000 -RA FEW007 BKN013 OVC020 20/18 Q1016=
2025-06-09 23:00:00<>METAR SBGL 092300Z 12002KT 8000 FEW007 BKN013 OVC020 20/18 Q1016=
2025-06-10 00:00:00<>METAR SBGL 100000Z 02004KT 8000 SCT008 OVC020 20/18 Q1016=
2025-06-10 01:00:00<>METAR SBGL 100100Z 34003KT 8000 SCT008 OVC030 20/18 Q1017=
2025-06-10 02:00:00<>METAR SBGL 100200Z 32004KT 8000 FEW008 OVC030 20/18 Q1016=
2025-06-10 03:00:00<>METAR SBGL 100300Z 31003KT 8000 FEW008 OVC030 20/18 Q1016=
2025-06-10 04:00:00<>METAR SBGL 100400Z 31004KT 9000 FEW007 OVC033 20/18 Q1016=
2025-06-10 05:00:00<>METAR SBGL 100500Z 28003KT 9000 FEW007 OVC030 20/18 Q1016=
2025-06-10 06:00:00<>METAR SBGL 100600Z 30002KT 9000 FEW007 OVC030 20/18 Q1015=
2025-06-10 07:00:00<>METAR SBGL 100700Z 28003KT 9000 FEW007 OVC028 20/18 Q1015=
2025-06-10 08:00:00<>METAR SBGL 100800Z 28004KT 9000 FEW007 BKN028 20/18 Q1015=
2025-06-10 09:00:00<>METAR SBGL 100900Z 27004KT 9000 FEW007 SCT030 BKN070 20/17 Q1016=
2025-06-10 10:00:00<>METAR SBGL 101000Z 30004KT 9000 FEW010 BKN028 BKN070 20/18 Q1017=
2025-06-10 11:00:00<>METAR SBGL 101100Z 29004KT 240V310 9000 SCT012 BKN025 BKN070 21/18 Q1018=
2025-06-10 12:00:00<>METAR SBGL 101200Z 30005KT 9000 SCT013 SCT025 FEW030TCU BKN070 22/18 Q1018=
2025-06-10 13:00:00<>METAR SBGL 101300Z 25005KT 210V270 9000 SCT015 SCT027 FEW030TCU BKN070 23/17 Q1018=
2025-06-10 13:36:00<>SPECI SBGL 101336Z 20008KT 100V260 2500 SHRA BR SCT013 SCT027 FEW030TCU BKN070 22/19 Q1019=
2025-06-10 14:00:00<>METAR SBGL 101400Z 13008KT 7000 VCSH BKN011 BKN027 FEW030TCU BKN070 21/17 Q1019 RESHRA=
2025-06-10 15:00:00<>METAR SBGL 101500Z 15007KT 3500 -RA BR BKN007 BKN025 FEW030TCU BKN070 20/18 Q1018=
2025-06-10 16:00:00<>METAR SBGL 101600Z 11004KT 080V150 3500 -RA BR BKN007 BKN025 FEW030TCU BKN070 20/18 Q1018=
2025-06-10 17:00:00<>METAR SBGL 101700Z VRB02KT 4000 -RA BR BKN007 BKN025 FEW030TCU BKN070 20/18 Q1018=
2025-06-10 18:00:00<>METAR SBGL 101800Z 05004KT 9999 BKN009 BKN027 FEW035TCU BKN080 20/18 Q1018=
2025-06-10 19:00:00<>METAR SBGL 101900Z 01005KT 9999 BKN009 BKN027 FEW035TCU BKN080 20/18 Q1018=
2025-06-10 20:00:00<>METAR SBGL 102000Z 23005KT 200V270 9999 SCT013 BKN027 FEW035TCU BKN080 21/16 Q1019=
2025-06-10 21:00:00<>METAR SBGL 102100Z 32005KT 9999 FEW013 BKN026 FEW033TCU BKN070 20/17 Q1019=
2025-06-10 22:00:00<>METAR SBGL 102200Z 31004KT 9999 SCT015 SCT020 BKN070 20/17 Q1019=
2025-06-10 23:00:00<>METAR SBGL 102300Z 27003KT 9999 FEW033 BKN066 19/16 Q1020=
2025-06-11 00:00:00<>METAR SBGL 110000Z 25005KT 9999 FEW026 SCT040 BKN066 20/16 Q1020=
2025-06-11 01:00:00<>METAR SBGL 110100Z 28003KT 9999 FEW026 SCT040 BKN066 19/15 Q1020=
2025-06-11 02:00:00<>METAR SBGL 110200Z 26004KT 9999 FEW026 BKN050 19/15 Q1020=
2025-06-11 03:00:00<>METAR SBGL 110300Z 32003KT 9999 FEW018 BKN040 19/16 Q1020=
2025-06-11 04:00:00<>METAR SBGL 110400Z 32005KT 9999 FEW030 BKN050 19/17 Q1019=
2025-06-11 05:00:00<>METAR SBGL 110500Z 29004KT 9999 FEW030 BKN050 19/16 Q1019=
2025-06-11 06:00:00<>METAR SBGL 110600Z 31003KT 9999 FEW030 BKN050 19/16 Q1018=
2025-06-11 07:00:00<>METAR SBGL 110700Z 29002KT 9999 FEW030 BKN050 19/16 Q1018=
2025-06-11 08:00:00<>METAR SBGL 110800Z 30003KT 9999 FEW030 BKN050 BKN083 18/16 Q1018=
2025-06-11 09:00:00<>METAR SBGL 110900Z 29003KT 9999 FEW018 BKN046 BKN083 18/16 Q1019=
2025-06-11 10:00:00<>METAR SBGL 111000Z 29004KT 9999 FEW020 BKN036 18/16 Q1019=
2025-06-11 11:00:00<>METAR SBGL 111100Z 30004KT 9999 FEW020 SCT040 19/16 Q1020=
2025-06-11 12:00:00<>METAR SBGL 111200Z 29005KT 9999 FEW040 SCT070 21/16 Q1021=
2025-06-11 13:00:00<>METAR SBGL 111300Z 28006KT 9999 FEW023 SCT026 22/15 Q1021=
2025-06-11 14:00:00<>METAR SBGL 111400Z 25008KT 9999 SCT026 BKN035 22/15 Q1020=
2025-06-11 15:00:00<>METAR SBGL 111500Z 22005KT 9999 SCT026 BKN035 22/15 Q1020=
2025-06-11 16:00:00<>METAR SBGL 111600Z 22013KT 9999 SCT026 BKN040 21/15 Q1020=
2025-06-11 17:00:00<>METAR SBGL 111700Z 22015KT 9999 SCT026 BKN040 23/14 Q1019=
2025-06-11 18:00:00<>METAR SBGL 111800Z 22014KT 9999 SCT040 BKN100 21/13 Q1020=
2025-06-11 18:16:00<>SPECI SBGL 111816Z 23015KT 4000 -RA BR SCT030 SCT048 BKN100 18/15 Q1020=
2025-06-11 19:00:00<>METAR SBGL 111900Z 25010KT 8000 SCT030 SCT055 BKN100 20/15 Q1020=
2025-06-11 20:00:00<>METAR SBGL 112000Z 29005KT 9000 SCT030 BKN100 20/14 Q1021=
2025-06-11 21:00:00<>METAR SBGL 112100Z 25009KT 9999 SCT030 BKN060 20/13 Q1021=
2025-06-11 22:00:00<>METAR SBGL 112200Z 26006KT 9999 SCT030 BKN060 19/14 Q1021=
2025-06-11 23:00:00<>METAR SBGL 112300Z 26008KT 9999 SCT030 BKN050 20/13 Q1022=
2025-06-12 00:00:00<>METAR SBGL 120000Z 25010KT 9999 SCT030 BKN066 19/12 Q1022=
2025-06-12 01:00:00<>METAR SBGL 120100Z 34006KT 9999 FEW030 BKN043 18/14 Q1023=
2025-06-12 02:00:00<>METAR SBGL 120200Z 29010KT 9999 FEW030 BKN043 17/14 Q1023=
2025-06-12 03:00:00<>METAR SBGL 120300Z 30007KT 9999 FEW030 SCT043 17/12 Q1023=
2025-06-12 04:00:00<>METAR SBGL 120400Z 31006KT 9999 SCT043 17/12 Q1022=
2025-06-12 05:00:00<>METAR SBGL 120500Z 32006KT 9999 SCT043 17/12 Q1022=
2025-06-12 05:20:00<>SPECI SBGL 120520Z 26016KT 4500 -RA BR BKN026 16/14 Q1022=
2025-06-12 06:00:00<>METAR SBGL 120600Z 28010KT 4500 -RA BR FEW020 BKN026 15/14 Q1022=
2025-06-12 07:00:00<>METAR SBGL 120700Z 28007KT 6000 FEW009 BKN033 15/14 Q1022=
2025-06-12 08:00:00<>METAR SBGL 120800Z 33005KT 4000 -RA BR BKN004 BKN007 BKN033 15/14 Q1022=
2025-06-12 09:00:00<>METAR SBGL 120900Z 33009KT 4500 -RA BR BKN004 BKN007 OVC033 15/14 Q1022=
2025-06-12 10:00:00<>METAR SBGL 121000Z 28010KT 4000 -RA BR BKN005 BKN009 BKN050 16/14 Q1023=
2025-06-12 10:30:00<>SPECI SBGL 121030Z 30007KT 7000 SCT005 BKN050 16/15 Q1023=
2025-06-12 11:00:00<>METAR SBGL 121100Z 30006KT 7000 SCT006 BKN030 BKN090 16/15 Q1024=
2025-06-12 12:00:00<>METAR SBGL 121200Z 32007KT 9999 BKN007 BKN012 17/15 Q1024=
2025-06-12 13:00:00<>METAR SBGL 121300Z 31007KT 270V340 9999 BKN010 BKN050 18/15 Q1024=
2025-06-12 13:32:00<>SPECI SBGL 121332Z 35004KT 9999 SCT011 BKN040 BKN090 18/15 Q1025=
2025-06-12 14:00:00<>METAR SBGL 121400Z 35004KT 320V020 9999 4000W FEW014 SCT023 BKN028 19/15 Q1024=
2025-06-12 15:00:00<>METAR SBGL 121500Z 28005KT 240V320 9999 FEW016 BKN050 BKN090 19/14 Q1023=
2025-06-12 16:00:00<>METAR SBGL 121600Z 04003KT 360V080 9999 FEW023 BKN040 BKN055 17/14 Q1023=
2025-06-12 17:00:00<>METAR SBGL 121700Z 35003KT 9999 FEW023 BKN035 BKN065 18/14 Q1023=
2025-06-12 18:00:00<>METAR SBGL 121800Z 24004KT 300V010 9999 FEW023 SCT035 BKN070 18/13 Q1022=
2025-06-12 19:00:00<>METAR SBGL 121900Z 30005KT 280V340 9999 FEW010 BKN035 BKN070 18/14 Q1023=
2025-06-12 20:00:00<>METAR SBGL 122000Z 27007KT 9999 FEW010 BKN060 17/14 Q1023=
2025-06-12 21:00:00<>METAR SBGL 122100Z 25006KT 9999 FEW010 BKN040 BKN070 17/14 Q1023=
2025-06-12 22:00:00<>METAR SBGL 122200Z 28004KT 250V310 9999 FEW040 BKN075 BKN090 16/14 Q1023=
2025-06-12 23:00:00<>METAR SBGL 122300Z 30003KT 9999 FEW040 BKN075 17/14 Q1024=
2025-06-13 00:00:00<>METAR SBGL 130000Z VRB02KT 9999 FEW040 BKN075 16/14 Q1024=
2025-06-13 01:00:00<>METAR SBGL 130100Z 05002KT 9999 FEW040 BKN075 16/14 Q1025=
2025-06-13 02:00:00<>METAR SBGL 130200Z 05002KT 9999 FEW040 BKN075 16/14 Q1025=
2025-06-13 03:00:00<>METAR SBGL 130300Z 22002KT 8000 FEW040 BKN075 16/14 Q1024=
2025-06-13 04:00:00<>METAR SBGL 130400Z 25002KT 8000 FEW011 BKN050 15/13 Q1024=
2025-06-13 05:00:00<>METAR SBGL 130500Z 28003KT 9999 FEW040 BKN070 15/14 Q1024=
2025-06-13 06:00:00<>METAR COR SBGL 130600Z 29003KT 9999 FEW040 SCT070 16/14 Q1024=
2025-06-13 07:00:00<>METAR SBGL 130700Z 33004KT 8000 FEW005 SCT070 15/14 Q1024=
2025-06-13 08:00:00<>METAR SBGL 130800Z 33004KT 8000 BKN007 SCT070 15/14 Q1024=
2025-06-13 09:00:00<>METAR COR SBGL 130900Z 33004KT 8000 SCT007 13/12 Q1024=
2025-06-13 10:00:00<>METAR SBGL 131000Z 35003KT 8000 FEW005 15/14 Q1025=
2025-06-13 11:00:00<>METAR SBGL 131100Z 32005KT 7000 FEW005 15/14 Q1026=
2025-06-13 12:00:00<>METAR SBGL 131200Z VRB02KT 8000 FEW008 17/14 Q1027=
2025-06-13 13:00:00<>METAR SBGL 131300Z VRB03KT 9000 NSC 20/14 Q1027=
2025-06-13 14:00:00<>METAR SBGL 131400Z 14003KT 050V190 CAVOK 21/14 Q1026=
2025-06-13 15:00:00<>METAR SBGL 131500Z 06007KT 340V100 9999 FEW028 22/12 Q1025=
2025-06-13 16:00:00<>METAR SBGL 131600Z 07008KT 030V110 9999 FEW030 22/13 Q1024=
2025-06-13 17:00:00<>METAR SBGL 131700Z 02007KT 350V060 9999 FEW040 23/13 Q1024=
2025-06-13 18:00:00<>METAR SBGL 131800Z 12007KT 030V180 9999 SCT045 23/14 Q1023=
2025-06-13 19:00:00<>METAR SBGL 131900Z 13009KT 8000 SCT047 BKN060 22/14 Q1024=
2025-06-13 20:00:00<>METAR SBGL 132000Z 13009KT 9999 SCT049 BKN065 21/13 Q1024=
2025-06-13 21:00:00<>METAR SBGL 132100Z 12006KT 9000 SCT049 BKN065 20/13 Q1025=
2025-06-13 22:00:00<>METAR SBGL 132200Z 10010KT 9999 FEW048 BKN070 20/12 Q1025=
2025-06-13 23:00:00<>METAR SBGL 132300Z 10006KT 9999 FEW045 BKN070 20/12 Q1026=
2025-06-14 00:00:00<>METAR SBGL 140000Z 11005KT 9999 FEW045 BKN070 19/12 Q1026=
2025-06-14 01:00:00<>METAR SBGL 140100Z 11005KT CAVOK 18/12 Q1026=
2025-06-14 02:00:00<>METAR SBGL 140200Z 13004KT CAVOK 17/12 Q1026=
2025-06-14 03:00:00<>METAR SBGL 140300Z 13004KT CAVOK 16/12 Q1026=
2025-06-14 04:00:00<>METAR SBGL 140400Z 13004KT CAVOK 14/11 Q1026=
2025-06-14 05:00:00<>METAR SBGL 140500Z 13003KT CAVOK 14/12 Q1025=
2025-06-14 06:00:00<>METAR SBGL 140600Z 34002KT CAVOK 14/12 Q1025=
2025-06-14 07:00:00<>METAR SBGL 140700Z 02001KT CAVOK 14/13 Q1025=
2025-06-14 08:00:00<>METAR SBGL 140800Z 07002KT CAVOK 13/11 Q1025=
2025-06-14 09:00:00<>METAR SBGL 140900Z 04001KT CAVOK 13/11 Q1026=
2025-06-14 10:00:00<>METAR SBGL 141000Z 33002KT CAVOK 14/12 Q1026=
2025-06-14 11:00:00<>METAR SBGL 141100Z 33002KT 9999 FEW030 SCT070 16/14 Q1027=
2025-06-14 12:00:00<>METAR SBGL 141200Z 35002KT CAVOK 18/14 Q1027=
2025-06-14 13:00:00<>METAR SBGL 141300Z 31002KT CAVOK 20/14 Q1027=
2025-06-14 14:00:00<>METAR SBGL 141400Z 07004KT CAVOK 21/12 Q1026=
2025-06-14 15:00:00<>METAR SBGL 141500Z 09008KT CAVOK 23/10 Q1025=
2025-06-14 16:00:00<>METAR SBGL 141600Z 06008KT CAVOK 24/10 Q1024=
2025-06-14 17:00:00<>METAR SBGL 141700Z 03006KT CAVOK 24/09 Q1023=
2025-06-14 18:00:00<>METAR SBGL 141800Z 36004KT CAVOK 24/10 Q1022=
2025-06-14 19:00:00<>METAR SBGL 141900Z 10005KT CAVOK 23/11 Q1023=
2025-06-14 20:00:00<>METAR SBGL 142000Z 10005KT CAVOK 21/12 Q1023=
2025-06-14 21:00:00<>METAR SBGL 142100Z 09009KT CAVOK 21/13 Q1023=
2025-06-14 22:00:00<>METAR SBGL 142200Z 08010KT CAVOK 20/13 Q1023=
2025-06-14 23:00:00<>METAR SBGL 142300Z 08011KT CAVOK 19/14 Q1023=
2025-06-15 00:00:00<>METAR SBGL 150000Z 17008KT CAVOK 18/13 Q1024=
2025-06-15 01:00:00<>METAR SBGL 150100Z 10006KT CAVOK 18/13 Q1024=
2025-06-15 02:00:00<>METAR SBGL 150200Z 12007KT CAVOK 16/12 Q1024=
2025-06-15 03:00:00<>METAR SBGL 150300Z 12004KT CAVOK 15/12 Q1023=
2025-06-15 04:00:00<>METAR SBGL 150400Z 13005KT CAVOK 15/12 Q1023=
2025-06-15 05:00:00<>METAR SBGL 150500Z 17004KT CAVOK 14/12 Q1023=
2025-06-15 06:00:00<>METAR SBGL 150600Z 24004KT CAVOK 14/12 Q1022=
2025-06-15 07:00:00<>METAR SBGL 150700Z 29004KT 8000 NSC 13/12 Q1021=
2025-06-15 08:00:00<>METAR SBGL 150800Z 30002KT 8000 NSC 14/12 Q1021=
2025-06-15 09:00:00<>METAR SBGL 150900Z 08002KT 8000 NSC 14/12 Q1021=
2025-06-15 10:00:00<>METAR SBGL 151000Z 10002KT 8000 NSC 13/12 Q1022=
2025-06-15 11:00:00<>METAR SBGL 151100Z VRB02KT CAVOK 17/15 Q1022=
2025-06-15 12:00:00<>METAR SBGL 151200Z 13003KT 080V160 CAVOK 19/14 Q1022=
2025-06-15 13:00:00<>METAR SBGL 151300Z 12006KT CAVOK 21/13 Q1022=
2025-06-15 14:00:00<>METAR SBGL 151400Z 36004KT 280V050 CAVOK 23/12 Q1021=
2025-06-15 15:00:00<>METAR SBGL 151500Z 03005KT 330V120 CAVOK 24/11 Q1020=
2025-06-15 16:00:00<>METAR SBGL 151600Z 02008KT 330V050 CAVOK 26/10 Q1019=
2025-06-15 17:00:00<>METAR SBGL 151700Z 33008KT 290V030 CAVOK 27/09 Q1020=
2025-06-15 18:00:00<>METAR SBGL 151800Z 28011KT CAVOK 28/09 Q1020=
2025-06-15 19:00:00<>METAR SBGL 151900Z 31005KT 280V340 CAVOK 27/09 Q1020=
2025-06-15 20:00:00<>METAR SBGL 152000Z 12006KT CAVOK 23/13 Q1020=
2025-06-15 21:00:00<>METAR SBGL 152100Z 05006KT CAVOK 21/14 Q1020=
2025-06-15 22:00:00<>METAR SBGL 152200Z 08008KT CAVOK 20/15 Q1019=
2025-06-15 23:00:00<>METAR SBGL 152300Z 06008KT CAVOK 19/14 Q1018=
2025-06-16 00:00:00<>METAR SBGL 160000Z 18004KT 150V210 CAVOK 20/13 Q1019=
2025-06-16 01:00:00<>METAR SBGL 160100Z 12003KT CAVOK 18/13 Q1020=
2025-06-16 02:00:00<>METAR SBGL 160200Z VRB02KT CAVOK 18/14 Q1020=
2025-06-16 03:00:00<>METAR SBGL 160300Z VRB02KT CAVOK 17/13 Q1020=
2025-06-16 04:00:00<>METAR SBGL 160400Z 09002KT CAVOK 16/13 Q1020=
2025-06-16 05:00:00<>METAR SBGL 160500Z 22003KT CAVOK 16/14 Q1020=
2025-06-16 06:00:00<>METAR SBGL 160600Z VRB02KT CAVOK 15/13 Q1020=
2025-06-16 07:00:00<>METAR SBGL 160700Z VRB02KT CAVOK 15/13 Q1020=
2025-06-16 08:00:00<>METAR SBGL 160800Z 06003KT 9000 1200NW BCFG NSC 15/14 Q1020=
2025-06-16 09:00:00<>METAR SBGL 160900Z VRB02KT CAVOK 16/14 Q1021=
2025-06-16 10:00:00<>METAR SBGL 161000Z VRB02KT CAVOK 15/13 Q1021=
2025-06-16 11:00:00<>METAR SBGL 161100Z 02003KT CAVOK 18/15 Q1022=
2025-06-16 12:00:00<>METAR SBGL 161200Z 03004KT CAVOK 20/15 Q1023=
2025-06-16 13:00:00<>METAR SBGL 161300Z VRB03KT CAVOK 22/14 Q1023=
2025-06-16 14:00:00<>METAR SBGL 161400Z 34003KT 300V020 CAVOK 25/13 Q1023=
2025-06-16 15:00:00<>METAR SBGL 161500Z 35004KT 310V030 CAVOK 26/13 Q1023=
2025-06-16 16:00:00<>METAR SBGL 161600Z 34004KT 280V040 CAVOK 27/13 Q1022=
2025-06-16 17:00:00<>METAR SBGL 161700Z 34004KT 290V040 CAVOK 28/13 Q1021=
2025-06-16 18:00:00<>METAR SBGL 161800Z 06011KT CAVOK 28/13 Q1021=
2025-06-16 19:00:00<>METAR SBGL 161900Z 13007KT CAVOK 25/15 Q1021=
2025-06-16 20:00:00<>METAR SBGL 162000Z 13008KT CAVOK 23/17 Q1021=
2025-06-16 21:00:00<>METAR SBGL 162100Z 12007KT CAVOK 22/18 Q1022=
2025-06-16 22:00:00<>METAR SBGL 162200Z 12007KT CAVOK 21/17 Q1022=
2025-06-16 23:00:00<>METAR SBGL 162300Z VRB02KT CAVOK 21/16 Q1023=
2025-06-17 00:00:00<>METAR SBGL 170000Z 10003KT 070V140 CAVOK 19/16 Q1023=
2025-06-17 01:00:00<>METAR SBGL 170100Z VRB02KT CAVOK 18/16 Q1023=
2025-06-17 02:00:00<>METAR SBGL 170200Z 06004KT CAVOK 17/15 Q1023=
2025-06-17 03:00:00<>METAR SBGL 170300Z 06003KT CAVOK 17/15 Q1023=
2025-06-17 04:00:00<>METAR SBGL 170400Z 36004KT CAVOK 17/15 Q1023=
2025-06-17 05:00:00<>METAR SBGL 170500Z 05003KT CAVOK 16/14 Q1023=
2025-06-17 06:00:00<>METAR SBGL 170600Z 02002KT CAVOK 16/14 Q1023=
2025-06-17 07:00:00<>METAR SBGL 170700Z VRB02KT CAVOK 16/14 Q1022=
2025-06-17 08:00:00<>METAR SBGL 170800Z VRB01KT CAVOK 15/14 Q1022=
2025-06-17 09:00:00<>METAR SBGL 170900Z 07003KT CAVOK 15/13 Q1022=
2025-06-17 10:00:00<>METAR SBGL 171000Z VRB01KT CAVOK 14/13 Q1022=
2025-06-17 11:00:00<>METAR SBGL 171100Z 06002KT 8000 NSC 18/16 Q1023=
2025-06-17 12:00:00<>METAR SBGL 171200Z 05003KT CAVOK 20/16 Q1024=
2025-06-17 13:00:00<>METAR SBGL 171300Z 34004KT 9999 FEW025 21/16 Q1024=
2025-06-17 14:00:00<>METAR SBGL 171400Z 01003KT 9999 FEW025 23/15 Q1023=
2025-06-17 15:00:00<>METAR SBGL 171500Z 35004KT 9999 FEW030 24/15 Q1023=
2025-06-17 16:00:00<>METAR SBGL 171600Z 35004KT 310V020 9999 FEW035 26/15 Q1022=
2025-06-17 17:00:00<>METAR SBGL 171700Z 11006KT 080V140 9999 FEW040 26/14 Q1021=
2025-06-17 18:00:00<>METAR SBGL 171800Z 12006KT 080V150 9999 FEW040 26/14 Q1020=
2025-06-17 19:00:00<>METAR SBGL 171900Z 13005KT 9999 FEW040 26/15 Q1020=
2025-06-17 20:00:00<>METAR SBGL 172000Z 13004KT CAVOK 25/17 Q1020=
2025-06-17 21:00:00<>METAR SBGL 172100Z 12004KT CAVOK 22/17 Q1021=
2025-06-17 22:00:00<>METAR SBGL 172200Z 09003KT CAVOK 21/17 Q1021=
2025-06-17 23:00:00<>METAR SBGL 172300Z 05002KT CAVOK 21/17 Q1021=
2025-06-18 00:00:00<>METAR SBGL 180000Z 01003KT CAVOK 19/17 Q1022=
2025-06-18 01:00:00<>METAR SBGL 180100Z 09005KT CAVOK 19/16 Q1022=
2025-06-18 02:00:00<>METAR SBGL 180200Z 07006KT CAVOK 19/17 Q1023=
2025-06-18 03:00:00<>METAR SBGL 180300Z 24005KT CAVOK 18/17 Q1023=
2025-06-18 04:00:00<>METAR SBGL 180400Z 10002KT CAVOK 19/17 Q1022=
2025-06-18 05:00:00<>METAR SBGL 180500Z 18003KT CAVOK 18/16 Q1022=
2025-06-18 06:00:00<>METAR SBGL 180600Z 25003KT CAVOK 17/16 Q1022=
2025-06-18 07:00:00<>METAR SBGL 180700Z 31003KT 8000 NSC 17/16 Q1021=
2025-06-18 08:00:00<>METAR SBGL 180800Z 04002KT 8000 NSC 16/15 Q1022=
2025-06-18 09:00:00<>METAR SBGL 180900Z 25003KT 8000 NSC 16/15 Q1022=
2025-06-18 10:00:00<>METAR SBGL 181000Z 34004KT 7000 NSC 16/15 Q1023=
2025-06-18 11:00:00<>METAR SBGL 181100Z 09003KT 050V130 7000 FEW030 19/17 Q1023=
2025-06-18 12:00:00<>METAR SBGL 181200Z VRB02KT 8000 FEW030 21/18 Q1023=
2025-06-18 13:00:00<>METAR SBGL 181300Z 35002KT 9000 FEW030 23/18 Q1023=
2025-06-18 14:00:00<>METAR SBGL 181400Z 35002KT 9000 FEW030 23/18 Q1023=
2025-06-18 15:00:00<>METAR SBGL 181500Z 12006KT 9999 FEW030 26/16 Q1021=
2025-06-18 16:00:00<>METAR SBGL 181600Z 13007KT 9999 FEW030 27/14 Q1020=
2025-06-18 17:00:00<>METAR SBGL 181700Z 17004KT 100V210 CAVOK 29/14 Q1019=
2025-06-18 18:00:00<>METAR SBGL 181800Z 11005KT CAVOK 28/17 Q1018=
2025-06-18 19:00:00<>METAR SBGL 181900Z 13007KT CAVOK 27/17 Q1018=
2025-06-18 20:00:00<>METAR SBGL 182000Z 13006KT CAVOK 25/17 Q1018=
2025-06-18 21:00:00<>METAR SBGL 182100Z 14005KT CAVOK 24/17 Q1019=
2025-06-18 22:00:00<>METAR SBGL 182200Z 13004KT CAVOK 25/16 Q1019=
2025-06-18 23:00:00<>METAR SBGL 182300Z 07005KT CAVOK 24/16 Q1019=
2025-06-19 00:00:00<>METAR SBGL 190000Z 11005KT CAVOK 21/16 Q1020=
2025-06-19 01:00:00<>METAR SBGL 190100Z 12004KT CAVOK 21/16 Q1020=
2025-06-19 02:00:00<>METAR SBGL 190200Z 14004KT CAVOK 21/17 Q1020=
2025-06-19 03:00:00<>METAR SBGL 190300Z 13002KT CAVOK 20/17 Q1020=
2025-06-19 04:00:00<>METAR SBGL 190400Z 26002KT CAVOK 21/17 Q1020=
2025-06-19 05:00:00<>METAR SBGL 190500Z 22001KT CAVOK 19/16 Q1020=
2025-06-19 06:00:00<>METAR SBGL 190600Z 15002KT CAVOK 18/16 Q1020=
2025-06-19 07:00:00<>METAR SBGL 190700Z 00000KT CAVOK 18/15 Q1020=
2025-06-19 08:00:00<>METAR SBGL 190800Z 14001KT CAVOK 17/15 Q1020=
2025-06-19 09:00:00<>METAR SBGL 190900Z 06003KT CAVOK 17/15 Q1020=
2025-06-19 10:00:00<>METAR SBGL 191000Z 06003KT 9999 FEW020 18/16 Q1020=
2025-06-19 11:00:00<>METAR SBGL 191100Z VRB02KT CAVOK 21/18 Q1021=
2025-06-19 12:00:00<>METAR SBGL 191200Z VRB01KT CAVOK 24/19 Q1021=
2025-06-19 13:00:00<>METAR SBGL 191300Z 33003KT 270V020 CAVOK 25/17 Q1022=
2025-06-19 14:00:00<>METAR SBGL 191400Z VRB02KT CAVOK 28/17 Q1021=
2025-06-19 15:00:00<>METAR SBGL 191500Z 34004KT 300V070 CAVOK 28/16 Q1020=
2025-06-19 16:00:00<>METAR SBGL 191600Z 02005KT 340V060 CAVOK 29/16 Q1019=
2025-06-19 17:00:00<>METAR SBGL 191700Z 04006KT 9999 FEW025 29/17 Q1019=
2025-06-19 18:00:00<>METAR SBGL 191800Z 05007KT 9999 FEW025 29/17 Q1018=
2025-06-19 19:00:00<>METAR SBGL 191900Z 05006KT 9999 FEW025 29/17 Q1018=
2025-06-19 20:00:00<>METAR SBGL 192000Z 13005KT 9999 FEW025 26/18 Q1019=
2025-06-19 21:00:00<>METAR SBGL 192100Z 13006KT CAVOK 24/19 Q1019=
2025-06-19 22:00:00<>METAR SBGL 192200Z 12004KT CAVOK 23/18 Q1019=
2025-06-19 23:00:00<>METAR SBGL 192300Z 12004KT CAVOK 22/17 Q1020=
2025-06-20 00:00:00<>METAR SBGL 200000Z 06005KT CAVOK 22/17 Q1020=
2025-06-20 01:00:00<>METAR SBGL 200100Z 04002KT CAVOK 20/17 Q1020=
2025-06-20 02:00:00<>METAR SBGL 200200Z 07003KT CAVOK 20/17 Q1020=
2025-06-20 03:00:00<>METAR SBGL 200300Z 08002KT CAVOK 20/18 Q1020=
2025-06-20 04:00:00<>METAR SBGL 200400Z 06002KT CAVOK 19/17 Q1020=
2025-06-20 05:00:00<>METAR SBGL 200500Z 03003KT CAVOK 18/17 Q1020=
2025-06-20 06:00:00<>METAR SBGL 200600Z 36003KT CAVOK 18/17 Q1019=
2025-06-20 07:00:00<>METAR SBGL 200700Z 34003KT 8000 NSC 18/17 Q1019=
2025-06-20 08:00:00<>METAR SBGL 200800Z 06003KT 8000 NSC 17/16 Q1019=
2025-06-20 09:00:00<>METAR SBGL 200900Z 07003KT 9000 NSC 18/16 Q1019=
2025-06-20 10:00:00<>METAR SBGL 201000Z 07003KT CAVOK 18/16 Q1019=
2025-06-20 11:00:00<>METAR SBGL 201100Z VRB02KT 9999 FEW035 21/18 Q1020=
2025-06-20 12:00:00<>METAR SBGL 201200Z VRB01KT 9999 FEW035 22/18 Q1020=
2025-06-20 13:00:00<>METAR SBGL 201300Z 36004KT 320V040 9999 FEW035 24/19 Q1020=
2025-06-20 14:00:00<>METAR SBGL 201400Z 04003KT 350V150 9999 FEW035 26/17 Q1019=
2025-06-20 15:00:00<>METAR SBGL 201500Z 34004KT 280V020 9999 FEW035 28/16 Q1018=
2025-06-20 16:00:00<>METAR SBGL 201600Z 08004KT 340V140 9999 FEW035 29/16 Q1016=
2025-06-20 17:00:00<>METAR SBGL 201700Z 03005KT 350V070 9999 FEW035 29/15 Q1016=
2025-06-20 18:00:00<>METAR SBGL 201800Z 06006KT 020V090 9999 FEW035 30/13 Q1015=
2025-06-20 19:00:00<>METAR SBGL 201900Z 07007KT 9999 FEW035 29/12 Q1014=
2025-06-20 20:00:00<>METAR SBGL 202000Z 09004KT CAVOK 27/14 Q1014=
2025-06-20 21:00:00<>METAR SBGL 202100Z 05005KT CAVOK 24/16 Q1015=
2025-06-20 22:00:00<>METAR SBGL 202200Z VRB02KT CAVOK 22/17 Q1015=
2025-06-20 23:00:00<>METAR SBGL 202300Z 10003KT CAVOK 21/17 Q1015=
2025-06-21 00:00:00<>METAR SBGL 210000Z 12003KT CAVOK 21/16 Q1016=
2025-06-21 01:00:00<>METAR SBGL 210100Z 00000KT CAVOK 21/17 Q1016=
2025-06-21 02:00:00<>METAR SBGL 210200Z VRB01KT CAVOK 21/17 Q1015=
2025-06-21 03:00:00<>METAR SBGL 210300Z 06005KT CAVOK 20/15 Q1014=
2025-06-21 04:00:00<>METAR SBGL 210400Z 14003KT 110V170 CAVOK 19/15 Q1014=
2025-06-21 05:00:00<>METAR SBGL 210500Z VRB02KT CAVOK 19/16 Q1013=
2025-06-21 06:00:00<>METAR SBGL 210600Z 17002KT CAVOK 19/16 Q1013=
2025-06-21 07:00:00<>METAR SBGL 210700Z 24003KT 190V280 CAVOK 18/16 Q1013=
2025-06-21 08:00:00<>METAR SBGL 210800Z 00000KT CAVOK 17/15 Q1013=
2025-06-21 09:00:00<>METAR SBGL 210900Z 07002KT CAVOK 17/15 Q1013=
2025-06-21 10:00:00<>METAR SBGL 211000Z 06002KT CAVOK 17/15 Q1013=
2025-06-21 11:00:00<>METAR SBGL 211100Z 04005KT CAVOK 22/18 Q1014=
2025-06-21 12:00:00<>METAR SBGL 211200Z 03004KT CAVOK 24/17 Q1014=
2025-06-21 13:00:00<>METAR SBGL 211300Z 33003KT 9999 FEW020 SCT100 26/16 Q1014=
2025-06-21 14:00:00<>METAR SBGL 211400Z 34008KT 9999 FEW020 SCT100 29/15 Q1013=
2025-06-21 15:00:00<>METAR SBGL 211500Z 25019KT 9999 FEW020 SCT100 30/14 Q1013=
2025-06-21 16:00:00<>METAR SBGL 211600Z 23015KT 9999 FEW020 SCT100 29/14 Q1012=
2025-06-21 17:00:00<>METAR SBGL 211700Z 21013KT 9999 FEW030 SCT100 28/17 Q1012=
2025-06-21 18:00:00<>METAR SBGL 211800Z 22010KT 9999 FEW030 SCT100 26/16 Q1012=
2025-06-21 19:00:00<>METAR SBGL 211900Z 22008KT 9999 FEW040 SCT100 26/16 Q1012=
2025-06-21 20:00:00<>METAR SBGL 212000Z 23008KT 9999 FEW040 SCT100 24/14 Q1013=
2025-06-21 21:00:00<>METAR SBGL 212100Z 24006KT CAVOK 24/14 Q1014=
2025-06-21 22:00:00<>METAR SBGL 212200Z 23006KT 9999 BKN035 23/14 Q1015=
2025-06-21 23:00:00<>METAR SBGL 212300Z VRB02KT 9999 BKN035 23/13 Q1015=
2025-06-22 00:00:00<>METAR SBGL 220000Z 30002KT 9999 BKN035 22/15 Q1015=
2025-06-22 01:00:00<>METAR SBGL 220100Z 35003KT 340V040 9999 SCT035 BKN100 22/15 Q1015=
2025-06-22 02:00:00<>METAR SBGL 220200Z 04003KT 010V090 9999 FEW035 SCT100 21/15 Q1015=
2025-06-22 03:00:00<>METAR SBGL 220300Z 08004KT CAVOK 19/15 Q1015=
2025-06-22 04:00:00<>METAR SBGL 220400Z 06003KT 040V100 CAVOK 19/16 Q1014=
2025-06-22 05:00:00<>METAR SBGL 220500Z VRB01KT CAVOK 18/16 Q1014=
2025-06-22 06:00:00<>METAR SBGL 220600Z 04004KT CAVOK 19/17 Q1013=
2025-06-22 07:00:00<>METAR SBGL 220700Z 06002KT CAVOK 18/16 Q1013=
2025-06-22 08:00:00<>METAR SBGL 220800Z VRB01KT CAVOK 18/16 Q1013=
2025-06-22 09:00:00<>METAR SBGL 220900Z VRB02KT 9999 FEW017 18/16 Q1013=
2025-06-22 10:00:00<>METAR SBGL 221000Z VRB02KT 8000 FEW017 BKN090 18/17 Q1014=
2025-06-22 11:00:00<>METAR SBGL 221100Z VRB02KT 9000 FEW016 SCT080 20/18 Q1014=
2025-06-22 12:00:00<>METAR SBGL 221200Z VRB01KT 9000 FEW020 BKN080 21/18 Q1014=
2025-06-22 13:00:00<>METAR SBGL 221300Z VRB02KT 9999 FEW015 BKN100 22/18 Q1014=
2025-06-22 14:00:00<>METAR SBGL 221400Z 28003KT 250V330 9999 FEW020 BKN100 24/18 Q1014=
2025-06-22 15:00:00<>METAR SBGL 221500Z 25006KT 220V280 9999 FEW020 BKN100 27/18 Q1013=
2025-06-22 16:00:00<>METAR SBGL 221600Z 18007KT 9000 FEW020 SCT100 27/18 Q1012=
2025-06-22 17:00:00<>METAR SBGL 221700Z 12015KT 9000 FEW020 SCT100 24/19 Q1012=
2025-06-22 18:00:00<>METAR SBGL 221800Z 13011KT 9000 FEW020 BKN100 23/19 Q1012=
2025-06-22 19:00:00<>METAR SBGL 221900Z 13010KT 9999 FEW020 BKN100 23/19 Q1012=
2025-06-22 20:00:00<>METAR SBGL 222000Z 14007KT 9999 FEW046 22/19 Q1012=
2025-06-22 21:00:00<>METAR SBGL 222100Z 14006KT 9999 FEW046 22/18 Q1013=
2025-06-22 22:00:00<>METAR SBGL 222200Z 18006KT 9999 FEW046 21/18 Q1013=
2025-06-22 23:00:00<>METAR SBGL 222300Z VRB02KT CAVOK 22/18 Q1013=
2025-06-23 00:00:00<>METAR SBGL 230000Z VRB02KT CAVOK 22/18 Q1013=
2025-06-23 01:00:00<>METAR SBGL 230100Z 00000KT CAVOK 20/18 Q1013=
2025-06-23 02:00:00<>METAR SBGL 230200Z VRB02KT 6000 NSC 21/19 Q1013=
2025-06-23 03:00:00<>METAR SBGL 230300Z 03003KT 360V060 5000 BR NSC 19/17 Q1012=
2025-06-23 04:00:00<>METAR SBGL 230400Z 06003KT 4000 BR NSC 19/17 Q1012=
2025-06-23 05:00:00<>METAR SBGL 230500Z VRB02KT 4000 BR NSC 19/18 Q1011=
2025-06-23 06:00:00<>METAR SBGL 230600Z 15005KT 3500 BR NSC 19/18 Q1010=
2025-06-23 07:00:00<>METAR SBGL 230700Z VRB02KT 3500 BR NSC 19/18 Q1010=
2025-06-23 08:00:00<>METAR SBGL 230800Z VRB01KT 4500 BR NSC 19/17 Q1010=
2025-06-23 08:18:00<>SPECI SBGL 230818Z 01003KT 320V060 5000 BR NSC 19/17 Q1010=
2025-06-23 09:00:00<>METAR SBGL 230900Z 20004KT 180V240 8000 NSC 19/18 Q1010=
2025-06-23 10:00:00<>METAR SBGL 231000Z VRB02KT 9000 NSC 20/18 Q1011=
2025-06-23 11:00:00<>METAR SBGL 231100Z VRB02KT 9999 FEW020 BKN100 24/19 Q1012=
2025-06-23 12:00:00<>METAR SBGL 231200Z VRB02KT CAVOK 27/17 Q1012=
2025-06-23 13:00:00<>METAR SBGL 231300Z 02005KT 350V050 CAVOK 29/17 Q1012=
2025-06-23 14:00:00<>METAR SBGL 231400Z 02005KT 330V050 CAVOK 31/15 Q1012=
2025-06-23 15:00:00<>METAR SBGL 231500Z 01005KT 320V080 CAVOK 31/15 Q1010=
2025-06-23 16:00:00<>METAR SBGL 231600Z 03006KT 360V090 CAVOK 33/15 Q1008=
2025-06-23 17:00:00<>METAR SBGL 231700Z 03006KT 350V060 CAVOK 34/14 Q1007=
2025-06-23 18:00:00<>METAR SBGL 231800Z 01003KT CAVOK 34/14 Q1007=
2025-06-23 19:00:00<>METAR SBGL 231900Z 10004KT CAVOK 33/13 Q1007=
2025-06-23 20:00:00<>METAR SBGL 232000Z 04005KT CAVOK 31/16 Q1008=
2025-06-23 21:00:00<>METAR SBGL 232100Z 02002KT CAVOK 28/17 Q1009=
2025-06-23 22:00:00<>METAR SBGL 232200Z 08003KT CAVOK 25/18 Q1009=
2025-06-23 23:00:00<>METAR SBGL 232300Z 19009KT 9999 FEW030 SCT080 27/16 Q1011=
2025-06-24 00:00:00<>METAR SBGL 240000Z 31006KT 9999 FEW030 SCT100 26/16 Q1011=
2025-06-24 01:00:00<>METAR SBGL 240100Z 34005KT 9999 FEW030 SCT100 25/17 Q1012=
2025-06-24 02:00:00<>METAR SBGL 240200Z 04005KT 9999 FEW030 SCT100 24/18 Q1011=
2025-06-24 03:00:00<>METAR SBGL 240300Z 10005KT 9999 FEW030 SCT100 23/18 Q1011=
2025-06-24 04:00:00<>METAR SBGL 240400Z 07007KT 9999 FEW030 SCT100 22/18 Q1010=
2025-06-24 05:00:00<>METAR SBGL 240500Z 11007KT 9999 FEW030 SCT100 22/18 Q1010=
2025-06-24 06:00:00<>METAR SBGL 240600Z 17007KT 9999 FEW030 SCT100 22/18 Q1010=
2025-06-24 07:00:00<>METAR SBGL 240700Z 24005KT 9999 FEW030 BKN100 22/18 Q1010=
2025-06-24 08:00:00<>METAR SBGL 240800Z 24010KT 8000 FEW030 BKN100 24/18 Q1010=
2025-06-24 09:00:00<>METAR SBGL 240900Z 23011KT 8000 FEW030 SCT100 23/18 Q1011=
2025-06-24 10:00:00<>METAR SBGL 241000Z 25013KT 9999 FEW030 BKN100 22/18 Q1013=
2025-06-24 11:00:00<>METAR SBGL 241100Z 23012KT 9999 FEW017 BKN095 22/18 Q1014=
2025-06-24 12:00:00<>METAR SBGL 241200Z 20010KT 9000 -DZ SCT018 BKN030 BKN065 21/18 Q1016=
2025-06-24 13:00:00<>METAR SBGL 241300Z 24008KT 9999 SCT016 BKN020 BKN030 21/18 Q1016=
2025-06-24 14:00:00<>METAR SBGL 241400Z 22017KT 9999 SHRA SCT023 BKN070 BKN082 21/16 Q1017=
2025-06-24 15:00:00<>METAR SBGL 241500Z 23017KT 9999 SCT020 BKN030 BKN082 20/15 Q1017 RESHRA=
2025-06-24 16:00:00<>METAR SBGL 241600Z 23016KT 9999 FEW025 BKN030 BKN082 19/13 Q1017=
2025-06-24 17:00:00<>METAR SBGL 241700Z 24012KT 9999 FEW025 BKN035 BKN090 19/14 Q1017=
2025-06-24 17:30:00<>SPECI SBGL 241730Z 23013KT 200V260 9000 -DZ BKN012 BKN018 OVC035 18/15 Q1018=
2025-06-24 18:00:00<>METAR SBGL 241800Z 23014KT 9999 BKN012 BKN018 OVC040 18/14 Q1018=
2025-06-24 19:00:00<>METAR SBGL 241900Z 23013KT 9999 VCSH BKN014 BKN021 OVC043 18/13 Q1018=
2025-06-24 20:00:00<>METAR SBGL 242000Z 21012KT 9000 VCSH BKN014 BKN019 OVC034 18/13 Q1020=
2025-06-24 21:00:00<>METAR SBGL 242100Z 23008KT 200V260 9999 SCT016 BKN022 OVC034 18/13 Q1020=
2025-06-24 22:00:00<>METAR SBGL 242200Z 24009KT 9999 SCT018 BKN027 OVC031 17/13 Q1021=
2025-06-24 23:00:00<>METAR SBGL 242300Z 24007KT 9999 FEW010 BKN022 OVC030 18/13 Q1022=
2025-06-25 00:00:00<>METAR SBGL 250000Z 23006KT 9999 FEW010 BKN022 OVC030 17/14 Q1023=
2025-06-25 01:00:00<>METAR SBGL 250100Z 34006KT 9999 SCT022 BKN030 17/15 Q1023=
2025-06-25 02:00:00<>METAR SBGL 250200Z 31004KT 9999 SCT022 BKN030 17/14 Q1023=
2025-06-25 03:00:00<>METAR SBGL 250300Z 30004KT 9999 SCT022 BKN030 17/14 Q1023=
2025-06-25 04:00:00<>METAR SBGL 250400Z 31003KT 9999 SCT022 BKN030 17/14 Q1023=
2025-06-25 05:00:00<>METAR SBGL 250500Z 27002KT 9999 FEW020 OVC030 17/14 Q1023=
2025-06-25 06:00:00<>METAR SBGL 250600Z 26003KT 9999 FEW020 OVC030 17/14 Q1022=
2025-06-25 07:00:00<>METAR SBGL 250700Z 21004KT 9999 FEW020 OVC033 17/14 Q1022=
2025-06-25 08:00:00<>METAR SBGL 250800Z 23002KT 9999 FEW016 BKN035 16/13 Q1022=
2025-06-25 09:00:00<>METAR SBGL 250900Z 09002KT 9999 FEW014 BKN040 15/13 Q1023=
2025-06-25 10:00:00<>METAR SBGL 251000Z VRB01KT 9999 FEW013 BKN040 16/12 Q1023=
2025-06-25 11:00:00<>METAR SBGL 251100Z VRB01KT 9999 FEW013 BKN021 BKN040 18/13 Q1024=
2025-06-25 12:00:00<>METAR SBGL 251200Z 36004KT 330V040 9999 FEW012 BKN020 BKN035 18/14 Q1025=
2025-06-25 13:00:00<>METAR SBGL 251300Z 06008KT 030V100 9999 FEW020 SCT033 21/11 Q1025=
2025-06-25 14:00:00<>METAR SBGL 251400Z 03008KT 360V060 9999 FEW020 20/10 Q1025=
2025-06-25 15:00:00<>METAR SBGL 251500Z 03007KT 360V060 9999 FEW030 21/10 Q1024=
2025-06-25 16:00:00<>METAR SBGL 251600Z 04008KT 360V090 9999 FEW030 22/10 Q1023=
2025-06-25 17:00:00<>METAR SBGL 251700Z VRB06KT 9999 FEW030 22/11 Q1022=
2025-06-25 18:00:00<>METAR SBGL 251800Z 15006KT 100V180 CAVOK 22/10 Q1021=
2025-06-25 19:00:00<>METAR SBGL 251900Z 14008KT CAVOK 21/11 Q1021=
2025-06-25 20:00:00<>METAR SBGL 252000Z 14007KT CAVOK 20/12 Q1021=
2025-06-25 21:00:00<>METAR SBGL 252100Z 14005KT CAVOK 19/12 Q1021=
2025-06-25 22:00:00<>METAR SBGL 252200Z 13005KT CAVOK 19/12 Q1022=
2025-06-25 23:00:00<>METAR SBGL 252300Z 11009KT CAVOK 19/11 Q1022=
2025-06-26 00:00:00<>METAR SBGL 260000Z 09009KT CAVOK 18/11 Q1022=
2025-06-26 01:00:00<>METAR SBGL 260100Z 12005KT CAVOK 17/12 Q1022=
2025-06-26 02:00:00<>METAR SBGL 260200Z 08005KT CAVOK 16/12 Q1022=
2025-06-26 03:00:00<>METAR SBGL 260300Z 05003KT 010V080 CAVOK 16/12 Q1021=
2025-06-26 04:00:00<>METAR SBGL 260400Z VRB02KT CAVOK 15/12 Q1021=
2025-06-26 05:00:00<>METAR SBGL 260500Z VRB02KT CAVOK 14/12 Q1021=
2025-06-26 06:00:00<>METAR SBGL 260600Z 32004KT CAVOK 15/14 Q1021=
2025-06-26 07:00:00<>METAR SBGL 260700Z VRB02KT CAVOK 13/12 Q1021=
2025-06-26 08:00:00<>METAR SBGL 260800Z 01003KT 360V070 CAVOK 14/12 Q1020=
2025-06-26 09:00:00<>METAR SBGL 260900Z VRB02KT CAVOK 14/12 Q1020=
2025-06-26 10:00:00<>METAR SBGL 261000Z VRB02KT 9000 NSC 13/12 Q1020=
2025-06-26 11:00:00<>METAR SBGL 261100Z 07003KT 9000 NSC 17/15 Q1020=
2025-06-26 12:00:00<>METAR SBGL 261200Z 03003KT CAVOK 20/15 Q1021=
2025-06-26 13:00:00<>METAR SBGL 261300Z 02004KT CAVOK 22/15 Q1020=
2025-06-26 14:00:00<>METAR SBGL 261400Z 04007KT CAVOK 21/15 Q1019=
2025-06-26 15:00:00<>METAR SBGL 261500Z 34006KT CAVOK 24/15 Q1018=
2025-06-26 16:00:00<>METAR SBGL 261600Z 12003KT CAVOK 26/14 Q1017=
2025-06-26 17:00:00<>METAR SBGL 261700Z VRB02KT CAVOK 27/14 Q1016=
2025-06-26 18:00:00<>METAR SBGL 261800Z 07005KT 040V110 CAVOK 28/15 Q1015=
2025-06-26 19:00:00<>METAR SBGL 261900Z 13006KT CAVOK 26/15 Q1015=
2025-06-26 20:00:00<>METAR SBGL 262000Z 09003KT CAVOK 24/16 Q1015=
2025-06-26 21:00:00<>METAR SBGL 262100Z VRB02KT CAVOK 22/16 Q1016=
2025-06-26 22:00:00<>METAR SBGL 262200Z 07003KT CAVOK 20/15 Q1016=
2025-06-26 23:00:00<>METAR SBGL 262300Z VRB02KT CAVOK 20/16 Q1016=
2025-06-27 00:00:00<>METAR SBGL 270000Z VRB01KT CAVOK 19/16 Q1016=
2025-06-27 01:00:00<>METAR SBGL 270100Z VRB04KT CAVOK 20/16 Q1017=
2025-06-27 02:00:00<>METAR SBGL 270200Z 21003KT 180V250 CAVOK 20/17 Q1017=
2025-06-27 03:00:00<>METAR SBGL 270300Z 00000KT CAVOK 18/16 Q1017=
2025-06-27 04:00:00<>METAR SBGL 270400Z VRB02KT 9000 NSC 17/15 Q1017=
2025-06-27 05:00:00<>METAR SBGL 270500Z VRB02KT 7000 NSC 18/16 Q1017=
2025-06-27 06:00:00<>METAR SBGL 270600Z 07003KT 6000 2000W NSC 17/15 Q1016=
2025-06-27 07:00:00<>METAR SBGL 270700Z VRB01KT 6000 NSC 16/15 Q1016=
2025-06-27 08:00:00<>METAR SBGL 270800Z 07005KT 9000 NSC 17/15 Q1016=
2025-06-27 09:00:00<>METAR SBGL 270900Z VRB01KT CAVOK 17/15 Q1017=
2025-06-27 10:00:00<>METAR SBGL 271000Z 02003KT 320V050 9000 NSC 18/16 Q1017=
2025-06-27 11:00:00<>METAR SBGL 271100Z 32005KT CAVOK 21/18 Q1018=
2025-06-27 12:00:00<>METAR SBGL 271200Z 26007KT CAVOK 24/18 Q1019=
2025-06-27 13:00:00<>METAR SBGL 271300Z 16006KT CAVOK 26/17 Q1020=
2025-06-27 14:00:00<>METAR SBGL 271400Z 24008KT 210V270 CAVOK 28/16 Q1020=
2025-06-27 15:00:00<>METAR SBGL 271500Z 25007KT 320V060 CAVOK 28/18 Q1019=
2025-06-27 16:00:00<>METAR SBGL 271600Z 30007KT CAVOK 28/18 Q1018=
2025-06-27 17:00:00<>METAR SBGL 271700Z 04007KT CAVOK 29/17 Q1018=
2025-06-27 18:00:00<>METAR SBGL 271800Z 04005KT 9999 FEW035 BKN100 28/17 Q1018=
2025-06-27 19:00:00<>METAR SBGL 271900Z 05006KT 9999 FEW031 BKN100 27/17 Q1018=
2025-06-27 20:00:00<>METAR SBGL 272000Z 14008KT 9999 FEW035 BKN100 26/18 Q1018=
2025-06-27 21:00:00<>METAR SBGL 272100Z 14008KT 9999 FEW035 BKN100 25/18 Q1019=
2025-06-27 22:00:00<>METAR SBGL 272200Z 22008KT 9999 FEW030 BKN100 24/18 Q1020=
2025-06-27 23:00:00<>METAR SBGL 272300Z 24006KT 210V280 9999 FEW025 BKN050 23/19 Q1021=
2025-06-28 00:00:00<>METAR SBGL 280000Z 31004KT 290V040 9999 FEW025 BKN040 23/19 Q1022=
2025-06-28 01:00:00<>METAR SBGL 280100Z 04003KT 010V080 9000 FEW025 BKN040 23/19 Q1022=
2025-06-28 02:00:00<>METAR SBGL 280200Z 04004KT 9000 FEW020 BKN030 22/19 Q1022=
2025-06-28 03:00:00<>METAR SBGL 280300Z 06003KT 020V090 9000 FEW020 BKN030 23/19 Q1022=
2025-06-28 04:00:00<>METAR SBGL 280400Z 07002KT 9000 FEW020 BKN030 BKN045 22/19 Q1022=
2025-06-28 05:00:00<>METAR SBGL 280500Z VRB02KT 9000 FEW020 BKN030 BKN045 21/19 Q1021=
2025-06-28 06:00:00<>METAR SBGL 280600Z 06002KT 9000 FEW020 BKN030 21/19 Q1021=
2025-06-28 07:00:00<>METAR SBGL 280700Z 06003KT 9000 FEW020 BKN040 21/19 Q1021=
2025-06-28 08:00:00<>METAR SBGL 280800Z VRB01KT 9000 FEW020 BKN040 21/19 Q1021=
2025-06-28 09:00:00<>METAR SBGL 280900Z VRB02KT 8000 FEW015 BKN040 22/20 Q1022=
2025-06-28 10:00:00<>METAR SBGL 281000Z 06001KT 8000 FEW020 BKN045 21/19 Q1022=
2025-06-28 11:00:00<>METAR SBGL 281100Z 04003KT 7000 FEW020 BKN045 22/20 Q1022=
2025-06-28 12:00:00<>METAR SBGL 281200Z 04005KT 8000 FEW013 BKN050 23/19 Q1023=
2025-06-28 13:00:00<>METAR SBGL 281300Z 01006KT 9000 FEW018 24/19 Q1023=
2025-06-28 14:00:00<>METAR SBGL 281400Z 04004KT 350V090 9999 FEW020 25/19 Q1022=
2025-06-28 15:00:00<>METAR SBGL 281500Z 06004KT 350V120 9999 FEW026 27/19 Q1021=
2025-06-28 16:00:00<>METAR SBGL 281600Z 03007KT 010V070 9999 FEW026 27/19 Q1020=
2025-06-28 17:00:00<>METAR SBGL 281700Z 14006KT 9999 SCT030 26/20 Q1019=
2025-06-28 18:00:00<>METAR SBGL 281800Z 13008KT 9999 SCT035 26/20 Q1019=
2025-06-28 19:00:00<>METAR SBGL 281900Z 15010KT 9999 SCT035 25/20 Q1018=
2025-06-28 20:00:00<>METAR SBGL 282000Z 14007KT 9999 FEW040 24/20 Q1018=
2025-06-28 21:00:00<>METAR SBGL 282100Z 14005KT 9999 FEW040 23/20 Q1018=
2025-06-28 22:00:00<>METAR SBGL 282200Z 12009KT 9999 FEW040 23/20 Q1018=
2025-06-28 23:00:00<>METAR SBGL 282300Z 11008KT CAVOK 23/19 Q1018=
2025-06-29 00:00:00<>METAR SBGL 290000Z 11006KT CAVOK 23/19 Q1018=
2025-06-29 01:00:00<>METAR SBGL 290100Z 15004KT CAVOK 21/18 Q1018=
2025-06-29 02:00:00<>METAR SBGL 290200Z 33002KT CAVOK 20/18 Q1017=
2025-06-29 03:00:00<>METAR SBGL 290300Z 15004KT CAVOK 19/17 Q1017=
2025-06-29 04:00:00<>METAR SBGL 290400Z 18004KT CAVOK 19/18 Q1016=
2025-06-29 05:00:00<>METAR SBGL 290500Z 21004KT CAVOK 19/18 Q1016=
2025-06-29 06:00:00<>METAR SBGL 290600Z 27003KT CAVOK 19/18 Q1016=
2025-06-29 07:00:00<>METAR SBGL 290700Z 33003KT 8000 NSC 18/17 Q1015=
2025-06-29 08:00:00<>METAR SBGL 290800Z 26003KT 8000 NSC 18/16 Q1015=
2025-06-29 09:00:00<>METAR SBGL 290900Z 15003KT CAVOK 19/17 Q1015=
2025-06-29 10:00:00<>METAR SBGL 291000Z 28004KT CAVOK 21/18 Q1015=
2025-06-29 11:00:00<>METAR SBGL 291100Z VRB02KT CAVOK 23/18 Q1015=
2025-06-29 12:00:00<>METAR SBGL 291200Z 35010KT CAVOK 27/16 Q1016=
2025-06-29 13:00:00<>METAR SBGL 291300Z 35012KT CAVOK 29/15 Q1016=
2025-06-29 14:00:00<>METAR SBGL 291400Z 35009KT CAVOK 31/14 Q1016=
2025-06-29 15:00:00<>METAR SBGL 291500Z 31013KT CAVOK 32/13 Q1016=
2025-06-29 16:00:00<>METAR SBGL 291600Z 27014KT CAVOK 32/14 Q1015=
2025-06-29 17:00:00<>METAR SBGL 291700Z 27011KT CAVOK 33/14 Q1015=
2025-06-29 18:00:00<>METAR SBGL 291800Z 28009KT CAVOK 33/15 Q1014=
2025-06-29 19:00:00<>METAR SBGL 291900Z 27005KT CAVOK 33/14 Q1015=
2025-06-29 20:00:00<>METAR SBGL 292000Z 13008KT CAVOK 27/17 Q1015=
2025-06-29 21:00:00<>METAR SBGL 292100Z 12008KT CAVOK 26/16 Q1016=
2025-06-29 22:00:00<>METAR SBGL 292200Z 06004KT 320V090 CAVOK 24/15 Q1016=
2025-06-29 23:00:00<>METAR SBGL 292300Z 08001KT CAVOK 22/17 Q1016=
2025-06-30 00:00:00<>METAR SBGL 300000Z VRB01KT CAVOK 21/17 Q1016=
2025-06-30 01:00:00<>METAR SBGL 300100Z 09004KT CAVOK 21/17 Q1016=
2025-06-30 02:00:00<>METAR SBGL 300200Z 13003KT CAVOK 21/17 Q1017=
2025-06-30 03:00:00<>METAR SBGL 300300Z 08001KT CAVOK 20/17 Q1017=
2025-06-30 04:00:00<>METAR SBGL 300400Z 04002KT CAVOK 20/17 Q1017=
2025-06-30 05:00:00<>METAR SBGL 300500Z 05003KT CAVOK 19/17 Q1017=
2025-06-30 06:00:00<>METAR SBGL 300600Z VRB02KT CAVOK 19/17 Q1017=
2025-06-30 07:00:00<>METAR SBGL 300700Z 06004KT CAVOK 18/16 Q1016=
2025-06-30 08:00:00<>METAR SBGL 300800Z VRB01KT CAVOK 19/17 Q1017=
2025-06-30 09:00:00<>METAR SBGL 300900Z 26013KT CAVOK 22/18 Q1017=
2025-06-30 10:00:00<>METAR SBGL 301000Z 27009KT CAVOK 22/18 Q1018=
2025-06-30 11:00:00<>METAR SBGL 301100Z 26010KT 9999 FEW023 23/19 Q1019=
2025-06-30 12:00:00<>METAR SBGL 301200Z 26010KT 9999 FEW017 24/18 Q1020=
2025-06-30 13:00:00<>METAR SBGL 301300Z 26009KT 9999 SCT023 26/18 Q1021=
2025-06-30 14:00:00<>METAR SBGL 301400Z 22008KT 190V260 9999 SCT030 26/18 Q1021=
2025-06-30 15:00:00<>METAR SBGL 301500Z 22007KT 180V260 9999 SCT035 27/17 Q1020=
2025-06-30 16:00:00<>METAR SBGL 301600Z 23005KT 180V280 9999 FEW035 27/17 Q1019=
2025-06-30 17:00:00<>METAR SBGL 301700Z 14009KT 090V170 9999 FEW035 27/17 Q1019=
2025-06-30 18:00:00<>METAR SBGL 301800Z 12011KT 9999 FEW035 26/18 Q1018=
2025-06-30 19:00:00<>METAR SBGL 301900Z 12010KT 9999 FEW035 24/19 Q1019=
2025-06-30 20:00:00<>METAR SBGL 302000Z 12009KT 9999 BKN035 24/19 Q1019=
2025-06-30 21:00:00<>METAR SBGL 302100Z 19005KT 150V230 9999 BKN035 24/18 Q1019=
2025-06-30 22:00:00<>METAR SBGL 302200Z 21006KT 9999 FEW030 BKN035 24/18 Q1020=
2025-06-30 23:00:00<>METAR SBGL 302300Z 24003KT 180V270 9999 FEW026 BKN033 24/18 Q1021=
2025-07-01 00:00:00<>METAR SBGL 010000Z VRB01KT 9999 FEW023 BKN033 23/18 Q1021=
2025-07-01 01:00:00<>METAR SBGL 010100Z 29004KT 260V330 9999 SCT019 BKN033 23/20 Q1021=
2025-07-01 02:00:00<>METAR SBGL 010200Z 28003KT 240V360 9999 FEW015 SCT019 BKN033 23/19 Q1021=
2025-07-01 03:00:00<>METAR SBGL 010300Z 36004KT 210V290 9999 FEW013 SCT017 BKN033 23/19 Q1021=
2025-07-01 04:00:00<>METAR SBGL 010400Z 26005KT 9000 -RA BKN013 BKN017 BKN033 23/19 Q1021=
2025-07-01 05:00:00<>METAR SBGL 010500Z 25005KT 220V290 9000 SCT015 BKN017 BKN030 23/19 Q1021=
2025-07-01 06:00:00<>METAR SBGL 010600Z 26007KT 9000 FEW013 BKN021 BKN030 22/19 Q1021=
2025-07-01 07:00:00<>METAR SBGL 010700Z 26005KT 9999 FEW013 SCT021 BKN030 22/19 Q1021=
2025-07-01 08:00:00<>METAR SBGL 010800Z 26006KT 9999 FEW021 BKN030 BKN046 21/19 Q1020=
2025-07-01 09:00:00<>METAR SBGL 010900Z 26006KT 9999 FEW021 BKN030 BKN046 22/19 Q1021=
2025-07-01 10:00:00<>METAR SBGL 011000Z 28005KT 9999 FEW011 BKN021 BKN046 22/19 Q1022=
2025-07-01 11:00:00<>METAR SBGL 011100Z VRB06KT 9999 FEW011 BKN024 BKN030 22/19 Q1022=
2025-07-01 11:27:00<>SPECI SBGL 011127Z 28007KT 9999 FEW008 BKN011 BKN025 22/19 Q1023=
2025-07-01 12:00:00<>METAR SBGL 011200Z 27006KT 230V310 9999 FEW009 BKN012 BKN040 23/19 Q1023=
2025-07-01 13:00:00<>METAR SBGL 011300Z 25009KT 9999 FEW010 BKN013 BKN050 23/19 Q1023=
2025-07-01 14:00:00<>METAR SBGL 011400Z 24008KT 210V270 9999 FEW010 BKN015 BKN050 24/18 Q1023=
2025-07-01 15:00:00<>METAR SBGL 011500Z 22007KT 190V260 9999 FEW015 BKN021 25/18 Q1023=
2025-07-01 16:00:00<>METAR SBGL 011600Z 21011KT 9999 FEW015 SCT020 25/18 Q1022=
2025-07-01 17:00:00<>METAR SBGL 011700Z 21013KT 9999 FEW015 SCT021 24/18 Q1022=
2025-07-01 18:00:00<>METAR SBGL 011800Z 21013KT 9999 FEW021 SCT035 24/17 Q1022=
2025-07-01 19:00:00<>METAR SBGL 011900Z 22011KT 9999 FEW021 BKN030 BKN040 23/17 Q1022=
2025-07-01 20:00:00<>METAR SBGL 012000Z 25013KT 9999 SCT016 BKN030 BKN045 22/18 Q1023=
2025-07-01 21:00:00<>METAR SBGL 012100Z 25010KT 9999 SCT015 BKN020 BKN045 21/17 Q1023=
2025-07-01 22:00:00<>METAR SBGL 012200Z 27008KT 9999 SCT011 BKN015 BKN020 21/18 Q1024=
2025-07-01 23:00:00<>METAR SBGL 012300Z 27009KT 9999 SCT012 BKN025 OVC045 21/18 Q1024=
2025-07-01 23:21:00<>SPECI SBGL 012321Z 25012KT 3500 -DZ BR SCT008 BKN011 OVC028 20/18 Q1025=
2025-07-01 23:45:00<>SPECI SBGL 012345Z 27011KT 3500 -DZ BR BKN006 OVC010 20/18 Q1025=
2025-07-02 00:00:00<>METAR SBGL 020000Z 26010KT 3500 -DZ BR BKN006 OVC010 20/18 Q1024=
2025-07-02 01:00:00<>METAR SBGL 020100Z 25012KT 6000 -DZ BKN008 OVC017 20/18 Q1025=
2025-07-02 01:37:00<>SPECI SBGL 020137Z 15012KT 9999 SCT010 OVC025 19/18 Q1025=
2025-07-02 02:00:00<>METAR SBGL 020200Z 24013KT 9999 SCT010 OVC025 19/17 Q1025=
2025-07-02 03:00:00<>METAR SBGL 020300Z 25011KT 9999 SCT009 OVC028 19/17 Q1025=
2025-07-02 04:00:00<>METAR SBGL 020400Z 25011KT 9999 FEW008 SCT022 OVC030 19/17 Q1025=
2025-07-02 05:00:00<>METAR SBGL 020500Z 25008KT 9999 FEW008 SCT022 OVC030 19/17 Q1025=
2025-07-02 06:00:00<>METAR SBGL 020600Z 27007KT 9999 FEW008 SCT017 OVC045 19/17 Q1025=
2025-07-02 07:00:00<>METAR SBGL 020700Z 25010KT 9999 FEW008 BKN017 OVC026 19/17 Q1024=
2025-07-02 08:00:00<>METAR SBGL 020800Z 24008KT 9999 SCT013 BKN025 OVC040 19/17 Q1025=
2025-07-02 09:00:00<>METAR SBGL 020900Z 26007KT 9999 SCT006 BKN017 OVC030 19/17 Q1025=
2025-07-02 10:00:00<>METAR SBGL 021000Z 28007KT 9999 SCT006 BKN025 OVC040 19/17 Q1025=
2025-07-02 11:00:00<>METAR SBGL 021100Z 25008KT 7000 VCSH SCT007 BKN011 OVC023 19/17 Q1026=
2025-07-02 12:00:00<>METAR SBGL 021200Z 26010KT 7000 VCSH BKN009 BKN011 OVC023 20/17 Q1027=
2025-07-02 13:00:00<>METAR SBGL 021300Z 25008KT 8000 VCSH BKN009 BKN011 BKN023 21/17 Q1027=
2025-07-02 14:00:00<>METAR SBGL 021400Z 25007KT 9000 VCSH SCT009 BKN015 BKN023 22/17 Q1027=
2025-07-02 15:00:00<>METAR SBGL 021500Z 21010KT 6000 VCSH SCT007 BKN015 BKN017 21/17 Q1026=
2025-07-02 16:00:00<>METAR SBGL 021600Z 22009KT 9000 VCSH SCT011 BKN015 OVC017 21/17 Q1026=
2025-07-02 17:00:00<>METAR SBGL 021700Z 21008KT 9000 SCT009 BKN015 OVC033 20/17 Q1025=
2025-07-02 18:00:00<>METAR SBGL 021800Z 21012KT 9000 VCSH SCT009 BKN011 OVC019 20/17 Q1025=
2025-07-02 19:00:00<>METAR SBGL 021900Z 25008KT 6000 -RA SCT009 BKN013 OVC023 20/16 Q1026=
2025-07-02 20:00:00<>METAR SBGL 022000Z 21006KT 4000 -RA SCT009 BKN013 OVC023 19/16 Q1026=
2025-07-02 21:00:00<>METAR SBGL 022100Z 21009KT 4500 -RA BR BKN011 BKN013 OVC019 19/16 Q1027=
2025-07-02 22:00:00<>METAR SBGL 022200Z 24005KT 4000 -RA BR SCT007 BKN013 OVC019 18/16 Q1027=
2025-07-02 23:00:00<>METAR SBGL 022300Z 26004KT 8000 FEW008 BKN011 OVC018 18/16 Q1028=
2025-07-03 00:00:00<>METAR SBGL 030000Z 25004KT 5000 BR FEW008 BKN012 OVC020 18/16 Q1028=
2025-07-03 00:40:00<>SPECI SBGL 030040Z 25003KT 4000 -RA BR FEW005 BKN010 OVC020 18/16 Q1028=
2025-07-03 01:00:00<>METAR SBGL 030100Z 24003KT 200V260 4000 -RA BR FEW005 BKN009 OVC021 18/17 Q1028=
2025-07-03 02:00:00<>METAR SBGL 030200Z 19003KT 150V220 4000 -RA BR FEW005 BKN009 BKN013 18/16 Q1028=
2025-07-03 03:00:00<>METAR SBGL 030300Z VRB02KT 5000 -RA BR FEW006 BKN010 BKN030 18/16 Q1028=
2025-07-03 04:00:00<>METAR SBGL 030400Z 25004KT 5000 -RA BR FEW006 BKN009 BKN023 18/16 Q1028=
2025-07-03 05:00:00<>METAR SBGL 030500Z 24003KT 4000 -RA BR FEW006 BKN007 BKN022 17/16 Q1027=
2025-07-03 06:00:00<>METAR SBGL 030600Z VRB02KT 5000 -RA BR FEW005 BKN007 BKN022 17/16 Q1027=
2025-07-03 07:00:00<>METAR SBGL 030700Z VRB02KT 5000 -RA BR FEW005 BKN007 BKN022 17/16 Q1027=
2025-07-03 08:00:00<>METAR SBGL 030800Z 33003KT 310V010 9000 FEW005 BKN020 BKN040 17/16 Q1026=
2025-07-03 09:00:00<>METAR SBGL 030900Z 30004KT 9000 FEW005 BKN012 BKN040 17/16 Q1027=
2025-07-03 09:30:00<>SPECI SBGL 030930Z 31004KT 290V360 9000 FEW007 BKN025 BKN030 17/16 Q1027=
2025-07-03 10:00:00<>METAR SBGL 031000Z 31004KT 290V010 9000 FEW008 BKN023 BKN025 18/16 Q1027=
2025-07-03 11:00:00<>METAR SBGL 031100Z 33004KT 9000 FEW006 BKN020 18/16 Q1028=
2025-07-03 12:00:00<>METAR SBGL 031200Z 34005KT 300V030 8000 SCT007 BKN020 18/16 Q1028=
2025-07-03 12:34:00<>SPECI SBGL 031234Z 32003KT 3000 -RA SCT007 BKN020 19/16 Q1028=
2025-07-03 13:00:00<>METAR SBGL 031300Z 25004KT 3000 -RA FEW005 BKN010 OVC020 18/16 Q1028=
2025-07-03 13:24:00<>SPECI SBGL 031324Z 29002KT 5000 BR VCSH FEW005 BKN010 OVC020 18/16 Q1028=
2025-07-03 14:00:00<>METAR SBGL 031400Z 36003KT 320V050 7000 FEW006 SCT010 OVC022 19/16 Q1028=
2025-07-03 15:00:00<>METAR SBGL 031500Z 11003KT 9000 FEW010 BKN022 BKN030 19/16 Q1027=
2025-07-03 16:00:00<>METAR SBGL 031600Z 16002KT 9999 FEW010 SCT023 BKN030 20/16 Q1026=
2025-07-03 17:00:00<>METAR SBGL 031700Z 21008KT 9000 FEW012 SCT018 BKN025 19/16 Q1025=
2025-07-03 18:00:00<>METAR SBGL 031800Z 23005KT 9999 FEW012 SCT020 BKN025 19/15 Q1025=
2025-07-03 19:00:00<>METAR SBGL 031900Z 22004KT 9999 FEW012 SCT020 BKN035 19/15 Q1025=
2025-07-03 20:00:00<>METAR SBGL 032000Z 24005KT 9999 SCT018 BKN035 19/15 Q1025=
2025-07-03 21:00:00<>METAR SBGL 032100Z 25007KT 9999 SCT018 OVC030 19/16 Q1026=
2025-07-03 22:00:00<>METAR SBGL 032200Z 25005KT 5000 -RA BR SCT018 OVC030 18/16 Q1026=
2025-07-03 23:00:00<>METAR SBGL 032300Z 27004KT 8000 SCT018 BKN030 OVC046 18/16 Q1027=
2025-07-04 00:00:00<>METAR SBGL 040000Z 32005KT 8000 FEW008 BKN026 OVC046 18/16 Q1027=
2025-07-04 01:00:00<>METAR SBGL 040100Z 32005KT 8000 SCT005 SCT007 BKN026 18/16 Q1027=
2025-07-04 02:00:00<>METAR SBGL 040200Z 32005KT 8000 FEW007 BKN019 OVC030 18/16 Q1027=
2025-07-04 03:00:00<>METAR SBGL 040300Z 29005KT 7000 SCT008 BKN019 OVC030 18/16 Q1026=
2025-07-04 04:00:00<>METAR SBGL 040400Z 28006KT 7000 SCT008 BKN019 OVC030 18/16 Q1026=
2025-07-04 05:00:00<>METAR SBGL 040500Z 31005KT 7000 SCT008 BKN019 OVC030 18/16 Q1026=
2025-07-04 06:00:00<>METAR SBGL 040600Z 33006KT 7000 SCT008 BKN019 OVC030 17/16 Q1025=
2025-07-04 07:00:00<>METAR SBGL 040700Z 30005KT 7000 SCT008 BKN019 OVC030 17/16 Q1025=
2025-07-04 08:00:00<>METAR SBGL 040800Z 29004KT 6000 SCT006 BKN008 OVC012 17/16 Q1026=
2025-07-04 08:20:00<>SPECI SBGL 040820Z 29009KT 3000 -DZ BR BKN005 BKN007 OVC011 18/16 Q1026=
2025-07-04 09:00:00<>METAR SBGL 040900Z 11009KT 2500 RA BR BKN005 BKN007 OVC011 16/15 Q1026=
2025-07-04 10:00:00<>METAR SBGL 041000Z 14011KT 4000 -RA BR BKN013 BKN017 OVC023 17/15 Q1027 RERA=
2025-07-04 10:40:00<>SPECI SBGL 041040Z 11004KT 070V150 3000 RA BR SCT013 BKN017 OVC023 17/15 Q1028=
2025-07-04 11:00:00<>METAR SBGL 041100Z 06007KT 3000 RA BKN013 BKN017 OVC023 17/15 Q1028=
2025-07-04 11:30:00<>SPECI SBGL 041130Z 04007KT 9000 -RA FEW009 BKN011 BKN035 17/15 Q1028 RERA=
2025-07-04 12:00:00<>METAR SBGL 041200Z 03007KT 9999 FEW008 BKN011 BKN020 17/15 Q1029=
2025-07-04 13:00:00<>METAR SBGL 041300Z 06011KT 9999 SCT015 SCT017 19/14 Q1029=
2025-07-04 14:00:00<>METAR SBGL 041400Z 08009KT 040V110 9999 FEW015 SCT017 20/14 Q1029=
2025-07-04 15:00:00<>METAR SBGL 041500Z 09006KT 030V150 9999 SCT021 SCT050 20/14 Q1027=
2025-07-04 16:00:00<>METAR SBGL 041600Z 03005KT 340V090 9999 FEW026 21/14 Q1026=
2025-07-04 17:00:00<>METAR SBGL 041700Z 13006KT 100V180 9999 FEW026 21/13 Q1025=
2025-07-04 18:00:00<>METAR SBGL 041800Z 15005KT 090V190 9999 FEW026 21/14 Q1025=
2025-07-04 19:00:00<>METAR SBGL 041900Z 12009KT 9999 FEW026 21/14 Q1025=
2025-07-04 20:00:00<>METAR SBGL 042000Z 12007KT 9999 FEW026 20/14 Q1025=
2025-07-04 21:00:00<>METAR SBGL 042100Z 12005KT 9999 FEW026 19/14 Q1026=
2025-07-04 22:00:00<>METAR SBGL 042200Z 14005KT 9999 SCT036 18/14 Q1026=
2025-07-04 23:00:00<>METAR SBGL 042300Z 15007KT 9999 BKN040 19/14 Q1026=
2025-07-05 00:00:00<>METAR SBGL 050000Z 15006KT 9999 SCT040 18/14 Q1027=
2025-07-05 01:00:00<>METAR SBGL 050100Z 19002KT 9999 SCT040 18/14 Q1027=
2025-07-05 02:00:00<>METAR SBGL 050200Z 28002KT 9999 SCT040 17/14 Q1027=
2025-07-05 03:00:00<>METAR SBGL 050300Z 31003KT 9999 FEW040 16/14 Q1026=
2025-07-05 04:00:00<>METAR SBGL 050400Z 25003KT 9999 SCT040 16/14 Q1026=
2025-07-05 05:00:00<>METAR SBGL 050500Z 28004KT 9999 BKN040 17/14 Q1025=
2025-07-05 06:00:00<>METAR SBGL 050600Z 36004KT 9999 BKN040 16/14 Q1025=
2025-07-05 07:00:00<>METAR SBGL 050700Z 34003KT 9000 BKN040 16/14 Q1025=
2025-07-05 08:00:00<>METAR SBGL 050800Z 30003KT 9000 BKN040 16/14 Q1025=
2025-07-05 09:00:00<>METAR SBGL 050900Z 31003KT 9000 FEW040 16/14 Q1025=
2025-07-05 10:00:00<>METAR SBGL 051000Z 35006KT 8000 FEW040 15/13 Q1026=
2025-07-05 11:00:00<>METAR SBGL 051100Z 33004KT 9999 FEW008 17/14 Q1026=
2025-07-05 12:00:00<>METAR SBGL 051200Z 36005KT 9999 FEW015 18/14 Q1027=
2025-07-05 13:00:00<>METAR SBGL 051300Z VRB02KT 9999 FEW020 20/14 Q1026=
2025-07-05 14:00:00<>METAR SBGL 051400Z 35005KT 320V040 9999 FEW025 21/14 Q1025=
2025-07-05 15:00:00<>METAR SBGL 051500Z 34005KT 310V030 9999 FEW030 22/12 Q1025=
2025-07-05 16:00:00<>METAR SBGL 051600Z VRB06KT 9999 FEW030 24/14 Q1023=
2025-07-05 17:00:00<>METAR SBGL 051700Z VRB06KT 9999 FEW030 24/11 Q1022=
2025-07-05 18:00:00<>METAR SBGL 051800Z 12008KT 9999 FEW030 23/13 Q1022=
2025-07-05 19:00:00<>METAR SBGL 051900Z 13011KT 9999 FEW030 22/14 Q1022=
2025-07-05 20:00:00<>METAR SBGL 052000Z 13010KT 9999 FEW025 20/14 Q1022=
2025-07-05 21:00:00<>METAR SBGL 052100Z 14009KT CAVOK 20/14 Q1022=
2025-07-05 22:00:00<>METAR SBGL 052200Z 13008KT CAVOK 19/15 Q1022=
2025-07-05 23:00:00<>METAR SBGL 052300Z 13005KT 9999 BKN033 19/15 Q1023=
2025-07-06 00:00:00<>METAR SBGL 060000Z 09003KT 9999 BKN033 19/15 Q1023=
2025-07-06 01:00:00<>METAR SBGL 060100Z 10003KT 9999 BKN030 19/15 Q1023=
2025-07-06 02:00:00<>METAR SBGL 060200Z 07002KT 9999 BKN030 18/15 Q1023=
2025-07-06 03:00:00<>METAR SBGL 060300Z 11003KT 9999 FEW030 17/15 Q1023=
2025-07-06 04:00:00<>METAR SBGL 060400Z 08002KT 9999 FEW030 17/14 Q1022=
2025-07-06 05:00:00<>METAR SBGL 060500Z VRB02KT 9999 FEW026 16/14 Q1022=
2025-07-06 06:00:00<>METAR SBGL 060600Z 00000KT 9999 FEW030 16/14 Q1021=
2025-07-06 07:00:00<>METAR SBGL 060700Z 00000KT 9000 FEW007 15/14 Q1021=
2025-07-06 08:00:00<>METAR SBGL 060800Z VRB01KT 7000 FEW007 16/14 Q1022=
2025-07-06 09:00:00<>METAR SBGL 060900Z 34003KT 320V020 5000 BR FEW007 16/14 Q1022=
2025-07-06 09:17:00<>SPECI SBGL 060917Z 35004KT 320V020 4000 BR FEW007 16/14 Q1022=
2025-07-06 10:00:00<>METAR SBGL 061000Z VRB02KT 4000 BR FEW009 15/14 Q1022=
2025-07-06 10:27:00<>SPECI SBGL 061027Z VRB01KT 6000 SCT009 16/15 Q1022=
2025-07-06 11:00:00<>METAR SBGL 061100Z VRB02KT 6000 FEW010 17/15 Q1023=
2025-07-06 12:00:00<>METAR SBGL 061200Z 36004KT 6000 FEW010 19/15 Q1023=
2025-07-06 13:00:00<>METAR SBGL 061300Z 22002KT 6000 FEW016 20/16 Q1023=
2025-07-06 14:00:00<>METAR SBGL 061400Z 36004KT 9999 FEW016 21/14 Q1023=
2025-07-06 15:00:00<>METAR SBGL 061500Z 01005KT 330V040 8000 FEW040 22/14 Q1023=
2025-07-06 16:00:00<>METAR SBGL 061600Z 02004KT 9999 FEW040 22/13 Q1022=
2025-07-06 17:00:00<>METAR SBGL 061700Z 02003KT 9999 FEW040 SCT070 23/13 Q1021=
2025-07-06 18:00:00<>METAR SBGL 061800Z 36002KT 9999 SCT040 BKN060 BKN070 23/14 Q1021=
2025-07-06 19:00:00<>METAR SBGL 061900Z 14005KT 9999 FEW048 BKN070 22/14 Q1021=
2025-07-06 20:00:00<>METAR SBGL 062000Z 13003KT 9999 FEW048 BKN070 21/15 Q1022=
2025-07-06 21:00:00<>METAR SBGL 062100Z 24006KT CAVOK 21/15 Q1022=
2025-07-06 22:00:00<>METAR SBGL 062200Z 22009KT CAVOK 20/14 Q1023=
2025-07-06 23:00:00<>METAR SBGL 062300Z 26007KT 9999 FEW018 BKN070 20/15 Q1023=
2025-07-07 00:00:00<>METAR SBGL 070000Z 26005KT 9999 FEW018 BKN070 19/15 Q1024=
2025-07-07 01:00:00<>METAR SBGL 070100Z 28004KT 9999 FEW018 BKN070 19/15 Q1024=
2025-07-07 02:00:00<>METAR SBGL 070200Z VRB02KT 9999 FEW018 SCT070 18/15 Q1025=
2025-07-07 03:00:00<>METAR SBGL 070300Z 28003KT 9999 FEW018 17/15 Q1024=
2025-07-07 04:00:00<>METAR SBGL 070400Z 30004KT 9999 FEW030 16/14 Q1024=
2025-07-07 05:00:00<>METAR SBGL 070500Z VRB02KT 9999 FEW030 16/15 Q1023=
2025-07-07 06:00:00<>METAR SBGL 070600Z VRB02KT 8000 FEW025 16/15 Q1024=
2025-07-07 07:00:00<>METAR SBGL 070700Z 28003KT 8000 FEW025 16/14 Q1024=
2025-07-07 08:00:00<>METAR SBGL 070800Z 32006KT 8000 FEW020 17/15 Q1024=
2025-07-07 09:00:00<>METAR SBGL 070900Z 33006KT 9999 FEW040 SCT080 16/15 Q1024=
2025-07-07 10:00:00<>METAR SBGL 071000Z 31005KT 9999 FEW018 SCT040 BKN080 16/14 Q1025=
2025-07-07 11:00:00<>METAR SBGL 071100Z 30007KT 9999 FEW015 BKN033 BKN080 17/14 Q1025=
2025-07-07 12:00:00<>METAR SBGL 071200Z 07004KT 8000 3000SE BKN033 BKN080 18/15 Q1026=
2025-07-07 13:00:00<>METAR SBGL 071300Z 07004KT 6000 VCSH BKN033 BKN050 20/15 Q1026=
2025-07-07 14:00:00<>METAR SBGL 071400Z 14004KT 8000 SCT033 BKN050 20/16 Q1025=
2025-07-07 15:00:00<>METAR SBGL 071500Z 12006KT 8000 SCT033 BKN050 21/16 Q1025=
2025-07-07 16:00:00<>METAR SBGL 071600Z 12007KT 8000 SCT033 BKN050 21/15 Q1024=
2025-07-07 17:00:00<>METAR SBGL 071700Z 12007KT 9999 SCT033 BKN066 22/13 Q1023=
2025-07-07 18:00:00<>METAR SBGL 071800Z 11008KT 9999 FEW033 BKN066 23/13 Q1023=
2025-07-07 19:00:00<>METAR SBGL 071900Z 13006KT 9999 FEW033 SCT066 22/14 Q1023=
2025-07-07 20:00:00<>METAR SBGL 072000Z 13009KT 9999 FEW033 SCT066 21/15 Q1023=
2025-07-07 21:00:00<>METAR SBGL 072100Z 12006KT 9999 FEW030 SCT060 20/16 Q1024=
2025-07-07 22:00:00<>METAR SBGL 072200Z 13007KT 9999 FEW030 19/15 Q1024=
2025-07-07 23:00:00<>METAR SBGL 072300Z 13006KT 9999 FEW030 19/14 Q1024=
2025-07-08 00:00:00<>METAR SBGL 080000Z 08004KT 9999 FEW030 18/14 Q1025=
2025-07-08 01:00:00<>METAR SBGL 080100Z 09002KT 9999 FEW030 17/14 Q1025=
2025-07-08 02:00:00<>METAR SBGL 080200Z 13002KT 9999 FEW030 16/13 Q1025=
2025-07-08 03:00:00<>METAR SBGL 080300Z 10002KT 9999 FEW030 15/13 Q1024=
2025-07-08 04:00:00<>METAR SBGL 080400Z 09002KT CAVOK 15/14 Q1024=
2025-07-08 05:00:00<>METAR SBGL 080500Z 32002KT CAVOK 15/14 Q1023=
2025-07-08 06:00:00<>METAR SBGL 080600Z 36001KT 7000 FEW008 15/13 Q1023=
2025-07-08 06:39:00<>SPECI SBGL 080639Z 33002KT 4000 BR FEW008 15/14 Q1023=
2025-07-08 07:00:00<>METAR COR SBGL 080700Z 03002KT 3000 BR FEW008 15/13 Q1023=
2025-07-08 08:00:00<>METAR COR SBGL 080800Z 35002KT 3000 BR FEW008 14/13 Q1022=
2025-07-08 09:00:00<>METAR COR SBGL 080900Z 33003KT 7000 FEW008 15/14 Q1022=
2025-07-08 10:00:00<>METAR SBGL 081000Z 33002KT 7000 FEW008 15/14 Q1022=
2025-07-08 11:00:00<>METAR SBGL 081100Z 02003KT 7000 FEW007 17/15 Q1023=
2025-07-08 12:00:00<>METAR SBGL 081200Z 01003KT 6000 FEW006 18/15 Q1024=
2025-07-08 13:00:00<>METAR SBGL 081300Z 33003KT 6000 FEW007 19/15 Q1024=
2025-07-08 14:00:00<>METAR SBGL 081400Z 01003KT 280V080 6000 NSC 22/15 Q1023=
2025-07-08 15:00:00<>METAR SBGL 081500Z 06005KT 010V120 7000 NSC 23/16 Q1022=
2025-07-08 16:00:00<>METAR SBGL 081600Z 03005KT 7000 NSC 24/14 Q1021=
2025-07-08 17:00:00<>METAR SBGL 081700Z 04005KT 9000 FEW022 25/15 Q1020=
2025-07-08 18:00:00<>METAR SBGL 081800Z 04006KT 9999 FEW030 25/13 Q1020=
2025-07-08 19:00:00<>METAR SBGL 081900Z 05005KT CAVOK 25/12 Q1019=
2025-07-08 20:00:00<>METAR SBGL 082000Z 14003KT CAVOK 23/16 Q1020=
2025-07-08 21:00:00<>METAR SBGL 082100Z 15004KT CAVOK 20/16 Q1020=
2025-07-08 22:00:00<>METAR SBGL 082200Z 13002KT CAVOK 19/15 Q1020=
2025-07-08 23:00:00<>METAR SBGL 082300Z 17004KT CAVOK 20/16 Q1021=
2025-07-09 00:00:00<>METAR SBGL 090000Z 24007KT CAVOK 20/16 Q1022=
2025-07-09 01:00:00<>METAR SBGL 090100Z 26010KT CAVOK 20/16 Q1022=
2025-07-09 02:00:00<>METAR SBGL 090200Z 28008KT CAVOK 20/16 Q1023=
2025-07-09 03:00:00<>METAR SBGL 090300Z 27007KT CAVOK 19/16 Q1023=
2025-07-09 04:00:00<>METAR SBGL 090400Z 28008KT CAVOK 18/16 Q1022=
2025-07-09 05:00:00<>METAR SBGL 090500Z 25008KT CAVOK 18/16 Q1022=
2025-07-09 06:00:00<>METAR SBGL 090600Z 31007KT 8000 NSC 18/16 Q1022=
2025-07-09 07:00:00<>METAR COR SBGL 090700Z 33007KT 6000 SCT021 17/16 Q1022=
2025-07-09 08:00:00<>METAR SBGL 090800Z 31006KT 6000 SCT021 SCT043 18/16 Q1023=
2025-07-09 09:00:00<>METAR SBGL 090900Z 32005KT 6000 SCT021 BKN046 18/16 Q1023=
2025-07-09 10:00:00<>METAR SBGL 091000Z 30004KT 6000 FEW019 BKN050 BKN080 18/15 Q1024=
2025-07-09 11:00:00<>METAR SBGL 091100Z 28003KT 240V330 7000 FEW017 BKN080 20/16 Q1025=
2025-07-09 12:00:00<>METAR SBGL 091200Z 29004KT 240V350 8000 FEW017 BKN023 BKN080 21/17 Q1025=
2025-07-09 13:00:00<>METAR SBGL 091300Z 24010KT 9999 FEW017 BKN030 21/15 Q1026=
2025-07-09 14:00:00<>METAR SBGL 091400Z 22011KT 9999 FEW021 SCT030 BKN050 23/15 Q1026=
2025-07-09 15:00:00<>METAR SBGL 091500Z 24008KT 210V280 9999 FEW021 SCT025 BKN050 23/15 Q1025=
2025-07-09 16:00:00<>METAR SBGL 091600Z 23007KT 190V250 9999 SCT025 SCT040 23/15 Q1024=
2025-07-09 17:00:00<>METAR SBGL 091700Z 20009KT 170V230 9999 SCT025 SCT070 23/14 Q1024=
2025-07-09 18:00:00<>METAR SBGL 091800Z 20008KT 160V230 9999 FEW025 23/15 Q1024=
2025-07-09 19:00:00<>METAR SBGL 091900Z 20009KT 9999 FEW025 SCT036 22/14 Q1024=
2025-07-09 20:00:00<>METAR SBGL 092000Z 22009KT 9999 FEW025 BKN036 22/14 Q1024=
2025-07-09 21:00:00<>METAR SBGL 092100Z 22011KT 9999 FEW025 BKN040 21/15 Q1025=
2025-07-09 22:00:00<>METAR SBGL 092200Z 23007KT 9999 BKN040 21/16 Q1025=
2025-07-09 23:00:00<>METAR SBGL 092300Z 22008KT 9999 BKN040 20/15 Q1026=
2025-07-10 00:00:00<>METAR SBGL 100000Z VRB01KT 9999 BKN040 20/15 Q1027=
2025-07-10 01:00:00<>METAR SBGL 100100Z 32004KT 9999 BKN040 20/16 Q1027=
2025-07-10 02:00:00<>METAR SBGL 100200Z 28004KT 9999 BKN045 20/16 Q1027=
2025-07-10 03:00:00<>METAR SBGL 100300Z 27003KT 9999 FEW045 SCT080 20/16 Q1027=
2025-07-10 04:00:00<>METAR SBGL 100400Z 31004KT 9999 FEW030 19/16 Q1027=
2025-07-10 05:00:00<>METAR SBGL 100500Z 27002KT 9999 FEW030 18/15 Q1026=
2025-07-10 06:00:00<>METAR SBGL 100600Z 35001KT 9999 FEW030 SCT080 17/15 Q1026=
2025-07-10 07:00:00<>METAR SBGL 100700Z 23003KT 8000 FEW030 SCT070 17/15 Q1026=
2025-07-10 08:00:00<>METAR SBGL 100800Z 00000KT 8000 FEW030 SCT070 17/15 Q1026=
2025-07-10 08:30:00<>SPECI SBGL 100830Z 35003KT 4000 BR FEW030 SCT070 18/16 Q1026=
2025-07-10 09:00:00<>METAR SBGL 100900Z 33003KT 6000 FEW030 BKN070 18/16 Q1026=
2025-07-10 10:00:00<>METAR SBGL 101000Z VRB02KT 6000 FEW030 BKN070 18/16 Q1027=
2025-07-10 11:00:00<>METAR SBGL 101100Z VRB01KT 8000 FEW020 BKN080 19/16 Q1028=
2025-07-10 12:00:00<>METAR SBGL 101200Z VRB02KT 8000 FEW020 BKN080 19/16 Q1029=
2025-07-10 13:00:00<>METAR SBGL 101300Z 35004KT 320V030 8000 FEW017 BKN080 20/16 Q1029=
2025-07-10 14:00:00<>METAR SBGL 101400Z VRB02KT 9999 FEW020 SCT080 22/16 Q1028=
2025-07-10 15:00:00<>METAR SBGL 101500Z 35005KT 320V040 9999 FEW020 SCT080 23/16 Q1027=
2025-07-10 16:00:00<>METAR SBGL 101600Z 13005KT 080V150 9999 FEW020 SCT040 24/16 Q1026=
2025-07-10 17:00:00<>METAR SBGL 101700Z 13006KT 090V160 9999 SCT020 23/16 Q1025=
2025-07-10 18:00:00<>METAR SBGL 101800Z 14007KT 9999 FEW020 24/15 Q1025=
2025-07-10 19:00:00<>METAR SBGL 101900Z 14008KT 9999 FEW020 BKN080 22/15 Q1025=
2025-07-10 20:00:00<>METAR SBGL 102000Z 14009KT 9999 FEW020 SCT060 22/15 Q1025=
2025-07-10 21:00:00<>METAR SBGL 102100Z 14008KT 120V180 9999 FEW030 BKN050 21/15 Q1026=
2025-07-10 22:00:00<>METAR SBGL 102200Z 12006KT 9999 FEW030 BKN050 21/15 Q1026=
2025-07-10 23:00:00<>METAR SBGL 102300Z 11005KT 9999 FEW040 BKN083 20/16 Q1027=
2025-07-11 00:00:00<>METAR SBGL 110000Z 13004KT 9999 FEW040 BKN083 20/16 Q1027=
2025-07-11 01:00:00<>METAR SBGL 110100Z 13004KT 9999 FEW040 BKN083 20/15 Q1027=
2025-07-11 02:00:00<>METAR SBGL 110200Z 12005KT 9999 FEW040 BKN083 20/16 Q1027=
2025-07-11 03:00:00<>METAR SBGL 110300Z 11004KT 9999 FEW040 BKN083 19/15 Q1027=
2025-07-11 04:00:00<>METAR SBGL 110400Z 11004KT 9999 SCT045 BKN083 19/15 Q1027=
2025-07-11 05:00:00<>METAR SBGL 110500Z 10003KT 9999 SCT045 BKN083 19/15 Q1026=
2025-07-11 06:00:00<>METAR SBGL 110600Z 05003KT 360V070 9999 FEW045 BKN083 18/15 Q1026=
2025-07-11 07:00:00<>METAR SBGL 110700Z VRB02KT 9999 FEW045 SCT083 17/16 Q1026=
2025-07-11 08:00:00<>METAR SBGL 110800Z VRB01KT 9000 FEW045 BKN083 17/15 Q1026=
2025-07-11 09:00:00<>METAR SBGL 110900Z 34002KT 9000 NSC 17/15 Q1026=
2025-07-11 10:00:00<>METAR SBGL 111000Z VRB02KT 9000 FEW009 16/15 Q1027=
2025-07-11 11:00:00<>METAR SBGL 111100Z 02005KT 9999 FEW009 18/16 Q1027=
2025-07-11 12:00:00<>METAR SBGL 111200Z 02005KT 9999 FEW009 21/17 Q1028=
2025-07-11 13:00:00<>METAR SBGL 111300Z 36004KT 9999 FEW009 21/16 Q1028=
2025-07-11 14:00:00<>METAR SBGL 111400Z 06006KT 9999 FEW009 23/16 Q1027=
2025-07-11 15:00:00<>METAR SBGL 111500Z 12004KT 9999 FEW003 SCT093 24/16 Q1027=
2025-07-11 16:00:00<>METAR SBGL 111600Z 12005KT 9999 FEW003 BKN093 25/15 Q1025=
2025-07-11 17:00:00<>METAR SBGL 111700Z 04006KT 9999 FEW020 BKN093 24/16 Q1025=
2025-07-11 18:00:00<>METAR SBGL 111800Z 13007KT 9999 FEW020 BKN093 23/16 Q1024=
2025-07-11 19:00:00<>METAR SBGL 111900Z 14009KT 9999 FEW020 BKN093 23/16 Q1024=
2025-07-11 20:00:00<>METAR SBGL 112000Z 14008KT 9999 FEW020 BKN100 22/16 Q1024=
2025-07-11 21:00:00<>METAR SBGL 112100Z 14008KT 9999 FEW020 BKN100 22/17 Q1024=
2025-07-11 22:00:00<>METAR SBGL 112200Z 14006KT 9999 FEW020 BKN100 22/17 Q1025=
2025-07-11 23:00:00<>METAR SBGL 112300Z 12006KT 9999 FEW020 BKN100 22/16 Q1026=
2025-07-12 00:00:00<>METAR SBGL 120000Z 10005KT 9999 FEW020 BKN100 21/15 Q1026=
2025-07-12 01:00:00<>METAR SBGL 120100Z 09005KT 9999 FEW020 BKN050 21/16 Q1026=
2025-07-12 02:00:00<>METAR SBGL 120200Z 10004KT 9999 FEW020 BKN050 20/16 Q1026=
2025-07-12 03:00:00<>METAR SBGL 120300Z 11003KT 9999 FEW020 BKN050 20/16 Q1026=
2025-07-12 04:00:00<>METAR SBGL 120400Z 07001KT 9999 FEW020 BKN050 20/17 Q1025=
2025-07-12 05:00:00<>METAR SBGL 120500Z 11003KT 9999 FEW020 BKN100 19/17 Q1025=
2025-07-12 06:00:00<>METAR SBGL 120600Z VRB02KT 9999 FEW020 BKN080 20/17 Q1025=
2025-07-12 07:00:00<>METAR SBGL 120700Z VRB01KT 9999 FEW020 BKN080 19/17 Q1024=
2025-07-12 08:00:00<>METAR SBGL 120800Z 07004KT 050V110 9999 FEW020 BKN080 19/17 Q1024=
2025-07-12 09:00:00<>METAR SBGL 120900Z 06002KT 9999 FEW020 BKN080 19/17 Q1025=
2025-07-12 10:00:00<>METAR SBGL 121000Z 33003KT 320V030 9999 FEW020 BKN080 20/17 Q1025=
2025-07-12 11:00:00<>METAR SBGL 121100Z 03003KT 9999 FEW019 BKN100 20/17 Q1026=
2025-07-12 12:00:00<>METAR SBGL 121200Z 13003KT 9999 FEW019 BKN100 21/17 Q1027=
2025-07-12 13:00:00<>METAR SBGL 121300Z 36005KT 9999 FEW017 BKN100 22/17 Q1027=
2025-07-12 14:00:00<>METAR SBGL 121400Z 05005KT 9999 FEW017 BKN100 23/17 Q1026=
2025-07-12 15:00:00<>METAR SBGL 121500Z 07007KT 9999 FEW026 BKN100 24/16 Q1026=
2025-07-12 16:00:00<>METAR SBGL 121600Z 06007KT 9999 FEW026 SCT100 25/16 Q1025=
2025-07-12 17:00:00<>METAR SBGL 121700Z 02009KT 9999 FEW033 25/15 Q1024=
2025-07-12 18:00:00<>METAR SBGL 121800Z 12008KT 9999 FEW033 SCT100 25/16 Q1024=
2025-07-12 19:00:00<>METAR SBGL 121900Z 16009KT 9999 FEW033 SCT100 24/16 Q1024=
2025-07-12 20:00:00<>METAR SBGL 122000Z 16010KT 9999 FEW033 BKN100 23/16 Q1024=
2025-07-12 21:00:00<>METAR SBGL 122100Z 12007KT 9999 FEW033 BKN100 23/17 Q1024=
2025-07-12 22:00:00<>METAR SBGL 122200Z 10009KT 9999 FEW033 BKN100 22/14 Q1025=
2025-07-12 23:00:00<>METAR SBGL 122300Z 10008KT 9999 FEW030 BKN100 22/14 Q1025=
2025-07-13 00:00:00<>METAR SBGL 130000Z 11004KT 9999 FEW030 BKN100 20/15 Q1025=
2025-07-13 01:00:00<>METAR SBGL 130100Z 12003KT 9999 FEW030 BKN100 19/14 Q1026=
2025-07-13 02:00:00<>METAR SBGL 130200Z 09003KT CAVOK 19/14 Q1026=
2025-07-13 03:00:00<>METAR SBGL 130300Z 08004KT CAVOK 18/13 Q1026=
2025-07-13 04:00:00<>METAR SBGL 130400Z 05003KT CAVOK 16/13 Q1026=
2025-07-13 05:00:00<>METAR SBGL 130500Z 07004KT CAVOK 16/13 Q1025=
2025-07-13 06:00:00<>METAR SBGL 130600Z 04004KT CAVOK 15/13 Q1025=
2025-07-13 07:00:00<>METAR SBGL 130700Z 02002KT 9999 FEW007 16/14 Q1025=
2025-07-13 08:00:00<>METAR SBGL 130800Z 34002KT 9999 FEW007 16/14 Q1026=
2025-07-13 08:39:00<>SPECI SBGL 130839Z 32003KT 320V020 4500 BR FEW007 16/15 Q1026=
2025-07-13 09:00:00<>METAR SBGL 130900Z VRB02KT 4000 BR FEW007 16/14 Q1026=
2025-07-13 10:00:00<>METAR SBGL 131000Z VRB01KT 8000 NSC 15/13 Q1027=
2025-07-13 11:00:00<>METAR SBGL 131100Z 03001KT 7000 NSC 19/16 Q1027=
2025-07-13 12:00:00<>METAR SBGL 131200Z 01003KT 7000 FEW020 19/16 Q1028=
2025-07-13 13:00:00<>METAR SBGL 131300Z 01004KT 330V040 8000 FEW020 21/16 Q1028=
2025-07-13 14:00:00<>METAR SBGL 131400Z 36005KT 330V040 9000 FEW025 23/12 Q1027=
2025-07-13 15:00:00<>METAR SBGL 131500Z 08003KT 010V150 9999 FEW025 25/12 Q1026=
2025-07-13 16:00:00<>METAR SBGL 131600Z 13007KT 100V170 9999 FEW025 SCT080 24/13 Q1025=
2025-07-13 17:00:00<>METAR SBGL 131700Z 14009KT 9999 FEW025 SCT080 24/13 Q1025=
2025-07-13 18:00:00<>METAR SBGL 131800Z 14013KT 9999 FEW030 SCT080 23/16 Q1024=
2025-07-13 19:00:00<>METAR SBGL 131900Z 14010KT 9999 FEW030 SCT080 22/15 Q1024=
2025-07-13 20:00:00<>METAR SBGL 132000Z 14012KT 9999 FEW035 SCT080 22/15 Q1024=
2025-07-13 21:00:00<>METAR SBGL 132100Z 13012KT 9999 FEW035 SCT080 20/16 Q1025=
2025-07-13 22:00:00<>METAR SBGL 132200Z 15007KT 9999 FEW030 SCT045 20/16 Q1025=
2025-07-13 23:00:00<>METAR SBGL 132300Z 12009KT 9999 SCT021 SCT040 20/16 Q1026=
2025-07-14 00:00:00<>METAR SBGL 140000Z 13005KT 9999 FEW040 SCT080 20/15 Q1026=
2025-07-14 01:00:00<>METAR SBGL 140100Z 12005KT 9999 FEW040 SCT100 19/15 Q1026=
2025-07-14 02:00:00<>METAR SBGL 140200Z 10007KT 9999 FEW040 SCT100 19/15 Q1026=
2025-07-14 03:00:00<>METAR SBGL 140300Z 09007KT 9999 FEW040 18/15 Q1026=
2025-07-14 04:00:00<>METAR SBGL 140400Z 08006KT 9999 FEW040 17/15 Q1025=
2025-07-14 05:00:00<>METAR SBGL 140500Z 01005KT 9999 FEW040 17/15 Q1025=
2025-07-14 06:00:00<>METAR SBGL 140600Z 33005KT 8000 FEW040 17/15 Q1025=
2025-07-14 07:00:00<>METAR SBGL 140700Z 35004KT 7000 FEW040 16/15 Q1024=
2025-07-14 08:00:00<>METAR SBGL 140800Z 32004KT 7000 FEW040 16/15 Q1025=
2025-07-14 09:00:00<>METAR SBGL 140900Z 36003KT 7000 NSC 17/15 Q1025=
2025-07-14 10:00:00<>METAR SBGL 141000Z 35004KT 7000 NSC 16/14 Q1025=
2025-07-14 11:00:00<>METAR SBGL 141100Z VRB02KT 9000 FEW008 18/15 Q1026=
2025-07-14 12:00:00<>METAR COR SBGL 141200Z 01004KT 9000 FEW011 19/16 Q1026=
2025-07-14 13:00:00<>METAR SBGL 141300Z 01005KT 9999 FEW013 21/17 Q1026=
2025-07-14 14:00:00<>METAR SBGL 141400Z 01005KT 9999 FEW018 22/15 Q1025=
2025-07-14 15:00:00<>METAR SBGL 141500Z 03005KT 9999 FEW020 23/14 Q1024=
2025-07-14 16:00:00<>METAR SBGL 141600Z 13007KT 9999 FEW020 24/12 Q1023=
2025-07-14 17:00:00<>METAR SBGL 141700Z 06004KT 9999 FEW025 25/13 Q1023=
2025-07-14 18:00:00<>METAR SBGL 141800Z 14006KT 9999 FEW025 24/15 Q1022=
2025-07-14 19:00:00<>METAR SBGL 141900Z 13009KT 9999 FEW025 23/16 Q1022=
2025-07-14 20:00:00<>METAR SBGL 142000Z 14006KT 9999 FEW025 22/16 Q1022=
2025-07-14 21:00:00<>METAR SBGL 142100Z 14008KT CAVOK 21/16 Q1022=
2025-07-14 22:00:00<>METAR SBGL 142200Z 15007KT 9999 SCT040 21/16 Q1023=
2025-07-14 23:00:00<>METAR SBGL 142300Z 20003KT 9999 FEW040 BKN070 21/16 Q1024=
2025-07-15 00:00:00<>METAR SBGL 150000Z 25005KT 9999 FEW020 SCT070 20/16 Q1024=
2025-07-15 01:00:00<>METAR SBGL 150100Z 28003KT 9999 FEW020 SCT080 20/16 Q1024=
2025-07-15 02:00:00<>METAR SBGL 150200Z 25003KT 9999 FEW022 SCT080 20/16 Q1024=
2025-07-15 03:00:00<>METAR SBGL 150300Z 28005KT 9000 FEW022 SCT080 20/17 Q1024=
2025-07-15 04:00:00<>METAR SBGL 150400Z 28004KT CAVOK 19/16 Q1024=
2025-07-15 05:00:00<>METAR SBGL 150500Z 32005KT 9000 FEW020 SCT080 19/17 Q1023=
2025-07-15 06:00:00<>METAR SBGL 150600Z 28004KT 9000 NSC 18/16 Q1023=
2025-07-15 07:00:00<>METAR SBGL 150700Z 28003KT 9000 NSC 18/16 Q1022=
2025-07-15 08:00:00<>METAR SBGL 150800Z 32002KT 8000 NSC 16/14 Q1022=
2025-07-15 09:00:00<>METAR SBGL 150900Z 32005KT 6000 NSC 17/16 Q1022=
2025-07-15 10:00:00<>METAR SBGL 151000Z 34004KT 7000 NSC 17/15 Q1023=
2025-07-15 11:00:00<>METAR SBGL 151100Z 35003KT 320V040 6000 NSC 19/16 Q1024=
2025-07-15 12:00:00<>METAR SBGL 151200Z 01003KT 330V060 7000 FEW013 20/16 Q1024=
2025-07-15 13:00:00<>METAR SBGL 151300Z VRB02KT 8000 FEW015 22/16 Q1024=
2025-07-15 14:00:00<>METAR SBGL 151400Z 35003KT 310V070 9000 FEW020 23/15 Q1023=
2025-07-15 15:00:00<>METAR SBGL 151500Z VRB04KT 9000 SCT030 24/16 Q1023=
2025-07-15 16:00:00<>METAR SBGL 151600Z 12007KT 090V170 9000 FEW025 24/16 Q1022=
2025-07-15 17:00:00<>METAR SBGL 151700Z 12008KT 080V150 9000 FEW025 23/16 Q1021=
2025-07-15 18:00:00<>METAR SBGL 151800Z 12009KT 090V150 9000 FEW025 23/16 Q1021=
2025-07-15 19:00:00<>METAR SBGL 151900Z 12008KT 9999 FEW025 22/16 Q1021=
2025-07-15 20:00:00<>METAR SBGL 152000Z 12007KT CAVOK 21/16 Q1021=
2025-07-15 21:00:00<>METAR SBGL 152100Z 22004KT 180V250 CAVOK 20/14 Q1021=
2025-07-15 22:00:00<>METAR SBGL 152200Z 06001KT CAVOK 19/14 Q1021=
2025-07-15 23:00:00<>METAR SBGL 152300Z 28004KT 9999 FEW040 19/15 Q1022=
2025-07-16 00:00:00<>METAR SBGL 160000Z 00000KT 9999 FEW020 17/14 Q1022=
2025-07-16 01:00:00<>METAR SBGL 160100Z VRB01KT 9999 FEW020 17/14 Q1022=
2025-07-16 02:00:00<>METAR SBGL 160200Z VRB03KT 9999 FEW020 18/15 Q1022=
2025-07-16 03:00:00<>METAR SBGL 160300Z 00000KT 9999 FEW020 16/14 Q1022=
2025-07-16 04:00:00<>METAR SBGL 160400Z 24002KT 9000 FEW019 16/15 Q1022=
2025-07-16 05:00:00<>METAR SBGL 160500Z VRB02KT 8000 BKN023 17/15 Q1022=
2025-07-16 06:00:00<>METAR SBGL 160600Z VRB02KT 7000 FEW019 BKN023 17/15 Q1021=
2025-07-16 07:00:00<>METAR SBGL 160700Z 31004KT 7000 FEW023 17/15 Q1021=
2025-07-16 08:00:00<>METAR SBGL 160800Z VRB02KT 6000 NSC 16/14 Q1021=
2025-07-16 09:00:00<>METAR SBGL 160900Z 31003KT 290V010 4500 BR NSC 16/14 Q1021=
2025-07-16 10:00:00<>METAR SBGL 161000Z 31003KT 300V360 4500 BR NSC 16/14 Q1022=
2025-07-16 11:00:00<>METAR SBGL 161100Z 36003KT 330V050 5000 BR NSC 17/14 Q1022=
2025-07-16 12:00:00<>METAR SBGL 161200Z 34003KT 6000 NSC 18/14 Q1023=
2025-07-16 13:00:00<>METAR SBGL 161300Z 35004KT 8000 NSC 20/14 Q1023=
2025-07-16 14:00:00<>METAR SBGL 161400Z 34004KT 9000 NSC 21/14 Q1023=
2025-07-16 15:00:00<>METAR SBGL 161500Z 03005KT 9999 FEW015 23/13 Q1022=
2025-07-16 16:00:00<>METAR SBGL 161600Z 03006KT CAVOK 24/14 Q1021=
2025-07-16 17:00:00<>METAR SBGL 161700Z 04007KT CAVOK 25/12 Q1020=
2025-07-16 18:00:00<>METAR SBGL 161800Z 12007KT CAVOK 24/15 Q1020=
2025-07-16 19:00:00<>METAR SBGL 161900Z 13009KT CAVOK 23/15 Q1020=
2025-07-16 20:00:00<>METAR SBGL 162000Z 13009KT CAVOK 22/15 Q1021=
2025-07-16 21:00:00<>METAR SBGL 162100Z 14009KT CAVOK 21/16 Q1021=
2025-07-16 22:00:00<>METAR SBGL 162200Z 14009KT 8000 FEW008 20/17 Q1021=
2025-07-16 23:00:00<>METAR SBGL 162300Z 12003KT 9000 NSC 20/16 Q1021=
2025-07-17 00:00:00<>METAR SBGL 170000Z 08005KT CAVOK 18/16 Q1022=
2025-07-17 01:00:00<>METAR SBGL 170100Z 12005KT CAVOK 17/15 Q1022=
2025-07-17 02:00:00<>METAR SBGL 170200Z 32004KT CAVOK 18/15 Q1022=
2025-07-17 03:00:00<>METAR SBGL 170300Z 34003KT 8000 FEW013 18/14 Q1022=
2025-07-17 04:00:00<>METAR SBGL 170400Z 28004KT 7000 FEW013 17/14 Q1021=
2025-07-17 05:00:00<>METAR SBGL 170500Z 29004KT 7000 FEW013 17/14 Q1021=
2025-07-17 06:00:00<>METAR SBGL 170600Z 33003KT 6000 FEW013 16/14 Q1021=
2025-07-17 07:00:00<>METAR SBGL 170700Z 35003KT 6000 FEW013 16/14 Q1020=
2025-07-17 08:00:00<>METAR SBGL 170800Z 06002KT 7000 FEW007 15/13 Q1020=
2025-07-17 09:00:00<>METAR SBGL 170900Z 05002KT 7000 FEW007 15/13 Q1020=
2025-07-17 09:15:00<>SPECI SBGL 170915Z 07005KT 3500 BR FEW006 14/12 Q1020=
2025-07-17 10:00:00<>METAR SBGL 171000Z 02002KT 3500 BR SCT005 15/13 Q1020=
2025-07-17 11:00:00<>METAR SBGL 171100Z VRB02KT 3000 BR BKN005 17/15 Q1020=
2025-07-17 12:00:00<>METAR SBGL 171200Z 10003KT 040V140 4000 BR BKN005 18/16 Q1021=
2025-07-17 12:21:00<>SPECI SBGL 171221Z 07004KT 340V120 4000 BR BKN006 18/16 Q1021=
2025-07-17 13:00:00<>METAR SBGL 171300Z 35004KT 310V050 6000 SCT007 18/16 Q1021=
2025-07-17 14:00:00<>METAR SBGL 171400Z 03003KT 330V080 8000 FEW010 21/16 Q1020=
2025-07-17 15:00:00<>METAR SBGL 171500Z 36006KT CAVOK 23/14 Q1019=
2025-07-17 16:00:00<>METAR SBGL 171600Z 35003KT 310V030 CAVOK 25/15 Q1017=
2025-07-17 17:00:00<>METAR SBGL 171700Z 36005KT CAVOK 26/14 Q1017=
2025-07-17 18:00:00<>METAR SBGL 171800Z 02004KT CAVOK 26/14 Q1016=
2025-07-17 19:00:00<>METAR SBGL 171900Z 04004KT CAVOK 26/14 Q1016=
2025-07-17 20:00:00<>METAR SBGL 172000Z 06004KT CAVOK 24/14 Q1016=
2025-07-17 21:00:00<>METAR SBGL 172100Z 07004KT CAVOK 21/14 Q1016=
2025-07-17 22:00:00<>METAR SBGL 172200Z 11003KT CAVOK 21/16 Q1017=
2025-07-17 23:00:00<>METAR SBGL 172300Z 00000KT CAVOK 21/16 Q1017=
2025-07-18 00:00:00<>METAR SBGL 180000Z 00000KT CAVOK 18/15 Q1017=
2025-07-18 01:00:00<>METAR SBGL 180100Z 11004KT CAVOK 19/16 Q1017=
2025-07-18 02:00:00<>METAR SBGL 180200Z 07003KT CAVOK 18/16 Q1017=
2025-07-18 03:00:00<>METAR SBGL 180300Z 08002KT CAVOK 18/16 Q1017=
2025-07-18 04:00:00<>METAR SBGL 180400Z 05002KT 6000 NSC 18/16 Q1017=
2025-07-18 04:27:00<>SPECI SBGL 180427Z 07002KT 4000 BR NSC 17/15 Q1017=
2025-07-18 05:00:00<>METAR SBGL 180500Z 09002KT 4000 BR NSC 16/14 Q1016=
2025-07-18 06:00:00<>METAR SBGL 180600Z 17003KT 6000 NSC 17/16 Q1016=
2025-07-18 07:00:00<>METAR SBGL 180700Z 10003KT 6000 NSC 15/14 Q1015=
2025-07-18 08:00:00<>METAR SBGL 180800Z 10002KT 8000 NSC 16/14 Q1015=
2025-07-18 09:00:00<>METAR SBGL 180900Z 03002KT 8000 NSC 15/14 Q1016=
2025-07-18 10:00:00<>METAR SBGL 181000Z 06002KT CAVOK 15/14 Q1016=
2025-07-18 11:00:00<>METAR SBGL 181100Z 05002KT 8000 NSC 19/17 Q1016=
2025-07-18 12:00:00<>METAR SBGL 181200Z VRB02KT CAVOK 22/17 Q1017=
2025-07-18 13:00:00<>METAR SBGL 181300Z 36003KT 330V030 CAVOK 22/15 Q1016=
2025-07-18 14:00:00<>METAR SBGL 181400Z VRB02KT CAVOK 27/16 Q1016=
2025-07-18 15:00:00<>METAR SBGL 181500Z 35002KT CAVOK 27/15 Q1015=
2025-07-18 16:00:00<>METAR SBGL 181600Z 36005KT 330V030 CAVOK 29/14 Q1014=
2025-07-18 17:00:00<>METAR SBGL 181700Z 30005KT 9999 FEW040 31/11 Q1014=
2025-07-18 18:00:00<>METAR SBGL 181800Z 22012KT 9999 FEW040 28/17 Q1014=
2025-07-18 19:00:00<>METAR SBGL 181900Z 23011KT 9999 FEW040 25/16 Q1015=
2025-07-18 20:00:00<>METAR SBGL 182000Z 24014KT 9999 FEW040 22/17 Q1016=
2025-07-18 21:00:00<>METAR SBGL 182100Z 22013KT 9999 FEW040 21/16 Q1017=
2025-07-18 22:00:00<>METAR SBGL 182200Z 23011KT 9999 BKN030 21/15 Q1019=
2025-07-18 23:00:00<>METAR SBGL 182300Z 23006KT 9999 BKN030 21/15 Q1019=
2025-07-19 00:00:00<>METAR SBGL 190000Z 25007KT 9999 BKN030 21/15 Q1020=
2025-07-19 01:00:00<>METAR SBGL 190100Z 21010KT 9999 BKN026 21/16 Q1020=
2025-07-19 02:00:00<>METAR SBGL 190200Z 21010KT 9999 BKN026 20/16 Q1021=
2025-07-19 03:00:00<>METAR SBGL 190300Z 22013KT 9999 BKN023 20/16 Q1021=
2025-07-19 04:00:00<>METAR SBGL 190400Z 29008KT 9999 BKN023 19/16 Q1021=
2025-07-19 05:00:00<>METAR SBGL 190500Z 28009KT 8000 BKN030 19/16 Q1020=
2025-07-19 06:00:00<>METAR SBGL 190600Z 31008KT 7000 BKN030 19/16 Q1020=
2025-07-19 07:00:00<>METAR SBGL 190700Z 32008KT 6000 BKN030 18/16 Q1019=
2025-07-19 08:00:00<>METAR SBGL 190800Z 24007KT 8000 FEW023 BKN050 19/12 Q1020=
2025-07-19 09:00:00<>METAR SBGL 190900Z 27006KT 9999 FEW023 BKN050 20/12 Q1022=
2025-07-19 10:00:00<>METAR SBGL 191000Z 26007KT 9999 FEW023 BKN050 19/12 Q1022=
2025-07-19 11:00:00<>METAR SBGL 191100Z 28003KT 250V310 9999 FEW023 BKN050 20/13 Q1023=
2025-07-19 12:00:00<>METAR SBGL 191200Z 30003KT 260V350 9999 FEW023 SCT050 21/12 Q1023=
2025-07-19 13:00:00<>METAR SBGL 191300Z 24006KT 190V310 9999 FEW033 22/12 Q1023=
2025-07-19 14:00:00<>METAR SBGL 191400Z VRB06KT 9999 SCT040 23/11 Q1023=
2025-07-19 15:00:00<>METAR SBGL 191500Z 24006KT 200V310 9999 FEW040 24/11 Q1022=
2025-07-19 16:00:00<>METAR SBGL 191600Z VRB04KT 9999 FEW046 24/11 Q1021=
2025-07-19 17:00:00<>METAR SBGL 191700Z 16006KT 120V210 9999 FEW046 24/10 Q1021=
2025-07-19 18:00:00<>METAR SBGL 191800Z 20009KT 170V240 CAVOK 24/10 Q1020=
2025-07-19 19:00:00<>METAR SBGL 191900Z 20010KT CAVOK 23/10 Q1020=
2025-07-19 20:00:00<>METAR SBGL 192000Z 20012KT CAVOK 21/12 Q1021=
2025-07-19 21:00:00<>METAR SBGL 192100Z 21010KT 9999 FEW045 20/12 Q1021=
2025-07-19 22:00:00<>METAR SBGL 192200Z 22008KT CAVOK 20/12 Q1022=
2025-07-19 23:00:00<>METAR SBGL 192300Z 24006KT CAVOK 19/13 Q1023=
2025-07-20 00:00:00<>METAR SBGL 200000Z 25007KT CAVOK 19/14 Q1023=
2025-07-20 01:00:00<>METAR SBGL 200100Z 28006KT CAVOK 18/14 Q1023=
2025-07-20 02:00:00<>METAR SBGL 200200Z 28005KT CAVOK 18/13 Q1023=
2025-07-20 03:00:00<>METAR SBGL 200300Z 31005KT CAVOK 17/13 Q1023=
2025-07-20 04:00:00<>METAR SBGL 200400Z 32005KT 9999 FEW020 17/13 Q1023=
2025-07-20 05:00:00<>METAR SBGL 200500Z 30005KT CAVOK 17/13 Q1023=
2025-07-20 06:00:00<>METAR SBGL 200600Z 30003KT CAVOK 16/12 Q1022=
2025-07-20 07:00:00<>METAR SBGL 200700Z 33005KT CAVOK 16/12 Q1022=
2025-07-20 08:00:00<>METAR SBGL 200800Z 32005KT CAVOK 16/13 Q1022=
2025-07-20 09:00:00<>METAR SBGL 200900Z 33004KT 9999 FEW020 16/13 Q1022=
2025-07-20 10:00:00<>METAR SBGL 201000Z 27001KT 9000 NSC 14/12 Q1023=
2025-07-20 11:00:00<>METAR SBGL 201100Z 33003KT 9000 NSC 18/14 Q1023=
2025-07-20 12:00:00<>METAR SBGL 201200Z 35005KT 9000 NSC 20/14 Q1024=
2025-07-20 13:00:00<>METAR SBGL 201300Z 36005KT 9000 NSC 21/14 Q1024=
2025-07-20 14:00:00<>METAR SBGL 201400Z 01005KT 9999 FEW020 22/14 Q1023=
2025-07-20 15:00:00<>METAR SBGL 201500Z 03007KT 9999 FEW036 23/13 Q1023=
2025-07-20 16:00:00<>METAR SBGL 201600Z 13012KT 9999 SCT040 24/13 Q1021=
2025-07-20 17:00:00<>METAR SBGL 201700Z 11010KT 9999 SCT040 24/15 Q1020=
2025-07-20 18:00:00<>METAR SBGL 201800Z 11013KT 9999 FEW040 23/15 Q1020=
2025-07-20 19:00:00<>METAR SBGL 201900Z 14011KT 9999 FEW040 22/15 Q1020=
2025-07-20 20:00:00<>METAR SBGL 202000Z 13009KT 9999 FEW040 21/15 Q1021=
2025-07-20 21:00:00<>METAR SBGL 202100Z 13006KT CAVOK 20/15 Q1021=
2025-07-20 22:00:00<>METAR SBGL 202200Z 13004KT 9999 FEW040 20/15 Q1021=
2025-07-20 23:00:00<>METAR SBGL 202300Z 14004KT 9999 FEW040 20/16 Q1021=
2025-07-21 00:00:00<>METAR SBGL 210000Z VRB02KT 9999 FEW020 19/15 Q1022=
2025-07-21 01:00:00<>METAR SBGL 210100Z 15003KT 9999 BKN020 19/16 Q1022=
2025-07-21 02:00:00<>METAR SBGL 210200Z VRB02KT 9999 FEW020 BKN036 18/15 Q1022=
2025-07-21 03:00:00<>METAR SBGL 210300Z 00000KT 9999 FEW020 BKN036 18/16 Q1022=
2025-07-21 04:00:00<>METAR SBGL 210400Z 00000KT 9999 SCT036 18/15 Q1021=
2025-07-21 05:00:00<>METAR SBGL 210500Z VRB01KT 9999 SCT036 17/14 Q1021=
2025-07-21 06:00:00<>METAR SBGL 210600Z 07001KT 9999 FEW015 BKN040 17/15 Q1020=
2025-07-21 07:00:00<>METAR SBGL 210700Z 15002KT 9999 FEW015 BKN017 17/15 Q1020=
2025-07-21 08:00:00<>METAR SBGL 210800Z 02001KT 9999 FEW013 17/15 Q1020=
2025-07-21 08:24:00<>SPECI SBGL 210824Z VRB02KT 9000 BKN011 16/14 Q1020=
2025-07-21 09:00:00<>METAR SBGL 210900Z VRB01KT 9000 FEW009 BKN011 17/16 Q1020=
2025-07-21 10:00:00<>METAR SBGL 211000Z 35003KT 330V050 9000 FEW009 BKN013 18/16 Q1021=
2025-07-21 10:36:00<>SPECI SBGL 211036Z 34003KT 300V040 6000 FEW008 18/16 Q1021=
2025-07-21 11:00:00<>METAR SBGL 211100Z 33004KT 300V020 8000 FEW009 18/15 Q1021=
2025-07-21 12:00:00<>METAR SBGL 211200Z VRB02KT 8000 FEW015 21/16 Q1028=
2025-07-21 13:00:00<>METAR SBGL 211300Z 02003KT 330V070 9000 FEW015 22/16 Q1021=
2025-07-21 14:00:00<>METAR SBGL 211400Z 02006KT 350V090 CAVOK 24/16 Q1020=
2025-07-21 15:00:00<>METAR SBGL 211500Z 04006KT 350V100 CAVOK 24/15 Q1019=
2025-07-21 16:00:00<>METAR SBGL 211600Z 05006KT 010V090 CAVOK 26/14 Q1018=
2025-07-21 17:00:00<>METAR SBGL 211700Z 06008KT 030V100 CAVOK 26/14 Q1017=
2025-07-21 18:00:00<>METAR SBGL 211800Z 13007KT CAVOK 25/16 Q1017=
2025-07-21 19:00:00<>METAR SBGL 211900Z 14008KT CAVOK 24/17 Q1017=
2025-07-21 20:00:00<>METAR COR SBGL 212000Z 14007KT CAVOK 23/17 Q1017=
2025-07-21 21:00:00<>METAR SBGL 212100Z 14008KT CAVOK 22/17 Q1017=
2025-07-21 22:00:00<>METAR SBGL 212200Z 13006KT CAVOK 21/17 Q1018=
2025-07-21 23:00:00<>METAR SBGL 212300Z 10006KT CAVOK 21/17 Q1018=
2025-07-22 00:00:00<>METAR SBGL 220000Z 10006KT CAVOK 20/16 Q1018=
2025-07-22 01:00:00<>METAR SBGL 220100Z 09007KT CAVOK 19/16 Q1018=
2025-07-22 02:00:00<>METAR SBGL 220200Z 11006KT CAVOK 19/16 Q1018=
2025-07-22 03:00:00<>METAR SBGL 220300Z 11004KT CAVOK 18/16 Q1018=
2025-07-22 04:00:00<>METAR SBGL 220400Z 10004KT CAVOK 18/16 Q1018=
2025-07-22 05:00:00<>METAR SBGL 220500Z 17004KT CAVOK 18/16 Q1017=
2025-07-22 06:00:00<>METAR SBGL 220600Z 25004KT 8000 NSC 17/16 Q1017=
2025-07-22 07:00:00<>METAR SBGL 220700Z 31004KT 8000 NSC 17/16 Q1016=
2025-07-22 08:00:00<>METAR SBGL 220800Z 01002KT 8000 FEW007 16/15 Q1017=
2025-07-22 09:00:00<>METAR SBGL 220900Z 06002KT 8000 SCT006 17/15 Q1017=
2025-07-22 10:00:00<>METAR SBGL 221000Z 34004KT 6000 FEW005 17/16 Q1018=
2025-07-22 11:00:00<>METAR SBGL 221100Z 36002KT 7000 FEW006 19/17 Q1018=
2025-07-22 12:00:00<>METAR COR SBGL 221200Z 14002KT 8000 NSC 20/17 Q1018=
2025-07-22 13:00:00<>METAR SBGL 221300Z 36006KT CAVOK 21/17 Q1018=
2025-07-22 14:00:00<>METAR SBGL 221400Z 35006KT CAVOK 23/18 Q1018=
2025-07-22 15:00:00<>METAR SBGL 221500Z 36005KT CAVOK 24/16 Q1017=
2025-07-22 16:00:00<>METAR SBGL 221600Z 35004KT 320V020 CAVOK 25/17 Q1016=
2025-07-22 17:00:00<>METAR SBGL 221700Z 11003KT CAVOK 27/15 Q1015=
2025-07-22 18:00:00<>METAR SBGL 221800Z 15003KT CAVOK 27/14 Q1015=
2025-07-22 19:00:00<>METAR SBGL 221900Z 10006KT CAVOK 27/16 Q1015=
2025-07-22 20:00:00<>METAR SBGL 222000Z 12008KT CAVOK 24/18 Q1015=
2025-07-22 21:00:00<>METAR SBGL 222100Z 15005KT CAVOK 23/18 Q1016=
2025-07-22 22:00:00<>METAR SBGL 222200Z 15005KT CAVOK 23/18 Q1016=
2025-07-22 23:00:00<>METAR SBGL 222300Z 33003KT CAVOK 23/18 Q1017=
2025-07-23 00:00:00<>METAR SBGL 230000Z 27003KT 250V310 CAVOK 21/18 Q1017=
2025-07-23 01:00:00<>METAR SBGL 230100Z 26008KT CAVOK 22/18 Q1017=
2025-07-23 02:00:00<>METAR SBGL 230200Z 27008KT CAVOK 22/18 Q1018=
2025-07-23 03:00:00<>METAR SBGL 230300Z 26008KT CAVOK 22/18 Q1018=
2025-07-23 04:00:00<>METAR SBGL 230400Z 25009KT CAVOK 21/18 Q1018=
2025-07-23 05:00:00<>METAR SBGL 230500Z 25006KT CAVOK 21/18 Q1018=
2025-07-23 06:00:00<>METAR SBGL 230600Z 27008KT CAVOK 21/18 Q1018=
2025-07-23 07:00:00<>METAR SBGL 230700Z 31005KT 8000 NSC 20/18 Q1018=
2025-07-23 08:00:00<>METAR SBGL 230800Z 32005KT 6000 NSC 20/18 Q1018=
2025-07-23 09:00:00<>METAR SBGL 230900Z 31003KT 7000 FEW012 20/18 Q1018=
2025-07-23 10:00:00<>METAR SBGL 231000Z VRB01KT 4500 BR FEW012 18/16 Q1019=
2025-07-23 11:00:00<>METAR SBGL 231100Z VRB02KT 4500 BR FEW012 21/18 Q1020=
2025-07-23 12:00:00<>METAR SBGL 231200Z VRB02KT 5000 BR FEW009 22/18 Q1020=
2025-07-23 13:00:00<>METAR SBGL 231300Z VRB02KT 6000 FEW012 24/18 Q1021=
2025-07-23 14:00:00<>METAR SBGL 231400Z VRB06KT 7000 FEW020 26/18 Q1020=
2025-07-23 15:00:00<>METAR SBGL 231500Z 20004KT 9000 FEW022 26/18 Q1020=
2025-07-23 16:00:00<>METAR SBGL 231600Z 21013KT 9999 FEW025 25/16 Q1020=
2025-07-23 17:00:00<>METAR SBGL 231700Z 21014KT 9999 SCT040 24/15 Q1020=
2025-07-23 18:00:00<>METAR SBGL 231800Z 20010KT 9999 BKN040 24/16 Q1020=
2025-07-23 19:00:00<>METAR SBGL 231900Z 21014KT 9999 BKN040 23/15 Q1020=
2025-07-23 20:00:00<>METAR SBGL 232000Z 21013KT 9999 BKN040 22/15 Q1020=
2025-07-23 21:00:00<>METAR SBGL 232100Z 22010KT 9999 BKN045 22/14 Q1021=
2025-07-23 22:00:00<>METAR SBGL 232200Z 25006KT 9999 SCT045 21/14 Q1021=
2025-07-23 23:00:00<>METAR SBGL 232300Z 22008KT 9999 FEW045 21/15 Q1022=
2025-07-24 00:00:00<>METAR SBGL 240000Z 24006KT CAVOK 20/16 Q1022=
2025-07-24 01:00:00<>METAR SBGL 240100Z 24007KT CAVOK 20/16 Q1023=
2025-07-24 02:00:00<>METAR SBGL 240200Z 29005KT CAVOK 20/16 Q1023=
2025-07-24 03:00:00<>METAR SBGL 240300Z 29004KT 9999 FEW035 SCT100 19/16 Q1022=
2025-07-24 04:00:00<>METAR SBGL 240400Z 30003KT 9999 FEW027 SCT040 BKN100 19/16 Q1022=
2025-07-24 05:00:00<>METAR SBGL 240500Z 30003KT 9999 SCT040 19/16 Q1022=
2025-07-24 06:00:00<>METAR SBGL 240600Z 32004KT 7000 FEW040 BKN070 19/16 Q1022=
2025-07-24 07:00:00<>METAR SBGL 240700Z 32004KT 6000 BKN035 BKN070 19/16 Q1022=
2025-07-24 08:00:00<>METAR SBGL 240800Z 31004KT 7000 FEW030 SCT050 BKN070 19/16 Q1022=
2025-07-24 09:00:00<>METAR SBGL 240900Z 32004KT 8000 FEW040 BKN070 19/16 Q1022=
2025-07-24 10:00:00<>METAR SBGL 241000Z 32004KT 8000 BKN040 BKN080 19/16 Q1022=
2025-07-24 11:00:00<>METAR SBGL 241100Z 33003KT 270V030 7000 FEW015 SCT035 BKN040 20/13 Q1023=
2025-07-24 11:12:00<>SPECI SBGL 241112Z 33003KT 310V030 5000 HZ FEW008 BKN010 BKN030 20/16 Q1023=
2025-07-24 12:00:00<>METAR SBGL 241200Z 31003KT 7000 FEW008 BKN015 BKN030 21/16 Q1023=
2025-07-24 13:00:00<>METAR SBGL 241300Z 35005KT 320V020 6000 FEW015 BKN018 BKN040 21/17 Q1023=
2025-07-24 14:00:00<>METAR SBGL 241400Z 33003KT 300V010 7000 SCT015 BKN021 BKN040 22/16 Q1023=
2025-07-24 15:00:00<>METAR SBGL 241500Z 27004KT 9000 SCT020 OVC035 22/16 Q1023=
2025-07-24 16:00:00<>METAR SBGL 241600Z 23006KT 200V270 8000 FEW020 OVC040 22/16 Q1022=
2025-07-24 17:00:00<>METAR SBGL 241700Z 14003KT 7000 FEW017 BKN023 OVC035 21/17 Q1021=
2025-07-24 18:00:00<>METAR SBGL 241800Z 14003KT 120V190 8000 FEW017 SCT023 OVC035 21/17 Q1020=
2025-07-24 19:00:00<>METAR SBGL 241900Z 14008KT 9000 FEW017 SCT023 OVC040 20/17 Q1021=
2025-07-24 20:00:00<>METAR SBGL 242000Z 14005KT 9000 FEW009 BKN030 OVC040 20/17 Q1021=
2025-07-24 21:00:00<>METAR SBGL 242100Z 13004KT 9000 SCT012 BKN021 OVC040 20/17 Q1021=
2025-07-24 22:00:00<>METAR SBGL 242200Z 13005KT 9999 FEW012 BKN021 OVC040 20/17 Q1021=
2025-07-24 23:00:00<>METAR SBGL 242300Z 10004KT 9999 BKN030 OVC040 20/17 Q1021=
2025-07-25 00:00:00<>METAR SBGL 250000Z 07003KT 9999 BKN020 OVC035 20/17 Q1021=
2025-07-25 01:00:00<>METAR SBGL 250100Z 10004KT 9999 BKN020 OVC035 20/17 Q1021=
2025-07-25 02:00:00<>METAR SBGL 250200Z 11004KT 9999 BKN020 OVC035 20/16 Q1021=
2025-07-25 03:00:00<>METAR SBGL 250300Z 10003KT 9999 BKN020 OVC035 20/16 Q1021=
2025-07-25 04:00:00<>METAR SBGL 250400Z 13003KT 9000 BKN020 OVC035 19/16 Q1020=
2025-07-25 05:00:00<>METAR SBGL 250500Z 11003KT 9999 BKN025 OVC040 20/16 Q1020=
2025-07-25 06:00:00<>METAR SBGL 250600Z 13002KT 9999 BKN025 OVC050 19/16 Q1019=
2025-07-25 07:00:00<>METAR SBGL 250700Z 00000KT 9999 BKN025 OVC050 19/16 Q1019=
2025-07-25 08:00:00<>METAR SBGL 250800Z 00000KT 9000 BKN025 OVC050 20/16 Q1019=
2025-07-25 09:00:00<>METAR SBGL 250900Z 26002KT 8000 FEW017 BKN025 OVC050 20/16 Q1019=
2025-07-25 10:00:00<>METAR SBGL 251000Z 00000KT 8000 FEW017 SCT030 BKN050 20/16 Q1020=
2025-07-25 11:00:00<>METAR SBGL 251100Z 34005KT 320V020 6000 FEW020 BKN070 20/18 Q1020=
2025-07-25 12:00:00<>METAR SBGL 251200Z 02005KT 330V050 7000 FEW020 SCT070 21/17 Q1020=
2025-07-25 13:00:00<>METAR SBGL 251300Z 08007KT 010V110 7000 FEW017 SCT070 23/17 Q1020=
2025-07-25 14:00:00<>METAR SBGL 251400Z 11007KT 040V180 7000 FEW021 SCT070 23/17 Q1020=
2025-07-25 15:00:00<>METAR SBGL 251500Z 13008KT 110V180 9999 FEW020 24/17 Q1019=
2025-07-25 16:00:00<>METAR SBGL 251600Z 14012KT 110V170 9999 FEW015 SCT050 24/17 Q1018=
2025-07-25 17:00:00<>METAR SBGL 251700Z 13011KT 9999 SCT045 24/19 Q1018=
2025-07-25 18:00:00<>METAR SBGL 251800Z 14010KT 110V170 9999 SCT045 23/18 Q1016=
2025-07-25 19:00:00<>METAR SBGL 251900Z 14011KT 9999 FEW028 SCT045 22/18 Q1016=
2025-07-25 20:00:00<>METAR SBGL 252000Z 15007KT 9000 VCSH FEW030 SCT040 BKN100 21/18 Q1016=
2025-07-25 21:00:00<>METAR SBGL 252100Z 15011KT 6000 -TSRA SCT015 FEW025CB BKN040 21/18 Q1017=
2025-07-25 21:28:00<>SPECI SBGL 252128Z 14007KT 090V170 4000 -TSRA BR BKN010 FEW025CB BKN040 21/18 Q1018=
2025-07-25 21:37:00<>SPECI SBGL 252137Z 07011KT 020V100 1000 R10/2000U R28/2000U R33/2000U R15/2000U TSRA BR BKN010 BKN017 FEW025CB 18/16 Q1018=
2025-07-25 21:43:00<>SPECI SBGL 252143Z VRB03KT 0700 R10/P2000U R33/P2000D +TSRA BKN010 BKN017 FEW025CB 18/16 Q1018 RERA=
2025-07-25 22:00:00<>METAR SBGL 252200Z 23008KT 0700 R10/2000D R28/2000N +TSRA FEW003 BKN007 FEW025CB 18/17 Q1019=
2025-07-25 23:00:00<>METAR SBGL 252300Z 02005KT 340V090 3700 TSRA BKN006 FEW025CB OVC035 18/17 Q1018 RERA=
2025-07-26 00:00:00<>METAR SBGL 260000Z VRB03KT 9999 -RA VCTS SCT006 BKN013 FEW025CB OVC035 19/17 Q1019 RETSRA=
2025-07-26 00:26:00<>SPECI SBGL 260026Z VRB02KT 9999 SCT013 BKN015 BKN035 19/16 Q1019=
2025-07-26 01:00:00<>METAR SBGL 260100Z 11002KT 9999 FEW015 BKN023 18/17 Q1019=
2025-07-26 02:00:00<>METAR SBGL 260200Z VRB03KT 9999 FEW011 SCT016 18/16 Q1020=
2025-07-26 03:00:00<>METAR SBGL 260300Z 06003KT 010V080 9999 BKN011 SCT050 18/17 Q1020=
2025-07-26 04:00:00<>METAR SBGL 260400Z 33005KT 9999 FEW009 SCT015 18/16 Q1020=
2025-07-26 05:00:00<>METAR SBGL 260500Z 30003KT 270V010 9000 FEW015 18/16 Q1019=
2025-07-26 06:00:00<>METAR SBGL 260600Z 28002KT 8000 FEW015 17/16 Q1019=
2025-07-26 07:00:00<>METAR SBGL 260700Z 36006KT 8000 3700SE BKN011 17/16 Q1019=
2025-07-26 07:35:00<>SPECI SBGL 260735Z 35003KT 8000 3700SE FEW011 17/15 Q1019=
2025-07-26 08:00:00<>METAR SBGL 260800Z 00000KT 8000 FEW011 16/15 Q1019=
2025-07-26 09:00:00<>METAR SBGL 260900Z 08003KT 7000 FEW005 16/15 Q1019=
2025-07-26 09:39:00<>SPECI SBGL 260939Z VRB02KT 6000 2500NE FEW004 BKN006 16/15 Q1020=
2025-07-26 10:00:00<>METAR SBGL 261000Z VRB02KT 6000 2000NE FEW002 BKN006 17/16 Q1020=
2025-07-26 11:00:00<>METAR SBGL 261100Z 03003KT 360V070 5000 2000NE BR FEW003 BKN005 17/16 Q1020=
2025-07-26 12:00:00<>METAR SBGL 261200Z 07005KT 050V110 8000 3500NE FEW004 BKN007 19/17 Q1021=
2025-07-26 13:00:00<>METAR SBGL 261300Z 04004KT 360V100 8000 SCT009 20/16 Q1021=
2025-07-26 14:00:00<>METAR SBGL 261400Z 34003KT 270V030 9999 FEW015 22/17 Q1021=
2025-07-26 15:00:00<>METAR SBGL 261500Z 34003KT 280V040 9999 FEW020 23/17 Q1020=
2025-07-26 16:00:00<>METAR SBGL 261600Z 06004KT 330V120 9999 FEW020 24/16 Q1019=
2025-07-26 17:00:00<>METAR SBGL 261700Z 04005KT 9999 FEW020 25/14 Q1018=
2025-07-26 18:00:00<>METAR SBGL 261800Z 07006KT 020V120 9999 FEW020 25/14 Q1018=
2025-07-26 19:00:00<>METAR SBGL 261900Z 13006KT 9999 FEW020 24/16 Q1017=
2025-07-26 20:00:00<>METAR SBGL 262000Z 13006KT 9999 FEW020 23/17 Q1017=
2025-07-26 21:00:00<>METAR SBGL 262100Z 14006KT 9999 FEW020 21/17 Q1018=
2025-07-26 22:00:00<>METAR SBGL 262200Z 14006KT 9999 FEW020 21/18 Q1018=
2025-07-26 23:00:00<>METAR SBGL 262300Z 14006KT CAVOK 21/18 Q1019=
2025-07-27 00:00:00<>METAR SBGL 270000Z 13005KT CAVOK 21/18 Q1019=
2025-07-27 01:00:00<>METAR SBGL 270100Z 08006KT CAVOK 20/17 Q1019=
2025-07-27 02:00:00<>METAR SBGL 270200Z 10005KT CAVOK 19/17 Q1019=
2025-07-27 03:00:00<>METAR SBGL 270300Z 10004KT CAVOK 18/16 Q1019=
2025-07-27 04:00:00<>METAR SBGL 270400Z 09004KT CAVOK 18/16 Q1019=
2025-07-27 04:34:00<>SPECI SBGL 270434Z 10002KT 9999 SCT004 17/15 Q1017=
2025-07-27 05:00:00<>METAR SBGL 270500Z 11002KT 9999 FEW007 18/16 Q1018=
2025-07-27 06:00:00<>METAR SBGL 270600Z 12002KT 9999 FEW008 17/15 Q1018=
2025-07-27 06:42:00<>SPECI SBGL 270642Z 07003KT 9999 BKN007 17/16 Q1018=
2025-07-27 07:00:00<>METAR SBGL 270700Z 10002KT 9999 BKN007 18/16 Q1017=
2025-07-27 07:34:00<>SPECI SBGL 270734Z 09002KT 9999 SCT004 17/15 Q1017=
2025-07-27 08:00:00<>METAR SBGL 270800Z 06002KT 9999 SCT004 17/15 Q1017=
2025-07-27 09:00:00<>METAR SBGL 270900Z 01002KT 6000 BKN006 17/16 Q1018=
2025-07-27 09:14:00<>SPECI SBGL 270914Z 05004KT 4000 BR BKN007 17/16 Q1018=
2025-07-27 09:40:00<>SPECI SBGL 270940Z 02003KT 350V080 2500 BR BKN006 18/17 Q1018=
2025-07-27 10:00:00<>METAR SBGL 271000Z 10003KT 2000 0600SE R28/0900N R10/2000N R15/2000N R33/2000N BR SCT002 BKN005 17/16 Q1018=
2025-07-27 11:00:00<>METAR COR SBGL 271100Z 05003KT 0900 0000N R10/0500U R33/1300U R28/1400U R15/2000N FG OVC002 18/17 Q1018=
2025-07-27 12:00:00<>METAR SBGL 271200Z VRB02KT 0500 R10/0700D R15/1100D R28/1200U R33/2000N FG VV002 18/17 Q1019=
2025-07-27 12:35:00<>SPECI SBGL 271235Z 17003KT 140V210 2000 0800NE BR PRFG OVC002 18/17 Q1019=
2025-07-27 13:00:00<>METAR SBGL 271300Z 11002KT 4000 1500N BR SCT002 19/18 Q1019=
2025-07-27 13:30:00<>SPECI SBGL 271330Z 14001KT 6000 SCT003 21/19 Q1018=
2025-07-27 14:00:00<>METAR SBGL 271400Z 27002KT 7000 FEW003 24/18 Q1018=
2025-07-27 15:00:00<>METAR SBGL 271500Z 01003KT 9999 FEW020 26/17 Q1017=
2025-07-27 16:00:00<>METAR SBGL 271600Z 28002KT 9999 FEW020 28/16 Q1015=
2025-07-27 17:00:00<>METAR SBGL 271700Z 01003KT 320V060 CAVOK 29/16 Q1014=
2025-07-27 18:00:00<>METAR SBGL 271800Z 04004KT 360V070 CAVOK 29/14 Q1014=
2025-07-27 19:00:00<>METAR SBGL 271900Z 08005KT 060V120 CAVOK 29/14 Q1014=
2025-07-27 20:00:00<>METAR SBGL 272000Z 13004KT CAVOK 27/16 Q1013=
2025-07-27 21:00:00<>METAR SBGL 272100Z 11003KT CAVOK 24/17 Q1013=
2025-07-27 22:00:00<>METAR SBGL 272200Z VRB01KT CAVOK 22/17 Q1014=
2025-07-27 23:00:00<>METAR SBGL 272300Z 11004KT CAVOK 22/17 Q1014=
2025-07-28 00:00:00<>METAR SBGL 280000Z 09006KT CAVOK 22/16 Q1014=
2025-07-28 01:00:00<>METAR SBGL 280100Z 08006KT CAVOK 22/16 Q1014=
2025-07-28 02:00:00<>METAR SBGL 280200Z 15005KT CAVOK 20/16 Q1014=
2025-07-28 03:00:00<>METAR SBGL 280300Z 14003KT CAVOK 20/17 Q1013=
2025-07-28 04:00:00<>METAR SBGL 280400Z 15004KT CAVOK 19/17 Q1013=
2025-07-28 05:00:00<>METAR SBGL 280500Z 14004KT CAVOK 20/17 Q1012=
2025-07-28 06:00:00<>METAR SBGL 280600Z 16005KT CAVOK 19/16 Q1012=
2025-07-28 07:00:00<>METAR SBGL 280700Z 16005KT CAVOK 20/16 Q1012=
2025-07-28 08:00:00<>METAR SBGL 280800Z 03002KT CAVOK 17/15 Q1011=
2025-07-28 09:00:00<>METAR SBGL 280900Z 13006KT CAVOK 20/16 Q1012=
2025-07-28 10:00:00<>METAR SBGL 281000Z VRB02KT CAVOK 21/15 Q1013=
2025-07-28 11:00:00<>METAR SBGL 281100Z 24007KT 220V280 CAVOK 26/15 Q1014=
2025-07-28 11:11:00<>SPECI SBGL 281111Z 25024G38KT 9999 FEW020 25/14 Q1014=
2025-07-28 12:00:00<>METAR SBGL 281200Z 23017KT 9999 SCT020 27/16 Q1016=
2025-07-28 13:00:00<>METAR SBGL 281300Z 23009KT 9999 FEW020 BKN080 26/16 Q1016=
2025-07-28 14:00:00<>METAR SBGL 281400Z 24006KT 9999 FEW020 BKN100 26/17 Q1015=
2025-07-28 15:00:00<>METAR SBGL 281500Z 28002KT 9999 FEW020 BKN100 27/17 Q1013=
2025-07-28 16:00:00<>METAR SBGL 281600Z 01004KT 9999 FEW020 BKN100 26/17 Q1012=
2025-07-28 17:00:00<>METAR SBGL 281700Z 07002KT 9999 FEW020 BKN100 26/17 Q1010=
2025-07-28 18:00:00<>METAR SBGL 281800Z 07003KT 9999 FEW020 BKN100 28/17 Q1009=
2025-07-28 19:00:00<>METAR SBGL 281900Z 01004KT 9999 FEW030 BKN100 27/18 Q1009=
2025-07-28 20:00:00<>METAR SBGL 282000Z 14005KT 9999 FEW035 BKN100 26/17 Q1010=
2025-07-28 21:00:00<>METAR SBGL 282100Z 33005KT 9999 FEW035 SCT100 28/15 Q1010=
2025-07-28 22:00:00<>METAR SBGL 282200Z 20002KT 9999 FEW040 SCT100 26/15 Q1010=
2025-07-28 23:00:00<>METAR SBGL 282300Z 24003KT 160V310 CAVOK 27/14 Q1011=
2025-07-29 00:00:00<>METAR SBGL 290000Z VRB02KT 9999 FEW040 26/14 Q1011=
2025-07-29 01:00:00<>METAR SBGL 290100Z 20009KT CAVOK 28/12 Q1011=
2025-07-29 02:00:00<>METAR SBGL 290200Z 26005KT 230V290 CAVOK 27/12 Q1012=
2025-07-29 03:00:00<>METAR SBGL 290300Z 26011KT CAVOK 26/13 Q1012=
2025-07-29 04:00:00<>METAR SBGL 290400Z 21016KT CAVOK 24/17 Q1013=
2025-07-29 05:00:00<>METAR SBGL 290500Z 22018KT 9999 FEW040 22/13 Q1014=
2025-07-29 06:00:00<>METAR SBGL 290600Z 23013KT 200V260 9999 FEW030 SCT050 22/14 Q1015=
2025-07-29 07:00:00<>METAR SBGL 290700Z 22011KT 9999 FEW030 BKN050 22/14 Q1015=
2025-07-29 08:00:00<>METAR SBGL 290800Z 23011KT 9999 BKN040 21/13 Q1016=
2025-07-29 09:00:00<>METAR SBGL 290900Z 23009KT 9999 BKN040 BKN050 21/13 Q1016=
2025-07-29 10:00:00<>METAR SBGL 291000Z 22013KT 9999 VCSH BKN033 BKN040 21/13 Q1017=
2025-07-29 11:00:00<>METAR SBGL 291100Z 24013KT 9999 OVC035 20/13 Q1018=
2025-07-29 12:00:00<>METAR SBGL 291200Z 24013KT 9999 BKN035 BKN050 20/13 Q1018=
2025-07-29 13:00:00<>METAR SBGL 291300Z 23012KT 9999 BKN035 BKN050 20/12 Q1018=
2025-07-29 14:00:00<>METAR SBGL 291400Z 23012KT 9999 -RA OVC035 20/12 Q1019=
2025-07-29 15:00:00<>METAR SBGL 291500Z 22010KT 9999 OVC030 20/11 Q1019=
2025-07-29 16:00:00<>METAR SBGL 291600Z 23010KT 9999 OVC035 20/11 Q1018=
2025-07-29 17:00:00<>METAR SBGL 291700Z 23009KT 9999 FEW015 BKN040 20/11 Q1017=
2025-07-29 18:00:00<>METAR SBGL 291800Z 22010KT 9999 FEW020 BKN040 20/10 Q1017=
2025-07-29 19:00:00<>METAR SBGL 291900Z 23011KT 9999 FEW020 BKN040 20/11 Q1018=
2025-07-29 20:00:00<>METAR SBGL 292000Z 21009KT 9999 FEW020 BKN040 20/11 Q1018=
2025-07-29 21:00:00<>METAR SBGL 292100Z 22010KT 9999 FEW020 BKN045 19/11 Q1019=
2025-07-29 22:00:00<>METAR SBGL 292200Z 22011KT 9999 FEW020 BKN050 19/10 Q1020=
2025-07-29 23:00:00<>METAR SBGL 292300Z 22008KT 9999 FEW020 BKN050 19/10 Q1020=
2025-07-30 00:00:00<>METAR SBGL 300000Z 25007KT 9999 FEW020 BKN050 18/10 Q1021=
2025-07-30 01:00:00<>METAR SBGL 300100Z 25006KT 9999 FEW030 BKN050 18/10 Q1021=
2025-07-30 02:00:00<>METAR SBGL 300200Z 25006KT 9999 FEW030 SCT050 18/11 Q1022=
2025-07-30 03:00:00<>METAR SBGL 300300Z 23007KT 9999 FEW030 SCT050 18/10 Q1022=
2025-07-30 04:00:00<>METAR SBGL 300400Z 25009KT 9999 SCT040 18/10 Q1022=
2025-07-30 05:00:00<>METAR SBGL 300500Z 25007KT 9999 SCT040 17/09 Q1022=
2025-07-30 06:00:00<>METAR SBGL 300600Z 26006KT 9999 FEW040 16/10 Q1021=
2025-07-30 07:00:00<>METAR SBGL 300700Z 30003KT 9999 FEW040 15/10 Q1021=
2025-07-30 08:00:00<>METAR SBGL 300800Z 31005KT 9999 FEW040 16/10 Q1021=
2025-07-30 09:00:00<>METAR SBGL 300900Z 31005KT 9999 FEW040 16/11 Q1021=
2025-07-30 10:00:00<>METAR SBGL 301000Z 31006KT 9999 FEW040 15/11 Q1022=
2025-07-30 11:00:00<>METAR SBGL 301100Z 31007KT 9999 FEW030 17/11 Q1023=
2025-07-30 12:00:00<>METAR SBGL 301200Z 31008KT 9999 FEW030 19/11 Q1023=
2025-07-30 13:00:00<>METAR SBGL 301300Z 26008KT 9999 BKN040 20/09 Q1024=
2025-07-30 14:00:00<>METAR SBGL 301400Z 27007KT 9999 BKN045 21/09 Q1023=
2025-07-30 15:00:00<>METAR SBGL 301500Z 24008KT 190V290 9999 BKN045 21/09 Q1023=
2025-07-30 16:00:00<>METAR SBGL 301600Z 22010KT 9999 SCT045 21/08 Q1022=
2025-07-30 17:00:00<>METAR SBGL 301700Z 20011KT 9999 FEW045 22/09 Q1022=
2025-07-30 18:00:00<>METAR SBGL 301800Z 22009KT 9999 FEW045 21/10 Q1021=
2025-07-30 19:00:00<>METAR SBGL 301900Z 19012KT 9999 FEW045 21/11 Q1022=
2025-07-30 20:00:00<>METAR SBGL 302000Z 21012KT 9999 FEW045 19/10 Q1022=
2025-07-30 21:00:00<>METAR SBGL 302100Z 21009KT 9999 FEW040 18/10 Q1023=
2025-07-30 22:00:00<>METAR SBGL 302200Z 23007KT CAVOK 18/11 Q1024=
2025-07-30 23:00:00<>METAR SBGL 302300Z 24005KT CAVOK 18/11 Q1024=
2025-07-31 00:00:00<>METAR SBGL 310000Z 27003KT CAVOK 17/11 Q1025=
2025-07-31 01:00:00<>METAR SBGL 310100Z 33003KT CAVOK 16/12 Q1025=
2025-07-31 02:00:00<>METAR SBGL 310200Z 33005KT CAVOK 16/12 Q1025=
2025-07-31 03:00:00<>METAR SBGL 310300Z VRB02KT 9999 FEW020 15/11 Q1025=
2025-07-31 04:00:00<>METAR SBGL 310400Z 30003KT 9999 FEW020 15/11 Q1025=
2025-07-31 05:00:00<>METAR SBGL 310500Z 31003KT 280V360 9999 FEW020 15/12 Q1025=
2025-07-31 06:00:00<>METAR SBGL 310600Z 30003KT 9000 SCT030 15/11 Q1025=
2025-07-31 07:00:00<>METAR SBGL 310700Z 32007KT 9999 FEW030 BKN040 15/12 Q1025=
2025-07-31 08:00:00<>METAR SBGL 310800Z 31006KT 260V330 9999 BKN030 BKN040 16/11 Q1025=
2025-07-31 09:00:00<>METAR SBGL 310900Z 30003KT 260V320 9999 BKN030 BKN040 16/11 Q1026=
2025-07-31 10:00:00<>METAR SBGL 311000Z 31003KT 9999 BKN026 BKN040 16/12 Q1026=
2025-07-31 11:00:00<>METAR SBGL 311100Z 32004KT 290V360 9999 BKN027 17/12 Q1027=
2025-07-31 12:00:00<>METAR SBGL 311200Z 33004KT CAVOK 18/12 Q1027=
2025-07-31 13:00:00<>METAR SBGL 311300Z 05004KT 360V100 9999 BKN027 19/13 Q1028=
2025-07-31 14:00:00<>METAR COR SBGL 311400Z 34004KT 9999 BKN027 21/12 Q1027=
2025-07-31 15:00:00<>METAR SBGL 311500Z VRB03KT 9999 FEW027 OVC050 22/13 Q1027=
2025-07-31 16:00:00<>METAR SBGL 311600Z 12007KT 070V160 9999 FEW027 BKN050 21/13 Q1027=
2025-07-31 17:00:00<>METAR SBGL 311700Z 13009KT 100V170 9999 FEW020 BKN050 21/12 Q1026=
2025-07-31 18:00:00<>METAR SBGL 311800Z 13008KT 100V170 9999 FEW025 22/12 Q1026=
2025-07-31 19:00:00<>METAR SBGL 311900Z 12008KT 9999 FEW025 21/11 Q1025=
2025-07-31 20:00:00<>METAR SBGL 312000Z 13007KT 9999 FEW025 20/12 Q1025=
2025-07-31 21:00:00<>METAR SBGL 312100Z 14005KT 9999 FEW025 SCT040 19/12 Q1026=
2025-07-31 22:00:00<>METAR SBGL 312200Z 14005KT 9999 FEW025 BKN050 19/13 Q1027=
2025-07-31 23:00:00<>METAR SBGL 312300Z 13007KT CAVOK 20/14 Q1027=
2025-08-01 00:00:00<>METAR SBGL 010000Z 12007KT 9999 SCT040 BKN055 20/13 Q1027=
2025-08-01 01:00:00<>METAR SBGL 010100Z 09006KT 9999 SCT040 18/13 Q1027=
2025-08-01 02:00:00<>METAR SBGL 010200Z 10003KT 9999 FEW040 16/13 Q1028=
2025-08-01 03:00:00<>METAR SBGL 010300Z 10004KT 060V140 CAVOK 16/14 Q1028=
2025-08-01 04:00:00<>METAR SBGL 010400Z 09003KT CAVOK 15/13 Q1028=
2025-08-01 05:00:00<>METAR SBGL 010500Z VRB02KT CAVOK 15/13 Q1027=
2025-08-01 06:00:00<>METAR SBGL 010600Z 33002KT CAVOK 15/13 Q1027=
2025-08-01 07:00:00<>METAR SBGL 010700Z 36004KT CAVOK 15/12 Q1027=
2025-08-01 08:00:00<>METAR SBGL 010800Z 35003KT CAVOK 14/12 Q1027=
2025-08-01 09:00:00<>METAR SBGL 010900Z VRB02KT CAVOK 13/11 Q1027=
2025-08-01 10:00:00<>METAR SBGL 011000Z VRB02KT 9999 FEW018 14/12 Q1028=
2025-08-01 11:00:00<>METAR SBGL 011100Z VRB02KT 9999 FEW015 16/13 Q1028=
2025-08-01 12:00:00<>METAR SBGL 011200Z 02003KT 340V130 CAVOK 18/14 Q1029=
2025-08-01 13:00:00<>METAR SBGL 011300Z 35005KT 320V030 9999 FEW020 19/15 Q1028=
2025-08-01 14:00:00<>METAR SBGL 011400Z 06005KT 010V100 9999 FEW025 21/12 Q1028=
2025-08-01 15:00:00<>METAR SBGL 011500Z 02007KT 340V060 9999 FEW025 22/13 Q1027=
2025-08-01 16:00:00<>METAR SBGL 011600Z 36007KT 340V040 9999 FEW025 23/13 Q1025=
2025-08-01 17:00:00<>METAR SBGL 011700Z 14008KT CAVOK 24/13 Q1024=
2025-08-01 18:00:00<>METAR SBGL 011800Z 14008KT 110V170 CAVOK 23/13 Q1023=
2025-08-01 19:00:00<>METAR SBGL 011900Z 14008KT CAVOK 23/14 Q1023=
2025-08-01 20:00:00<>METAR SBGL 012000Z 14008KT CAVOK 22/13 Q1023=
2025-08-01 21:00:00<>METAR SBGL 012100Z 14007KT CAVOK 21/14 Q1024=
2025-08-01 22:00:00<>METAR SBGL 012200Z 10013KT CAVOK 20/13 Q1024=
2025-08-01 23:00:00<>METAR SBGL 012300Z 11007KT 9999 FEW008 19/13 Q1025=
2025-08-02 00:00:00<>METAR SBGL 020000Z 10007KT CAVOK 19/13 Q1025=
2025-08-02 01:00:00<>METAR SBGL 020100Z 11004KT CAVOK 18/13 Q1025=
2025-08-02 02:00:00<>METAR SBGL 020200Z 11004KT CAVOK 17/13 Q1025=
2025-08-02 03:00:00<>METAR SBGL 020300Z 11005KT CAVOK 17/13 Q1025=
2025-08-02 04:00:00<>METAR SBGL 020400Z 13002KT CAVOK 16/13 Q1025=
2025-08-02 05:00:00<>METAR SBGL 020500Z 17002KT CAVOK 14/12 Q1025=
2025-08-02 06:00:00<>METAR SBGL 020600Z 06002KT CAVOK 13/11 Q1024=
2025-08-02 07:00:00<>METAR SBGL 020700Z 11003KT 8000 NSC 14/12 Q1023=
2025-08-02 08:00:00<>METAR SBGL 020800Z 11003KT 8000 NSC 14/12 Q1023=
2025-08-02 09:00:00<>METAR SBGL 020900Z 07003KT 7000 NSC 13/11 Q1024=
2025-08-02 10:00:00<>METAR SBGL 021000Z 31002KT CAVOK 14/13 Q1024=
2025-08-02 11:00:00<>METAR SBGL 021100Z VRB01KT 8000 NSC 17/14 Q1024=
2025-08-02 12:00:00<>METAR SBGL 021200Z VRB02KT 9000 NSC 19/14 Q1025=
2025-08-02 13:00:00<>METAR SBGL 021300Z 02006KT CAVOK 21/15 Q1025=
2025-08-02 14:00:00<>METAR SBGL 021400Z 03008KT CAVOK 21/14 Q1025=
2025-08-02 15:00:00<>METAR SBGL 021500Z VRB05KT CAVOK 23/13 Q1023=
2025-08-02 16:00:00<>METAR SBGL 021600Z 01007KT CAVOK 23/13 Q1023=
2025-08-02 17:00:00<>METAR SBGL 021700Z 11006KT 080V140 CAVOK 26/12 Q1022=
2025-08-02 18:00:00<>METAR SBGL 021800Z 14006KT CAVOK 25/14 Q1021=
2025-08-02 19:00:00<>METAR SBGL 021900Z 13006KT CAVOK 25/14 Q1021=
2025-08-02 20:00:00<>METAR SBGL 022000Z 14006KT CAVOK 24/14 Q1021=
2025-08-02 21:00:00<>METAR SBGL 022100Z 14005KT CAVOK 22/16 Q1022=
2025-08-02 22:00:00<>METAR SBGL 022200Z 13006KT CAVOK 22/16 Q1022=
2025-08-02 23:00:00<>METAR SBGL 022300Z 10009KT CAVOK 21/16 Q1022=
2025-08-03 00:00:00<>METAR SBGL 030000Z 10006KT CAVOK 20/16 Q1022=
2025-08-03 01:00:00<>METAR SBGL 030100Z 12003KT CAVOK 19/15 Q1022=
2025-08-03 02:00:00<>METAR SBGL 030200Z 06001KT CAVOK 17/15 Q1023=
2025-08-03 03:00:00<>METAR SBGL 030300Z 10004KT CAVOK 17/16 Q1022=
2025-08-03 04:00:00<>METAR SBGL 030400Z 10005KT CAVOK 16/15 Q1022=
2025-08-03 05:00:00<>METAR SBGL 030500Z 14003KT CAVOK 17/15 Q1021=
2025-08-03 06:00:00<>METAR SBGL 030600Z 11003KT CAVOK 16/14 Q1020=
2025-08-03 07:00:00<>METAR SBGL 030700Z 10002KT CAVOK 15/14 Q1020=
2025-08-03 08:00:00<>METAR SBGL 030800Z VRB01KT CAVOK 14/13 Q1020=
2025-08-03 09:00:00<>METAR SBGL 030900Z VRB01KT CAVOK 14/12 Q1020=
2025-08-03 10:00:00<>METAR SBGL 031000Z 27002KT CAVOK 14/13 Q1021=
2025-08-03 11:00:00<>METAR SBGL 031100Z VRB02KT CAVOK 19/15 Q1021=
2025-08-03 12:00:00<>METAR SBGL 031200Z VRB02KT CAVOK 21/15 Q1022=
2025-08-03 13:00:00<>METAR SBGL 031300Z VRB04KT CAVOK 22/16 Q1021=
2025-08-03 14:00:00<>METAR SBGL 031400Z 33003KT 270V360 CAVOK 24/14 Q1020=
2025-08-03 15:00:00<>METAR SBGL 031500Z VRB03KT CAVOK 27/13 Q1020=
2025-08-03 16:00:00<>METAR SBGL 031600Z VRB03KT CAVOK 27/12 Q1019=
2025-08-03 17:00:00<>METAR SBGL 031700Z 13004KT 080V170 CAVOK 27/11 Q1018=
2025-08-03 18:00:00<>METAR SBGL 031800Z 13010KT CAVOK 26/12 Q1018=
2025-08-03 19:00:00<>METAR SBGL 031900Z 14008KT CAVOK 25/13 Q1018=
2025-08-03 20:00:00<>METAR SBGL 032000Z 13007KT CAVOK 25/14 Q1019=
2025-08-03 21:00:00<>METAR SBGL 032100Z 15003KT CAVOK 22/14 Q1019=
2025-08-03 22:00:00<>METAR SBGL 032200Z 06004KT 020V100 CAVOK 21/14 Q1020=
2025-08-03 23:00:00<>METAR SBGL 032300Z 07001KT CAVOK 19/15 Q1020=
2025-08-04 00:00:00<>METAR SBGL 040000Z 10003KT CAVOK 19/16 Q1021=
2025-08-04 01:00:00<>METAR SBGL 040100Z 12003KT CAVOK 19/16 Q1021=
2025-08-04 02:00:00<>METAR SBGL 040200Z 14001KT CAVOK 18/15 Q1021=
2025-08-04 03:00:00<>METAR SBGL 040300Z 14002KT CAVOK 17/14 Q1020=
2025-08-04 04:00:00<>METAR SBGL 040400Z 07002KT CAVOK 16/14 Q1020=
2025-08-04 05:00:00<>METAR SBGL 040500Z 10002KT CAVOK 15/14 Q1019=
2025-08-04 06:00:00<>METAR SBGL 040600Z 01002KT CAVOK 15/13 Q1018=
2025-08-04 07:00:00<>METAR SBGL 040700Z 00000KT CAVOK 15/13 Q1018=
2025-08-04 08:00:00<>METAR SBGL 040800Z 10001KT CAVOK 14/13 Q1018=
2025-08-04 09:00:00<>METAR SBGL 040900Z 08003KT CAVOK 14/13 Q1019=
2025-08-04 10:00:00<>METAR SBGL 041000Z 03001KT CAVOK 14/13 Q1020=
2025-08-04 11:00:00<>METAR SBGL 041100Z VRB02KT 9999 FEW025 18/16 Q1020=
2025-08-04 12:00:00<>METAR SBGL 041200Z VRB02KT 9999 FEW025 20/17 Q1021=
2025-08-04 13:00:00<>METAR SBGL 041300Z 02004KT 9999 FEW025 24/14 Q1021=
2025-08-04 14:00:00<>METAR SBGL 041400Z VRB02KT 9999 FEW025 27/13 Q1020=
2025-08-04 15:00:00<>METAR SBGL 041500Z 33004KT 240V030 9999 FEW025 28/13 Q1020=
2025-08-04 16:00:00<>METAR SBGL 041600Z 36005KT 320V060 CAVOK 29/12 Q1019=
2025-08-04 17:00:00<>METAR SBGL 041700Z VRB03KT CAVOK 30/11 Q1019=
2025-08-04 18:00:00<>METAR SBGL 041800Z 13010KT CAVOK 26/14 Q1018=
2025-08-04 19:00:00<>METAR SBGL 041900Z 14010KT 100V170 CAVOK 25/14 Q1019=
2025-08-04 20:00:00<>METAR SBGL 042000Z 21007KT 180V240 CAVOK 24/16 Q1019=
2025-08-04 21:00:00<>METAR SBGL 042100Z 26007KT 9999 FEW020 22/17 Q1021=
2025-08-04 22:00:00<>METAR SBGL 042200Z 26007KT CAVOK 22/16 Q1022=
2025-08-04 23:00:00<>METAR SBGL 042300Z 27008KT 9999 FEW020 21/17 Q1022=
2025-08-05 00:00:00<>METAR SBGL 050000Z 25007KT 9999 FEW020 21/17 Q1023=
2025-08-05 01:00:00<>METAR SBGL 050100Z 28004KT 250V330 9999 FEW020 21/17 Q1023=
2025-08-05 02:00:00<>METAR SBGL 050200Z 32003KT 290V020 CAVOK 21/16 Q1023=
2025-08-05 03:00:00<>METAR SBGL 050300Z VRB02KT CAVOK 20/16 Q1022=
2025-08-05 04:00:00<>METAR SBGL 050400Z VRB01KT CAVOK 19/16 Q1022=
2025-08-05 05:00:00<>METAR SBGL 050500Z 30004KT 9000 NSC 19/16 Q1021=
2025-08-05 06:00:00<>METAR SBGL 050600Z 32004KT 9000 NSC 18/16 Q1021=
2025-08-05 07:00:00<>METAR SBGL 050700Z 29001KT 9000 NSC 18/16 Q1021=
2025-08-05 08:00:00<>METAR SBGL 050800Z 08004KT 9000 FEW020 BKN066 18/17 Q1021=
2025-08-05 09:00:00<>METAR SBGL 050900Z 01005KT 350V050 8000 FEW020 BKN066 19/17 Q1022=
2025-08-05 10:00:00<>METAR SBGL 051000Z 01003KT 340V050 8000 FEW020 BKN066 19/16 Q1023=
2025-08-05 11:00:00<>METAR SBGL 051100Z 33003KT 8000 FEW021 BKN070 20/17 Q1023=
2025-08-05 12:00:00<>METAR SBGL 051200Z 33003KT 310V040 8000 SCT019 21/16 Q1024=
2025-08-05 13:00:00<>METAR SBGL 051300Z 36004KT 8000 SCT020 BKN070 21/17 Q1024=
2025-08-05 14:00:00<>METAR SBGL 051400Z 02005KT 8000 SCT020 BKN070 23/17 Q1024=
2025-08-05 15:00:00<>METAR SBGL 051500Z 02005KT CAVOK 22/17 Q1023=
2025-08-05 16:00:00<>METAR SBGL 051600Z 02005KT CAVOK 22/17 Q1023=
2025-08-05 17:00:00<>METAR SBGL 051700Z 14006KT 9999 SCT025 BKN040 22/16 Q1021=
2025-08-05 18:00:00<>METAR SBGL 051800Z 11004KT 9999 SCT024 BKN040 23/17 Q1021=
2025-08-05 19:00:00<>METAR SBGL 051900Z 21008KT 9999 SCT025 OVC030 21/16 Q1021=
2025-08-05 20:00:00<>METAR SBGL 052000Z 21008KT 9999 OVC030 22/16 Q1022=
2025-08-05 21:00:00<>METAR SBGL 052100Z 21008KT 9999 OVC040 22/16 Q1022=
2025-08-05 22:00:00<>METAR SBGL 052200Z 21007KT 9999 BKN040 23/17 Q1023=
2025-08-05 23:00:00<>METAR SBGL 052300Z 24006KT 210V270 9999 BKN033 OVC100 21/17 Q1023=
2025-08-06 00:00:00<>METAR SBGL 060000Z 24008KT 9999 FEW025 BKN033 OVC100 21/17 Q1023=
2025-08-06 01:00:00<>METAR SBGL 060100Z 26007KT 9999 FEW025 BKN040 BKN050 21/17 Q1023=
2025-08-06 02:00:00<>METAR SBGL 060200Z 23007KT 190V250 9999 FEW025 BKN040 21/16 Q1023=
2025-08-06 03:00:00<>METAR SBGL 060300Z 26006KT 220V290 9999 FEW025 BKN040 21/17 Q1023=
2025-08-06 04:00:00<>METAR SBGL 060400Z 27006KT 9999 FEW020 BKN040 20/17 Q1023=
2025-08-06 05:00:00<>METAR SBGL 060500Z 33006KT 9999 FEW020 BKN040 20/17 Q1022=
2025-08-06 06:00:00<>METAR SBGL 060600Z 30003KT 9999 FEW016 BKN030 20/17 Q1022=
2025-08-06 07:00:00<>METAR SBGL 060700Z 33003KT 9999 FEW025 BKN050 19/17 Q1021=
2025-08-06 08:00:00<>METAR SBGL 060800Z 30004KT 7000 FEW025 BKN050 19/17 Q1021=
2025-08-06 09:00:00<>METAR SBGL 060900Z 31003KT 230V030 8000 FEW025 BKN050 20/17 Q1022=
2025-08-06 10:00:00<>METAR SBGL 061000Z 35004KT 7000 FEW025 OVC080 19/17 Q1022=
2025-08-06 11:00:00<>METAR SBGL 061100Z 34003KT 7000 FEW040 20/17 Q1023=
2025-08-06 12:00:00<>METAR SBGL 061200Z 34004KT 320V050 8000 FEW020 SCT070 21/18 Q1023=
2025-08-06 13:00:00<>METAR SBGL 061300Z 36004KT 320V020 9999 SCT020 23/17 Q1023=
2025-08-06 14:00:00<>METAR SBGL 061400Z 01005KT 330V060 9999 BKN027 24/16 Q1022=
2025-08-06 15:00:00<>METAR SBGL 061500Z 11010KT 9999 BKN026 25/17 Q1021=
2025-08-06 16:00:00<>METAR SBGL 061600Z 12010KT 9999 SCT030 25/17 Q1021=
2025-08-06 17:00:00<>METAR SBGL 061700Z 12011KT 9999 SCT030 24/16 Q1020=
2025-08-06 18:00:00<>METAR SBGL 061800Z 13009KT 9999 FEW030 24/16 Q1019=
2025-08-06 19:00:00<>METAR SBGL 061900Z 12008KT 9999 FEW030 24/16 Q1019=
2025-08-06 20:00:00<>METAR SBGL 062000Z 13005KT 100V160 9999 FEW030 23/17 Q1020=
2025-08-06 21:00:00<>METAR SBGL 062100Z 12008KT 9999 FEW020 21/18 Q1020=
2025-08-06 22:00:00<>METAR SBGL 062200Z 13006KT 9999 FEW040 SCT100 21/18 Q1020=
2025-08-06 23:00:00<>METAR SBGL 062300Z 13006KT 9999 FEW040 SCT100 21/18 Q1021=
2025-08-07 00:00:00<>METAR SBGL 070000Z 12002KT 9999 FEW017 OVC100 21/17 Q1021=
2025-08-07 01:00:00<>METAR SBGL 070100Z 07003KT 9999 FEW035 SCT080 20/17 Q1021=
2025-08-07 02:00:00<>METAR SBGL 070200Z 13006KT 9999 FEW040 BKN100 19/17 Q1021=
2025-08-07 03:00:00<>METAR SBGL 070300Z VRB02KT 9999 FEW007 BKN070 19/17 Q1020=
2025-08-07 04:00:00<>METAR SBGL 070400Z 07002KT 9999 FEW016 BKN070 19/17 Q1020=
2025-08-07 05:00:00<>METAR SBGL 070500Z 36005KT 9999 FEW016 BKN070 19/17 Q1019=
2025-08-07 06:00:00<>METAR SBGL 070600Z 32002KT 9999 FEW007 18/17 Q1019=
2025-08-07 07:00:00<>METAR SBGL 070700Z 06002KT 8000 FEW007 17/15 Q1018=
2025-08-07 08:00:00<>METAR SBGL 070800Z 07002KT 7000 FEW007 SCT015 17/15 Q1019=
2025-08-07 09:00:00<>METAR SBGL 070900Z 04002KT 6000 SCT007 SCT015 17/16 Q1020=
2025-08-07 09:32:00<>SPECI SBGL 070932Z 34003KT 320V020 4000 BR BKN007 18/16 Q1020=
2025-08-07 10:00:00<>METAR SBGL 071000Z 35004KT 3000 BR BKN006 18/16 Q1020=
2025-08-07 11:00:00<>METAR SBGL 071100Z 36003KT 330V050 5000 BR BKN006 19/17 Q1020=
2025-08-07 11:43:00<>SPECI SBGL 071143Z VRB01KT 5000 HZ SCT007 21/16 Q1020=
2025-08-07 12:00:00<>METAR SBGL 071200Z 04002KT 7000 FEW008 21/16 Q1020=
2025-08-07 13:00:00<>METAR SBGL 071300Z 01006KT 8000 FEW012 22/17 Q1020=
2025-08-07 14:00:00<>METAR SBGL 071400Z 04006KT 7000 SCT015 23/18 Q1019=
2025-08-07 15:00:00<>METAR SBGL 071500Z 04006KT 8000 FEW015 24/17 Q1018=
2025-08-07 16:00:00<>METAR SBGL 071600Z 04006KT 9999 FEW020 25/17 Q1017=
2025-08-07 17:00:00<>METAR SBGL 071700Z 12006KT 9999 FEW020 25/17 Q1016=
2025-08-07 18:00:00<>METAR SBGL 071800Z 13008KT 9999 FEW030 24/17 Q1016=
2025-08-07 19:00:00<>METAR SBGL 071900Z 13011KT 9999 FEW030 23/17 Q1016=
2025-08-07 20:00:00<>METAR SBGL 072000Z 14009KT 9999 FEW035 22/17 Q1016=
2025-08-07 21:00:00<>METAR SBGL 072100Z 14009KT 9999 FEW035 21/18 Q1016=
2025-08-07 22:00:00<>METAR SBGL 072200Z 14004KT 9999 FEW040 21/18 Q1017=
2025-08-07 23:00:00<>METAR SBGL 072300Z VRB03KT 9999 BKN030 21/18 Q1017=
2025-08-08 00:00:00<>METAR SBGL 080000Z 05004KT 360V110 9999 FEW015 BKN025 21/18 Q1017=
2025-08-08 01:00:00<>METAR SBGL 080100Z 10004KT 9999 FEW017 BKN024 21/18 Q1017=
2025-08-08 02:00:00<>METAR SBGL 080200Z 08003KT 9999 FEW016 BKN025 21/18 Q1017=
2025-08-08 03:00:00<>METAR SBGL 080300Z 08003KT 9999 FEW015 BKN018 20/18 Q1017=
2025-08-08 04:00:00<>METAR SBGL 080400Z 05004KT 9999 FEW015 BKN018 20/18 Q1016=
2025-08-08 05:00:00<>METAR SBGL 080500Z 08004KT 9999 FEW014 SCT017 19/17 Q1016=
2025-08-08 06:00:00<>METAR SBGL 080600Z 07004KT 9999 FEW013 BKN015 19/17 Q1015=
2025-08-08 07:00:00<>METAR SBGL 080700Z 08005KT 9999 BKN015 19/18 Q1014=
2025-08-08 08:00:00<>METAR SBGL 080800Z VRB02KT 9999 FEW010 BKN015 20/18 Q1015=
2025-08-08 09:00:00<>METAR SBGL 080900Z VRB02KT 9000 FEW014 19/17 Q1015=
2025-08-08 10:00:00<>METAR SBGL 081000Z 07004KT 6000 SCT007 19/17 Q1015=
2025-08-08 11:00:00<>METAR SBGL 081100Z 11003KT 070V130 6000 BKN009 20/19 Q1015=
2025-08-08 12:00:00<>METAR SBGL 081200Z 05005KT 020V080 6000 FEW007 SCT009 21/18 Q1015=
2025-08-08 13:00:00<>METAR SBGL 081300Z 07004KT 030V150 8000 FEW009 22/18 Q1014=
2025-08-08 14:00:00<>METAR SBGL 081400Z VRB02KT 9000 FEW013 25/18 Q1013=
2025-08-08 15:00:00<>METAR SBGL 081500Z VRB03KT CAVOK 27/18 Q1012=
2025-08-08 16:00:00<>METAR SBGL 081600Z 10003KT 010V180 CAVOK 29/17 Q1011=
2025-08-08 17:00:00<>METAR SBGL 081700Z 15003KT 100V200 CAVOK 30/16 Q1009=
2025-08-08 18:00:00<>METAR SBGL 081800Z 13006KT CAVOK 30/15 Q1009=
2025-08-08 19:00:00<>METAR SBGL 081900Z 13006KT CAVOK 30/15 Q1008=
2025-08-08 20:00:00<>METAR SBGL 082000Z 14006KT 9999 FEW030 FEW035TCU 28/18 Q1009=
2025-08-08 20:24:00<>SPECI SBGL 082024Z 24016KT 9999 FEW030 FEW035TCU 26/18 Q1009=
2025-08-08 21:00:00<>METAR SBGL 082100Z 24019KT 9999 VCTS FEW030 FEW035CB BKN100 24/19 Q1010=
2025-08-08 21:20:00<>SPECI COR SBGL 082120Z 26025G35KT 4000 TSRA BKN030 FEW035CB BKN100 23/18 Q1012=
2025-08-08 21:39:00<>SPECI SBGL 082139Z 24017G31KT 210V270 2500 TSRA FEW022 BKN030 FEW035CB BKN100 21/19 Q1012=
2025-08-08 22:00:00<>METAR SBGL 082200Z 18010KT 9000 -TSRA SCT030 FEW035CB SCT066 BKN100 21/18 Q1012 RERA=
2025-08-08 23:00:00<>METAR SBGL 082300Z 25014KT 9999 SCT030 FEW035TCU BKN080 22/18 Q1013 RETS=
2025-08-09 00:00:00<>METAR SBGL 090000Z 30012KT 8000 SCT030 FEW035TCU BKN070 21/18 Q1014=
2025-08-09 01:00:00<>METAR SBGL 090100Z 35005KT 8000 FEW010 SCT030 FEW035TCU BKN070 21/18 Q1013=
2025-08-09 02:00:00<>METAR SBGL 090200Z 27004KT 8000 SCT030 FEW035TCU SCT070 20/18 Q1013=
2025-08-09 03:00:00<>METAR SBGL 090300Z 25005KT 8000 SCT030 SCT070 20/18 Q1013=
2025-08-09 04:00:00<>METAR SBGL 090400Z VRB01KT 7000 SCT030 SCT070 20/18 Q1012=
2025-08-09 05:00:00<>METAR SBGL 090500Z 10003KT 6000 SCT035 SCT070 20/18 Q1013=
2025-08-09 06:00:00<>METAR SBGL 090600Z 23005KT 7000 SCT025 BKN070 21/18 Q1013=
2025-08-09 07:00:00<>METAR SBGL 090700Z 26007KT 7000 SCT025 BKN070 21/18 Q1013=
2025-08-09 08:00:00<>METAR SBGL 090800Z 23009KT 9000 BKN015 OVC040 21/17 Q1014=
2025-08-09 09:00:00<>METAR SBGL 090900Z 23012KT 9999 SCT018 BKN040 OVC070 20/15 Q1014=
2025-08-09 10:00:00<>METAR SBGL 091000Z 24008KT 9999 SCT018 OVC040 20/16 Q1015=
2025-08-09 11:00:00<>METAR SBGL 091100Z 24010KT 190V270 7000 SCT018 OVC040 20/16 Q1016=
2025-08-09 12:00:00<>METAR SBGL 091200Z 22012KT 9000 SCT015 BKN030 OVC040 19/15 Q1017=
2025-08-09 13:00:00<>METAR SBGL 091300Z 26009KT 9999 SCT015 BKN025 OVC040 20/16 Q1017=
2025-08-09 14:00:00<>METAR SBGL 091400Z 28007KT 250V310 9999 SCT015 BKN025 OVC040 21/16 Q1017=
2025-08-09 15:00:00<>METAR SBGL 091500Z 26007KT 9999 SCT015 BKN025 OVC030 20/16 Q1016=
2025-08-09 16:00:00<>METAR SBGL 091600Z 22008KT 9999 SCT015 BKN025 OVC030 20/15 Q1016=
2025-08-09 17:00:00<>METAR SBGL 091700Z 22010KT 9999 SCT015 BKN025 OVC030 20/14 Q1015=
2025-08-09 18:00:00<>METAR SBGL 091800Z 23010KT 9999 SCT015 OVC030 20/14 Q1015=
2025-08-09 19:00:00<>METAR SBGL 091900Z 23009KT 200V270 9999 SCT015 OVC030 20/13 Q1015=
2025-08-09 20:00:00<>METAR SBGL 092000Z 22008KT 9999 SCT015 OVC030 19/14 Q1016=
2025-08-09 21:00:00<>METAR SBGL 092100Z 23006KT 200V260 9999 SCT015 OVC030 19/14 Q1016=
2025-08-09 22:00:00<>METAR SBGL 092200Z 24009KT 9999 SCT020 OVC030 19/14 Q1017=
2025-08-09 23:00:00<>METAR SBGL 092300Z 26007KT 9999 SCT019 OVC033 18/14 Q1018=
2025-08-10 00:00:00<>METAR SBGL 100000Z 25007KT 9000 3000SW -RA SCT013 BKN018 OVC030 18/15 Q1018=
2025-08-10 00:10:00<>SPECI SBGL 100010Z 25008KT 4000 DZ FEW007 BKN013 OVC030 18/15 Q1019=
2025-08-10 00:41:00<>SPECI SBGL 100041Z 27006KT 9000 SCT005 BKN013 OVC030 17/16 Q1019 REDZ=
2025-08-10 01:00:00<>METAR SBGL 100100Z 28005KT 9999 FEW005 SCT013 OVC030 17/16 Q1019=
2025-08-10 02:00:00<>METAR SBGL 100200Z 27006KT 9999 FEW006 SCT015 OVC033 17/15 Q1019=
2025-08-10 03:00:00<>METAR SBGL 100300Z 25005KT 9999 BKN018 BKN023 OVC033 17/14 Q1019=
2025-08-10 04:00:00<>METAR SBGL 100400Z 27005KT 9999 FEW017 BKN021 OVC033 17/14 Q1019=
2025-08-10 05:00:00<>METAR SBGL 100500Z 24006KT 9999 FEW017 OVC033 18/13 Q1018=
2025-08-10 06:00:00<>METAR SBGL 100600Z 25008KT 210V290 9999 FEW017 OVC033 18/12 Q1018=
2025-08-10 07:00:00<>METAR SBGL 100700Z 26006KT 220V290 9999 FEW015 BKN033 OVC040 18/12 Q1018=
2025-08-10 08:00:00<>METAR SBGL 100800Z 25008KT 9999 FEW012 SCT040 BKN066 18/11 Q1018=
2025-08-10 09:00:00<>METAR SBGL 100900Z 27006KT 9999 FEW012 SCT050 BKN066 17/11 Q1019=
2025-08-10 10:00:00<>METAR SBGL 101000Z 29007KT 9999 FEW015 SCT066 17/10 Q1019=
2025-08-10 11:00:00<>METAR SBGL 101100Z 32006KT 9999 FEW015 18/13 Q1020=
2025-08-10 12:00:00<>METAR SBGL 101200Z 27008KT 9999 FEW040 20/10 Q1021=
2025-08-10 13:00:00<>METAR SBGL 101300Z 30010KT 9999 SCT040 21/10 Q1021=
2025-08-10 14:00:00<>METAR SBGL 101400Z 29009KT 9999 BKN040 22/12 Q1021=
2025-08-10 15:00:00<>METAR SBGL 101500Z 26011KT 9999 OVC040 21/11 Q1020=
2025-08-10 16:00:00<>METAR SBGL 101600Z 25009KT 9999 OVC040 21/11 Q1020=
2025-08-10 17:00:00<>METAR SBGL 101700Z 23007KT 9999 OVC040 22/12 Q1019=
2025-08-10 18:00:00<>METAR SBGL 101800Z 25011KT 9999 BKN035 OVC070 21/12 Q1019=
2025-08-10 19:00:00<>METAR SBGL 101900Z 24012KT 9999 BKN035 OVC070 21/12 Q1019=
2025-08-10 20:00:00<>METAR SBGL 102000Z 23010KT 9999 FEW030 BKN060 20/13 Q1020=
2025-08-10 21:00:00<>METAR SBGL 102100Z 23008KT 9999 BKN040 20/13 Q1020=
2025-08-10 22:00:00<>METAR SBGL 102200Z 21009KT 9999 FEW025 OVC040 19/14 Q1020=
2025-08-10 23:00:00<>METAR SBGL 102300Z 23008KT 9999 FEW025 BKN040 19/13 Q1021=
2025-08-11 00:00:00<>METAR SBGL 110000Z 29005KT 9999 FEW025 OVC040 18/14 Q1021=
2025-08-11 01:00:00<>METAR SBGL 110100Z 27006KT 9999 FEW021 BKN040 18/15 Q1021=
2025-08-11 02:00:00<>METAR SBGL 110200Z 30004KT 9999 FEW021 BKN040 18/15 Q1022=
2025-08-11 03:00:00<>METAR SBGL 110300Z 27005KT 9999 FEW021 BKN040 18/15 Q1021=
2025-08-11 04:00:00<>METAR SBGL 110400Z 28005KT 9999 FEW021 BKN040 17/15 Q1021=
2025-08-11 05:00:00<>METAR SBGL 110500Z 26007KT 9999 FEW021 BKN040 17/14 Q1021=
2025-08-11 06:00:00<>METAR SBGL 110600Z 27002KT 9999 FEW021 BKN040 16/14 Q1020=
2025-08-11 07:00:00<>METAR SBGL 110700Z 31003KT 9999 SCT020 OVC040 16/14 Q1020=
2025-08-11 08:00:00<>METAR SBGL 110800Z 31005KT 8000 FEW007 BKN020 OVC040 16/15 Q1020=
2025-08-11 09:00:00<>METAR SBGL 110900Z 29005KT 7000 FEW006 BKN020 OVC040 16/15 Q1020=
2025-08-11 09:33:00<>SPECI SBGL 110933Z 31006KT 8000 BKN007 BKN020 OVC040 16/15 Q1021=
2025-08-11 10:00:00<>METAR SBGL 111000Z 31005KT 5000 BR BKN007 BKN025 OVC040 16/15 Q1020=
2025-08-11 11:00:00<>METAR SBGL 111100Z 34006KT 9000 VCSH FEW006 SCT009 BKN026 17/15 Q1021=
2025-08-11 12:00:00<>METAR SBGL 111200Z 35006KT 9999 SCT007 SCT011 BKN026 18/15 Q1021=
2025-08-11 13:00:00<>METAR SBGL 111300Z 28012KT 8000 VCSH SCT011 BKN017 BKN030 19/14 Q1021=
2025-08-11 14:00:00<>METAR SBGL 111400Z 26005KT 9999 FEW013 BKN021 BKN026 20/14 Q1021=
2025-08-11 15:00:00<>METAR SBGL 111500Z 13003KT 9999 FEW013 BKN026 BKN040 19/14 Q1020=
2025-08-11 16:00:00<>METAR SBGL 111600Z 25003KT 9999 BKN030 BKN050 19/14 Q1020=
2025-08-11 17:00:00<>METAR SBGL 111700Z 21009KT 9999 BKN030 BKN050 20/13 Q1019=
2025-08-11 18:00:00<>METAR SBGL 111800Z 21017KT 9999 BKN030 BKN066 21/12 Q1019=
2025-08-11 19:00:00<>METAR SBGL 111900Z 21011KT 9999 BKN046 BKN080 20/12 Q1019=
2025-08-11 20:00:00<>METAR SBGL 112000Z 23014KT 9999 FEW030 BKN050 20/12 Q1019=
2025-08-11 21:00:00<>METAR SBGL 112100Z 21009KT 9999 FEW030 BKN050 19/12 Q1020=
2025-08-11 22:00:00<>METAR SBGL 112200Z 23006KT 9999 FEW030 SCT050 18/13 Q1020=
2025-08-11 23:00:00<>METAR SBGL 112300Z 25006KT 9999 FEW030 SCT050 18/13 Q1021=
2025-08-12 00:00:00<>METAR SBGL 120000Z 27005KT 9999 FEW035 SCT070 17/13 Q1021=
2025-08-12 01:00:00<>METAR SBGL 120100Z 24005KT 9999 FEW035 SCT070 17/13 Q1021=
2025-08-12 02:00:00<>METAR SBGL 120200Z 31003KT 9999 FEW035 17/13 Q1021=
2025-08-12 03:00:00<>METAR SBGL 120300Z 31004KT 9999 FEW025 16/13 Q1021=
2025-08-12 04:00:00<>METAR SBGL 120400Z 31003KT 9999 FEW025 14/12 Q1021=
2025-08-12 05:00:00<>METAR SBGL 120500Z 27003KT 9999 FEW025 16/13 Q1020=
2025-08-12 06:00:00<>METAR SBGL 120600Z 29002KT 9999 FEW025 16/13 Q1020=
2025-08-12 07:00:00<>METAR SBGL 120700Z 32004KT 9999 BKN035 16/14 Q1019=
2025-08-12 08:00:00<>METAR SBGL 120800Z 32004KT 9999 BKN035 16/13 Q1019=
2025-08-12 09:00:00<>METAR SBGL 120900Z 26006KT 9999 FEW025 BKN040 16/14 Q1020=
2025-08-12 09:29:00<>SPECI SBGL 120929Z 25006KT 4000 -DZ BKN030 OVC050 16/14 Q1020=
2025-08-12 10:00:00<>METAR SBGL 121000Z 20003KT 8000 SCT025 BKN040 16/14 Q1020=
2025-08-12 11:00:00<>METAR SBGL 121100Z 31002KT 9000 -RA SCT025 OVC040 16/14 Q1021=
2025-08-12 12:00:00<>METAR SBGL 121200Z 34004KT 310V040 9999 OVC040 18/14 Q1022=
2025-08-12 13:00:00<>METAR SBGL 121300Z 34004KT 9999 FEW016 OVC040 20/14 Q1022=
2025-08-12 14:00:00<>METAR SBGL 121400Z 29004KT 250V330 9999 FEW017 BKN025 20/13 Q1021=
2025-08-12 15:00:00<>METAR SBGL 121500Z 24005KT 9999 FEW025 BKN045 21/13 Q1020=
2025-08-12 16:00:00<>METAR SBGL 121600Z 22004KT 9999 FEW025 BKN045 22/12 Q1019=
2025-08-12 17:00:00<>METAR SBGL 121700Z 10005KT 9999 FEW025 BKN045 22/14 Q1019=
2025-08-12 18:00:00<>METAR SBGL 121800Z 11006KT 9999 FEW025 BKN035 21/15 Q1018=
2025-08-12 19:00:00<>METAR SBGL 121900Z 12008KT 9999 FEW025 SCT035 20/14 Q1018=
2025-08-12 20:00:00<>METAR SBGL 122000Z 13006KT 9999 SCT035 20/14 Q1019=
2025-08-12 21:00:00<>METAR SBGL 122100Z 13006KT 9999 BKN030 19/14 Q1019=
2025-08-12 22:00:00<>METAR SBGL 122200Z 14006KT 9999 BKN035 19/14 Q1019=
2025-08-12 23:00:00<>METAR SBGL 122300Z 15006KT 9999 BKN035 19/14 Q1020=
2025-08-13 00:00:00<>METAR SBGL 130000Z 11008KT 9999 BKN035 19/14 Q1020=
2025-08-13 01:00:00<>METAR SBGL 130100Z 08005KT 9999 BKN036 19/14 Q1021=
2025-08-13 02:00:00<>METAR SBGL 130200Z 06004KT 9999 BKN036 19/14 Q1021=
2025-08-13 03:00:00<>METAR SBGL 130300Z 10003KT 9999 BKN040 18/14 Q1020=
2025-08-13 04:00:00<>METAR SBGL 130400Z 09004KT 9999 SCT046 17/14 Q1020=
2025-08-13 05:00:00<>METAR SBGL 130500Z 17004KT 9999 SCT046 17/14 Q1020=
2025-08-13 06:00:00<>METAR SBGL 130600Z 25003KT 8000 SCT046 16/13 Q1019=
2025-08-13 07:00:00<>METAR SBGL 130700Z 31003KT 7000 SCT046 15/13 Q1019=
2025-08-13 08:00:00<>METAR SBGL 130800Z 33003KT 8000 FEW011 SCT046 14/12 Q1019=
2025-08-13 09:00:00<>METAR SBGL 130900Z 33003KT 8000 FEW011 SCT046 15/14 Q1020=
2025-08-13 10:00:00<>METAR SBGL 131000Z 30002KT 8000 FEW011 14/12 Q1020=
2025-08-13 11:00:00<>METAR SBGL 131100Z 36003KT 320V050 9999 FEW015 17/14 Q1021=
2025-08-13 12:00:00<>METAR SBGL 131200Z VRB02KT 9999 FEW015 19/15 Q1021=
2025-08-13 13:00:00<>METAR SBGL 131300Z 34005KT 320V020 9999 FEW018 20/15 Q1021=
2025-08-13 14:00:00<>METAR SBGL 131400Z VRB05KT 9999 FEW020 22/14 Q1020=
2025-08-13 15:00:00<>METAR SBGL 131500Z 36006KT 330V050 CAVOK 23/15 Q1019=
2025-08-13 16:00:00<>METAR SBGL 131600Z VRB05KT CAVOK 24/14 Q1018=
2025-08-13 17:00:00<>METAR SBGL 131700Z 14007KT 050V190 CAVOK 24/14 Q1017=
2025-08-13 18:00:00<>METAR SBGL 131800Z 13005KT 090V170 CAVOK 25/14 Q1016=
2025-08-13 19:00:00<>METAR SBGL 131900Z 13005KT 100V160 CAVOK 25/15 Q1016=
2025-08-13 20:00:00<>METAR SBGL 132000Z 13007KT CAVOK 23/16 Q1016=
2025-08-13 21:00:00<>METAR SBGL 132100Z 14007KT CAVOK 22/16 Q1017=
2025-08-13 22:00:00<>METAR SBGL 132200Z 14006KT CAVOK 21/17 Q1017=
2025-08-13 23:00:00<>METAR SBGL 132300Z 12004KT CAVOK 20/17 Q1018=
2025-08-14 00:00:00<>METAR SBGL 140000Z 05002KT CAVOK 19/16 Q1018=
2025-08-14 01:00:00<>METAR SBGL 140100Z 12003KT CAVOK 18/15 Q1019=
2025-08-14 02:00:00<>METAR SBGL 140200Z 09002KT CAVOK 18/15 Q1019=
2025-08-14 03:00:00<>METAR SBGL 140300Z 06003KT CAVOK 18/15 Q1018=
2025-08-14 04:00:00<>METAR SBGL 140400Z 28001KT CAVOK 17/15 Q1018=
2025-08-14 05:00:00<>METAR SBGL 140500Z 07003KT CAVOK 16/15 Q1018=
2025-08-14 06:00:00<>METAR SBGL 140600Z 32001KT CAVOK 16/15 Q1018=
2025-08-14 07:00:00<>METAR SBGL 140700Z 26004KT 9999 FEW007 18/16 Q1018=
2025-08-14 08:00:00<>METAR SBGL 140800Z 33003KT 7000 FEW007 17/15 Q1018=
2025-08-14 09:00:00<>METAR SBGL 140900Z 32004KT 6000 NSC 17/16 Q1019=
2025-08-14 10:00:00<>METAR SBGL 141000Z 29004KT 7000 FEW009 18/16 Q1020=
2025-08-14 11:00:00<>METAR SBGL 141100Z 30006KT 270V340 7000 FEW009 20/17 Q1021=
2025-08-14 12:00:00<>METAR SBGL 141200Z 30007KT 270V330 8000 SCT020 21/17 Q1022=
2025-08-14 13:00:00<>METAR SBGL 141300Z 24008KT 200V280 9999 SCT020 24/16 Q1022=
2025-08-14 14:00:00<>METAR SBGL 141400Z 23010KT 9999 BKN020 BKN026 23/16 Q1022=
2025-08-14 15:00:00<>METAR SBGL 141500Z 23012KT 200V260 9999 SCT022 SCT033 23/16 Q1022=
2025-08-14 16:00:00<>METAR SBGL 141600Z 23011KT 9999 SCT032 24/14 Q1022=
2025-08-14 17:00:00<>METAR SBGL 141700Z 23012KT 9999 FEW032 SCT040 24/13 Q1021=
2025-08-14 18:00:00<>METAR SBGL 141800Z 20012KT 9999 FEW032 SCT040 24/13 Q1021=
2025-08-14 19:00:00<>METAR SBGL 141900Z 20013KT 9999 SCT040 23/13 Q1021=
2025-08-14 20:00:00<>METAR SBGL 142000Z 21012KT 9999 SCT040 22/14 Q1022=
2025-08-14 21:00:00<>METAR SBGL 142100Z 21010KT 9999 FEW020 SCT047 21/15 Q1023=
2025-08-14 22:00:00<>METAR SBGL 142200Z 21009KT 9999 FEW020 SCT047 20/15 Q1024=
2025-08-14 23:00:00<>METAR SBGL 142300Z 22006KT 9999 FEW020 SCT050 20/15 Q1024=
2025-08-15 00:00:00<>METAR SBGL 150000Z 24006KT 9999 FEW020 BKN050 20/16 Q1025=
2025-08-15 01:00:00<>METAR SBGL 150100Z 26005KT 9999 FEW020 BKN050 BKN066 20/16 Q1025=
2025-08-15 02:00:00<>METAR SBGL 150200Z 27005KT 9999 FEW020 BKN050 BKN066 20/16 Q1025=
2025-08-15 03:00:00<>METAR SBGL 150300Z 26004KT 9999 FEW020 BKN050 20/16 Q1025=
2025-08-15 04:00:00<>METAR SBGL 150400Z 32003KT 290V350 9999 FEW015 BKN050 20/16 Q1025=
2025-08-15 05:00:00<>METAR SBGL 150500Z 30004KT 9999 FEW015 BKN050 19/16 Q1024=
2025-08-15 06:00:00<>METAR SBGL 150600Z 28005KT 9999 FEW015 BKN050 19/16 Q1024=
2025-08-15 07:00:00<>METAR SBGL 150700Z 36007KT 9999 FEW015 BKN050 19/16 Q1024=
2025-08-15 08:00:00<>METAR SBGL 150800Z 01005KT 9999 SCT015 BKN030 BKN050 19/16 Q1024=
2025-08-15 09:00:00<>METAR SBGL 150900Z 34005KT 9999 SCT015 BKN050 18/15 Q1024=
2025-08-15 10:00:00<>METAR SBGL 151000Z 01004KT 9999 FEW026 BKN050 19/14 Q1025=
2025-08-15 11:00:00<>METAR SBGL 151100Z VRB02KT 9999 FEW029 BKN050 OVC080 19/15 Q1025=
2025-08-15 12:00:00<>METAR SBGL 151200Z 33002KT 9999 FEW040 OVC080 21/15 Q1026=
2025-08-15 13:00:00<>METAR SBGL 151300Z 36004KT 320V050 9999 FEW040 OVC080 21/15 Q1026=
2025-08-15 14:00:00<>METAR SBGL 151400Z 36005KT 330V030 9999 FEW040 BKN070 22/15 Q1025=
2025-08-15 15:00:00<>METAR SBGL 151500Z 36006KT 9999 FEW029 BKN070 22/14 Q1025=
2025-08-15 16:00:00<>METAR SBGL 151600Z 14006KT 9999 FEW030 BKN070 23/14 Q1024=
2025-08-15 17:00:00<>METAR SBGL 151700Z 13007KT 9999 FEW030 BKN070 23/16 Q1023=
2025-08-15 18:00:00<>METAR SBGL 151800Z 12011KT 9999 FEW030 BKN070 22/15 Q1023=
2025-08-15 19:00:00<>METAR SBGL 151900Z 14009KT 9999 FEW030 BKN070 21/15 Q1023=
2025-08-15 20:00:00<>METAR SBGL 152000Z 14005KT 9999 FEW030 SCT055 BKN070 21/15 Q1023=
2025-08-15 21:00:00<>METAR SBGL 152100Z 14007KT 9999 BKN040 BKN080 20/15 Q1024=
2025-08-15 22:00:00<>METAR SBGL 152200Z 12005KT 9999 BKN040 OVC080 21/15 Q1024=
2025-08-15 23:00:00<>METAR SBGL 152300Z 10008KT 9999 BKN040 20/14 Q1024=
2025-08-16 00:00:00<>METAR SBGL 160000Z 11005KT 9999 BKN035 20/15 Q1024=
2025-08-16 01:00:00<>METAR SBGL 160100Z 13007KT 9999 FEW020 BKN035 20/15 Q1025=
2025-08-16 02:00:00<>METAR SBGL 160200Z 08007KT 9999 FEW020 BKN035 20/15 Q1025=
2025-08-16 03:00:00<>METAR SBGL 160300Z 09009KT 9999 FEW020 BKN035 20/15 Q1024=
2025-08-16 04:00:00<>METAR SBGL 160400Z 10007KT 9999 FEW020 BKN035 19/15 Q1024=
2025-08-16 05:00:00<>METAR SBGL 160500Z 11004KT 9999 FEW020 BKN035 19/15 Q1023=
2025-08-16 06:00:00<>METAR SBGL 160600Z 10005KT 9999 FEW020 BKN035 19/15 Q1023=
2025-08-16 07:00:00<>METAR SBGL 160700Z 10004KT 9999 FEW020 BKN035 19/15 Q1023=
2025-08-16 08:00:00<>METAR SBGL 160800Z 10003KT 9999 FEW020 BKN035 19/15 Q1022=
2025-08-16 09:00:00<>METAR SBGL 160900Z 11005KT 9999 FEW020 BKN035 18/15 Q1023=
2025-08-16 10:00:00<>METAR SBGL 161000Z 07003KT 040V100 9999 SCT025 18/15 Q1023=
2025-08-16 11:00:00<>METAR SBGL 161100Z 09006KT 9999 FEW025 BKN066 20/16 Q1024=
2025-08-16 12:00:00<>METAR SBGL 161200Z 11006KT 9999 FEW019 BKN050 21/15 Q1024=
2025-08-16 13:00:00<>METAR SBGL 161300Z 09007KT 9999 FEW023 BKN050 22/15 Q1024=
2025-08-16 14:00:00<>METAR SBGL 161400Z 05005KT 9999 SCT026 BKN050 22/16 Q1023=
2025-08-16 15:00:00<>METAR SBGL 161500Z 36006KT 9999 SCT026 BKN050 23/15 Q1022=
2025-08-16 16:00:00<>METAR SBGL 161600Z 13006KT 9999 SCT026 BKN050 23/15 Q1022=
2025-08-16 17:00:00<>METAR SBGL 161700Z 13010KT 9999 SCT026 BKN050 23/16 Q1021=
2025-08-16 18:00:00<>METAR SBGL 161800Z 13009KT 9999 SCT026 OVC050 22/16 Q1021=
2025-08-16 19:00:00<>METAR SBGL 161900Z 14010KT 9999 SCT036 OVC050 22/16 Q1021=
2025-08-16 20:00:00<>METAR SBGL 162000Z 13009KT 9999 SCT033 SCT050 21/16 Q1021=
2025-08-16 21:00:00<>METAR SBGL 162100Z 14009KT 9999 FEW033 SCT066 20/16 Q1021=
2025-08-16 22:00:00<>METAR SBGL 162200Z 11013KT 9999 FEW030 SCT066 20/15 Q1021=
2025-08-16 23:00:00<>METAR SBGL 162300Z 11007KT 9999 SCT030 BKN070 20/15 Q1022=
2025-08-17 00:00:00<>METAR SBGL 170000Z 11008KT 9999 OVC031 20/15 Q1022=
2025-08-17 01:00:00<>METAR SBGL 170100Z 10010KT 9999 OVC031 20/15 Q1022=
2025-08-17 02:00:00<>METAR SBGL 170200Z 10008KT 9000 OVC031 20/15 Q1022=
2025-08-17 03:00:00<>METAR SBGL 170300Z 10005KT 9000 OVC031 19/15 Q1022=
2025-08-17 04:00:00<>METAR SBGL 170400Z 10004KT 9000 SCT031 BKN070 19/15 Q1022=
2025-08-17 05:00:00<>METAR SBGL 170500Z 11003KT 9999 FEW031 BKN070 19/15 Q1021=
2025-08-17 06:00:00<>METAR SBGL 170600Z 09003KT 8000 FEW030 BKN070 18/15 Q1021=
2025-08-17 07:00:00<>METAR SBGL 170700Z 05002KT 9000 FEW030 BKN070 18/15 Q1020=
2025-08-17 08:00:00<>METAR SBGL 170800Z 31003KT CAVOK 17/15 Q1020=
2025-08-17 09:00:00<>METAR SBGL 170900Z VRB01KT 7000 FEW007 16/14 Q1020=
2025-08-17 10:00:00<>METAR SBGL 171000Z 06002KT 8000 FEW048 16/14 Q1021=
2025-08-17 11:00:00<>METAR SBGL 171100Z 03002KT 8000 FEW003 SCT045 19/16 Q1022=
2025-08-17 12:00:00<>METAR SBGL 171200Z 01004KT 8000 FEW003 SCT045 19/16 Q1022=
2025-08-17 13:00:00<>METAR SBGL 171300Z 01005KT 9000 FEW015 21/16 Q1021=
2025-08-17 14:00:00<>METAR SBGL 171400Z 06004KT 9999 FEW018 23/16 Q1021=
2025-08-17 15:00:00<>METAR SBGL 171500Z 11002KT 9999 FEW020 24/15 Q1020=
2025-08-17 16:00:00<>METAR SBGL 171600Z 12005KT 9999 FEW030 25/14 Q1019=
2025-08-17 17:00:00<>METAR SBGL 171700Z 12011KT 9999 FEW030 24/17 Q1018=
2025-08-17 18:00:00<>METAR SBGL 171800Z 14010KT 9999 SCT040 23/17 Q1017=
2025-08-17 19:00:00<>METAR SBGL 171900Z 14011KT 9999 FEW040 23/16 Q1017=
2025-08-17 20:00:00<>METAR SBGL 172000Z 14009KT 9999 FEW040 22/16 Q1018=
2025-08-17 21:00:00<>METAR SBGL 172100Z 14011KT 9999 SCT040 22/17 Q1019=
2025-08-17 22:00:00<>METAR SBGL 172200Z 14010KT 9999 SCT036 21/17 Q1019=
2025-08-17 23:00:00<>METAR SBGL 172300Z 13005KT 9999 SCT043 21/17 Q1020=
2025-08-18 00:00:00<>METAR SBGL 180000Z 12008KT 9999 SCT036 20/16 Q1020=
2025-08-18 01:00:00<>METAR SBGL 180100Z 11010KT 9999 SCT036 21/16 Q1020=
2025-08-18 02:00:00<>METAR SBGL 180200Z 11008KT 9999 SCT040 20/16 Q1020=
2025-08-18 03:00:00<>METAR SBGL 180300Z 12006KT 9999 FEW023 BKN040 20/16 Q1020=
2025-08-18 04:00:00<>METAR SBGL 180400Z 15007KT 9999 FEW023 BKN040 20/16 Q1020=
2025-08-18 05:00:00<>METAR SBGL 180500Z 16006KT 9999 FEW023 BKN040 19/16 Q1020=
2025-08-18 06:00:00<>METAR SBGL 180600Z 18005KT 8000 FEW023 BKN040 19/16 Q1019=
2025-08-18 07:00:00<>METAR SBGL 180700Z 01005KT 8000 FEW023 BKN040 18/16 Q1018=
2025-08-18 08:00:00<>METAR SBGL 180800Z 13003KT 8000 SCT046 18/16 Q1020=
2025-08-18 09:00:00<>METAR SBGL 180900Z 10003KT 8000 SCT046 18/16 Q1020=
2025-08-18 10:00:00<>METAR SBGL 181000Z 10006KT 8000 BKN046 19/17 Q1021=
2025-08-18 11:00:00<>METAR SBGL 181100Z 10003KT 070V150 9999 FEW012 BKN045 21/17 Q1023=
2025-08-18 12:00:00<>METAR SBGL 181200Z VRB04KT 9999 FEW015 BKN045 22/17 Q1023=
2025-08-18 13:00:00<>METAR SBGL 181300Z 02008KT 9999 FEW015 SCT045 22/17 Q1023=
2025-08-18 14:00:00<>METAR SBGL 181400Z 04008KT 010V070 9999 SCT015 SCT020 23/17 Q1023=
2025-08-18 15:00:00<>METAR SBGL 181500Z 03006KT 360V060 9999 SCT020 24/16 Q1022=
2025-08-18 16:00:00<>METAR SBGL 181600Z 36008KT 350V060 9999 SCT020 25/16 Q1021=
2025-08-18 17:00:00<>METAR SBGL 181700Z 13010KT 100V170 9999 SCT025 24/17 Q1020=
2025-08-18 18:00:00<>METAR SBGL 181800Z 14012KT 9999 SCT025 24/17 Q1020=
2025-08-18 19:00:00<>METAR SBGL 181900Z 14011KT 9999 SCT025 23/17 Q1020=
2025-08-18 20:00:00<>METAR SBGL 182000Z 15011KT 9999 FEW025 22/17 Q1021=
2025-08-18 21:00:00<>METAR SBGL 182100Z 15009KT 9999 SCT025 22/16 Q1021=
2025-08-18 22:00:00<>METAR SBGL 182200Z 13008KT 9999 SCT025 21/16 Q1022=
2025-08-18 23:00:00<>METAR SBGL 182300Z 11006KT 9999 FEW020 SCT046 21/16 Q1023=
2025-08-19 00:00:00<>METAR SBGL 190000Z 10010KT 9999 FEW020 20/16 Q1023=
2025-08-19 01:00:00<>METAR SBGL 190100Z 10009KT 9999 FEW020 20/15 Q1023=
2025-08-19 02:00:00<>METAR SBGL 190200Z 11008KT CAVOK 19/16 Q1023=
2025-08-19 03:00:00<>METAR SBGL 190300Z 11006KT CAVOK 19/15 Q1023=
2025-08-19 04:00:00<>METAR SBGL 190400Z 12006KT 9999 FEW020 19/15 Q1023=
2025-08-19 05:00:00<>METAR SBGL 190500Z 10005KT 9999 FEW023 18/15 Q1022=
2025-08-19 06:00:00<>METAR SBGL 190600Z 11005KT 9999 FEW023 SCT033 18/15 Q1022=
2025-08-19 07:00:00<>METAR SBGL 190700Z 12005KT 9999 FEW023 SCT036 18/15 Q1022=
2025-08-19 08:00:00<>METAR SBGL 190800Z 10003KT 9999 FEW023 SCT036 17/15 Q1022=
2025-08-19 09:00:00<>METAR SBGL 190900Z 08003KT 9999 FEW023 SCT036 17/15 Q1022=
2025-08-19 10:00:00<>METAR SBGL 191000Z 12002KT 9999 FEW023 18/16 Q1023=
2025-08-19 11:00:00<>METAR SBGL 191100Z 07007KT 9999 FEW023 20/16 Q1023=
2025-08-19 12:00:00<>METAR SBGL 191200Z 05004KT 350V110 9999 FEW015 21/16 Q1023=
2025-08-19 13:00:00<>METAR SBGL 191300Z 14007KT CAVOK 22/17 Q1023=
2025-08-19 14:00:00<>METAR SBGL 191400Z 05005KT 360V120 9999 FEW015 23/15 Q1022=
2025-08-19 15:00:00<>METAR SBGL 191500Z 10007KT 020V180 9999 FEW015 25/15 Q1021=
2025-08-19 16:00:00<>METAR SBGL 191600Z 14007KT 350V070 9999 FEW015 24/15 Q1020=
2025-08-19 17:00:00<>METAR SBGL 191700Z 12004KT 080V160 9999 FEW020 BKN080 25/15 Q1019=
2025-08-19 18:00:00<>METAR SBGL 191800Z 12005KT 090V160 9999 FEW022 BKN080 26/15 Q1018=
2025-08-19 19:00:00<>METAR SBGL 191900Z 13008KT 9999 FEW046 BKN080 24/16 Q1018=
2025-08-19 20:00:00<>METAR SBGL 192000Z 09010KT 9999 FEW046 BKN080 24/15 Q1018=
2025-08-19 21:00:00<>METAR SBGL 192100Z 10007KT 9999 FEW023 22/15 Q1018=
2025-08-19 22:00:00<>METAR SBGL 192200Z 11005KT 9999 FEW024 22/15 Q1018=
2025-08-19 23:00:00<>METAR SBGL 192300Z 11008KT CAVOK 21/15 Q1019=
2025-08-20 00:00:00<>METAR SBGL 200000Z 11008KT CAVOK 20/14 Q1019=
2025-08-20 01:00:00<>METAR SBGL 200100Z 11007KT CAVOK 19/14 Q1019=
2025-08-20 02:00:00<>METAR SBGL 200200Z 10006KT CAVOK 19/15 Q1019=
2025-08-20 03:00:00<>METAR SBGL 200300Z 11007KT CAVOK 19/14 Q1019=
2025-08-20 04:00:00<>METAR SBGL 200400Z 11004KT CAVOK 18/14 Q1019=
2025-08-20 05:00:00<>METAR SBGL 200500Z 09007KT CAVOK 18/14 Q1019=
2025-08-20 06:00:00<>METAR SBGL 200600Z 12005KT CAVOK 17/14 Q1018=
2025-08-20 07:00:00<>METAR SBGL 200700Z 11006KT CAVOK 17/15 Q1018=
2025-08-20 08:00:00<>METAR SBGL 200800Z 11004KT CAVOK 17/14 Q1018=
2025-08-20 09:00:00<>METAR SBGL 200900Z 11005KT CAVOK 16/14 Q1018=
2025-08-20 10:00:00<>METAR SBGL 201000Z 09007KT CAVOK 17/15 Q1019=
2025-08-20 11:00:00<>METAR SBGL 201100Z 06006KT CAVOK 20/15 Q1019=
2025-08-20 12:00:00<>METAR SBGL 201200Z 12004KT CAVOK 22/16 Q1019=
2025-08-20 13:00:00<>METAR SBGL 201300Z 17004KT CAVOK 22/15 Q1019=
2025-08-20 14:00:00<>METAR SBGL 201400Z 33003KT 280V020 CAVOK 25/17 Q1019=
2025-08-20 15:00:00<>METAR SBGL 201500Z 04005KT CAVOK 26/15 Q1018=
2025-08-20 16:00:00<>METAR SBGL 201600Z 07006KT CAVOK 29/14 Q1016=
2025-08-20 17:00:00<>METAR SBGL 201700Z 35006KT CAVOK 29/16 Q1015=
2025-08-20 18:00:00<>METAR SBGL 201800Z 08005KT 010V150 CAVOK 31/14 Q1014=
2025-08-20 19:00:00<>METAR SBGL 201900Z 06004KT CAVOK 31/15 Q1014=
2025-08-20 20:00:00<>METAR SBGL 202000Z 14003KT CAVOK 29/17 Q1014=
2025-08-20 21:00:00<>METAR SBGL 202100Z 11005KT CAVOK 26/17 Q1014=
2025-08-20 22:00:00<>METAR SBGL 202200Z 11002KT CAVOK 25/18 Q1014=
2025-08-20 23:00:00<>METAR SBGL 202300Z 11006KT CAVOK 24/17 Q1015=
2025-08-21 00:00:00<>METAR SBGL 210000Z VRB02KT CAVOK 23/17 Q1015=
2025-08-21 01:00:00<>METAR SBGL 210100Z VRB02KT CAVOK 22/17 Q1016=
2025-08-21 02:00:00<>METAR SBGL 210200Z 06003KT CAVOK 21/17 Q1016=
2025-08-21 03:00:00<>METAR SBGL 210300Z 07004KT CAVOK 20/17 Q1016=
2025-08-21 04:00:00<>METAR SBGL 210400Z VRB02KT CAVOK 20/17 Q1015=
2025-08-21 05:00:00<>METAR SBGL 210500Z 06002KT CAVOK 19/17 Q1015=
2025-08-21 06:00:00<>METAR SBGL 210600Z 09003KT CAVOK 19/16 Q1015=
2025-08-21 07:00:00<>METAR SBGL 210700Z 07003KT CAVOK 19/16 Q1015=
2025-08-21 08:00:00<>METAR SBGL 210800Z VRB02KT CAVOK 19/17 Q1015=
2025-08-21 09:00:00<>METAR SBGL 210900Z VRB02KT CAVOK 20/17 Q1015=
2025-08-21 10:00:00<>METAR SBGL 211000Z 08002KT CAVOK 19/17 Q1016=
2025-08-21 11:00:00<>METAR SBGL 211100Z 36003KT CAVOK 22/19 Q1017=
2025-08-21 12:00:00<>METAR SBGL 211200Z 36004KT CAVOK 24/17 Q1018=
2025-08-21 13:00:00<>METAR SBGL 211300Z 36002KT CAVOK 28/17 Q1018=
2025-08-21 14:00:00<>METAR SBGL 211400Z 35003KT 310V030 CAVOK 29/16 Q1017=
2025-08-21 15:00:00<>METAR SBGL 211500Z 35004KT 320V020 CAVOK 30/16 Q1016=
2025-08-21 16:00:00<>METAR SBGL 211600Z 01004KT CAVOK 33/15 Q1016=
2025-08-21 17:00:00<>METAR SBGL 211700Z 02004KT CAVOK 33/15 Q1015=
2025-08-21 18:00:00<>METAR SBGL 211800Z 12009KT CAVOK 29/18 Q1015=
2025-08-21 19:00:00<>METAR SBGL 211900Z 13010KT CAVOK 27/17 Q1015=
2025-08-21 20:00:00<>METAR SBGL 212000Z 13010KT CAVOK 27/16 Q1015=
2025-08-21 21:00:00<>METAR SBGL 212100Z 15007KT CAVOK 26/16 Q1015=
2025-08-21 22:00:00<>METAR SBGL 212200Z 18003KT CAVOK 26/16 Q1016=
2025-08-21 23:00:00<>METAR SBGL 212300Z 28003KT CAVOK 25/16 Q1017=
2025-08-22 00:00:00<>METAR SBGL 220000Z 13004KT CAVOK 25/16 Q1017=
2025-08-22 01:00:00<>METAR SBGL 220100Z 25007KT CAVOK 24/16 Q1017=
2025-08-22 02:00:00<>METAR SBGL 220200Z 07003KT CAVOK 23/16 Q1018=
2025-08-22 03:00:00<>METAR SBGL 220300Z 31005KT CAVOK 23/17 Q1017=
2025-08-22 04:00:00<>METAR SBGL 220400Z 32005KT CAVOK 22/17 Q1017=
2025-08-22 05:00:00<>METAR SBGL 220500Z 33005KT CAVOK 22/17 Q1017=
2025-08-22 06:00:00<>METAR SBGL 220600Z 35004KT 8000 NSC 21/17 Q1016=
2025-08-22 07:00:00<>METAR SBGL 220700Z 36004KT 8000 NSC 20/17 Q1016=
2025-08-22 08:00:00<>METAR SBGL 220800Z 07004KT 8000 NSC 19/18 Q1016=
2025-08-22 09:00:00<>METAR SBGL 220900Z 08003KT CAVOK 20/18 Q1016=
2025-08-22 10:00:00<>METAR SBGL 221000Z 08005KT 8000 NSC 20/18 Q1017=
2025-08-22 11:00:00<>METAR SBGL 221100Z 07008KT CAVOK 22/19 Q1017=
2025-08-22 12:00:00<>METAR SBGL 221200Z 06007KT CAVOK 23/18 Q1018=
2025-08-22 13:00:00<>METAR SBGL 221300Z 05005KT CAVOK 26/18 Q1017=
2025-08-22 14:00:00<>METAR SBGL 221400Z 06005KT CAVOK 27/19 Q1016=
2025-08-22 15:00:00<>METAR SBGL 221500Z 01007KT CAVOK 28/19 Q1015=
2025-08-22 16:00:00<>METAR SBGL 221600Z 01008KT 350V050 CAVOK 29/19 Q1014=
2025-08-22 17:00:00<>METAR SBGL 221700Z 01007KT CAVOK 30/18 Q1013=
2025-08-22 18:00:00<>METAR SBGL 221800Z 12007KT 090V160 CAVOK 30/18 Q1013=
2025-08-22 19:00:00<>METAR SBGL 221900Z 14007KT CAVOK 30/19 Q1013=
2025-08-22 20:00:00<>METAR SBGL 222000Z 14005KT CAVOK 29/18 Q1013=
2025-08-22 21:00:00<>METAR SBGL 222100Z 13005KT CAVOK 27/19 Q1013=
2025-08-22 22:00:00<>METAR SBGL 222200Z 09004KT CAVOK 26/18 Q1014=
2025-08-22 23:00:00<>METAR SBGL 222300Z 10003KT 080V140 CAVOK 24/18 Q1015=
2025-08-23 00:00:00<>METAR SBGL 230000Z 10004KT CAVOK 23/18 Q1015=
2025-08-23 01:00:00<>METAR SBGL 230100Z 10004KT CAVOK 23/17 Q1015=
2025-08-23 02:00:00<>METAR SBGL 230200Z 08002KT CAVOK 22/17 Q1015=
2025-08-23 03:00:00<>METAR SBGL 230300Z 09002KT CAVOK 20/17 Q1015=
2025-08-23 04:00:00<>METAR SBGL 230400Z 15002KT CAVOK 20/16 Q1014=
2025-08-23 05:00:00<>METAR SBGL 230500Z 15003KT CAVOK 19/16 Q1014=
2025-08-23 06:00:00<>METAR SBGL 230600Z 14002KT CAVOK 18/16 Q1014=
2025-08-23 07:00:00<>METAR SBGL 230700Z 10002KT CAVOK 18/16 Q1014=
2025-08-23 08:00:00<>METAR SBGL 230800Z 28001KT CAVOK 19/16 Q1014=
2025-08-23 09:00:00<>METAR SBGL 230900Z 05002KT CAVOK 18/16 Q1015=
2025-08-23 10:00:00<>METAR SBGL 231000Z 07002KT CAVOK 19/16 Q1015=
2025-08-23 11:00:00<>METAR SBGL 231100Z 01006KT 350V050 CAVOK 24/18 Q1015=
2025-08-23 12:00:00<>METAR SBGL 231200Z 03005KT 360V060 CAVOK 27/16 Q1016=
2025-08-23 13:00:00<>METAR SBGL 231300Z 04007KT 010V070 CAVOK 28/15 Q1016=
2025-08-23 14:00:00<>METAR SBGL 231400Z 03004KT 330V100 CAVOK 31/14 Q1015=
2025-08-23 15:00:00<>METAR SBGL 231500Z 03006KT 360V070 CAVOK 31/14 Q1014=
2025-08-23 16:00:00<>METAR SBGL 231600Z 33005KT CAVOK 33/13 Q1013=
2025-08-23 17:00:00<>METAR SBGL 231700Z 35003KT 320V100 CAVOK 34/12 Q1012=
2025-08-23 18:00:00<>METAR SBGL 231800Z 02004KT 340V090 CAVOK 34/12 Q1011=
2025-08-23 19:00:00<>METAR SBGL 231900Z 05004KT CAVOK 33/13 Q1011=
2025-08-23 20:00:00<>METAR SBGL 232000Z 04003KT 350V090 CAVOK 31/15 Q1012=
2025-08-23 21:00:00<>METAR SBGL 232100Z 03004KT CAVOK 29/15 Q1012=
2025-08-23 22:00:00<>METAR SBGL 232200Z 05006KT 360V070 CAVOK 27/17 Q1012=
2025-08-23 23:00:00<>METAR SBGL 232300Z 09003KT CAVOK 24/15 Q1013=
2025-08-24 00:00:00<>METAR SBGL 240000Z 09003KT CAVOK 23/15 Q1013=
2025-08-24 01:00:00<>METAR SBGL 240100Z 15003KT CAVOK 22/17 Q1014=
2025-08-24 02:00:00<>METAR SBGL 240200Z 06001KT CAVOK 22/17 Q1014=
2025-08-24 03:00:00<>METAR SBGL 240300Z 10002KT CAVOK 21/17 Q1014=
2025-08-24 04:00:00<>METAR SBGL 240400Z 08002KT CAVOK 21/17 Q1014=
2025-08-24 05:00:00<>METAR SBGL 240500Z 22001KT CAVOK 20/17 Q1014=
2025-08-24 06:00:00<>METAR SBGL 240600Z 18001KT CAVOK 19/16 Q1014=
2025-08-24 07:00:00<>METAR SBGL 240700Z 00000KT CAVOK 19/16 Q1014=
2025-08-24 08:00:00<>METAR SBGL 240800Z 08004KT CAVOK 20/17 Q1014=
2025-08-24 09:00:00<>METAR SBGL 240900Z 25009KT CAVOK 23/15 Q1015=
2025-08-24 10:00:00<>METAR SBGL 241000Z 23011KT 9000 NSC 23/18 Q1017=
2025-08-24 11:00:00<>METAR SBGL 241100Z 23012KT 9000 NSC 24/17 Q1018=
2025-08-24 12:00:00<>METAR SBGL 241200Z 22011KT CAVOK 25/17 Q1018=
2025-08-24 13:00:00<>METAR SBGL 241300Z 23007KT 190V280 CAVOK 27/18 Q1019=
2025-08-24 14:00:00<>METAR SBGL 241400Z 20011KT 170V230 CAVOK 27/18 Q1018=
2025-08-24 15:00:00<>METAR SBGL 241500Z 20011KT CAVOK 27/19 Q1018=
2025-08-24 16:00:00<>METAR SBGL 241600Z 21018KT 9999 SCT030 SCT040 25/18 Q1018=
2025-08-24 17:00:00<>METAR SBGL 241700Z 21017KT 9000 BKN035 BKN040 24/18 Q1018=
2025-08-24 18:00:00<>METAR SBGL 241800Z 22013KT 9999 BKN035 24/17 Q1018=
2025-08-24 19:00:00<>METAR SBGL 241900Z 22014KT 9999 BKN039 24/17 Q1018=
2025-08-24 20:00:00<>METAR SBGL 242000Z 22009KT 9999 BKN037 23/18 Q1019=
2025-08-24 21:00:00<>METAR SBGL 242100Z 25007KT 9999 BKN038 23/18 Q1019=
2025-08-24 22:00:00<>METAR SBGL 242200Z 22008KT 9999 BKN038 23/17 Q1019=
2025-08-24 23:00:00<>METAR SBGL 242300Z 23005KT 9999 BKN030 23/18 Q1020=
2025-08-25 00:00:00<>METAR SBGL 250000Z 23006KT 9999 BKN023 23/18 Q1020=
2025-08-25 01:00:00<>METAR SBGL 250100Z 18005KT 9999 FEW019 BKN023 23/19 Q1021=
2025-08-25 02:00:00<>METAR SBGL 250200Z 35004KT 9999 SCT021 BKN036 23/18 Q1021=
2025-08-25 03:00:00<>METAR SBGL 250300Z 02003KT 9999 SCT017 BKN036 23/18 Q1021=
2025-08-25 04:00:00<>METAR SBGL 250400Z 03006KT 9999 BKN017 BKN036 22/18 Q1021=
2025-08-25 05:00:00<>METAR SBGL 250500Z 36005KT 9999 BKN017 BKN036 21/18 Q1020=
2025-08-25 06:00:00<>METAR SBGL 250600Z 31005KT 8000 BKN017 BKN036 21/18 Q1020=
2025-08-25 07:00:00<>METAR SBGL 250700Z 27005KT 8000 BKN017 BKN036 20/18 Q1020=
2025-08-25 08:00:00<>METAR SBGL 250800Z 36005KT 8000 BKN011 BKN023 21/19 Q1020=
2025-08-25 09:00:00<>METAR SBGL 250900Z 06003KT 8000 SCT011 BKN030 21/19 Q1021=
2025-08-25 10:00:00<>METAR SBGL 251000Z 03003KT 8000 SCT011 OVC030 22/19 Q1021=
2025-08-25 11:00:00<>METAR SBGL 251100Z 02004KT 350V070 9999 FEW011 BKN045 22/19 Q1022=
2025-08-25 12:00:00<>METAR SBGL 251200Z 36005KT 330V040 9999 FEW011 SCT045 24/19 Q1022=
2025-08-25 13:00:00<>METAR SBGL 251300Z 06006KT 030V120 9999 SCT017 25/18 Q1022=
2025-08-25 14:00:00<>METAR SBGL 251400Z 06007KT 010V110 9999 SCT025 27/19 Q1021=
2025-08-25 15:00:00<>METAR SBGL 251500Z 11006KT 050V180 9999 SCT030 27/18 Q1020=
2025-08-25 16:00:00<>METAR SBGL 251600Z 12007KT 090V150 9999 FEW030 27/19 Q1020=
2025-08-25 17:00:00<>METAR SBGL 251700Z 12014KT 9999 FEW030 26/19 Q1019=
2025-08-25 18:00:00<>METAR SBGL 251800Z 13014KT 9999 FEW030 25/19 Q1018=
2025-08-25 19:00:00<>METAR SBGL 251900Z 13011KT 9999 SCT040 24/19 Q1019=
2025-08-25 20:00:00<>METAR SBGL 252000Z 14011KT 9999 FEW018 BKN040 24/19 Q1019=
2025-08-25 21:00:00<>METAR SBGL 252100Z 14010KT 9999 FEW021 OVC040 23/19 Q1020=
2025-08-25 22:00:00<>METAR SBGL 252200Z 14007KT 110V170 9999 SCT020 OVC035 23/19 Q1021=
2025-08-25 23:00:00<>METAR SBGL 252300Z 14006KT 9999 SCT015 BKN020 OVC035 23/19 Q1021=
2025-08-26 00:00:00<>METAR SBGL 260000Z 21004KT 170V240 9999 SCT015 BKN020 OVC035 23/20 Q1022=
2025-08-26 01:00:00<>METAR SBGL 260100Z 23007KT 9999 FEW012 BKN020 OVC035 22/19 Q1022=
2025-08-26 02:00:00<>METAR SBGL 260200Z 23007KT 9999 FEW014 BKN020 OVC035 22/19 Q1022=
2025-08-26 02:22:00<>SPECI SBGL 260222Z 24007KT 9999 BKN014 BKN020 OVC035 22/19 Q1022=
2025-08-26 03:00:00<>METAR SBGL 260300Z 25006KT 9999 BKN010 BKN015 OVC035 22/19 Q1022=
2025-08-26 04:00:00<>METAR SBGL 260400Z 24006KT 9999 BKN010 BKN015 OVC035 22/19 Q1022=
2025-08-26 05:00:00<>METAR SBGL 260500Z 24006KT 9999 BKN014 OVC035 22/20 Q1022=
2025-08-26 06:00:00<>METAR SBGL 260600Z 27006KT 9999 BKN010 BKN015 OVC035 21/19 Q1021=
2025-08-26 07:00:00<>METAR SBGL 260700Z 28005KT 9999 BKN010 BKN015 OVC035 21/19 Q1021=
2025-08-26 08:00:00<>METAR SBGL 260800Z 26008KT 9999 BKN010 BKN015 OVC035 21/19 Q1021=
2025-08-26 09:00:00<>METAR SBGL 260900Z 26007KT 9999 BKN010 BKN015 OVC035 21/19 Q1021=
2025-08-26 10:00:00<>METAR SBGL 261000Z 27006KT 9999 FEW007 BKN010 OVC035 21/19 Q1022=
2025-08-26 11:00:00<>METAR SBGL 261100Z 30005KT 9000 -RA FEW005 BKN010 OVC020 21/19 Q1023=
2025-08-26 12:00:00<>METAR SBGL 261200Z 28007KT 9999 SCT010 BKN017 OVC025 22/19 Q1023=
2025-08-26 13:00:00<>METAR SBGL 261300Z 28005KT 9999 SCT011 SCT027 OVC040 23/19 Q1023=
2025-08-26 14:00:00<>METAR SBGL 261400Z 30003KT 200V010 9999 SCT015 BKN021 BKN045 25/19 Q1023=
2025-08-26 15:00:00<>METAR SBGL 261500Z 31005KT 9999 SCT019 BKN025 BKN045 26/19 Q1022=
2025-08-26 16:00:00<>METAR SBGL 261600Z 36006KT 9999 SCT020 BKN030 BKN040 26/19 Q1021=
2025-08-26 17:00:00<>METAR SBGL 261700Z 12007KT 9999 SCT020 SCT035 25/19 Q1021=
2025-08-26 18:00:00<>METAR SBGL 261800Z 12009KT 9999 FEW020 SCT040 24/19 Q1020=
2025-08-26 19:00:00<>METAR SBGL 261900Z 13012KT 9999 FEW020 BKN040 24/19 Q1020=
2025-08-26 20:00:00<>METAR SBGL 262000Z 14007KT 9999 FEW020 BKN040 24/19 Q1021=
2025-08-26 21:00:00<>METAR SBGL 262100Z 15008KT 9999 FEW020 BKN040 OVC070 24/18 Q1021=
2025-08-26 22:00:00<>METAR SBGL 262200Z 14003KT 9999 FEW020 OVC040 23/19 Q1022=
2025-08-26 23:00:00<>METAR SBGL 262300Z 14005KT 9999 FEW020 OVC040 23/19 Q1022=
2025-08-27 00:00:00<>METAR SBGL 270000Z 13004KT 9999 FEW020 OVC036 23/18 Q1023=
2025-08-27 01:00:00<>METAR SBGL 270100Z 12005KT 9999 FEW023 BKN066 22/18 Q1023=
2025-08-27 02:00:00<>METAR SBGL 270200Z 13007KT 8000 FEW023 SCT050 22/18 Q1023=
2025-08-27 03:00:00<>METAR SBGL 270300Z 14006KT 8000 FEW023 SCT050 21/18 Q1023=
2025-08-27 04:00:00<>METAR SBGL 270400Z 11006KT 8000 FEW017 BKN026 21/18 Q1022=
2025-08-27 05:00:00<>METAR SBGL 270500Z 18005KT 8000 FEW017 BKN026 21/18 Q1022=
2025-08-27 06:00:00<>METAR SBGL 270600Z 25004KT 8000 FEW017 BKN026 20/18 Q1022=
2025-08-27 07:00:00<>METAR SBGL 270700Z 31004KT 8000 FEW017 BKN026 20/18 Q1021=
2025-08-27 08:00:00<>METAR SBGL 270800Z 10002KT 8000 FEW019 BKN026 21/18 Q1022=
2025-08-27 09:00:00<>METAR SBGL 270900Z 07003KT 8000 FEW015 SCT019 BKN026 21/18 Q1022=
2025-08-27 10:00:00<>METAR SBGL 271000Z 08004KT 8000 VCSH FEW009 BKN015 BKN026 21/18 Q1023=
2025-08-27 11:00:00<>METAR SBGL 271100Z 07005KT 9000 FEW013 BKN015 22/19 Q1023=
2025-08-27 12:00:00<>METAR SBGL 271200Z 06005KT 030V090 9999 FEW013 BKN016 BKN030 23/19 Q1023=
2025-08-27 13:00:00<>METAR SBGL 271300Z 07005KT 350V120 9999 SCT015 25/18 Q1024=
2025-08-27 14:00:00<>METAR SBGL 271400Z 11005KT 090V150 9999 SCT023 25/18 Q1023=
2025-08-27 15:00:00<>METAR SBGL 271500Z 03006KT 350V070 9999 FEW025 26/17 Q1022=
2025-08-27 16:00:00<>METAR SBGL 271600Z 02007KT 340V080 9999 FEW030 27/16 Q1021=
2025-08-27 17:00:00<>METAR SBGL 271700Z 14009KT 9999 FEW030 26/17 Q1020=
2025-08-27 18:00:00<>METAR SBGL 271800Z 13009KT 9999 FEW030 25/17 Q1020=
2025-08-27 19:00:00<>METAR SBGL 271900Z 15009KT 9999 FEW035 25/18 Q1020=
2025-08-27 20:00:00<>METAR SBGL 272000Z 15008KT 9999 FEW035 24/18 Q1020=
2025-08-27 21:00:00<>METAR SBGL 272100Z 15007KT 9999 FEW040 SCT100 24/18 Q1020=
2025-08-27 22:00:00<>METAR SBGL 272200Z 14004KT 9999 FEW040 SCT100 23/18 Q1021=
2025-08-27 23:00:00<>METAR SBGL 272300Z 10007KT 9999 FEW040 SCT100 23/17 Q1022=
2025-08-28 00:00:00<>METAR SBGL 280000Z 12004KT 8000 FEW040 SCT100 23/17 Q1022=
2025-08-28 01:00:00<>METAR SBGL 280100Z 10004KT 9999 FEW040 SCT100 22/18 Q1022=
2025-08-28 02:00:00<>METAR SBGL 280200Z 11003KT 9999 FEW040 SCT100 21/18 Q1022=
2025-08-28 03:00:00<>METAR SBGL 280300Z 10002KT 9999 FEW040 20/18 Q1022=
2025-08-28 04:00:00<>METAR SBGL 280400Z VRB02KT 9999 BKN017 20/18 Q1022=
2025-08-28 05:00:00<>METAR SBGL 280500Z 23006KT 8000 OVC020 22/19 Q1022=
2025-08-28 06:00:00<>METAR SBGL 280600Z 25007KT 8000 OVC022 22/18 Q1022=
2025-08-28 07:00:00<>METAR SBGL 280700Z 26007KT 9999 FEW013 OVC028 22/18 Q1022=
2025-08-28 08:00:00<>METAR SBGL 280800Z 27008KT 9999 FEW028 BKN035 22/18 Q1021=
2025-08-28 09:00:00<>METAR SBGL 280900Z 25006KT 8000 FEW013 BKN035 22/18 Q1022=
2025-08-28 10:00:00<>METAR SBGL 281000Z 31005KT 9999 FEW014 21/18 Q1022=
2025-08-28 11:00:00<>METAR SBGL 281100Z VRB02KT 8000 FEW014 23/18 Q1022=
2025-08-28 12:00:00<>METAR SBGL 281200Z VRB03KT 9000 SCT018 25/18 Q1023=
2025-08-28 13:00:00<>METAR SBGL 281300Z 36005KT 9000 SCT018 25/17 Q1023=
2025-08-28 14:00:00<>METAR SBGL 281400Z 36005KT 9000 SCT018 26/17 Q1022=
2025-08-28 15:00:00<>METAR SBGL 281500Z 05007KT 010V090 9000 SCT025 27/16 Q1021=
2025-08-28 16:00:00<>METAR SBGL 281600Z 13009KT 9000 SCT025 27/18 Q1020=
2025-08-28 17:00:00<>METAR SBGL 281700Z 13015KT 9999 FEW020 25/19 Q1020=
2025-08-28 18:00:00<>METAR SBGL 281800Z 13014KT 9999 FEW020 BKN050 24/18 Q1020=
2025-08-28 19:00:00<>METAR SBGL 281900Z 14012KT 9999 SCT030 BKN050 24/18 Q1020=
2025-08-28 20:00:00<>METAR SBGL 282000Z 14012KT 9999 FEW020 BKN060 24/18 Q1020=
2025-08-28 21:00:00<>METAR SBGL 282100Z 15009KT 9999 BKN040 23/18 Q1021=
2025-08-28 22:00:00<>METAR SBGL 282200Z 14006KT 9999 FEW020 BKN035 23/18 Q1021=
2025-08-28 23:00:00<>METAR SBGL 282300Z 13007KT 9999 FEW015 BKN035 23/19 Q1021=
2025-08-29 00:00:00<>METAR SBGL 290000Z 15003KT 9999 SCT020 BKN035 23/19 Q1022=
2025-08-29 01:00:00<>METAR SBGL 290100Z 13003KT 9999 FEW013 BKN020 OVC025 23/19 Q1021=
2025-08-29 02:00:00<>METAR SBGL 290200Z 09003KT 9999 SCT018 BKN025 23/19 Q1021=
2025-08-29 03:00:00<>METAR SBGL 290300Z 10004KT 9999 SCT020 BKN030 22/19 Q1021=
2025-08-29 04:00:00<>METAR SBGL 290400Z 09003KT 9999 SCT018 BKN025 22/19 Q1020=
2025-08-29 05:00:00<>METAR SBGL 290500Z 11004KT 9999 SCT013 BKN025 21/19 Q1019=
2025-08-29 06:00:00<>METAR SBGL 290600Z 32005KT 9999 FEW011 BKN020 21/19 Q1019=
2025-08-29 07:00:00<>METAR SBGL 290700Z 28005KT 9999 FEW011 BKN020 21/19 Q1019=
2025-08-29 08:00:00<>METAR SBGL 290800Z 29003KT 9999 FEW014 BKN025 21/19 Q1019=
2025-08-29 09:00:00<>METAR SBGL 290900Z 33003KT 8000 SCT014 BKN035 21/19 Q1019=
2025-08-29 10:00:00<>METAR SBGL 291000Z 32005KT 7000 FEW013 SCT025 BKN070 21/19 Q1020=
2025-08-29 11:00:00<>METAR SBGL 291100Z 35003KT 320V050 8000 SCT013 SCT025 BKN070 22/19 Q1021=
2025-08-29 12:00:00<>METAR SBGL 291200Z 36005KT 330V030 8000 SCT014 SCT025 BKN070 24/19 Q1021=
2025-08-29 13:00:00<>METAR SBGL 291300Z 13005KT 330V060 8000 FEW014 SCT025 BKN070 25/18 Q1021=
2025-08-29 14:00:00<>METAR SBGL 291400Z 27003KT 8000 SCT025 SCT070 25/18 Q1021=
2025-08-29 15:00:00<>METAR SBGL 291500Z 13005KT 070V160 8000 SCT025 BKN070 26/18 Q1020=
2025-08-29 16:00:00<>METAR SBGL 291600Z 13009KT 9999 SCT025 BKN070 27/19 Q1019=
2025-08-29 17:00:00<>METAR SBGL 291700Z 11010KT 9999 FEW025 BKN070 26/19 Q1018=
2025-08-29 18:00:00<>METAR SBGL 291800Z 13014KT 9999 FEW025 BKN070 24/19 Q1018=
2025-08-29 19:00:00<>METAR SBGL 291900Z 13012KT 9999 SCT025 BKN070 23/19 Q1018=
2025-08-29 20:00:00<>METAR SBGL 292000Z 14010KT 9999 SCT027 BKN070 23/19 Q1019=
2025-08-29 21:00:00<>METAR SBGL 292100Z 14007KT 110V170 9999 BKN027 BKN070 23/19 Q1020=
2025-08-29 22:00:00<>METAR SBGL 292200Z 08013KT 9999 BKN027 BKN070 22/17 Q1020=
2025-08-29 23:00:00<>METAR SBGL 292300Z 12010KT 9999 SCT030 BKN075 21/16 Q1021=
2025-08-30 00:00:00<>METAR SBGL 300000Z 10007KT 9999 SCT015 BKN025 BKN080 21/18 Q1021=
2025-08-30 01:00:00<>METAR SBGL 300100Z 08006KT 040V110 9999 SCT012 BKN017 BKN080 21/18 Q1021=
2025-08-30 02:00:00<>METAR SBGL 300200Z 08006KT 9999 FEW025 BKN045 21/18 Q1021=
2025-08-30 03:00:00<>METAR SBGL 300300Z 35004KT 9999 FEW020 BKN050 21/18 Q1021=
2025-08-30 04:00:00<>METAR SBGL 300400Z 32004KT 9999 SCT015 BKN050 21/17 Q1021=
2025-08-30 05:00:00<>METAR SBGL 300500Z VRB02KT 9999 SCT015 BKN050 21/17 Q1021=
2025-08-30 06:00:00<>METAR SBGL 300600Z 27002KT 9999 FEW015 BKN050 21/18 Q1020=
2025-08-30 07:00:00<>METAR SBGL 300700Z 31004KT 9999 FEW025 BKN060 20/17 Q1020=
2025-08-30 08:00:00<>METAR SBGL 300800Z VRB02KT 9999 FEW025 BKN060 20/17 Q1021=
2025-08-30 09:00:00<>METAR SBGL 300900Z VRB01KT 9999 FEW023 BKN060 20/18 Q1021=
2025-08-30 10:00:00<>METAR SBGL 301000Z 04003KT 7000 FEW013 SCT015 BKN025 20/18 Q1022=
2025-08-30 11:00:00<>METAR SBGL 301100Z 01004KT 7000 SCT015 SCT019 BKN023 21/18 Q1022=
2025-08-30 12:00:00<>METAR SBGL 301200Z 32004KT 8000 SCT015 BKN023 BKN100 22/17 Q1023=
2025-08-30 13:00:00<>METAR SBGL 301300Z 01005KT 9000 SCT019 SCT023 BKN100 23/18 Q1023=
2025-08-30 14:00:00<>METAR SBGL 301400Z 03006KT 9000 FEW019 SCT023 BKN100 23/18 Q1023=
2025-08-30 15:00:00<>METAR SBGL 301500Z 07006KT 9999 FEW021 BKN050 BKN100 24/18 Q1022=
2025-08-30 16:00:00<>METAR SBGL 301600Z 13009KT 9000 VCSH FEW023 SCT033 BKN100 24/18 Q1022=
2025-08-30 17:00:00<>METAR SBGL 301700Z 13010KT 9999 SCT033 BKN100 24/17 Q1021=
2025-08-30 18:00:00<>METAR SBGL 301800Z 14013KT 9000 VCSH SCT023 BKN100 23/18 Q1021=
2025-08-30 18:30:00<>SPECI SBGL 301830Z 10010KT 5000 -RA SCT023 BKN100 22/19 Q1021=
2025-08-30 19:00:00<>METAR SBGL 301900Z 14009KT 9000 VCSH SCT046 BKN100 22/19 Q1021=
2025-08-30 20:00:00<>METAR SBGL 302000Z 14010KT 9999 SCT046 BKN100 22/19 Q1021=
2025-08-30 21:00:00<>METAR SBGL 302100Z 14008KT 9999 VCSH SCT046 BKN100 22/18 Q1021=
2025-08-30 22:00:00<>METAR SBGL 302200Z 13010KT 9999 BKN043 BKN100 22/17 Q1022=
2025-08-30 23:00:00<>METAR SBGL 302300Z 13005KT 9999 FEW015 BKN100 21/17 Q1022=
2025-08-31 00:00:00<>METAR SBGL 310000Z 09003KT 9999 FEW015 SCT100 20/17 Q1023=
2025-08-31 01:00:00<>METAR SBGL 310100Z 11007KT 9999 FEW015 SCT080 21/17 Q1023=
2025-08-31 02:00:00<>METAR SBGL 310200Z 11010KT 9999 FEW015 SCT080 20/17 Q1023=
2025-08-31 03:00:00<>METAR SBGL 310300Z 10006KT 9999 FEW015 20/17 Q1023=
2025-08-31 04:00:00<>METAR SBGL 310400Z VRB02KT 9999 FEW008 19/17 Q1023=
2025-08-31 05:00:00<>METAR SBGL 310500Z VRB02KT 9999 FEW013 19/17 Q1022=
2025-08-31 06:00:00<>METAR SBGL 310600Z 06002KT 9999 SCT013 18/17 Q1022=
2025-08-31 07:00:00<>METAR SBGL 310700Z VRB02KT 9999 SCT013 18/17 Q1022=
2025-08-31 08:00:00<>METAR SBGL 310800Z VRB02KT 9999 SCT013 18/17 Q1022=
2025-08-31 09:00:00<>METAR SBGL 310900Z VRB02KT 9000 SCT013 19/17 Q1022=
2025-08-31 10:00:00<>METAR SBGL 311000Z VRB02KT 9999 SCT013 BKN025 19/18 Q1023=
2025-08-31 11:00:00<>METAR SBGL 311100Z 34002KT 9999 FEW009 SCT013 21/18 Q1024=
2025-08-31 12:00:00<>METAR SBGL 311200Z 36005KT 9999 FEW013 SCT017 23/18 Q1024=
2025-08-31 13:00:00<>METAR SBGL 311300Z 36008KT 9999 SCT019 24/17 Q1024=
2025-08-31 14:00:00<>METAR SBGL 311400Z 01008KT 9999 SCT023 24/17 Q1024=
2025-08-31 15:00:00<>METAR SBGL 311500Z 35006KT 9999 SCT026 26/17 Q1023=
2025-08-31 16:00:00<>METAR SBGL 311600Z 14010KT 9999 SCT026 26/18 Q1023=
2025-08-31 17:00:00<>METAR SBGL 311700Z 14012KT 9999 BKN025 26/19 Q1022=
2025-08-31 18:00:00<>METAR SBGL 311800Z 15012KT 9999 VCSH SCT025 SCT070 25/18 Q1022=
2025-08-31 18:48:00<>SPECI SBGL 311848Z 13010KT 4000 -RA SCT025 BKN070 22/20 Q1023=
2025-08-31 19:00:00<>METAR SBGL 311900Z 11007KT 5000 RA SCT030 BKN070 22/20 Q1023=
2025-08-31 20:00:00<>METAR SBGL 312000Z 10005KT 3000 RA SCT020 BKN030 22/20 Q1023=
2025-08-31 21:00:00<>METAR SBGL 312100Z 11005KT 7000 VCSH SCT020 BKN035 22/20 Q1023 RERA=
2025-08-31 22:00:00<>METAR SBGL 312200Z 09010KT 9999 FEW025 BKN070 22/18 Q1024=
2025-08-31 23:00:00<>METAR SBGL 312300Z 09007KT 9999 FEW018 BKN090 22/19 Q1024=
2025-09-01 00:00:00<>METAR SBGL 010000Z 10007KT 9999 FEW018 BKN080 21/18 Q1024=
2025-09-01 01:00:00<>METAR SBGL 010100Z 10009KT 9999 FEW018 BKN080 21/18 Q1024=
2025-09-01 02:00:00<>METAR SBGL 010200Z 08009KT 9999 FEW017 SCT020 21/18 Q1025=
2025-09-01 03:00:00<>METAR SBGL 010300Z 09004KT 9999 FEW016 SCT020 20/18 Q1025=
2025-09-01 04:00:00<>METAR SBGL 010400Z 08006KT 9999 BKN016 BKN025 21/18 Q1025=
2025-09-01 05:00:00<>METAR SBGL 010500Z 09004KT 9999 FEW013 BKN017 BKN100 20/18 Q1025=
2025-09-01 06:00:00<>METAR SBGL 010600Z 09004KT 9999 FEW013 BKN060 20/18 Q1024=
2025-09-01 07:00:00<>METAR SBGL 010700Z 10002KT 8000 FEW018 20/18 Q1024=
2025-09-01 08:00:00<>METAR SBGL 010800Z 07001KT 8000 FEW025 BKN055 BKN093 19/18 Q1024=
2025-09-01 09:00:00<>METAR SBGL 010900Z 10003KT 9999 FEW009 BKN025 BKN055 20/18 Q1025=
2025-09-01 10:00:00<>METAR SBGL 011000Z 10006KT 9999 FEW014 BKN021 BKN050 21/18 Q1026=
2025-09-01 11:00:00<>METAR SBGL 011100Z 01003KT 9999 FEW009 SCT020 BKN045 21/19 Q1026=
2025-09-01 12:00:00<>METAR SBGL 011200Z 03002KT 9999 FEW009 SCT015 BKN045 23/19 Q1026=
2025-09-01 13:00:00<>METAR SBGL 011300Z 09010KT 9999 FEW014 BKN020 24/18 Q1026=
2025-09-01 14:00:00<>METAR SBGL 011400Z 08009KT 9999 FEW020 BKN030 24/18 Q1025=
2025-09-01 15:00:00<>METAR SBGL 011500Z 10012KT 9999 FEW025 BKN040 26/18 Q1024=
2025-09-01 16:00:00<>METAR SBGL 011600Z 10014KT 080V140 9999 FEW025 BKN040 25/18 Q1024=
2025-09-01 17:00:00<>METAR SBGL 011700Z 10011KT 9999 FEW020 BKN040 25/17 Q1024=
2025-09-01 18:00:00<>METAR SBGL 011800Z 10013KT 9999 FEW020 BKN035 25/17 Q1024=
2025-09-01 19:00:00<>METAR SBGL 011900Z 08013KT 9999 FEW025 BKN035 25/17 Q1024=
2025-09-01 20:00:00<>METAR SBGL 012000Z 09010KT 9999 FEW022 BKN035 24/17 Q1024=
2025-09-01 21:00:00<>METAR SBGL 012100Z 09011KT 9999 FEW022 BKN035 23/17 Q1024=
2025-09-01 22:00:00<>METAR SBGL 012200Z 10012KT 9999 FEW030 BKN040 23/17 Q1025=
2025-09-01 23:00:00<>METAR SBGL 012300Z 09011KT 9999 FEW030 BKN070 22/17 Q1025=
2025-09-02 00:00:00<>METAR SBGL 020000Z 09011KT 9999 FEW019 BKN100 22/17 Q1025=
2025-09-02 01:00:00<>METAR SBGL 020100Z 09011KT 9999 SCT017 BKN080 21/18 Q1026=
2025-09-02 02:00:00<>METAR SBGL 020200Z 09014KT 9999 SCT017 BKN080 21/17 Q1026=
2025-09-02 03:00:00<>METAR SBGL 020300Z 08013KT 8000 SCT015 BKN023 21/17 Q1026=
2025-09-02 04:00:00<>METAR SBGL 020400Z 07010KT 8000 SCT015 BKN023 21/17 Q1025=
2025-09-02 05:00:00<>METAR SBGL 020500Z 05008KT 8000 SCT015 BKN023 20/17 Q1025=
2025-09-02 06:00:00<>METAR SBGL 020600Z 04008KT 8000 SCT015 BKN023 20/17 Q1025=
2025-09-02 07:00:00<>METAR SBGL 020700Z 36007KT 8000 SCT015 BKN023 19/17 Q1024=
2025-09-02 08:00:00<>METAR SBGL 020800Z 11010KT 8000 SCT013 BKN019 20/18 Q1025=
2025-09-02 09:00:00<>METAR SBGL 020900Z 09010KT 8000 SCT013 BKN019 20/17 Q1025=
2025-09-02 10:00:00<>METAR SBGL 021000Z 08012KT 9999 SCT011 BKN023 20/17 Q1026=
2025-09-02 11:00:00<>METAR SBGL 021100Z 09010KT 9999 BKN026 21/18 Q1026=
2025-09-02 12:00:00<>METAR SBGL 021200Z 10010KT 9999 FEW015 BKN030 22/17 Q1027=
2025-09-02 13:00:00<>METAR SBGL 021300Z 09010KT 060V120 9999 SCT015 BKN030 23/17 Q1027=
2025-09-02 14:00:00<>METAR SBGL 021400Z 09009KT 9999 SCT020 BKN040 25/17 Q1026=
2025-09-02 15:00:00<>METAR SBGL 021500Z 07007KT 040V120 9999 SCT025 BKN040 25/17 Q1025=
2025-09-02 16:00:00<>METAR SBGL 021600Z 08013KT 060V120 9999 SCT025 BKN050 27/17 Q1024=
2025-09-02 17:00:00<>METAR SBGL 021700Z 09013KT 9999 FEW025 BKN050 26/16 Q1023=
2025-09-02 18:00:00<>METAR SBGL 021800Z 09014KT 9999 FEW030 BKN050 26/16 Q1022=
2025-09-02 19:00:00<>METAR SBGL 021900Z 09014KT 9999 SCT030 25/15 Q1022=
2025-09-02 20:00:00<>METAR SBGL 022000Z 10013KT 9999 FEW030 24/15 Q1022=
2025-09-02 21:00:00<>METAR SBGL 022100Z 10012KT 9999 FEW030 22/15 Q1023=
2025-09-02 22:00:00<>METAR SBGL 022200Z 10011KT CAVOK 22/14 Q1023=
2025-09-02 23:00:00<>METAR SBGL 022300Z 10009KT 9999 FEW045 21/14 Q1024=
2025-09-03 00:00:00<>METAR SBGL 030000Z 11006KT 9999 FEW045 20/15 Q1024=
2025-09-03 01:00:00<>METAR SBGL 030100Z 10006KT CAVOK 20/15 Q1025=
2025-09-03 02:00:00<>METAR SBGL 030200Z 12003KT CAVOK 19/15 Q1025=
2025-09-03 03:00:00<>METAR SBGL 030300Z 10004KT CAVOK 19/15 Q1024=
2025-09-03 04:00:00<>METAR SBGL 030400Z 10005KT CAVOK 18/15 Q1024=
2025-09-03 05:00:00<>METAR SBGL 030500Z 10002KT CAVOK 18/14 Q1023=
2025-09-03 06:00:00<>METAR SBGL 030600Z 14003KT CAVOK 16/14 Q1023=
2025-09-03 07:00:00<>METAR SBGL 030700Z 13003KT CAVOK 16/13 Q1023=
2025-09-03 08:00:00<>METAR SBGL 030800Z 00000KT CAVOK 15/13 Q1023=
2025-09-03 09:00:00<>METAR SBGL 030900Z 05001KT CAVOK 15/13 Q1023=
2025-09-03 10:00:00<>METAR SBGL 031000Z 09002KT CAVOK 18/15 Q1023=
2025-09-03 11:00:00<>METAR SBGL 031100Z VRB03KT CAVOK 20/15 Q1024=
2025-09-03 12:00:00<>METAR SBGL 031200Z 07004KT 020V180 CAVOK 22/12 Q1025=
2025-09-03 13:00:00<>METAR SBGL 031300Z 06006KT 020V110 CAVOK 23/12 Q1025=
2025-09-03 14:00:00<>METAR SBGL 031400Z VRB06KT CAVOK 24/12 Q1024=
2025-09-03 15:00:00<>METAR SBGL 031500Z 33006KT 290V020 CAVOK 26/13 Q1023=
2025-09-03 16:00:00<>METAR SBGL 031600Z 36006KT 330V050 CAVOK 26/13 Q1022=
2025-09-03 17:00:00<>METAR SBGL 031700Z 04005KT 330V110 CAVOK 29/12 Q1020=
2025-09-03 18:00:00<>METAR SBGL 031800Z 11006KT 060V170 CAVOK 29/12 Q1019=
2025-09-03 19:00:00<>METAR SBGL 031900Z 14005KT 110V170 CAVOK 28/13 Q1019=
2025-09-03 20:00:00<>METAR SBGL 032000Z 13006KT CAVOK 27/15 Q1019=
2025-09-03 21:00:00<>METAR SBGL 032100Z VRB03KT CAVOK 24/15 Q1019=
2025-09-03 22:00:00<>METAR SBGL 032200Z 11006KT 070V160 CAVOK 24/15 Q1020=
2025-09-03 23:00:00<>METAR SBGL 032300Z 13005KT CAVOK 23/16 Q1021=
2025-09-04 00:00:00<>METAR SBGL 040000Z 10006KT CAVOK 21/15 Q1021=
2025-09-04 01:00:00<>METAR SBGL 040100Z 09005KT CAVOK 20/15 Q1021=
2025-09-04 02:00:00<>METAR SBGL 040200Z 10005KT CAVOK 20/14 Q1021=
2025-09-04 03:00:00<>METAR SBGL 040300Z 10006KT CAVOK 19/15 Q1021=
2025-09-04 04:00:00<>METAR SBGL 040400Z 11004KT CAVOK 19/14 Q1021=
2025-09-04 05:00:00<>METAR SBGL 040500Z 11005KT CAVOK 19/14 Q1020=
2025-09-04 06:00:00<>METAR SBGL 040600Z 14002KT CAVOK 18/14 Q1020=
2025-09-04 07:00:00<>METAR SBGL 040700Z VRB01KT CAVOK 18/13 Q1019=
2025-09-04 08:00:00<>METAR SBGL 040800Z VRB01KT CAVOK 18/13 Q1019=
2025-09-04 09:00:00<>METAR SBGL 040900Z 08005KT CAVOK 15/13 Q1020=
2025-09-04 10:00:00<>METAR SBGL 041000Z 28002KT CAVOK 19/14 Q1020=
2025-09-04 11:00:00<>METAR SBGL 041100Z VRB01KT CAVOK 21/14 Q1021=
2025-09-04 12:00:00<>METAR SBGL 041200Z VRB03KT CAVOK 23/13 Q1021=
2025-09-04 13:00:00<>METAR SBGL 041300Z VRB03KT CAVOK 25/13 Q1021=
2025-09-04 14:00:00<>METAR SBGL 041400Z VRB04KT CAVOK 27/12 Q1020=
2025-09-04 15:00:00<>METAR SBGL 041500Z 06007KT 010V090 CAVOK 28/11 Q1019=
2025-09-04 16:00:00<>METAR SBGL 041600Z 09008KT 050V160 CAVOK 29/09 Q1018=
2025-09-04 17:00:00<>METAR SBGL 041700Z 02006KT 320V080 CAVOK 30/09 Q1017=
2025-09-04 18:00:00<>METAR SBGL 041800Z 12006KT 070V160 CAVOK 30/10 Q1016=
2025-09-04 19:00:00<>METAR SBGL 041900Z 05006KT 020V080 CAVOK 30/09 Q1016=
2025-09-04 20:00:00<>METAR SBGL 042000Z 11006KT CAVOK 28/12 Q1016=
2025-09-04 21:00:00<>METAR SBGL 042100Z 13004KT CAVOK 24/14 Q1016=
2025-09-04 22:00:00<>METAR SBGL 042200Z 13005KT CAVOK 24/14 Q1017=
2025-09-04 23:00:00<>METAR SBGL 042300Z 10009KT CAVOK 23/16 Q1017=
2025-09-05 00:00:00<>METAR SBGL 050000Z 12006KT CAVOK 22/16 Q1018=
2025-09-05 01:00:00<>METAR SBGL 050100Z 11005KT CAVOK 21/16 Q1018=
2025-09-05 02:00:00<>METAR SBGL 050200Z 10003KT CAVOK 20/16 Q1018=
2025-09-05 03:00:00<>METAR SBGL 050300Z VRB02KT CAVOK 19/15 Q1018=
2025-09-05 04:00:00<>METAR SBGL 050400Z 07003KT CAVOK 18/15 Q1017=
2025-09-05 05:00:00<>METAR SBGL 050500Z VRB02KT CAVOK 18/16 Q1017=
2025-09-05 06:00:00<>METAR SBGL 050600Z 13003KT CAVOK 18/16 Q1016=
2025-09-05 07:00:00<>METAR SBGL 050700Z VRB02KT CAVOK 17/15 Q1016=
2025-09-05 08:00:00<>METAR SBGL 050800Z 06002KT CAVOK 17/15 Q1016=
2025-09-05 09:00:00<>METAR SBGL 050900Z VRB02KT CAVOK 17/14 Q1017=
2025-09-05 10:00:00<>METAR SBGL 051000Z VRB02KT CAVOK 19/16 Q1017=
2025-09-05 11:00:00<>METAR SBGL 051100Z 09004KT CAVOK 23/18 Q1018=
2025-09-05 12:00:00<>METAR SBGL 051200Z 05003KT CAVOK 25/16 Q1018=
2025-09-05 13:00:00<>METAR SBGL 051300Z 34006KT CAVOK 26/16 Q1018=
2025-09-05 14:00:00<>METAR SBGL 051400Z 06004KT CAVOK 29/15 Q1017=
2025-09-05 15:00:00<>METAR SBGL 051500Z 33007KT CAVOK 31/14 Q1016=
2025-09-05 16:00:00<>METAR SBGL 051600Z 05009KT CAVOK 31/15 Q1015=
2025-09-05 17:00:00<>METAR SBGL 051700Z 11012KT CAVOK 30/14 Q1014=
2025-09-05 18:00:00<>METAR SBGL 051800Z 13011KT CAVOK 30/14 Q1014=
2025-09-05 19:00:00<>METAR SBGL 051900Z 19010KT CAVOK 29/13 Q1015=
2025-09-05 20:00:00<>METAR SBGL 052000Z 23012KT CAVOK 25/16 Q1016=
2025-09-05 21:00:00<>METAR SBGL 052100Z 22012KT CAVOK 23/17 Q1017=
2025-09-05 22:00:00<>METAR SBGL 052200Z 23017KT CAVOK 22/17 Q1018=
2025-09-05 23:00:00<>METAR SBGL 052300Z 23012KT CAVOK 22/17 Q1019=
2025-09-06 00:00:00<>METAR SBGL 060000Z 23009KT CAVOK 22/17 Q1019=
2025-09-06 01:00:00<>METAR SBGL 060100Z 23007KT 9999 FEW030 22/17 Q1019=
2025-09-06 02:00:00<>METAR SBGL 060200Z 25005KT 9999 SCT030 22/17 Q1019=
2025-09-06 03:00:00<>METAR SBGL 060300Z 24004KT 9999 FEW030 22/17 Q1019=
2025-09-06 04:00:00<>METAR SBGL 060400Z 22006KT 9999 FEW018 SCT025 22/18 Q1018=
2025-09-06 05:00:00<>METAR SBGL 060500Z 24003KT 9999 FEW020 SCT030 22/18 Q1018=
2025-09-06 06:00:00<>METAR SBGL 060600Z 22006KT 9999 FEW020 SCT030 22/17 Q1018=
2025-09-06 07:00:00<>METAR SBGL 060700Z 22005KT 9999 FEW020 SCT030 22/17 Q1018=
2025-09-06 08:00:00<>METAR SBGL 060800Z 23008KT 9999 FEW020 BKN035 22/17 Q1018=
2025-09-06 09:00:00<>METAR SBGL 060900Z 24004KT 9999 FEW020 BKN035 22/17 Q1019=
2025-09-06 10:00:00<>METAR SBGL 061000Z 27005KT 9999 FEW020 BKN040 22/17 Q1019=
2025-09-06 11:00:00<>METAR SBGL 061100Z 27004KT 9999 FEW022 BKN040 23/17 Q1020=
2025-09-06 12:00:00<>METAR SBGL 061200Z 23004KT 9999 FEW023 BKN028 24/17 Q1020=
2025-09-06 13:00:00<>METAR SBGL 061300Z 21009KT 9999 BKN027 OVC040 24/17 Q1021=
2025-09-06 14:00:00<>METAR SBGL 061400Z 20009KT 9999 BKN027 OVC048 25/17 Q1021=
2025-09-06 15:00:00<>METAR SBGL 061500Z 20011KT 9999 BKN032 OVC050 25/17 Q1020=
2025-09-06 16:00:00<>METAR SBGL 061600Z 21011KT 9999 OVC040 24/17 Q1020=
2025-09-06 17:00:00<>METAR SBGL 061700Z 19012KT CAVOK 23/17 Q1019=
2025-09-06 18:00:00<>METAR SBGL 061800Z 20014KT 9999 FEW027 OVC040 23/17 Q1020=
2025-09-06 19:00:00<>METAR SBGL 061900Z 20010KT 9999 FEW027 OVC040 23/17 Q1020=
2025-09-06 20:00:00<>METAR SBGL 062000Z 21011KT 9999 OVC040 23/17 Q1021=
2025-09-06 21:00:00<>METAR SBGL 062100Z 23007KT 9999 FEW027 OVC040 22/17 Q1021=
2025-09-06 22:00:00<>METAR SBGL 062200Z 22006KT 9999 SCT023 OVC036 22/17 Q1022=
2025-09-06 23:00:00<>METAR SBGL 062300Z 08010KT 9999 BKN021 OVC033 22/18 Q1022=
2025-09-07 00:00:00<>METAR SBGL 070000Z 15014KT 8000 SCT007 BKN011 OVC033 21/18 Q1023=
2025-09-07 01:00:00<>METAR SBGL 070100Z 14011KT 5000 -RA BR BKN013 BKN017 OVC023 20/18 Q1023=
2025-09-07 02:00:00<>METAR SBGL 070200Z 14007KT 8000 SCT013 BKN017 OVC023 20/18 Q1023=
2025-09-07 03:00:00<>METAR SBGL 070300Z 13011KT 7000 SCT013 BKN015 OVC026 20/18 Q1023=
2025-09-07 04:00:00<>METAR SBGL 070400Z 12009KT 7000 SCT009 BKN015 OVC026 20/18 Q1022=
2025-09-07 05:00:00<>METAR SBGL 070500Z 16009KT 7000 SCT009 BKN015 OVC026 20/18 Q1022=
2025-09-07 06:00:00<>METAR SBGL 070600Z 17008KT 6000 SCT008 BKN015 OVC026 19/18 Q1021=
2025-09-07 07:00:00<>METAR SBGL 070700Z 18008KT 6000 SCT008 BKN015 OVC026 19/18 Q1021=
2025-09-07 07:15:00<>SPECI SBGL 070715Z 13009KT 3000 -RA BR SCT008 BKN009 OVC015 19/18 Q1022=
2025-09-07 08:00:00<>METAR SBGL 070800Z 13008KT 3500 -RA BR SCT006 BKN008 OVC015 19/18 Q1022=
2025-09-07 09:00:00<>METAR SBGL 070900Z 11009KT 4500 -DZ BR SCT008 BKN011 OVC023 19/18 Q1022=
2025-09-07 09:25:00<>SPECI SBGL 070925Z 14008KT 6000 FEW011 BKN015 OVC017 20/17 Q1023=
2025-09-07 10:00:00<>METAR SBGL 071000Z 13009KT 8000 VCSH BKN015 BKN017 OVC023 20/17 Q1023=
2025-09-07 11:00:00<>METAR SBGL 071100Z 12008KT 9000 BKN015 OVC023 20/17 Q1023=
2025-09-07 12:00:00<>METAR SBGL 071200Z 12008KT 9000 SCT015 BKN017 OVC023 21/17 Q1024=
2025-09-07 13:00:00<>METAR SBGL 071300Z 14009KT 9000 SCT013 OVC017 21/17 Q1024=
2025-09-07 14:00:00<>METAR SBGL 071400Z 15008KT 9000 SCT013 OVC017 21/17 Q1024=
2025-09-07 15:00:00<>METAR SBGL 071500Z 14008KT 7000 -DZ VCSH FEW015 OVC017 21/17 Q1024=
2025-09-07 15:31:00<>SPECI SBGL 071531Z 15010KT 6000 -DZ VCSH BKN013 OVC017 21/18 Q1023=
2025-09-07 16:00:00<>METAR SBGL 071600Z 13008KT 5000 -DZ BR VCSH BKN012 OVC020 21/17 Q1023=
2025-09-07 17:00:00<>METAR SBGL 071700Z 12008KT 9000 BKN013 OVC020 22/17 Q1022=
2025-09-07 18:00:00<>METAR SBGL 071800Z 14008KT 9000 BKN013 OVC020 22/17 Q1022=
2025-09-07 19:00:00<>METAR SBGL 071900Z 11008KT 9000 BKN015 OVC023 22/17 Q1021=
2025-09-07 20:00:00<>METAR SBGL 072000Z 14008KT 9999 BKN015 OVC023 21/17 Q1021=
2025-09-07 21:00:00<>METAR SBGL 072100Z 13007KT 9000 BKN015 OVC023 21/17 Q1022=
2025-09-07 22:00:00<>METAR SBGL 072200Z 13010KT 9999 BKN016 OVC023 21/17 Q1022=
2025-09-07 23:00:00<>METAR SBGL 072300Z 13007KT 9999 BKN016 OVC024 21/17 Q1023=
2025-09-08 00:00:00<>METAR SBGL 080000Z 13006KT 9999 BKN016 OVC024 21/17 Q1023=
2025-09-08 01:00:00<>METAR SBGL 080100Z 12006KT 9999 BKN016 OVC022 21/17 Q1024=
2025-09-08 02:00:00<>METAR SBGL 080200Z 10009KT 9999 SCT016 OVC022 21/17 Q1024=
2025-09-08 03:00:00<>METAR SBGL 080300Z 10009KT 9999 SCT016 OVC022 21/17 Q1023=
2025-09-08 04:00:00<>METAR SBGL 080400Z 10008KT 9999 SCT016 OVC022 21/17 Q1023=
2025-09-08 05:00:00<>METAR SBGL 080500Z 09006KT 9999 SCT015 OVC020 21/17 Q1022=
2025-09-08 06:00:00<>METAR SBGL 080600Z 10005KT 9999 SCT015 BKN020 20/17 Q1021=
2025-09-08 07:00:00<>METAR SBGL 080700Z 11005KT 9999 SCT015 BKN020 20/17 Q1021=
2025-09-08 08:00:00<>METAR SBGL 080800Z 11005KT 9999 BKN015 OVC018 21/18 Q1021=
2025-09-08 09:00:00<>METAR SBGL 080900Z 10004KT 9999 BKN015 OVC018 20/18 Q1021=
2025-09-08 10:00:00<>METAR SBGL 081000Z 10004KT 9999 SCT016 OVC020 21/18 Q1022=
2025-09-08 11:00:00<>METAR SBGL 081100Z 12005KT 090V160 9999 FEW015 OVC017 22/18 Q1023=
2025-09-08 12:00:00<>METAR SBGL 081200Z 06006KT 360V090 9999 BKN018 23/17 Q1023=
2025-09-08 13:00:00<>METAR SBGL 081300Z 34006KT 310V020 9999 BKN020 23/18 Q1023=
2025-09-08 14:00:00<>METAR SBGL 081400Z 01008KT 340V040 9999 SCT024 24/18 Q1022=
2025-09-08 15:00:00<>METAR SBGL 081500Z 01007KT 350V050 9999 SCT024 25/18 Q1021=
2025-09-08 16:00:00<>METAR SBGL 081600Z 36007KT 330V030 9999 FEW030 26/18 Q1020=
2025-09-08 17:00:00<>METAR SBGL 081700Z 02007KT 340V060 9999 FEW030 27/19 Q1018=
2025-09-08 18:00:00<>METAR SBGL 081800Z 06007KT 030V110 9999 FEW030 28/19 Q1017=
2025-09-08 19:00:00<>METAR SBGL 081900Z 09008KT 050V120 9999 FEW030 28/19 Q1017=
2025-09-08 20:00:00<>METAR SBGL 082000Z 12009KT 9999 FEW025 27/19 Q1017=
2025-09-08 21:00:00<>METAR SBGL 082100Z 10011KT 9999 FEW018 25/19 Q1017=
2025-09-08 22:00:00<>METAR SBGL 082200Z 11009KT CAVOK 24/19 Q1017=
2025-09-08 23:00:00<>METAR SBGL 082300Z 11009KT CAVOK 23/18 Q1017=
2025-09-09 00:00:00<>METAR SBGL 090000Z 09009KT CAVOK 22/19 Q1017=
2025-09-09 01:00:00<>METAR SBGL 090100Z 10008KT CAVOK 22/19 Q1017=
2025-09-09 02:00:00<>METAR SBGL 090200Z 11004KT CAVOK 22/18 Q1017=
2025-09-09 03:00:00<>METAR SBGL 090300Z 13004KT CAVOK 21/18 Q1017=
2025-09-09 04:00:00<>METAR SBGL 090400Z 11003KT CAVOK 21/18 Q1016=
2025-09-09 05:00:00<>METAR SBGL 090500Z 20002KT CAVOK 21/18 Q1015=
2025-09-09 06:00:00<>METAR SBGL 090600Z 00000KT CAVOK 20/18 Q1014=
2025-09-09 07:00:00<>METAR SBGL 090700Z VRB02KT CAVOK 20/17 Q1014=
2025-09-09 08:00:00<>METAR SBGL 090800Z 15003KT 110V170 CAVOK 20/18 Q1013=
2025-09-09 09:00:00<>METAR SBGL 090900Z 18003KT 150V210 CAVOK 20/18 Q1014=
2025-09-09 10:00:00<>METAR SBGL 091000Z 22003KT 190V260 CAVOK 22/19 Q1014=
2025-09-09 11:00:00<>METAR SBGL 091100Z 35006KT 310V020 9999 FEW015 27/18 Q1015=
2025-09-09 11:46:00<>SPECI SBGL 091146Z 36016KT 9999 FEW015 29/16 Q1015=
2025-09-09 12:00:00<>METAR SBGL 091200Z 01011KT 9999 FEW015 29/16 Q1014=
2025-09-09 13:00:00<>METAR SBGL 091300Z 35011KT CAVOK 32/15 Q1014=
2025-09-09 14:00:00<>METAR SBGL 091400Z 36013KT CAVOK 33/16 Q1012=
2025-09-09 15:00:00<>METAR SBGL 091500Z 03010KT CAVOK 34/16 Q1011=
2025-09-09 16:00:00<>METAR SBGL 091600Z 31003KT CAVOK 36/13 Q1010=
2025-09-09 16:36:00<>SPECI SBGL 091636Z 26023G35KT 230V290 CAVOK 35/15 Q1010=
2025-09-09 17:00:00<>METAR SBGL 091700Z 24024KT 9999 FEW020 34/15 Q1011=
2025-09-09 18:00:00<>METAR SBGL 091800Z 21022KT CAVOK 31/14 Q1012=
2025-09-09 19:00:00<>METAR SBGL 091900Z 21014KT 180V240 CAVOK 31/15 Q1012=
2025-09-09 20:00:00<>METAR SBGL 092000Z 22013KT CAVOK 29/15 Q1012=
2025-09-09 21:00:00<>METAR SBGL 092100Z 20006KT 170V230 CAVOK 28/15 Q1012=
2025-09-09 22:00:00<>METAR SBGL 092200Z VRB02KT CAVOK 25/16 Q1013=
2025-09-09 23:00:00<>METAR SBGL 092300Z 17005KT 9999 FEW040 SCT100 26/16 Q1014=
2025-09-10 00:00:00<>METAR SBGL 100000Z 35004KT 9999 FEW040 SCT100 26/17 Q1016=
2025-09-10 01:00:00<>METAR SBGL 100100Z 21007KT 9999 FEW040 SCT050 27/15 Q1017=
2025-09-10 02:00:00<>METAR SBGL 100200Z 02007KT 9999 FEW040 SCT066 26/17 Q1017=
2025-09-10 03:00:00<>METAR SBGL 100300Z 22006KT 9999 FEW040 SCT080 24/18 Q1017=
2025-09-10 04:00:00<>METAR SBGL 100400Z 19004KT 9999 FEW040 SCT080 24/16 Q1017=
2025-09-10 05:00:00<>METAR SBGL 100500Z 21006KT 9999 FEW040 SCT080 24/16 Q1016=
2025-09-10 06:00:00<>METAR SBGL 100600Z 24005KT 8000 FEW040 SCT080 23/17 Q1016=
2025-09-10 07:00:00<>METAR SBGL 100700Z 27005KT 8000 FEW040 SCT080 23/17 Q1016=
2025-09-10 08:00:00<>METAR SBGL 100800Z 28006KT 8000 FEW040 SCT050 21/17 Q1017=
2025-09-10 09:00:00<>METAR SBGL 100900Z 27008KT 8000 FEW046 21/18 Q1018=
2025-09-10 10:00:00<>METAR SBGL 101000Z 24008KT 8000 FEW046 22/18 Q1018=
2025-09-10 11:00:00<>METAR SBGL 101100Z 26006KT 230V290 CAVOK 24/17 Q1019=
2025-09-10 12:00:00<>METAR SBGL 101200Z 24008KT 210V270 9999 FEW020 27/13 Q1020=
2025-09-10 13:00:00<>METAR SBGL 101300Z 20010KT 160V240 9999 FEW020 27/12 Q1020=
2025-09-10 14:00:00<>METAR SBGL 101400Z 20010KT 160V240 9999 FEW025 27/14 Q1020=
2025-09-10 15:00:00<>METAR SBGL 101500Z 20008KT 170V260 9999 FEW025 27/13 Q1019=
2025-09-10 16:00:00<>METAR SBGL 101600Z 20009KT 130V230 9999 FEW025 27/14 Q1019=
2025-09-10 17:00:00<>METAR SBGL 101700Z 12012KT 080V170 9999 FEW040 26/15 Q1018=
2025-09-10 18:00:00<>METAR SBGL 101800Z 13013KT 9999 FEW040 26/15 Q1018=
2025-09-10 19:00:00<>METAR SBGL 101900Z 12011KT 9999 FEW040 25/14 Q1018=
2025-09-10 20:00:00<>METAR SBGL 102000Z 13011KT CAVOK 24/15 Q1019=
2025-09-10 21:00:00<>METAR SBGL 102100Z 16008KT CAVOK 23/14 Q1019=
2025-09-10 22:00:00<>METAR SBGL 102200Z 12005KT 090V160 CAVOK 21/16 Q1020=
2025-09-10 23:00:00<>METAR SBGL 102300Z 11002KT CAVOK 20/16 Q1021=
2025-09-11 00:00:00<>METAR SBGL 110000Z 14003KT CAVOK 20/15 Q1022=
2025-09-11 01:00:00<>METAR SBGL 110100Z 11004KT 9999 SCT025 20/16 Q1022=
2025-09-11 02:00:00<>METAR SBGL 110200Z 06004KT 9999 SCT030 20/16 Q1022=
2025-09-11 03:00:00<>METAR SBGL 110300Z 07003KT 9999 FEW030 SCT040 19/16 Q1022=
2025-09-11 04:00:00<>METAR SBGL 110400Z 07002KT 9999 FEW030 18/16 Q1021=
2025-09-11 05:00:00<>METAR SBGL 110500Z 06003KT 9999 FEW016 18/16 Q1021=
2025-09-11 06:00:00<>METAR SBGL 110600Z 05002KT CAVOK 18/16 Q1020=
2025-09-11 07:00:00<>METAR SBGL 110700Z 02003KT 9999 FEW009 SCT025 BKN030 19/17 Q1020=
2025-09-11 08:00:00<>METAR SBGL 110800Z 03002KT 9999 SCT009 OVC025 19/16 Q1020=
2025-09-11 09:00:00<>METAR SBGL 110900Z 10002KT 9999 SCT009 BKN028 17/15 Q1021=
2025-09-11 10:00:00<>METAR SBGL 111000Z 08005KT 9999 FEW009 SCT017 19/17 Q1021=
2025-09-11 11:00:00<>METAR SBGL 111100Z 04006KT 9999 FEW009 SCT020 21/17 Q1021=
2025-09-11 12:00:00<>METAR SBGL 111200Z 03007KT 9999 SCT018 22/17 Q1021=
2025-09-11 13:00:00<>METAR SBGL 111300Z 12005KT 9999 FEW020 24/14 Q1021=
2025-09-11 14:00:00<>METAR SBGL 111400Z 04004KT 9999 FEW030 25/15 Q1020=
2025-09-11 15:00:00<>METAR SBGL 111500Z 13007KT CAVOK 25/16 Q1019=
2025-09-11 16:00:00<>METAR SBGL 111600Z 12009KT CAVOK 25/16 Q1018=
2025-09-11 17:00:00<>METAR SBGL 111700Z 14011KT CAVOK 25/16 Q1017=
2025-09-11 18:00:00<>METAR SBGL 111800Z 13015KT CAVOK 24/16 Q1016=
2025-09-11 19:00:00<>METAR SBGL 111900Z 13013KT CAVOK 23/16 Q1016=
2025-09-11 20:00:00<>METAR SBGL 112000Z 14013KT CAVOK 22/16 Q1016=
2025-09-11 21:00:00<>METAR SBGL 112100Z 13011KT CAVOK 21/16 Q1017=
2025-09-11 22:00:00<>METAR SBGL 112200Z 14010KT 9999 SCT040 21/16 Q1018=
2025-09-11 23:00:00<>METAR SBGL 112300Z 16013KT 9999 BKN036 21/16 Q1019=
2025-09-12 00:00:00<>METAR SBGL 120000Z 14008KT 9999 FEW026 BKN036 21/16 Q1019=
2025-09-12 01:00:00<>METAR SBGL 120100Z 15005KT 9999 FEW026 BKN036 21/16 Q1019=
2025-09-12 02:00:00<>METAR SBGL 120200Z 12004KT 9999 FEW023 BKN030 21/16 Q1019=
2025-09-12 03:00:00<>METAR SBGL 120300Z 11002KT 9999 SCT030 20/16 Q1018=
2025-09-12 04:00:00<>METAR SBGL 120400Z 17003KT 9999 SCT023 20/16 Q1018=
2025-09-12 05:00:00<>METAR SBGL 120500Z 18003KT 9999 FEW023 19/16 Q1017=
2025-09-12 06:00:00<>METAR SBGL 120600Z 19003KT 9999 FEW023 18/16 Q1017=
2025-09-12 07:00:00<>METAR SBGL 120700Z 21003KT 8000 FEW023 18/16 Q1016=
2025-09-12 08:00:00<>METAR SBGL 120800Z 30004KT 8000 FEW015 SCT023 19/17 Q1018=
2025-09-12 09:00:00<>METAR SBGL 120900Z 22006KT 7000 FEW015 BKN023 21/17 Q1019=
2025-09-12 10:00:00<>METAR SBGL 121000Z 29005KT 7000 SCT023 OVC036 21/17 Q1021=
2025-09-12 11:00:00<>METAR SBGL 121100Z 29004KT 250V320 8000 FEW020 BKN040 22/16 Q1021=
2025-09-12 12:00:00<>METAR SBGL 121200Z 34005KT 310V020 9000 SCT023 BKN040 23/17 Q1021=
2025-09-12 13:00:00<>METAR SBGL 121300Z VRB03KT 9999 BKN025 BKN040 23/17 Q1021=
2025-09-12 14:00:00<>METAR SBGL 121400Z 12007KT 9999 BKN025 BKN050 23/16 Q1021=
2025-09-12 15:00:00<>METAR SBGL 121500Z 11003KT 9999 FEW020 OVC050 23/17 Q1020=
2025-09-12 16:00:00<>METAR SBGL 121600Z 15006KT 9999 FEW021 OVC050 23/16 Q1020=
2025-09-12 17:00:00<>METAR SBGL 121700Z 13004KT 9999 FEW040 23/16 Q1019=
2025-09-12 18:00:00<>METAR SBGL 121800Z 11007KT 9999 BKN045 OVC080 23/16 Q1019=
2025-09-12 19:00:00<>METAR SBGL 121900Z 12010KT 9999 BKN045 OVC080 23/16 Q1019=
2025-09-12 20:00:00<>METAR SBGL 122000Z 12009KT 9999 BKN040 22/16 Q1019=
2025-09-12 21:00:00<>METAR SBGL 122100Z 12007KT 9999 SCT025 BKN060 21/16 Q1020=
2025-09-12 22:00:00<>METAR SBGL 122200Z 14006KT 9999 BKN040 21/16 Q1020=
2025-09-12 23:00:00<>METAR SBGL 122300Z 13006KT 9999 BKN032 21/17 Q1021=
2025-09-13 00:00:00<>METAR SBGL 130000Z 13006KT 9999 BKN032 21/16 Q1021=
2025-09-13 01:00:00<>METAR SBGL 130100Z 13006KT 9999 FEW020 BKN032 21/16 Q1021=
2025-09-13 02:00:00<>METAR SBGL 130200Z 14006KT 9999 FEW020 BKN035 21/16 Q1021=
2025-09-13 03:00:00<>METAR SBGL 130300Z 12004KT 9999 FEW020 BKN035 21/16 Q1021=
2025-09-13 04:00:00<>METAR SBGL 130400Z 12003KT 9999 FEW020 BKN035 20/16 Q1021=
2025-09-13 05:00:00<>METAR SBGL 130500Z 13004KT 9999 BKN030 21/16 Q1020=
2025-09-13 06:00:00<>METAR SBGL 130600Z 03002KT 9999 BKN030 20/17 Q1020=
2025-09-13 07:00:00<>METAR SBGL 130700Z 01004KT 9999 FEW012 BKN020 OVC035 21/17 Q1020=
2025-09-13 08:00:00<>METAR SBGL 130800Z 34004KT 6000 -RA FEW012 BKN020 OVC035 20/16 Q1020=
2025-09-13 09:00:00<>METAR SBGL 130900Z 01003KT 6000 -RA FEW012 BKN018 OVC035 19/17 Q1020=
2025-09-13 10:00:00<>METAR SBGL 131000Z 14003KT 8000 FEW012 BKN025 OVC045 19/17 Q1021=
2025-09-13 11:00:00<>METAR SBGL 131100Z VRB02KT 9999 FEW012 BKN025 OVC045 20/17 Q1022=
2025-09-13 12:00:00<>METAR SBGL 131200Z 07006KT 9999 FEW015 BKN025 OVC045 20/17 Q1022=
2025-09-13 13:00:00<>METAR SBGL 131300Z 06008KT 9999 SCT020 OVC045 21/17 Q1022=
2025-09-13 14:00:00<>METAR SBGL 131400Z 05006KT 9999 SCT020 OVC045 21/16 Q1022=
2025-09-13 15:00:00<>METAR SBGL 131500Z 06004KT 9999 FEW020 OVC045 21/16 Q1022=
2025-09-13 16:00:00<>METAR SBGL 131600Z 08008KT 9999 FEW020 OVC045 21/15 Q1021=
2025-09-13 17:00:00<>METAR SBGL 131700Z 05004KT 9999 FEW025 OVC045 21/14 Q1020=
2025-09-13 18:00:00<>METAR SBGL 131800Z 08007KT 050V140 9999 FEW025 OVC045 21/14 Q1020=
2025-09-13 19:00:00<>METAR SBGL 131900Z 07009KT 9999 FEW025 OVC045 20/15 Q1020=
2025-09-13 20:00:00<>METAR SBGL 132000Z 02005KT 9999 FEW025 OVC045 21/14 Q1020=
2025-09-13 21:00:00<>METAR SBGL 132100Z 01003KT 340V090 9999 FEW025 OVC045 20/15 Q1021=
2025-09-13 22:00:00<>METAR SBGL 132200Z 07006KT 9999 FEW025 OVC045 20/15 Q1021=
2025-09-13 23:00:00<>METAR SBGL 132300Z 07007KT 9999 FEW025 OVC046 20/15 Q1022=
2025-09-14 00:00:00<>METAR SBGL 140000Z 16006KT 9999 FEW023 OVC043 20/15 Q1022=
2025-09-14 01:00:00<>METAR SBGL 140100Z 13008KT 9999 FEW023 OVC043 20/15 Q1022=
2025-09-14 02:00:00<>METAR SBGL 140200Z 13007KT 9999 FEW023 OVC040 20/16 Q1022=
2025-09-14 03:00:00<>METAR SBGL 140300Z 12009KT 9999 FEW015 OVC040 20/15 Q1022=
2025-09-14 04:00:00<>METAR SBGL 140400Z 14008KT 9999 FEW015 OVC040 19/15 Q1022=
2025-09-14 05:00:00<>METAR SBGL 140500Z 17008KT 9999 FEW015 OVC040 19/15 Q1021=
2025-09-14 06:00:00<>METAR SBGL 140600Z 15007KT 9999 FEW015 OVC040 19/15 Q1021=
2025-09-14 07:00:00<>METAR SBGL 140700Z 19007KT 8000 FEW015 OVC040 18/15 Q1021=
2025-09-14 08:00:00<>METAR SBGL 140800Z 32005KT 8000 FEW013 OVC043 19/16 Q1021=
2025-09-14 09:00:00<>METAR SBGL 140900Z 10003KT 8000 FEW013 BKN043 19/16 Q1022=
2025-09-14 10:00:00<>METAR SBGL 141000Z 04003KT 8000 FEW021 BKN043 20/16 Q1022=
2025-09-14 11:00:00<>METAR SBGL 141100Z 03004KT 340V060 9999 SCT015 BKN045 20/16 Q1022=
2025-09-14 12:00:00<>METAR SBGL 141200Z 01005KT 340V080 9999 SCT016 BKN045 21/16 Q1023=
2025-09-14 13:00:00<>METAR SBGL 141300Z 05006KT 350V100 9999 SCT020 BKN040 23/16 Q1023=
2025-09-14 14:00:00<>METAR SBGL 141400Z 02007KT 340V080 9999 FEW027 BKN040 23/16 Q1022=
2025-09-14 15:00:00<>METAR SBGL 141500Z 14006KT 100V170 9999 FEW027 BKN035 23/15 Q1021=
2025-09-14 16:00:00<>METAR SBGL 141600Z 14007KT 100V160 9999 FEW030 BKN045 24/15 Q1020=
2025-09-14 17:00:00<>METAR SBGL 141700Z 14009KT 110V170 9999 FEW030 BKN050 24/16 Q1019=
2025-09-14 18:00:00<>METAR SBGL 141800Z 14011KT 9999 SCT040 BKN060 23/16 Q1019=
2025-09-14 19:00:00<>METAR SBGL 141900Z 15012KT 9999 FEW020 BKN060 23/16 Q1019=
2025-09-14 20:00:00<>METAR SBGL 142000Z 14012KT 9999 FEW020 SCT040 BKN060 22/15 Q1019=
2025-09-14 21:00:00<>METAR SBGL 142100Z 14010KT 9999 FEW020 SCT040 BKN060 22/16 Q1020=
2025-09-14 22:00:00<>METAR SBGL 142200Z 12009KT 9999 BKN040 BKN070 22/15 Q1020=
2025-09-14 23:00:00<>METAR SBGL 142300Z 14006KT 9999 FEW030 BKN040 22/17 Q1020=
2025-09-15 00:00:00<>METAR SBGL 150000Z 11008KT 9999 FEW030 BKN040 21/15 Q1020=
2025-09-15 01:00:00<>METAR SBGL 150100Z 11006KT 9999 FEW030 BKN040 20/16 Q1020=
2025-09-15 02:00:00<>METAR SBGL 150200Z 11004KT 9999 FEW030 BKN040 20/16 Q1020=
2025-09-15 03:00:00<>METAR SBGL 150300Z 08002KT 9999 FEW030 BKN040 19/16 Q1020=
2025-09-15 04:00:00<>METAR SBGL 150400Z 14004KT 9999 FEW030 BKN040 19/17 Q1020=
2025-09-15 05:00:00<>METAR SBGL 150500Z 16002KT 9999 FEW030 BKN040 20/17 Q1020=
2025-09-15 06:00:00<>METAR SBGL 150600Z 09002KT 9999 FEW030 SCT040 18/16 Q1019=
2025-09-15 07:00:00<>METAR SBGL 150700Z VRB02KT 9999 FEW030 SCT040 18/16 Q1019=
2025-09-15 08:00:00<>METAR SBGL 150800Z 34002KT 9999 FEW030 SCT040 17/15 Q1019=
2025-09-15 09:00:00<>METAR SBGL 150900Z 33003KT 320V050 9999 FEW030 SCT040 18/16 Q1020=
2025-09-15 10:00:00<>METAR SBGL 151000Z 36003KT 8000 FEW020 SCT040 19/17 Q1020=
2025-09-15 11:00:00<>METAR SBGL 151100Z 04004KT 010V090 8000 FEW020 21/17 Q1020=
2025-09-15 12:00:00<>METAR SBGL 151200Z 01005KT CAVOK 22/17 Q1020=
2025-09-15 13:00:00<>METAR SBGL 151300Z VRB05KT CAVOK 25/18 Q1020=
2025-09-15 14:00:00<>METAR SBGL 151400Z VRB04KT 9999 FEW025 26/15 Q1019=
2025-09-15 15:00:00<>METAR SBGL 151500Z 12008KT 9999 FEW018 26/17 Q1018=
2025-09-15 16:00:00<>METAR SBGL 151600Z 13012KT 9999 FEW018 27/18 Q1017=
2025-09-15 17:00:00<>METAR SBGL 151700Z 14012KT 9999 FEW020 26/18 Q1016=
2025-09-15 18:00:00<>METAR SBGL 151800Z 16014KT 9999 FEW020 26/18 Q1015=
2025-09-15 19:00:00<>METAR SBGL 151900Z 15012KT 110V170 9999 FEW020 25/18 Q1016=
2025-09-15 20:00:00<>METAR SBGL 152000Z 15010KT 9999 FEW020 25/18 Q1016=
2025-09-15 21:00:00<>METAR SBGL 152100Z 14008KT 9999 FEW025 24/18 Q1016=
2025-09-15 22:00:00<>METAR SBGL 152200Z 11011KT CAVOK 24/17 Q1016=
2025-09-15 23:00:00<>METAR SBGL 152300Z 10012KT CAVOK 23/17 Q1017=
2025-09-16 00:00:00<>METAR SBGL 160000Z 10010KT CAVOK 22/18 Q1017=
2025-09-16 01:00:00<>METAR SBGL 160100Z 11008KT CAVOK 22/18 Q1018=
2025-09-16 02:00:00<>METAR SBGL 160200Z 11007KT CAVOK 21/18 Q1018=
2025-09-16 03:00:00<>METAR SBGL 160300Z 11006KT CAVOK 20/18 Q1017=
2025-09-16 04:00:00<>METAR SBGL 160400Z 10004KT CAVOK 20/18 Q1016=
2025-09-16 05:00:00<>METAR SBGL 160500Z 10004KT CAVOK 19/17 Q1016=
2025-09-16 06:00:00<>METAR SBGL 160600Z 11004KT 9999 FEW011 19/17 Q1015=
2025-09-16 07:00:00<>METAR SBGL 160700Z 11005KT 9999 BKN008 19/17 Q1015=
2025-09-16 08:00:00<>METAR SBGL 160800Z 11003KT 9999 BKN007 20/18 Q1015=
2025-09-16 09:00:00<>METAR SBGL 160900Z 11003KT 9999 BKN009 20/18 Q1015=
2025-09-16 09:31:00<>SPECI SBGL 160931Z VRB02KT 9999 SCT009 20/18 Q1016=
2025-09-16 10:00:00<>METAR SBGL 161000Z 10003KT 9999 FEW009 21/18 Q1016=
2025-09-16 11:00:00<>METAR SBGL 161100Z 36004KT 320V030 9999 FEW015 22/18 Q1016=
2025-09-16 12:00:00<>METAR SBGL 161200Z VRB02KT CAVOK 24/18 Q1016=
2025-09-16 13:00:00<>METAR SBGL 161300Z 35005KT 310V020 CAVOK 25/18 Q1015=
2025-09-16 14:00:00<>METAR SBGL 161400Z 01005KT 320V050 CAVOK 27/18 Q1014=
2025-09-16 15:00:00<>METAR SBGL 161500Z 11006KT 080V160 CAVOK 28/16 Q1013=
2025-09-16 16:00:00<>METAR SBGL 161600Z VRB04KT CAVOK 30/14 Q1012=
2025-09-16 17:00:00<>METAR SBGL 161700Z 35004KT 310V010 9999 FEW030 31/15 Q1012=
2025-09-16 18:00:00<>METAR SBGL 161800Z 13010KT 9999 FEW030 BKN100 27/17 Q1011=
2025-09-16 19:00:00<>METAR SBGL 161900Z 15010KT 9999 FEW020 BKN100 27/17 Q1012=
2025-09-16 19:22:00<>SPECI SBGL 161922Z 26010KT 4500 RA HZ FEW010TCU BKN060 24/18 Q1013=
2025-09-16 20:00:00<>METAR SBGL 162000Z 26012KT 8000 FEW020 BKN060 23/19 Q1013 RERA=
2025-09-16 21:00:00<>METAR SBGL 162100Z 26011KT 4500 TSRA BR FEW020CB OVC040 22/18 Q1015=
2025-09-16 22:00:00<>METAR SBGL 162200Z 31006KT 290V360 4500 -RA BR BKN020 OVC030 21/19 Q1015 RETSRA=
2025-09-16 23:00:00<>METAR SBGL 162300Z 01011KT 7000 -RA BKN020 OVC100 21/19 Q1014=
2025-09-17 00:00:00<>METAR SBGL 170000Z 15003KT 8000 BKN046 OVC100 22/19 Q1014=
2025-09-17 01:00:00<>METAR SBGL 170100Z 12003KT 8000 SCT009 OVC100 21/19 Q1014=
2025-09-17 02:00:00<>METAR SBGL 170200Z 32003KT 8000 SCT011 BKN080 21/19 Q1014=
2025-09-17 03:00:00<>METAR SBGL 170300Z 25002KT 7000 SCT017 BKN080 21/19 Q1014=
2025-09-17 04:00:00<>METAR SBGL 170400Z 23007KT 7000 SCT017 BKN083 21/19 Q1013=
2025-09-17 05:00:00<>METAR SBGL 170500Z 27006KT 7000 SCT017 BKN083 21/19 Q1013=
2025-09-17 06:00:00<>METAR SBGL 170600Z 31006KT 7000 SCT017 BKN083 21/19 Q1013=
2025-09-17 07:00:00<>METAR SBGL 170700Z 28005KT 7000 SCT017 BKN083 20/18 Q1012=
2025-09-17 08:00:00<>METAR SBGL 170800Z 26008KT 8000 FEW017 BKN080 21/18 Q1013=
2025-09-17 09:00:00<>METAR SBGL 170900Z 24007KT 7000 FEW023 BKN080 21/18 Q1015=
2025-09-17 10:00:00<>METAR SBGL 171000Z 28004KT 8000 FEW023 BKN083 22/18 Q1016=
2025-09-17 11:00:00<>METAR SBGL 171100Z 27006KT 8000 SCT020 BKN080 23/18 Q1016=
2025-09-17 12:00:00<>METAR SBGL 171200Z 28004KT 9999 SCT020 BKN070 24/18 Q1017=
2025-09-17 13:00:00<>METAR SBGL 171300Z 30005KT 9999 SCT025 BKN050 25/16 Q1017=
2025-09-17 14:00:00<>METAR SBGL 171400Z 26006KT 9999 SCT025 BKN045 26/16 Q1017=
2025-09-17 15:00:00<>METAR SBGL 171500Z 28003KT 9999 FEW025 SCT045 27/15 Q1016=
2025-09-17 16:00:00<>METAR SBGL 171600Z 14007KT 9999 SCT040 27/16 Q1015=
2025-09-17 17:00:00<>METAR SBGL 171700Z 12010KT 9999 SCT035 26/17 Q1014=
2025-09-17 18:00:00<>METAR SBGL 171800Z 13005KT 9999 FEW040 28/15 Q1013=
2025-09-17 19:00:00<>METAR SBGL 171900Z 21016KT 9999 FEW040 25/17 Q1014=
2025-09-17 20:00:00<>METAR SBGL 172000Z 21015KT 9999 FEW040 25/16 Q1015=
2025-09-17 21:00:00<>METAR SBGL 172100Z 23010KT 9999 SCT040 24/16 Q1016=
2025-09-17 22:00:00<>METAR SBGL 172200Z 23013KT 9999 FEW030 23/16 Q1016=
2025-09-17 23:00:00<>METAR SBGL 172300Z 27014KT 9999 BKN025 23/18 Q1017=
2025-09-18 00:00:00<>METAR SBGL 180000Z 23011KT 9999 SCT015 BKN020 22/18 Q1018=
2025-09-18 01:00:00<>METAR SBGL 180100Z 24007KT 9999 SCT018 BKN025 22/18 Q1019=
2025-09-18 02:00:00<>METAR SBGL 180200Z 29007KT 9999 SCT020 BKN025 22/18 Q1018=
2025-09-18 03:00:00<>METAR SBGL 180300Z 27007KT 9999 FEW020 BKN025 21/17 Q1018=
2025-09-18 04:00:00<>METAR SBGL 180400Z 29006KT 9999 FEW020 21/17 Q1017=
2025-09-18 05:00:00<>METAR SBGL 180500Z 20008KT 9999 FEW020 21/17 Q1017=
2025-09-18 06:00:00<>METAR SBGL 180600Z 26007KT 9999 FEW025 20/17 Q1016=
2025-09-18 07:00:00<>METAR SBGL 180700Z 29005KT 9999 FEW025 20/17 Q1017=
2025-09-18 08:00:00<>METAR SBGL 180800Z 31006KT 9999 FEW025 20/17 Q1017=
2025-09-18 09:00:00<>METAR SBGL 180900Z 28005KT 9999 BKN035 20/17 Q1018=
2025-09-18 10:00:00<>METAR SBGL 181000Z 33005KT 9999 FEW020 BKN035 21/17 Q1018=
2025-09-18 11:00:00<>METAR SBGL 181100Z 33004KT 9999 FEW020 BKN040 23/16 Q1019=
2025-09-18 12:00:00<>METAR SBGL 181200Z 02004KT 330V070 9999 FEW020 BKN035 23/16 Q1019=
2025-09-18 13:00:00<>METAR SBGL 181300Z 36004KT 320V040 9999 FEW020 BKN035 25/15 Q1019=
2025-09-18 14:00:00<>METAR SBGL 181400Z 24005KT 150V320 9999 FEW020 BKN035 28/16 Q1019=
2025-09-18 15:00:00<>METAR SBGL 181500Z VRB03KT 9999 SCT035 27/15 Q1018=
2025-09-18 16:00:00<>METAR SBGL 181600Z 11011KT 9999 SCT035 27/16 Q1017=
2025-09-18 17:00:00<>METAR SBGL 181700Z 12012KT 9999 SCT035 26/16 Q1016=
2025-09-18 18:00:00<>METAR SBGL 181800Z 12011KT 9999 SCT035 27/16 Q1016=
2025-09-18 19:00:00<>METAR SBGL 181900Z 14011KT 9999 SCT035 26/16 Q1016=
2025-09-18 20:00:00<>METAR SBGL 182000Z 13011KT 9999 SCT035 24/17 Q1016=
2025-09-18 21:00:00<>METAR SBGL 182100Z 12007KT 9999 BKN040 23/18 Q1017=
2025-09-18 22:00:00<>METAR SBGL 182200Z 12006KT 090V150 9999 BKN040 22/18 Q1018=
2025-09-18 23:00:00<>METAR SBGL 182300Z 12006KT 9999 SCT030 21/18 Q1018=
2025-09-19 00:00:00<>METAR SBGL 190000Z 13005KT 9999 SCT030 22/17 Q1019=
2025-09-19 01:00:00<>METAR SBGL 190100Z 13004KT 9999 SCT030 22/17 Q1019=
2025-09-19 02:00:00<>METAR SBGL 190200Z 13003KT 9999 SCT030 21/17 Q1019=
2025-09-19 03:00:00<>METAR SBGL 190300Z 14002KT 9999 FEW030 21/17 Q1019=
2025-09-19 04:00:00<>METAR SBGL 190400Z 12002KT 9999 FEW026 20/17 Q1018=
2025-09-19 05:00:00<>METAR SBGL 190500Z 09001KT 9999 FEW026 20/17 Q1018=
2025-09-19 06:00:00<>METAR SBGL 190600Z 08002KT 9999 FEW026 19/17 Q1017=
2025-09-19 07:00:00<>METAR SBGL 190700Z 07002KT CAVOK 19/17 Q1017=
2025-09-19 08:00:00<>METAR SBGL 190800Z 13001KT 9999 FEW015 19/17 Q1017=
2025-09-19 09:00:00<>METAR SBGL 190900Z 10002KT 8000 FEW011 19/17 Q1018=
2025-09-19 10:00:00<>METAR SBGL 191000Z 08003KT 7000 FEW008 21/19 Q1018=
2025-09-19 11:00:00<>METAR SBGL 191100Z 01004KT 330V050 8000 BKN010 22/19 Q1019=
2025-09-19 11:34:00<>SPECI SBGL 191134Z VRB02KT 8000 FEW008 23/19 Q1019=
2025-09-19 12:00:00<>METAR SBGL 191200Z VRB02KT 8000 FEW008 24/18 Q1019=
2025-09-19 13:00:00<>METAR SBGL 191300Z 04006KT 360V080 8000 FEW010 25/19 Q1018=
2025-09-19 14:00:00<>METAR SBGL 191400Z 06005KT 330V130 8000 FEW015 28/19 Q1017=
2025-09-19 15:00:00<>METAR SBGL 191500Z 07009KT 9999 FEW020 29/18 Q1016=
2025-09-19 16:00:00<>METAR SBGL 191600Z 11009KT 090V160 9999 FEW020 30/18 Q1015=
2025-09-19 17:00:00<>METAR SBGL 191700Z 14009KT 9999 FEW020 31/16 Q1014=
2025-09-19 18:00:00<>METAR SBGL 191800Z 13010KT 9999 FEW020 28/18 Q1014=
2025-09-19 19:00:00<>METAR SBGL 191900Z 14010KT 9999 FEW020 28/19 Q1014=
2025-09-19 20:00:00<>METAR SBGL 192000Z 13008KT CAVOK 27/19 Q1013=
2025-09-19 21:00:00<>METAR SBGL 192100Z 14007KT CAVOK 26/19 Q1013=
2025-09-19 22:00:00<>METAR SBGL 192200Z 10007KT CAVOK 26/20 Q1014=
2025-09-19 23:00:00<>METAR SBGL 192300Z 10006KT CAVOK 26/20 Q1014=
2025-09-20 00:00:00<>METAR SBGL 200000Z 11003KT CAVOK 25/19 Q1015=
2025-09-20 01:00:00<>METAR SBGL 200100Z 09005KT CAVOK 24/19 Q1015=
2025-09-20 02:00:00<>METAR SBGL 200200Z 10004KT CAVOK 23/19 Q1014=
2025-09-20 03:00:00<>METAR SBGL 200300Z 15002KT CAVOK 23/19 Q1014=
2025-09-20 04:00:00<>METAR SBGL 200400Z 12003KT CAVOK 22/18 Q1014=
2025-09-20 05:00:00<>METAR SBGL 200500Z 17003KT CAVOK 21/18 Q1013=
2025-09-20 06:00:00<>METAR SBGL 200600Z 13002KT CAVOK 21/18 Q1013=
2025-09-20 07:00:00<>METAR SBGL 200700Z 01002KT CAVOK 21/18 Q1013=
2025-09-20 08:00:00<>METAR SBGL 200800Z VRB02KT CAVOK 20/18 Q1013=
2025-09-20 09:00:00<>METAR SBGL 200900Z 07004KT CAVOK 20/18 Q1013=
2025-09-20 10:00:00<>METAR SBGL 201000Z 16002KT CAVOK 23/19 Q1014=
2025-09-20 11:00:00<>METAR SBGL 201100Z 06004KT 010V100 CAVOK 27/19 Q1014=
2025-09-20 12:00:00<>METAR SBGL 201200Z 36004KT 300V070 CAVOK 29/18 Q1014=
2025-09-20 13:00:00<>METAR SBGL 201300Z VRB03KT CAVOK 32/17 Q1013=
2025-09-20 14:00:00<>METAR SBGL 201400Z 33005KT 280V030 CAVOK 33/16 Q1013=
2025-09-20 15:00:00<>METAR SBGL 201500Z 11010KT CAVOK 32/18 Q1012=
2025-09-20 16:00:00<>METAR SBGL 201600Z 13012KT CAVOK 29/19 Q1011=
2025-09-20 17:00:00<>METAR SBGL 201700Z 13012KT CAVOK 29/19 Q1010=
2025-09-20 18:00:00<>METAR SBGL 201800Z 13013KT CAVOK 29/19 Q1010=
2025-09-20 19:00:00<>METAR SBGL 201900Z 13012KT CAVOK 29/18 Q1010=
2025-09-20 20:00:00<>METAR SBGL 202000Z 14010KT CAVOK 28/18 Q1010=
2025-09-20 21:00:00<>METAR SBGL 202100Z VRB02KT CAVOK 26/19 Q1010=
2025-09-20 22:00:00<>METAR SBGL 202200Z 25008KT 9999 VCTS FEW040 FEW045CB 26/19 Q1011=
2025-09-20 23:00:00<>METAR SBGL 202300Z 27006KT 9999 TS FEW040 FEW045CB BKN100 26/20 Q1012=
2025-09-21 00:00:00<>METAR SBGL 210000Z 26010KT 9999 TS FEW040 FEW045CB BKN100 25/19 Q1013=
2025-09-21 01:00:00<>METAR SBGL 210100Z 25006KT 9999 TS FEW040 FEW045CB BKN100 25/19 Q1013=
2025-09-21 02:00:00<>METAR SBGL 210200Z 24004KT 9999 FEW040 BKN100 26/19 Q1012 RETS=
2025-09-21 03:00:00<>METAR SBGL 210300Z 36004KT 340V050 9999 FEW040 BKN100 24/20 Q1012=
2025-09-21 04:00:00<>METAR SBGL 210400Z 03005KT 9999 FEW040 BKN100 23/20 Q1011=
2025-09-21 05:00:00<>METAR SBGL 210500Z 09002KT 9999 FEW008 BKN100 22/19 Q1010=
2025-09-21 06:00:00<>METAR SBGL 210600Z 04001KT 9999 FEW008 BKN100 23/20 Q1010=
2025-09-21 07:00:00<>METAR SBGL 210700Z 12001KT 9999 FEW008 BKN100 22/19 Q1009=
2025-09-21 08:00:00<>METAR SBGL 210800Z 07004KT 9999 FEW008 BKN100 22/19 Q1009=
2025-09-21 09:00:00<>METAR SBGL 210900Z 04002KT 8000 FEW008 SCT100 22/19 Q1009=
2025-09-21 10:00:00<>METAR SBGL 211000Z 10001KT 9999 FEW008 SCT100 25/21 Q1009=
2025-09-21 11:00:00<>METAR SBGL 211100Z VRB02KT CAVOK 29/19 Q1010=
2025-09-21 12:00:00<>METAR SBGL 211200Z 32003KT 280V020 CAVOK 31/19 Q1009=
2025-09-21 13:00:00<>METAR SBGL 211300Z 36004KT 320V060 CAVOK 34/17 Q1008=
2025-09-21 14:00:00<>METAR SBGL 211400Z 34011KT 310V010 CAVOK 36/16 Q1008=
2025-09-21 15:00:00<>METAR SBGL 211500Z 33010KT 300V010 CAVOK 37/17 Q1007=
2025-09-21 16:00:00<>METAR SBGL 211600Z 32010KT 300V360 CAVOK 38/18 Q1006=
2025-09-21 17:00:00<>METAR SBGL 211700Z 32012KT CAVOK 37/17 Q1005=
2025-09-21 18:00:00<>METAR SBGL 211800Z 32007KT 9999 FEW035 37/18 Q1005=
2025-09-21 19:00:00<>METAR SBGL 211900Z 01004KT 9999 FEW035 37/17 Q1004=
2025-09-21 20:00:00<>METAR SBGL 212000Z 07008KT 9999 FEW045 36/17 Q1005=
2025-09-21 21:00:00<>METAR SBGL 212100Z 14005KT CAVOK 32/18 Q1005=
2025-09-21 22:00:00<>METAR SBGL 212200Z 15004KT CAVOK 30/19 Q1005=
2025-09-21 23:00:00<>METAR SBGL 212300Z 09005KT CAVOK 30/19 Q1006=
2025-09-22 00:00:00<>METAR SBGL 220000Z 05005KT CAVOK 31/19 Q1006=
2025-09-22 01:00:00<>METAR SBGL 220100Z 05008KT 020V080 CAVOK 31/19 Q1007=
2025-09-22 02:00:00<>METAR SBGL 220200Z 10003KT 060V150 CAVOK 30/19 Q1006=
2025-09-22 03:00:00<>METAR SBGL 220300Z 16003KT 080V230 CAVOK 28/19 Q1006=
2025-09-22 03:27:00<>SPECI SBGL 220327Z 24015G27KT CAVOK 30/18 Q1007=
2025-09-22 04:00:00<>METAR SBGL 220400Z 25017KT CAVOK 28/20 Q1007=
2025-09-22 05:00:00<>METAR SBGL 220500Z 25017KT CAVOK 26/20 Q1008=
2025-09-22 06:00:00<>METAR SBGL 220600Z 26011KT CAVOK 25/20 Q1007=
2025-09-22 07:00:00<>METAR SBGL 220700Z 27007KT CAVOK 25/20 Q1007=
2025-09-22 08:00:00<>METAR SBGL 220800Z 27006KT CAVOK 24/20 Q1007=
2025-09-22 09:00:00<>METAR SBGL 220900Z 27007KT 9000 NSC 24/20 Q1007=
2025-09-22 10:00:00<>METAR SBGL 221000Z 23003KT 130V290 CAVOK 25/20 Q1006=
2025-09-22 11:00:00<>METAR SBGL 221100Z 12004KT 9000 NSC 27/20 Q1006=
2025-09-22 12:00:00<>METAR SBGL 221200Z 13007KT 9000 NSC 28/21 Q1006=
2025-09-22 13:00:00<>METAR SBGL 221300Z 16005KT 080V200 9999 FEW040 31/20 Q1005=
2025-09-22 14:00:00<>METAR SBGL 221400Z 08004KT 020V170 9999 FEW040 35/18 Q1005=
2025-09-22 15:00:00<>METAR SBGL 221500Z VRB04KT 9999 FEW040 36/16 Q1004=
2025-09-22 16:00:00<>METAR SBGL 221600Z 32009KT 290V020 9999 FEW040 BKN100 37/18 Q1003=
2025-09-22 17:00:00<>METAR SBGL 221700Z 01004KT 9999 FEW030 BKN100 36/17 Q1003=
2025-09-22 18:00:00<>METAR SBGL 221800Z 35014KT 9999 SCT030 BKN100 30/20 Q1003=
2025-09-22 19:00:00<>METAR SBGL 221900Z 23020KT 9000 VCSH BKN030 OVC100 27/20 Q1006=
2025-09-22 20:00:00<>METAR SBGL 222000Z 25014KT 3000 RA BKN030 OVC100 25/21 Q1009=
2025-09-22 21:00:00<>METAR SBGL 222100Z 21006KT 6000 -RA BKN030 OVC100 24/22 Q1010 RERA=
2025-09-22 22:00:00<>METAR SBGL 222200Z 22013KT 9000 BKN030 24/20 Q1011=
2025-09-22 23:00:00<>METAR SBGL 222300Z 27010KT 7000 -RA BKN030 24/21 Q1012=
2025-09-23 00:00:00<>METAR SBGL 230000Z 33007KT 6000 -RA BKN030 23/21 Q1012=
2025-09-23 01:00:00<>METAR SBGL 230100Z 19005KT 6000 -RA OVC030 23/22 Q1011=
2025-09-23 02:00:00<>METAR SBGL 230200Z 34004KT 6000 VCSH FEW008 BKN030 23/21 Q1010=
2025-09-23 03:00:00<>METAR SBGL 230300Z 06002KT 6000 FEW008 BKN030 23/22 Q1012=
2025-09-23 04:00:00<>METAR SBGL 230400Z 21002KT 6000 FEW008 BKN035 23/22 Q1013=
2025-09-23 05:00:00<>METAR SBGL 230500Z 30005KT 7000 BKN035 24/21 Q1013=
2025-09-23 06:00:00<>METAR SBGL 230600Z 22015KT 9999 FEW025 BKN035 24/19 Q1015=
2025-09-23 07:00:00<>METAR SBGL 230700Z 20008KT 6000 -RA FEW025 BKN030 22/20 Q1015=
2025-09-23 08:00:00<>METAR SBGL 230800Z 18009KT 8000 VCSH FEW008 BKN020 OVC030 22/18 Q1016=
2025-09-23 09:00:00<>METAR SBGL 230900Z 20004KT 9999 FEW008 BKN020 OVC040 21/18 Q1017=
2025-09-23 10:00:00<>METAR SBGL 231000Z 21005KT 9999 FEW008 BKN020 OVC035 21/17 Q1018=
2025-09-23 11:00:00<>METAR SBGL 231100Z VRB03KT 9999 FEW024 BKN028 OVC035 21/18 Q1019=
2025-09-23 12:00:00<>METAR SBGL 231200Z 10004KT 9999 BKN027 OVC035 21/17 Q1020=
2025-09-23 13:00:00<>METAR SBGL 231300Z 26007KT 9999 BKN020 OVC035 21/17 Q1021=
2025-09-23 14:00:00<>METAR SBGL 231400Z 35005KT 9999 BKN028 OVC035 22/17 Q1021=
2025-09-23 15:00:00<>METAR SBGL 231500Z 06004KT 010V110 9999 BKN028 OVC035 22/17 Q1021=
2025-09-23 16:00:00<>METAR SBGL 231600Z 21005KT 8000 VCSH FEW018 OVC035 22/14 Q1021=
2025-09-23 17:00:00<>METAR SBGL 231700Z VRB02KT 9999 FEW020 OVC040 22/14 Q1021=
2025-09-23 18:00:00<>METAR SBGL 231800Z VRB04KT 9999 FEW020 OVC045 23/14 Q1021=
2025-09-23 19:00:00<>METAR SBGL 231900Z 13007KT 9999 FEW020 OVC050 22/14 Q1022=
2025-09-23 20:00:00<>METAR SBGL 232000Z 13008KT 9999 FEW020 OVC050 22/14 Q1022=
2025-09-23 21:00:00<>METAR SBGL 232100Z 14005KT 9999 FEW020 OVC060 22/14 Q1022=
2025-09-23 22:00:00<>METAR SBGL 232200Z 13007KT 9999 FEW020 OVC060 22/14 Q1023=
2025-09-23 23:00:00<>METAR SBGL 232300Z 12007KT 9999 FEW030 BKN060 21/14 Q1023=
2025-09-24 00:00:00<>METAR SBGL 240000Z 13007KT 9999 FEW030 BKN060 22/14 Q1024=
2025-09-24 01:00:00<>METAR SBGL 240100Z 09007KT 9999 FEW025 BKN060 21/15 Q1025=
2025-09-24 02:00:00<>METAR SBGL 240200Z 09005KT 9999 FEW020 BKN045 21/16 Q1025=
2025-09-24 03:00:00<>METAR SBGL 240300Z 10005KT 9999 FEW020 BKN045 20/16 Q1025=
2025-09-24 04:00:00<>METAR SBGL 240400Z 13004KT 9999 OVC045 20/16 Q1024=
2025-09-24 05:00:00<>METAR SBGL 240500Z 11003KT 9999 BKN045 20/16 Q1023=
2025-09-24 06:00:00<>METAR SBGL 240600Z 10005KT 9999 BKN045 20/16 Q1023=
2025-09-24 07:00:00<>METAR SBGL 240700Z 12004KT 9999 BKN045 20/16 Q1023=
2025-09-24 08:00:00<>METAR SBGL 240800Z 12004KT 9999 BKN045 20/16 Q1024=
2025-09-24 09:00:00<>METAR SBGL 240900Z 10004KT 9999 OVC045 20/16 Q1025=
2025-09-24 10:00:00<>METAR SBGL 241000Z 08004KT 9999 OVC048 21/16 Q1026=
2025-09-24 11:00:00<>METAR SBGL 241100Z 36004KT 320V040 9999 FEW023 OVC050 22/17 Q1027=
2025-09-24 12:00:00<>METAR SBGL 241200Z VRB02KT 9999 FEW023 OVC050 22/16 Q1027=
2025-09-24 13:00:00<>METAR SBGL 241300Z 36004KT 310V070 9999 SCT026 OVC050 23/16 Q1027=
2025-09-24 14:00:00<>METAR SBGL 241400Z 13005KT 100V160 9999 SCT026 SCT040 OVC050 23/16 Q1027=
2025-09-24 15:00:00<>METAR SBGL 241500Z 15008KT 110V170 9999 BKN033 OVC050 23/15 Q1027=
2025-09-24 16:00:00<>METAR SBGL 241600Z 15010KT 9999 BKN033 OVC050 22/14 Q1026=
2025-09-24 17:00:00<>METAR SBGL 241700Z 14009KT 9999 FEW028 OVC035 22/16 Q1026=
2025-09-24 18:00:00<>METAR SBGL 241800Z 14009KT 9999 FEW025 OVC035 22/15 Q1026=
2025-09-24 19:00:00<>METAR SBGL 241900Z 12009KT 4000 -RA HZ BKN020 OVC030 21/16 Q1026=
2025-09-24 20:00:00<>METAR SBGL 242000Z 14009KT 3000 -RA BR BKN018 OVC030 20/17 Q1027=
2025-09-24 21:00:00<>METAR SBGL 242100Z 14006KT 3000 -RA BR BKN018 OVC030 19/16 Q1027=
2025-09-24 21:40:00<>SPECI SBGL 242140Z 13005KT 8000 -RA FEW017 OVC027 19/17 Q1028=
2025-09-24 22:00:00<>METAR SBGL 242200Z 13008KT 7000 -RA FEW016 OVC031 19/17 Q1028=
2025-09-24 23:00:00<>METAR SBGL 242300Z 07004KT 010V100 8000 -RA SCT016 OVC025 20/17 Q1028=
2025-09-25 00:00:00<>METAR SBGL 250000Z 09006KT 9000 SCT014 OVC040 19/17 Q1029=
2025-09-25 01:00:00<>METAR SBGL 250100Z 11007KT 9999 SCT025 OVC035 20/15 Q1029=
2025-09-25 02:00:00<>METAR SBGL 250200Z 10005KT 9999 FEW016 SCT025 OVC035 19/16 Q1029=
2025-09-25 03:00:00<>METAR SBGL 250300Z 02004KT 340V070 5000 -RA BR BKN014 OVC025 19/17 Q1019=
2025-09-25 04:00:00<>METAR SBGL 250400Z 11007KT 060V150 4000 -RA BR BKN007 OVC015 18/17 Q1028=
2025-09-25 05:00:00<>METAR SBGL 250500Z VRB02KT 8000 FEW005 BKN020 OVC035 18/16 Q1027=
2025-09-25 06:00:00<>METAR SBGL 250600Z 13003KT 080V220 4000 -RA BR FEW005 BKN014 OVC025 18/16 Q1027=
2025-09-25 07:00:00<>METAR SBGL 250700Z VRB02KT 4000 -RA FEW005 BKN014 OVC025 18/16 Q1026=
2025-09-25 08:00:00<>METAR SBGL 250800Z 06004KT 3500 -RA BR FEW005 BKN014 OVC025 18/17 Q1027=
2025-09-25 09:00:00<>METAR SBGL 250900Z 07006KT 8000 BKN014 BKN035 OVC045 18/16 Q1027=
2025-09-25 10:00:00<>METAR SBGL 251000Z 09009KT 050V200 2000 -RA BR BKN007 OVC030 18/16 Q1028=
2025-09-25 11:00:00<>METAR SBGL 251100Z 10007KT 6000 -RA BKN008 OVC035 18/16 Q1029=
2025-09-25 12:00:00<>METAR SBGL 251200Z 07005KT 8000 SCT008 OVC030 19/16 Q1029=
2025-09-25 13:00:00<>METAR SBGL 251300Z 05005KT 9999 SCT010 OVC030 20/16 Q1029=
2025-09-25 14:00:00<>METAR SBGL 251400Z 01004KT 9999 SCT015 OVC030 20/15 Q1029=
2025-09-25 15:00:00<>METAR SBGL 251500Z 08010KT 4000 -RA SCT015 OVC020 19/16 Q1029=
2025-09-25 16:00:00<>METAR SBGL 251600Z 13005KT 7000 FEW009 SCT015 OVC030 19/16 Q1028=
2025-09-25 17:00:00<>METAR SBGL 251700Z 04006KT 350V060 9999 FEW015 SCT025 OVC050 19/16 Q1027=
2025-09-25 18:00:00<>METAR SBGL 251800Z 02004KT 350V050 9999 FEW015 SCT025 OVC050 19/15 Q1027=
2025-09-25 19:00:00<>METAR SBGL 251900Z 01006KT 340V050 9999 FEW015 BKN025 OVC050 19/15 Q1027=
2025-09-25 20:00:00<>METAR SBGL 252000Z 01006KT 340V050 9999 VCSH FEW015 BKN025 OVC043 20/14 Q1027=
2025-09-25 20:15:00<>SPECI SBGL 252015Z 36003KT 330V030 7000 3000SW RA FEW015 BKN025 OVC043 20/15 Q1027=
2025-09-25 21:00:00<>METAR SBGL 252100Z VRB01KT 9000 -RA FEW015 BKN020 OVC043 18/15 Q1028 RERA=
2025-09-25 22:00:00<>METAR SBGL 252200Z VRB02KT 9999 -RA SCT020 BKN030 OVC050 18/16 Q1028=
2025-09-25 23:00:00<>METAR SBGL 252300Z VRB02KT 9999 -RA FEW013 OVC070 18/16 Q1029=
2025-09-26 00:00:00<>METAR SBGL 260000Z 35005KT 330V040 7000 -RA FEW008 BKN019 OVC040 18/16 Q1029=
2025-09-26 01:00:00<>METAR SBGL 260100Z 27004KT 2000 RA BR BKN007 OVC040 18/16 Q1029=
2025-09-26 01:47:00<>SPECI SBGL 260147Z 11007KT 4000 -RA BR BKN007 OVC040 17/15 Q1029 RERA=
2025-09-26 02:00:00<>METAR SBGL 260200Z 10007KT 7000 -RA BKN007 OVC040 17/15 Q1029=
2025-09-26 02:29:00<>SPECI SBGL 260229Z 10003KT 7000 -RA FEW007 SCT040 OVC070 17/15 Q1029=
2025-09-26 03:00:00<>METAR SBGL 260300Z 09007KT 7000 FEW021 OVC035 17/15 Q1028=
2025-09-26 04:00:00<>METAR SBGL 260400Z 09004KT 8000 FEW021 OVC035 17/15 Q1028=
2025-09-26 05:00:00<>METAR SBGL 260500Z 13003KT 2500 -RA BR BKN009 OVC020 17/15 Q1027=
2025-09-26 05:35:00<>SPECI SBGL 260535Z 08004KT 7000 -RA BKN010 OVC035 17/15 Q1027=
2025-09-26 06:00:00<>METAR SBGL 260600Z 07002KT 7000 -RA FEW013 OVC040 17/15 Q1027=
2025-09-26 07:00:00<>METAR SBGL 260700Z 11003KT 7000 BKN010 BKN025 OVC040 17/15 Q1027=
2025-09-26 07:17:00<>SPECI SBGL 260717Z 16005KT 2500 RA BR BKN009 BKN025 OVC040 16/15 Q1027=
2025-09-26 08:00:00<>METAR SBGL 260800Z 06006KT 5000 -RA BR FEW007 OVC040 16/15 Q1027 RERA=
2025-09-26 09:00:00<>METAR SBGL 260900Z 05004KT 7000 -RA FEW010 OVC040 16/15 Q1027=
2025-09-26 10:00:00<>METAR SBGL 261000Z 02005KT 8000 FEW010 OVC050 17/14 Q1028=
2025-09-26 11:00:00<>METAR SBGL 261100Z VRB02KT 9999 FEW013 BKN060 18/15 Q1028=
2025-09-26 12:00:00<>METAR SBGL 261200Z 06006KT 020V090 9999 SCT018 BKN045 20/13 Q1028=
2025-09-26 13:00:00<>METAR SBGL 261300Z 06009KT 020V100 9999 FEW020 BKN035 21/12 Q1028=
2025-09-26 14:00:00<>METAR SBGL 261400Z 02008KT 9999 SCT025 BKN040 21/11 Q1027=
2025-09-26 15:00:00<>METAR SBGL 261500Z 04008KT 9999 FEW030 BKN060 21/11 Q1026=
2025-09-26 16:00:00<>METAR SBGL 261600Z 13009KT 9999 FEW030 BKN060 22/12 Q1026=
2025-09-26 17:00:00<>METAR SBGL 261700Z 14010KT 9999 FEW030 BKN060 22/11 Q1025=
2025-09-26 18:00:00<>METAR SBGL 261800Z 15012KT 9999 FEW030 BKN070 22/11 Q1024=
2025-09-26 19:00:00<>METAR SBGL 261900Z 15012KT 9999 FEW030 SCT070 22/11 Q1024=
2025-09-26 20:00:00<>METAR SBGL 262000Z 14011KT 9999 FEW030 SCT070 21/10 Q1024=
2025-09-26 21:00:00<>METAR SBGL 262100Z 14010KT 9999 FEW040 SCT070 20/11 Q1024=
2025-09-26 22:00:00<>METAR SBGL 262200Z 12008KT CAVOK 19/11 Q1025=
2025-09-26 23:00:00<>METAR SBGL 262300Z 11007KT 9999 SCT048 19/11 Q1025=
2025-09-27 00:00:00<>METAR SBGL 270000Z 10006KT 9999 BKN048 19/11 Q1026=
2025-09-27 01:00:00<>METAR SBGL 270100Z 10006KT 9999 BKN048 19/11 Q1026=
2025-09-27 02:00:00<>METAR SBGL 270200Z 10007KT 9999 SCT048 BKN066 19/10 Q1026=
2025-09-27 03:00:00<>METAR SBGL 270300Z 10007KT 9999 FEW048 BKN066 18/10 Q1026=
2025-09-27 04:00:00<>METAR SBGL 270400Z 09004KT 9999 FEW020 BKN066 17/11 Q1025=
2025-09-27 05:00:00<>METAR SBGL 270500Z 09006KT 9999 SCT048 BKN066 17/11 Q1025=
2025-09-27 06:00:00<>METAR SBGL 270600Z 08004KT 9999 FEW048 BKN066 17/11 Q1024=
2025-09-27 07:00:00<>METAR SBGL 270700Z 10005KT 9999 FEW048 BKN066 17/12 Q1024=
2025-09-27 08:00:00<>METAR SBGL 270800Z 10004KT 9999 FEW020 BKN066 17/12 Q1024=
2025-09-27 09:00:00<>METAR SBGL 270900Z 09004KT 9999 FEW020 BKN066 17/12 Q1025=
2025-09-27 10:00:00<>METAR SBGL 271000Z 06005KT 9999 FEW020 BKN066 19/13 Q1025=
2025-09-27 11:00:00<>METAR SBGL 271100Z 06007KT 9999 FEW020 BKN070 20/13 Q1026=
2025-09-27 12:00:00<>METAR SBGL 271200Z 04006KT 9999 FEW020 SCT070 21/12 Q1026=
2025-09-27 13:00:00<>METAR SBGL 271300Z 07007KT 9999 FEW020 SCT070 22/10 Q1025=
2025-09-27 14:00:00<>METAR SBGL 271400Z 11007KT 9999 FEW025 23/08 Q1025=
2025-09-27 15:00:00<>METAR SBGL 271500Z 14009KT 9999 FEW025 24/10 Q1024=
2025-09-27 16:00:00<>METAR SBGL 271600Z 13012KT 9999 SCT025 24/12 Q1023=
2025-09-27 17:00:00<>METAR SBGL 271700Z 13013KT 9999 FEW025 23/12 Q1022=
2025-09-27 18:00:00<>METAR SBGL 271800Z 13013KT 9999 FEW025 23/12 Q1022=
2025-09-27 19:00:00<>METAR SBGL 271900Z 13013KT 9999 FEW025 22/11 Q1021=
2025-09-27 20:00:00<>METAR SBGL 272000Z 12012KT CAVOK 22/11 Q1021=
2025-09-27 21:00:00<>METAR SBGL 272100Z 14010KT CAVOK 20/11 Q1021=
2025-09-27 22:00:00<>METAR SBGL 272200Z 12007KT CAVOK 20/11 Q1022=
2025-09-27 23:00:00<>METAR SBGL 272300Z 11009KT CAVOK 19/10 Q1023=
2025-09-28 00:00:00<>METAR SBGL 280000Z 10010KT CAVOK 19/10 Q1024=
2025-09-28 01:00:00<>METAR SBGL 280100Z 10011KT CAVOK 19/11 Q1024=
2025-09-28 02:00:00<>METAR SBGL 280200Z 09009KT CAVOK 18/11 Q1024=
2025-09-28 03:00:00<>METAR SBGL 280300Z 10006KT CAVOK 17/12 Q1023=
2025-09-28 04:00:00<>METAR SBGL 280400Z 10006KT CAVOK 17/12 Q1022=
2025-09-28 05:00:00<>METAR SBGL 280500Z 11005KT CAVOK 16/12 Q1022=
2025-09-28 06:00:00<>METAR SBGL 280600Z 11004KT CAVOK 16/12 Q1021=
2025-09-28 07:00:00<>METAR SBGL 280700Z 12004KT CAVOK 16/12 Q1021=
2025-09-28 08:00:00<>METAR SBGL 280800Z 32001KT CAVOK 15/13 Q1022=
2025-09-28 09:00:00<>METAR SBGL 280900Z 35002KT CAVOK 15/13 Q1022=
2025-09-28 10:00:00<>METAR SBGL 281000Z 00000KT CAVOK 18/13 Q1023=
2025-09-28 11:00:00<>METAR SBGL 281100Z 02006KT CAVOK 18/13 Q1023=
2025-09-28 12:00:00<>METAR SBGL 281200Z 05004KT 020V090 CAVOK 20/12 Q1023=
2025-09-28 13:00:00<>METAR SBGL 281300Z 04007KT 360V080 CAVOK 22/12 Q1022=
2025-09-28 14:00:00<>METAR SBGL 281400Z 06009KT CAVOK 23/10 Q1020=
2025-09-28 15:00:00<>METAR SBGL 281500Z 36006KT 290V060 CAVOK 25/13 Q1019=
2025-09-28 16:00:00<>METAR SBGL 281600Z VRB07KT 9999 FEW030 26/12 Q1018=
2025-09-28 17:00:00<>METAR SBGL 281700Z 11005KT 080V150 9999 FEW030 27/12 Q1016=
2025-09-28 18:00:00<>METAR SBGL 281800Z 12005KT 9999 FEW030 27/13 Q1016=
2025-09-28 19:00:00<>METAR SBGL 281900Z 14007KT 9999 FEW030 27/14 Q1016=
2025-09-28 20:00:00<>METAR SBGL 282000Z 13008KT 9999 FEW030 25/16 Q1016=
2025-09-28 21:00:00<>METAR SBGL 282100Z 11006KT 9999 FEW030 25/14 Q1017=
2025-09-28 22:00:00<>METAR SBGL 282200Z 10006KT CAVOK 23/14 Q1017=
2025-09-28 23:00:00<>METAR SBGL 282300Z 10006KT CAVOK 22/14 Q1018=
2025-09-29 00:00:00<>METAR SBGL 290000Z 10004KT CAVOK 21/14 Q1018=
2025-09-29 01:00:00<>METAR SBGL 290100Z 11004KT CAVOK 20/14 Q1018=
2025-09-29 02:00:00<>METAR SBGL 290200Z 11003KT CAVOK 20/15 Q1018=
2025-09-29 03:00:00<>METAR SBGL 290300Z 09003KT CAVOK 19/15 Q1018=
2025-09-29 04:00:00<>METAR SBGL 290400Z 10004KT CAVOK 19/15 Q1017=
2025-09-29 05:00:00<>METAR SBGL 290500Z VRB01KT CAVOK 19/14 Q1017=
2025-09-29 06:00:00<>METAR SBGL 290600Z 12003KT CAVOK 18/14 Q1016=
2025-09-29 07:00:00<>METAR SBGL 290700Z VRB02KT CAVOK 18/14 Q1016=
2025-09-29 08:00:00<>METAR SBGL 290800Z 12001KT CAVOK 17/14 Q1016=
2025-09-29 09:00:00<>METAR SBGL 290900Z 08002KT CAVOK 17/14 Q1017=
2025-09-29 10:00:00<>METAR SBGL 291000Z 00000KT CAVOK 20/16 Q1018=
2025-09-29 11:00:00<>METAR SBGL 291100Z VRB02KT CAVOK 22/15 Q1018=
2025-09-29 12:00:00<>METAR SBGL 291200Z 04003KT 360V080 CAVOK 23/15 Q1018=
2025-09-29 13:00:00<>METAR SBGL 291300Z 03004KT 310V080 CAVOK 26/16 Q1018=
2025-09-29 14:00:00<>METAR SBGL 291400Z 36005KT 320V050 CAVOK 28/16 Q1018=
2025-09-29 15:00:00<>METAR SBGL 291500Z 36003KT 300V090 CAVOK 29/15 Q1017=
2025-09-29 16:00:00<>METAR SBGL 291600Z 12006KT 090V150 CAVOK 29/15 Q1017=
2025-09-29 17:00:00<>METAR SBGL 291700Z 10009KT CAVOK 29/15 Q1016=
2025-09-29 18:00:00<>METAR SBGL 291800Z 13011KT CAVOK 27/15 Q1016=
2025-09-29 19:00:00<>METAR SBGL 291900Z 12010KT CAVOK 27/15 Q1016=
2025-09-29 20:00:00<>METAR SBGL 292000Z 13009KT CAVOK 27/14 Q1016=
2025-09-29 21:00:00<>METAR SBGL 292100Z 13006KT CAVOK 25/14 Q1017=
2025-09-29 22:00:00<>METAR SBGL 292200Z 01003KT 340V050 CAVOK 25/14 Q1018=
2025-09-29 23:00:00<>METAR SBGL 292300Z VRB02KT CAVOK 23/15 Q1019=
2025-09-30 00:00:00<>METAR SBGL 300000Z 27006KT CAVOK 22/16 Q1019=
2025-09-30 01:00:00<>METAR SBGL 300100Z 28005KT 250V320 CAVOK 22/15 Q1020=
2025-09-30 02:00:00<>METAR SBGL 300200Z 28005KT CAVOK 22/16 Q1020=
2025-09-30 03:00:00<>METAR SBGL 300300Z 28003KT 230V310 CAVOK 21/16 Q1019=
2025-09-30 04:00:00<>METAR SBGL 300400Z VRB02KT CAVOK 20/16 Q1019=
2025-09-30 05:00:00<>METAR SBGL 300500Z VRB02KT CAVOK 19/16 Q1019=
2025-09-30 06:00:00<>METAR SBGL 300600Z 09003KT CAVOK 18/16 Q1019=
2025-09-30 07:00:00<>METAR SBGL 300700Z VRB02KT CAVOK 19/17 Q1019=
2025-09-30 08:00:00<>METAR SBGL 300800Z 01005KT CAVOK 18/17 Q1020=
2025-09-30 09:00:00<>METAR SBGL 300900Z VRB02KT 5000 BR NSC 19/16 Q1020=
2025-09-30 10:00:00<>METAR SBGL 301000Z VRB02KT 5000 BR NSC 20/17 Q1020=
2025-09-30 11:00:00<>METAR SBGL 301100Z 05003KT 340V130 9000 NSC 22/18 Q1020=
2025-09-30 12:00:00<>METAR SBGL 301200Z 05005KT 020V080 9000 NSC 23/18 Q1020=
2025-09-30 13:00:00<>METAR SBGL 301300Z 04005KT 010V100 9000 NSC 25/17 Q1019=
2025-09-30 14:00:00<>METAR SBGL 301400Z 36008KT CAVOK 25/18 Q1018=
2025-09-30 15:00:00<>METAR SBGL 301500Z 13006KT 090V170 CAVOK 28/18 Q1017=
2025-09-30 16:00:00<>METAR SBGL 301600Z 15005KT 080V200 9999 FEW020 29/16 Q1017=
2025-09-30 17:00:00<>METAR SBGL 301700Z VRB04KT 9999 FEW020 30/16 Q1016=
2025-09-30 18:00:00<>METAR SBGL 301800Z 13005KT 110V180 9999 FEW020 31/15 Q1016=
2025-09-30 19:00:00<>METAR SBGL 301900Z 13007KT 100V170 9999 FEW020 30/16 Q1015=
2025-09-30 20:00:00<>METAR SBGL 302000Z 14006KT CAVOK 29/17 Q1015=
2025-09-30 21:00:00<>METAR SBGL 302100Z 10010KT CAVOK 27/17 Q1016=
2025-09-30 22:00:00<>METAR SBGL 302200Z 10008KT CAVOK 25/17 Q1017=
2025-09-30 23:00:00<>METAR SBGL 302300Z 11007KT CAVOK 24/17 Q1017=
2025-10-01 00:00:00<>METAR SBGL 010000Z 12004KT CAVOK 23/17 Q1017=
2025-10-01 01:00:00<>METAR SBGL 010100Z 10005KT CAVOK 22/17 Q1018=
2025-10-01 02:00:00<>METAR SBGL 010200Z 10004KT CAVOK 21/16 Q1018=
2025-10-01 03:00:00<>METAR SBGL 010300Z 10004KT CAVOK 21/16 Q1017=
2025-10-01 04:00:00<>METAR SBGL 010400Z 11004KT CAVOK 20/16 Q1017=
2025-10-01 05:00:00<>METAR SBGL 010500Z 08004KT CAVOK 19/15 Q1016=
2025-10-01 06:00:00<>METAR SBGL 010600Z 12004KT CAVOK 19/15 Q1016=
2025-10-01 07:00:00<>METAR SBGL 010700Z 12004KT CAVOK 19/15 Q1016=
2025-10-01 08:00:00<>METAR SBGL 010800Z 10003KT CAVOK 18/15 Q1016=
2025-10-01 09:00:00<>METAR SBGL 010900Z 13002KT CAVOK 18/15 Q1017=
2025-10-01 10:00:00<>METAR SBGL 011000Z VRB02KT CAVOK 21/15 Q1018=
2025-10-01 11:00:00<>METAR SBGL 011100Z 11003KT 060V160 CAVOK 24/16 Q1018=
2025-10-01 12:00:00<>METAR SBGL 011200Z 11003KT 010V140 CAVOK 26/15 Q1019=
2025-10-01 13:00:00<>METAR SBGL 011300Z 13005KT 100V180 CAVOK 26/17 Q1019=
2025-10-01 14:00:00<>METAR SBGL 011400Z 07005KT CAVOK 28/17 Q1019=
2025-10-01 15:00:00<>METAR SBGL 011500Z 12009KT 080V150 CAVOK 28/17 Q1018=
2025-10-01 16:00:00<>METAR SBGL 011600Z 13014KT CAVOK 28/17 Q1017=
2025-10-01 17:00:00<>METAR SBGL 011700Z 13011KT CAVOK 28/17 Q1017=
2025-10-01 18:00:00<>METAR SBGL 011800Z 12012KT CAVOK 28/17 Q1017=
2025-10-01 19:00:00<>METAR SBGL 011900Z 14010KT 110V170 CAVOK 27/16 Q1017=
2025-10-01 20:00:00<>METAR SBGL 012000Z 14009KT CAVOK 26/16 Q1018=
2025-10-01 21:00:00<>METAR SBGL 012100Z 23007KT CAVOK 25/16 Q1019=
2025-10-01 22:00:00<>METAR SBGL 012200Z 21005KT CAVOK 24/16 Q1019=
2025-10-01 23:00:00<>METAR SBGL 012300Z 24008KT CAVOK 23/17 Q1020=
2025-10-02 00:00:00<>METAR SBGL 020000Z 24006KT CAVOK 23/17 Q1021=
2025-10-02 01:00:00<>METAR SBGL 020100Z 29005KT CAVOK 23/18 Q1021=
2025-10-02 02:00:00<>METAR SBGL 020200Z 28004KT CAVOK 22/17 Q1021=
2025-10-02 03:00:00<>METAR SBGL 020300Z 25005KT CAVOK 22/17 Q1020=
2025-10-02 04:00:00<>METAR SBGL 020400Z 27007KT CAVOK 22/18 Q1020=
2025-10-02 05:00:00<>METAR SBGL 020500Z 23006KT 9999 FEW015 21/18 Q1020=
2025-10-02 06:00:00<>METAR SBGL 020600Z 21006KT 9999 FEW015 21/18 Q1019=
2025-10-02 07:00:00<>METAR SBGL 020700Z 19006KT 9999 FEW015 21/18 Q1019=
2025-10-02 08:00:00<>METAR SBGL 020800Z 05006KT 7000 SCT009 BKN021 21/18 Q1020=
2025-10-02 09:00:00<>METAR SBGL 020900Z 14004KT 6000 FEW009 SCT015 BKN021 21/18 Q1021=
2025-10-02 10:00:00<>METAR SBGL 021000Z 06006KT 7000 FEW013 BKN015 BKN021 22/18 Q1021=
2025-10-02 11:00:00<>METAR SBGL 021100Z 05004KT 360V100 9999 FEW015 SCT025 23/18 Q1022=
2025-10-02 12:00:00<>METAR SBGL 021200Z 05004KT 320V110 9999 FEW018 SCT030 24/18 Q1021=
2025-10-02 13:00:00<>METAR SBGL 021300Z 36003KT 8000 FEW018 SCT030 24/18 Q1021=
2025-10-02 14:00:00<>METAR SBGL 021400Z 09005KT 020V160 8000 FEW018 SCT030 27/18 Q1021=
2025-10-02 15:00:00<>METAR SBGL 021500Z 14010KT 9999 FEW025 27/18 Q1020=
2025-10-02 16:00:00<>METAR SBGL 021600Z 12010KT 9999 FEW030 28/18 Q1020=
2025-10-02 17:00:00<>METAR SBGL 021700Z 13012KT 100V160 9999 FEW030 27/18 Q1019=
2025-10-02 18:00:00<>METAR SBGL 021800Z 15013KT 9999 FEW030 26/18 Q1018=
2025-10-02 19:00:00<>METAR SBGL 021900Z 14011KT 9999 SCT030 26/18 Q1018=
2025-10-02 20:00:00<>METAR SBGL 022000Z 15008KT 9999 SCT030 BKN050 25/18 Q1019=
2025-10-02 21:00:00<>METAR SBGL 022100Z 11010KT 9999 BKN040 25/18 Q1020=
2025-10-02 22:00:00<>METAR SBGL 022200Z 10012KT 9999 BKN040 24/17 Q1020=
2025-10-02 23:00:00<>METAR SBGL 022300Z 10010KT 9999 BKN048 SCT066 24/17 Q1021=
2025-10-03 00:00:00<>METAR SBGL 030000Z 11008KT 9999 FEW048 BKN066 23/17 Q1021=
2025-10-03 01:00:00<>METAR SBGL 030100Z 11006KT 080V140 9999 BKN048 BKN066 23/17 Q1022=
2025-10-03 02:00:00<>METAR SBGL 030200Z 11006KT 9999 BKN048 BKN066 23/18 Q1022=
2025-10-03 03:00:00<>METAR SBGL 030300Z 10006KT 9999 SCT048 22/17 Q1021=
2025-10-03 04:00:00<>METAR SBGL 030400Z 10005KT 9999 BKN048 22/17 Q1020=
2025-10-03 05:00:00<>METAR SBGL 030500Z 09003KT 9999 BKN036 BKN066 22/17 Q1020=
2025-10-03 06:00:00<>METAR SBGL 030600Z 13003KT 9999 BKN033 BKN066 22/17 Q1020=
2025-10-03 07:00:00<>METAR SBGL 030700Z 12003KT 9999 BKN033 BKN066 21/17 Q1020=
2025-10-03 08:00:00<>METAR SBGL 030800Z 10004KT 9999 FEW033 SCT066 21/17 Q1020=
2025-10-03 09:00:00<>METAR SBGL 030900Z 14004KT 9999 FEW020 20/17 Q1020=
2025-10-03 10:00:00<>METAR SBGL 031000Z 14006KT 9999 FEW040 22/17 Q1021=
2025-10-03 11:00:00<>METAR SBGL 031100Z 08008KT 050V110 CAVOK 24/16 Q1021=
2025-10-03 12:00:00<>METAR SBGL 031200Z 07007KT 040V100 CAVOK 25/16 Q1021=
2025-10-03 13:00:00<>METAR SBGL 031300Z 08008KT 040V110 CAVOK 27/16 Q1020=
2025-10-03 14:00:00<>METAR SBGL 031400Z 08007KT 050V120 CAVOK 28/15 Q1020=
2025-10-03 15:00:00<>METAR SBGL 031500Z 08005KT 9999 FEW025 25/15 Q1019=
2025-10-03 16:00:00<>METAR SBGL 031600Z 13007KT 100V180 CAVOK 29/16 Q1018=
2025-10-03 17:00:00<>METAR SBGL 031700Z 14005KT 100V170 CAVOK 29/16 Q1017=
2025-10-03 18:00:00<>METAR SBGL 031800Z 13009KT CAVOK 28/17 Q1016=
2025-10-03 19:00:00<>METAR SBGL 031900Z 09015KT CAVOK 29/17 Q1016=
2025-10-03 20:00:00<>METAR SBGL 032000Z 10013KT CAVOK 27/17 Q1016=
2025-10-03 21:00:00<>METAR SBGL 032100Z 13013KT 100V160 CAVOK 26/17 Q1017=
2025-10-03 22:00:00<>METAR COR SBGL 032200Z 10001KT CAVOK 24/18 Q1018=
2025-10-03 23:00:00<>METAR SBGL 032300Z 12014KT CAVOK 23/18 Q1018=
2025-10-04 00:00:00<>METAR SBGL 040000Z 10013KT CAVOK 23/17 Q1019=
2025-10-04 01:00:00<>METAR SBGL 040100Z 10010KT CAVOK 22/17 Q1019=
2025-10-04 02:00:00<>METAR SBGL 040200Z 10010KT CAVOK 22/17 Q1019=
2025-10-04 03:00:00<>METAR SBGL 040300Z 10006KT CAVOK 21/17 Q1019=
2025-10-04 04:00:00<>METAR SBGL 040400Z 10009KT CAVOK 21/17 Q1018=
2025-10-04 05:00:00<>METAR SBGL 040500Z 09011KT CAVOK 22/17 Q1018=
2025-10-04 06:00:00<>METAR SBGL 040600Z 10008KT CAVOK 21/16 Q1018=
2025-10-04 07:00:00<>METAR SBGL 040700Z 11007KT CAVOK 21/16 Q1018=
2025-10-04 08:00:00<>METAR SBGL 040800Z 11010KT CAVOK 22/16 Q1018=
2025-10-04 09:00:00<>METAR SBGL 040900Z 11008KT 9999 FEW018 22/16 Q1019=
2025-10-04 10:00:00<>METAR SBGL 041000Z 11007KT 9999 FEW018 23/16 Q1020=
2025-10-04 11:00:00<>METAR SBGL 041100Z 10002KT CAVOK 25/16 Q1021=
2025-10-04 12:00:00<>METAR SBGL 041200Z 08003KT 020V170 CAVOK 27/16 Q1021=
2025-10-04 13:00:00<>METAR SBGL 041300Z 06006KT 030V130 CAVOK 28/17 Q1020=
2025-10-04 14:00:00<>METAR SBGL 041400Z 01005KT 340V050 CAVOK 29/17 Q1021=
2025-10-04 15:00:00<>METAR SBGL 041500Z 10005KT 040V140 CAVOK 30/15 Q1020=
2025-10-04 16:00:00<>METAR SBGL 041600Z 14005KT 090V180 9999 SCT048 30/15 Q1019=
2025-10-04 17:00:00<>METAR SBGL 041700Z 13007KT 9999 SCT048 30/18 Q1018=
2025-10-04 18:00:00<>METAR SBGL 041800Z 12008KT CAVOK 30/16 Q1017=
2025-10-04 19:00:00<>METAR SBGL 041900Z 13009KT CAVOK 29/18 Q1017=
2025-10-04 20:00:00<>METAR COR SBGL 042000Z 10013KT CAVOK 26/18 Q1018=
2025-10-04 21:00:00<>METAR SBGL 042100Z 10013KT CAVOK 26/18 Q1018=
2025-10-04 22:00:00<>METAR SBGL 042200Z 10010KT CAVOK 24/17 Q1018=
2025-10-04 23:00:00<>METAR SBGL 042300Z 11006KT 080V150 CAVOK 24/18 Q1019=
2025-10-05 00:00:00<>METAR SBGL 050000Z 10008KT CAVOK 24/17 Q1019=
2025-10-05 01:00:00<>METAR SBGL 050100Z 10007KT 070V140 CAVOK 23/17 Q1019=
2025-10-05 02:00:00<>METAR SBGL 050200Z 11005KT CAVOK 23/17 Q1018=
2025-10-05 03:00:00<>METAR SBGL 050300Z 11007KT CAVOK 23/16 Q1018=
2025-10-05 04:00:00<>METAR SBGL 050400Z 12003KT CAVOK 23/16 Q1017=
2025-10-05 05:00:00<>METAR SBGL 050500Z VRB02KT CAVOK 22/16 Q1017=
2025-10-05 06:00:00<>METAR SBGL 050600Z 17004KT CAVOK 22/16 Q1016=
2025-10-05 07:00:00<>METAR SBGL 050700Z VRB01KT CAVOK 21/16 Q1016=
2025-10-05 08:00:00<>METAR SBGL 050800Z 14003KT CAVOK 21/16 Q1016=
2025-10-05 09:00:00<>METAR SBGL 050900Z VRB02KT CAVOK 22/16 Q1017=
2025-10-05 10:00:00<>METAR SBGL 051000Z 10002KT CAVOK 23/17 Q1018=
2025-10-05 11:00:00<>METAR SBGL 051100Z 13004KT 090V160 CAVOK 25/17 Q1018=
2025-10-05 12:00:00<>METAR SBGL 051200Z 07005KT 360V130 CAVOK 27/17 Q1018=
2025-10-05 13:00:00<>METAR SBGL 051300Z 18006KT 340V060 CAVOK 28/16 Q1018=
2025-10-05 14:00:00<>METAR SBGL 051400Z VRB06KT CAVOK 30/16 Q1017=
2025-10-05 15:00:00<>METAR SBGL 051500Z 06009KT 020V090 CAVOK 31/15 Q1016=
2025-10-05 16:00:00<>METAR SBGL 051600Z 04008KT 350V090 CAVOK 32/14 Q1015=
2025-10-05 17:00:00<>METAR SBGL 051700Z 05006KT 350V100 CAVOK 32/14 Q1014=
2025-10-05 18:00:00<>METAR SBGL 051800Z 07006KT 010V110 CAVOK 33/14 Q1013=
2025-10-05 19:00:00<>METAR SBGL 051900Z 06006KT 030V090 CAVOK 32/14 Q1013=
2025-10-05 20:00:00<>METAR SBGL 052000Z 14006KT CAVOK 30/17 Q1013=
2025-10-05 21:00:00<>METAR SBGL 052100Z 12005KT CAVOK 28/17 Q1013=
2025-10-05 22:00:00<>METAR SBGL 052200Z 09009KT CAVOK 27/17 Q1013=
2025-10-05 23:00:00<>METAR SBGL 052300Z 10005KT CAVOK 26/17 Q1014=
2025-10-06 00:00:00<>METAR SBGL 060000Z 09007KT CAVOK 25/17 Q1014=
2025-10-06 01:00:00<>METAR SBGL 060100Z 10005KT CAVOK 24/17 Q1014=
2025-10-06 02:00:00<>METAR SBGL 060200Z 10004KT CAVOK 23/17 Q1014=
2025-10-06 03:00:00<>METAR SBGL 060300Z 11002KT CAVOK 23/17 Q1013=
2025-10-06 04:00:00<>METAR SBGL 060400Z 10004KT CAVOK 22/17 Q1013=
2025-10-06 05:00:00<>METAR SBGL 060500Z 05003KT CAVOK 22/17 Q1012=
2025-10-06 06:00:00<>METAR SBGL 060600Z 13002KT CAVOK 20/17 Q1011=
2025-10-06 07:00:00<>METAR SBGL 060700Z 13002KT CAVOK 19/16 Q1011=
2025-10-06 08:00:00<>METAR SBGL 060800Z 06002KT CAVOK 20/17 Q1012=
2025-10-06 09:00:00<>METAR SBGL 060900Z 12002KT CAVOK 19/17 Q1012=
2025-10-06 10:00:00<>METAR SBGL 061000Z 13002KT CAVOK 24/18 Q1012=
2025-10-06 11:00:00<>METAR SBGL 061100Z VRB02KT CAVOK 27/18 Q1012=
2025-10-06 12:00:00<>METAR SBGL 061200Z 35004KT 320V050 CAVOK 27/18 Q1012=
2025-10-06 13:00:00<>METAR SBGL 061300Z 34003KT 230V020 CAVOK 31/17 Q1012=
2025-10-06 14:00:00<>METAR SBGL 061400Z 03005KT CAVOK 33/18 Q1011=
2025-10-06 15:00:00<>METAR SBGL 061500Z 05009KT CAVOK 34/16 Q1010=
2025-10-06 16:00:00<>METAR SBGL 061600Z 02003KT 310V110 CAVOK 35/17 Q1009=
2025-10-06 17:00:00<>METAR SBGL 061700Z 02005KT CAVOK 35/16 Q1008=
2025-10-06 18:00:00<>METAR SBGL 061800Z 05005KT CAVOK 36/17 Q1007=
2025-10-06 19:00:00<>METAR SBGL 061900Z 13007KT CAVOK 34/18 Q1007=
2025-10-06 20:00:00<>METAR SBGL 062000Z 13007KT 9999 FEW025 33/18 Q1007=
2025-10-06 21:00:00<>METAR SBGL 062100Z 13006KT 9999 FEW025 30/18 Q1008=
2025-10-06 22:00:00<>METAR SBGL 062200Z 12007KT CAVOK 29/18 Q1008=
2025-10-06 23:00:00<>METAR SBGL 062300Z 10004KT 060V130 CAVOK 28/18 Q1009=
2025-10-07 00:00:00<>METAR SBGL 070000Z VRB02KT CAVOK 27/19 Q1009=
2025-10-07 01:00:00<>METAR SBGL 070100Z 08007KT CAVOK 26/20 Q1010=
2025-10-07 02:00:00<>METAR SBGL 070200Z 11004KT CAVOK 25/20 Q1010=
2025-10-07 03:00:00<>METAR SBGL 070300Z 07004KT CAVOK 24/19 Q1009=
2025-10-07 04:00:00<>METAR SBGL 070400Z 06003KT CAVOK 24/20 Q1009=
2025-10-07 05:00:00<>METAR SBGL 070500Z 08003KT CAVOK 23/19 Q1008=
2025-10-07 06:00:00<>METAR SBGL 070600Z 07003KT CAVOK 22/19 Q1008=
2025-10-07 07:00:00<>METAR SBGL 070700Z VRB01KT CAVOK 22/19 Q1009=
2025-10-07 08:00:00<>METAR SBGL 070800Z 29004KT CAVOK 24/21 Q1010=
2025-10-07 08:33:00<>SPECI SBGL 070833Z 26015KT CAVOK 25/19 Q1010=
2025-10-07 09:00:00<>METAR SBGL 070900Z 24014KT CAVOK 24/19 Q1011=
2025-10-07 10:00:00<>METAR SBGL 071000Z 25013KT CAVOK 25/19 Q1012=
2025-10-07 11:00:00<>METAR SBGL 071100Z 25016KT CAVOK 26/19 Q1013=
2025-10-07 12:00:00<>METAR SBGL 071200Z 24017KT CAVOK 28/19 Q1013=
2025-10-07 13:00:00<>METAR SBGL 071300Z 23011KT CAVOK 29/19 Q1013=
2025-10-07 14:00:00<>METAR SBGL 071400Z 21019KT CAVOK 29/19 Q1013=
2025-10-07 15:00:00<>METAR SBGL 071500Z 22019KT 9999 FEW033 29/19 Q1014=
2025-10-07 16:00:00<>METAR SBGL 071600Z 22021KT 9999 VCSH BKN033 28/19 Q1014=
2025-10-07 17:00:00<>METAR SBGL 071700Z 23021KT 9999 VCSH FEW026 BKN043 27/19 Q1014=
2025-10-07 18:00:00<>METAR SBGL 071800Z 22018KT 9999 VCSH FEW026 BKN046 26/19 Q1014=
2025-10-07 19:00:00<>METAR SBGL 071900Z 20015KT 9999 VCSH SCT013 SCT026 BKN046 24/20 Q1014=
2025-10-07 20:00:00<>METAR SBGL 072000Z 21011KT 9999 VCSH FEW009 BKN011 BKN026 23/19 Q1015=
2025-10-07 21:00:00<>METAR SBGL 072100Z 23013KT 8000 3500SW -DZ BKN008 BKN009 OVC026 22/20 Q1016=
2025-10-07 22:00:00<>METAR SBGL 072200Z 22012KT 6000 -RA BKN008 BKN015 OVC023 22/19 Q1017=
2025-10-07 23:00:00<>METAR SBGL 072300Z 24009KT 6000 -RA BKN008 BKN015 OVC023 22/19 Q1017=
2025-10-08 00:00:00<>METAR SBGL 080000Z 27007KT 6000 -RA BKN008 BKN015 OVC023 22/19 Q1018=
2025-10-08 01:00:00<>METAR SBGL 080100Z 26009KT 4500 -RA BR BKN007 BKN015 OVC024 21/19 Q1018=
2025-10-08 02:00:00<>METAR SBGL 080200Z 27008KT 6000 -RA BKN007 BKN015 OVC024 21/19 Q1018=
2025-10-08 03:00:00<>METAR SBGL 080300Z 27007KT 4500 -RA BKN007 BKN015 OVC024 21/19 Q1018=
2025-10-08 04:00:00<>METAR SBGL 080400Z 27007KT 4500 -RA BR BKN007 BKN015 OVC024 21/19 Q1017=
2025-10-08 05:00:00<>METAR SBGL 080500Z 27007KT 4500 -RA BR BKN007 BKN015 OVC024 21/19 Q1017=
2025-10-08 06:00:00<>METAR SBGL 080600Z 26008KT 4500 -RA BR BKN007 BKN015 OVC024 21/19 Q1017=
2025-10-08 07:00:00<>METAR SBGL 080700Z 27007KT 4500 -RA BR BKN007 BKN015 OVC024 21/19 Q1017=
2025-10-08 08:00:00<>METAR SBGL 080800Z 26007KT 4500 -RA BR BKN007 BKN015 OVC024 20/19 Q1018=
2025-10-08 09:00:00<>METAR SBGL 080900Z 24008KT 4500 -RA BR BKN007 BKN015 OVC024 21/19 Q1018=
2025-10-08 10:00:00<>METAR SBGL 081000Z 24006KT 4500 -RA BR BKN007 OVC016 21/18 Q1019=
2025-10-08 11:00:00<>METAR SBGL 081100Z 24007KT 3000 -RA BR BKN005 OVC012 21/18 Q1020=
2025-10-08 12:00:00<>METAR SBGL 081200Z 23006KT 210V270 3000 BR BKN005 OVC012 21/18 Q1020=
2025-10-08 13:00:00<>METAR SBGL 081300Z 23009KT 5000 BR BKN007 OVC012 22/18 Q1020=
2025-10-08 14:00:00<>METAR SBGL 081400Z 26008KT 6000 -RA BKN007 OVC012 21/19 Q1020=
2025-10-08 15:00:00<>METAR SBGL 081500Z 24009KT 5000 BR BKN007 OVC012 21/18 Q1020=
2025-10-08 16:00:00<>METAR SBGL 081600Z 24009KT 5000 HZ VCSH BKN007 OVC012 22/18 Q1020=
2025-10-08 16:34:00<>SPECI SBGL 081634Z 14004KT 110V170 3000 -RA BKN007 OVC012 21/19 Q1020=
2025-10-08 17:00:00<>METAR SBGL 081700Z 16004KT 110V210 2000 -RA BR BKN006 OVC012 20/19 Q1019=
2025-10-08 18:00:00<>METAR SBGL 081800Z 11004KT 070V200 5000 -RA BR BKN010 OVC015 20/18 Q1019=
2025-10-08 19:00:00<>METAR SBGL 081900Z 15004KT 110V190 5000 -RA BR BKN007 OVC015 19/17 Q1020=
2025-10-08 20:00:00<>METAR SBGL 082000Z 13005KT 4000 -RA BR BKN010 OVC020 19/17 Q1020=
2025-10-08 21:00:00<>METAR SBGL 082100Z 12004KT 4000 -RA BKN007 OVC020 19/17 Q1021=
2025-10-08 22:00:00<>METAR SBGL 082200Z 13006KT 6000 -RA BKN008 OVC025 19/17 Q1022=
2025-10-08 23:00:00<>METAR SBGL 082300Z 13004KT 3000 RA BR BKN008 OVC025 19/17 Q1022=
2025-10-09 00:00:00<>METAR SBGL 090000Z 14005KT 6000 -RA BKN008 BKN027 OVC045 19/17 Q1023 RERA=
2025-10-09 01:00:00<>METAR SBGL 090100Z 14003KT 3000 -RA BR BKN006 BKN017 OVC045 19/17 Q1024=
2025-10-09 02:00:00<>METAR SBGL 090200Z 15003KT 2500 -RA BR BKN005 BKN020 OVC031 19/17 Q1024=
2025-10-09 03:00:00<>METAR SBGL 090300Z 15006KT 7000 -RA BKN006 BKN019 OVC035 18/17 Q1023=
2025-10-09 04:00:00<>METAR SBGL 090400Z 13005KT 7000 SCT025 OVC040 18/17 Q1022=
2025-10-09 05:00:00<>METAR SBGL 090500Z 14003KT 7000 FEW018 SCT031 OVC090 19/17 Q1021=
2025-10-09 06:00:00<>METAR SBGL 090600Z 16002KT 7000 FEW015 SCT040 OVC090 18/17 Q1021=
2025-10-09 07:00:00<>METAR SBGL 090700Z 16002KT 7000 FEW015 SCT040 OVC090 18/17 Q1021=
2025-10-09 08:00:00<>METAR SBGL 090800Z 15005KT 9999 FEW006 BKN011 OVC028 19/17 Q1022=
2025-10-09 09:00:00<>METAR SBGL 090900Z 14008KT 8000 -RA BKN008 BKN026 OVC031 18/17 Q1022=
2025-10-09 10:00:00<>METAR SBGL 091000Z 14008KT 7000 -RA BKN007 OVC018 18/17 Q1023=
2025-10-09 11:00:00<>METAR SBGL 091100Z 18005KT 9999 -RA BKN030 OVC036 19/17 Q1024=
2025-10-09 12:00:00<>METAR SBGL 091200Z 08005KT 9999 -RA FEW009 BKN025 OVC040 19/17 Q1024=
2025-10-09 13:00:00<>METAR SBGL 091300Z 06004KT 060V140 9999 FEW010 BKN025 OVC040 20/17 Q1023=
2025-10-09 14:00:00<>METAR SBGL 091400Z 07007KT 040V100 9999 SCT015 BKN025 OVC040 21/17 Q1022=
2025-10-09 15:00:00<>METAR SBGL 091500Z 07006KT 9999 FEW015 BKN030 OVC040 21/17 Q1022=
2025-10-09 16:00:00<>METAR SBGL 091600Z 11006KT 9999 FEW015 BKN020 OVC040 22/17 Q1021=
2025-10-09 17:00:00<>METAR SBGL 091700Z 15009KT 120V180 8000 VCSH FEW015 BKN025 OVC040 21/17 Q1021=
2025-10-09 18:00:00<>METAR SBGL 091800Z 13012KT 4000 -RA BR SCT015 BKN025 OVC040 20/17 Q1021=
2025-10-09 19:00:00<>METAR SBGL 091900Z 14010KT 9000 BKN025 OVC040 21/16 Q1021=
2025-10-09 20:00:00<>METAR SBGL 092000Z 12011KT 5000 -RA BR BKN025 OVC040 20/16 Q1021=
2025-10-09 21:00:00<>METAR SBGL 092100Z 13008KT 9000 BKN020 OVC040 20/16 Q1022=
2025-10-09 22:00:00<>METAR SBGL 092200Z 12009KT 9999 FEW020 OVC035 20/15 Q1022=
2025-10-09 23:00:00<>METAR SBGL 092300Z 11009KT 9999 SCT020 OVC035 20/15 Q1023=
2025-10-10 00:00:00<>METAR SBGL 100000Z 07009KT 9999 SCT020 OVC035 20/16 Q1023=
2025-10-10 01:00:00<>METAR SBGL 100100Z 09007KT 9999 SCT020 OVC035 20/16 Q1023=
2025-10-10 02:00:00<>METAR SBGL 100200Z 11009KT 9999 FEW020 OVC035 20/16 Q1023=
2025-10-10 03:00:00<>METAR SBGL 100300Z 10004KT 9999 FEW020 OVC035 20/16 Q1022=
2025-10-10 04:00:00<>METAR SBGL 100400Z 10005KT 9999 FEW020 OVC035 20/16 Q1021=
2025-10-10 05:00:00<>METAR SBGL 100500Z 09005KT 9999 SCT020 OVC035 20/16 Q1021=
2025-10-10 06:00:00<>METAR SBGL 100600Z 08007KT 9999 SCT020 OVC035 20/16 Q1020=
2025-10-10 07:00:00<>METAR SBGL 100700Z 09006KT 9999 SCT020 OVC025 20/17 Q1020=
2025-10-10 08:00:00<>METAR SBGL 100800Z 10005KT 9999 SCT020 OVC025 20/17 Q1020=
2025-10-10 09:00:00<>METAR SBGL 100900Z 09005KT 6000 SCT020 OVC025 20/17 Q1020=
2025-10-10 10:00:00<>METAR SBGL 101000Z 11003KT 070V150 6000 SCT017 OVC025 20/17 Q1021=
2025-10-10 11:00:00<>METAR SBGL 101100Z 05005KT 9999 -RA FEW015 BKN017 OVC084 21/17 Q1020=
2025-10-10 12:00:00<>METAR SBGL 101200Z 06006KT 9999 -RA FEW017 SCT030 BKN050 20/18 Q1019=
2025-10-10 13:00:00<>METAR SBGL 101300Z 13004KT 070V180 9999 FEW011 SCT050 BKN066 21/18 Q1019=
2025-10-10 14:00:00<>METAR SBGL 101400Z 14003KT 050V210 9999 FEW013 SCT018 23/18 Q1019=
2025-10-10 15:00:00<>METAR SBGL 101500Z 14006KT 110V170 9999 SCT020 SCT066 24/18 Q1018=
2025-10-10 16:00:00<>METAR SBGL 101600Z 13004KT 090V190 9999 SCT020 SCT066 24/18 Q1018=
2025-10-10 17:00:00<>METAR SBGL 101700Z 13008KT 9999 SCT020 SCT066 23/18 Q1018=
2025-10-10 18:00:00<>METAR SBGL 101800Z 13008KT 9999 FEW020 BKN040 BKN066 22/17 Q1018=
2025-10-10 19:00:00<>METAR SBGL 101900Z 15007KT 9999 BKN025 BKN040 BKN066 22/17 Q1018=
2025-10-10 20:00:00<>METAR SBGL 102000Z 15007KT 9999 -RA BKN025 BKN040 22/18 Q1018=
2025-10-10 21:00:00<>METAR SBGL 102100Z 13006KT 9000 -RA FEW017 BKN025 OVC036 21/18 Q1018=
2025-10-10 22:00:00<>METAR SBGL 102200Z 11006KT 080V150 9999 -RA SCT015 BKN025 OVC033 21/19 Q1018=
2025-10-10 22:36:00<>SPECI SBGL 102236Z 13005KT 3000 -RA BR BKN010 OVC020 21/19 Q1019=
2025-10-10 23:00:00<>METAR SBGL 102300Z 12007KT 3000 -RA BR BKN010 OVC020 21/19 Q1019=
2025-10-11 00:00:00<>METAR SBGL 110000Z 12006KT 6000 -RA BKN010 OVC020 21/19 Q1020=
2025-10-11 01:00:00<>METAR SBGL 110100Z 13005KT 6000 -RA BKN010 OVC020 21/19 Q1019=
2025-10-11 01:26:00<>SPECI SBGL 110126Z 16005KT 2500 -RA BR BKN010 OVC020 21/19 Q1019=
2025-10-11 02:00:00<>METAR SBGL 110200Z 16003KT 130V220 3000 -RA BR BKN008 OVC020 20/19 Q1019=
2025-10-11 03:00:00<>METAR SBGL 110300Z 22004KT 2500 -RA BR BKN005 OVC020 20/19 Q1019=
2025-10-11 04:00:00<>METAR SBGL 110400Z 07005KT 3000 RA BR BKN010 SCT020 BKN070 20/19 Q1016=
2025-10-11 05:00:00<>METAR SBGL 110500Z 07006KT 6000 -RA BKN006 BKN100 20/19 Q1015 RERA=
2025-10-11 06:00:00<>METAR SBGL 110600Z 15003KT 7000 -RA BKN008 BKN100 20/19 Q1015=
2025-10-11 07:00:00<>METAR SBGL 110700Z 15004KT 7000 -RA BKN008 BKN100 20/19 Q1015=
2025-10-11 08:00:00<>METAR SBGL 110800Z 18003KT 8000 BKN007 BKN100 20/19 Q1015=
2025-10-11 09:00:00<>METAR SBGL 110900Z 18003KT 9999 BKN012 BKN016 OVC100 20/19 Q1015=
2025-10-11 10:00:00<>METAR SBGL 111000Z 29004KT 9999 OVC013 21/19 Q1016=
2025-10-11 11:00:00<>METAR SBGL 111100Z 32003KT 9000 OVC013 21/19 Q1016=
2025-10-11 12:00:00<>METAR SBGL 111200Z 26003KT 9000 BKN013 OVC018 22/19 Q1017=
2025-10-11 13:00:00<>METAR SBGL 111300Z 26004KT 9999 BKN015 OVC020 23/19 Q1016=
2025-10-11 14:00:00<>METAR SBGL 111400Z 36004KT 9999 FEW016 BKN018 OVC030 24/19 Q1016=
2025-10-11 15:00:00<>METAR SBGL 111500Z 06005KT 9999 FEW016 BKN020 BKN030 25/19 Q1015=
2025-10-11 16:00:00<>METAR SBGL 111600Z 12006KT 9999 BKN020 BKN030 26/20 Q1015=
2025-10-11 17:00:00<>METAR SBGL 111700Z 12009KT 9999 SCT022 BKN040 25/19 Q1014=
2025-10-11 18:00:00<>METAR SBGL 111800Z 13008KT 9999 SCT022 BKN035 24/19 Q1013=
2025-10-11 19:00:00<>METAR SBGL 111900Z 13009KT 9999 FEW015 BKN035 23/19 Q1013=
2025-10-11 20:00:00<>METAR SBGL 112000Z 13008KT 9999 FEW010 BKN035 22/19 Q1014=
2025-10-11 21:00:00<>METAR SBGL 112100Z 13007KT 9999 FEW020 BKN035 22/20 Q1014=
2025-10-11 22:00:00<>METAR SBGL 112200Z 14005KT 9999 BKN025 BKN035 22/20 Q1015=
2025-10-11 23:00:00<>METAR SBGL 112300Z 15005KT 9999 BKN025 BKN035 23/20 Q1016=
2025-10-12 00:00:00<>METAR SBGL 120000Z VRB02KT 9999 BKN025 BKN035 23/19 Q1016=
2025-10-12 01:00:00<>METAR SBGL 120100Z VRB02KT 9999 FEW015 BKN025 22/20 Q1016=
2025-10-12 02:00:00<>METAR SBGL 120200Z 12003KT 9999 FEW015 BKN025 22/20 Q1016=
2025-10-12 03:00:00<>METAR SBGL 120300Z 21003KT 9999 FEW012 BKN025 22/20 Q1015=
2025-10-12 04:00:00<>METAR SBGL 120400Z VRB02KT 9999 FEW012 BKN020 22/20 Q1014=
2025-10-12 05:00:00<>METAR SBGL 120500Z 32002KT 5000 BR FEW009 BKN014 22/20 Q1014=
2025-10-12 06:00:00<>METAR SBGL 120600Z 26004KT 5000 BR FEW009 BKN014 22/20 Q1014=
2025-10-12 07:00:00<>METAR SBGL 120700Z 31003KT 5000 BR FEW006 BKN010 22/20 Q1014=
2025-10-12 08:00:00<>METAR SBGL 120800Z 30003KT 9999 FEW006 BKN010 21/20 Q1015=
2025-10-12 09:00:00<>METAR SBGL 120900Z 33002KT 1500 BR FEW006 BKN010 21/20 Q1014=
2025-10-12 10:00:00<>METAR SBGL 121000Z VRB02KT 3000 BR FEW004 BKN006 22/20 Q1014=
2025-10-12 11:00:00<>METAR SBGL 121100Z 34003KT 3000 BR BKN006 BKN008 OVC009 23/20 Q1014=
2025-10-12 12:00:00<>METAR SBGL 121200Z 05002KT 4000 BR BKN008 BKN011 OVC013 23/20 Q1015=
2025-10-12 13:00:00<>METAR SBGL 121300Z 12005KT 4500 HZ FEW009 BKN013 BKN100 24/20 Q1014=
2025-10-12 13:35:00<>SPECI SBGL 121335Z 07005KT 5000 HZ SCT013 BKN100 26/20 Q1013=
2025-10-12 14:00:00<>METAR SBGL 121400Z 01011KT 5000 HZ SCT017 BKN100 26/20 Q1013=
2025-10-12 15:00:00<>METAR SBGL 121500Z 06010KT 7000 FEW017 SCT100 27/21 Q1010=
2025-10-12 16:00:00<>METAR SBGL 121600Z 09007KT 9999 FEW023 29/21 Q1009=
2025-10-12 17:00:00<>METAR SBGL 121700Z 06007KT 9999 FEW023 31/21 Q1007=
2025-10-12 18:00:00<>METAR SBGL 121800Z 11010KT 9999 FEW023 30/22 Q1007=
2025-10-12 19:00:00<>METAR SBGL 121900Z 13010KT CAVOK 30/21 Q1007=
2025-10-12 20:00:00<>METAR SBGL 122000Z 14007KT 9999 FEW026TCU 29/21 Q1007=
2025-10-12 21:00:00<>METAR SBGL 122100Z 15006KT 9999 SCT040 28/21 Q1007=
2025-10-12 22:00:00<>METAR SBGL 122200Z 14003KT 060V180 9999 FEW040 28/21 Q1008=
2025-10-12 23:00:00<>METAR SBGL 122300Z 35006KT 9999 FEW040 27/22 Q1009=
2025-10-13 00:00:00<>METAR SBGL 130000Z 11005KT 9000 -RA SCT040 BKN080 26/22 Q1009=
2025-10-13 01:00:00<>METAR SBGL 130100Z 22002KT 9999 SCT040 BKN100 25/22 Q1009=
2025-10-13 02:00:00<>METAR SBGL 130200Z 02006KT 9999 FEW040 BKN100 26/22 Q1009=
2025-10-13 03:00:00<>METAR SBGL 130300Z 23004KT 9999 FEW040 SCT100 25/22 Q1009=
2025-10-13 04:00:00<>METAR SBGL 130400Z 24010KT 9999 FEW040 SCT100 24/20 Q1009=
2025-10-13 05:00:00<>METAR SBGL 130500Z 35003KT CAVOK 24/20 Q1009=
2025-10-13 06:00:00<>METAR SBGL 130600Z 13006KT CAVOK 22/20 Q1008=
2025-10-13 07:00:00<>METAR SBGL 130700Z 15005KT CAVOK 22/20 Q1009=
2025-10-13 08:00:00<>METAR SBGL 130800Z 14003KT CAVOK 23/20 Q1009=
2025-10-13 09:00:00<>METAR SBGL 130900Z 01002KT 9999 FEW030 BKN100 22/20 Q1009=
2025-10-13 10:00:00<>METAR SBGL 131000Z 06004KT 9999 FEW030 BKN100 24/21 Q1009=
2025-10-13 11:00:00<>METAR SBGL 131100Z 14003KT 110V180 9999 FEW020 BKN100 25/21 Q1009=
2025-10-13 12:00:00<>METAR SBGL 131200Z 15006KT 9999 FEW020 SCT100 25/20 Q1009=
2025-10-13 13:00:00<>METAR SBGL 131300Z 12005KT 9999 FEW020 SCT100 27/20 Q1009=
2025-10-13 14:00:00<>METAR SBGL 131400Z 01004KT 310V060 9999 FEW020 SCT100 31/19 Q1008=
2025-10-13 15:00:00<>METAR SBGL 131500Z 33013KT 9999 FEW025 33/18 Q1007=
2025-10-13 16:00:00<>METAR SBGL 131600Z 32010KT 9999 FEW030 34/18 Q1007=
2025-10-13 17:00:00<>METAR SBGL 131700Z 02009KT 350V050 9999 FEW030 32/19 Q1006=
2025-10-13 18:00:00<>METAR SBGL 131800Z 02006KT 9999 FEW035 BKN100 31/20 Q1006=
2025-10-13 19:00:00<>METAR SBGL 131900Z 33006KT 300V020 9999 FEW035 BKN100 32/19 Q1007=
2025-10-13 20:00:00<>METAR SBGL 132000Z 02004KT 9999 -RA FEW035 BKN100 30/20 Q1007=
2025-10-13 21:00:00<>METAR SBGL 132100Z VRB02KT 9999 FEW035 BKN100 29/21 Q1008=
2025-10-13 22:00:00<>METAR SBGL 132200Z VRB02KT 9999 FEW035 BKN100 28/20 Q1008=
2025-10-13 23:00:00<>METAR SBGL 132300Z 07003KT 9999 FEW030 BKN100 27/20 Q1009=
2025-10-14 00:00:00<>METAR SBGL 140000Z 25006KT 9999 FEW030 BKN100 28/19 Q1009=
2025-10-14 01:00:00<>METAR SBGL 140100Z 02003KT 9999 FEW030 BKN100 26/19 Q1010=
2025-10-14 02:00:00<>METAR SBGL 140200Z 06004KT 9999 FEW030 BKN066 BKN100 26/20 Q1009=
2025-10-14 03:00:00<>METAR SBGL 140300Z 20002KT 9999 FEW030 SCT066 BKN100 25/20 Q1009=
2025-10-14 04:00:00<>METAR SBGL 140400Z 08003KT 9999 SCT040 BKN100 25/20 Q1009=
2025-10-14 05:00:00<>METAR SBGL 140500Z 18004KT 9999 SCT040 BKN100 24/20 Q1008=
2025-10-14 06:00:00<>METAR SBGL 140600Z 17004KT 8000 SCT040 BKN100 24/19 Q1008=
2025-10-14 07:00:00<>METAR COR SBGL 140700Z 26004KT 6000 -RA SCT040 BKN100 24/20 Q1009=
2025-10-14 08:00:00<>METAR SBGL 140800Z 06004KT 8000 SCT040 BKN100 24/21 Q1010=
2025-10-14 09:00:00<>METAR SBGL 140900Z 07002KT 9999 VCSH SCT040 BKN100 24/22 Q1011=
2025-10-14 10:00:00<>METAR SBGL 141000Z 06005KT 9999 SCT040 BKN080 25/22 Q1011=
2025-10-14 11:00:00<>METAR SBGL 141100Z 35003KT 300V050 9999 FEW040 BKN100 27/21 Q1012=
2025-10-14 12:00:00<>METAR SBGL 141200Z 25006KT CAVOK 31/20 Q1012=
2025-10-14 13:00:00<>METAR SBGL 141300Z 32011KT 9999 FEW025 SCT080 32/18 Q1013=
2025-10-14 14:00:00<>METAR SBGL 141400Z 21013KT 9999 FEW030 BKN050 31/19 Q1013=
2025-10-14 15:00:00<>METAR SBGL 141500Z 20014KT 9999 FEW030 BKN050 30/18 Q1013=
2025-10-14 16:00:00<>METAR SBGL 141600Z 21018KT 9999 FEW030 BKN060 30/18 Q1013=
2025-10-14 17:00:00<>METAR SBGL 141700Z 22016KT 9999 FEW030 BKN060 30/17 Q1013=
2025-10-14 18:00:00<>METAR SBGL 141800Z 21015KT CAVOK 28/18 Q1014=
2025-10-14 19:00:00<>METAR SBGL 141900Z 20010KT CAVOK 26/19 Q1015=
2025-10-14 20:00:00<>METAR SBGL 142000Z 21015KT 9999 FEW030 BKN060 25/19 Q1015=
2025-10-14 21:00:00<>METAR SBGL 142100Z 23010KT 9999 SCT018 BKN070 24/20 Q1016=
2025-10-14 22:00:00<>METAR SBGL 142200Z 21004KT 9999 FEW030 BKN040 BKN070 24/20 Q1017=
2025-10-14 23:00:00<>METAR SBGL 142300Z 21006KT 9999 FEW018 BKN040 BKN070 24/20 Q1018=
2025-10-15 00:00:00<>METAR SBGL 150000Z 23005KT 210V270 9999 FEW017 BKN070 24/20 Q1018=
2025-10-15 01:00:00<>METAR SBGL 150100Z 15004KT 110V180 9999 BKN020 BKN027 24/20 Q1019=
2025-10-15 02:00:00<>METAR SBGL 150200Z 13005KT 9999 BKN020 BKN070 23/19 Q1019=
2025-10-15 03:00:00<>METAR SBGL 150300Z 12004KT 9999 BKN020 BKN030 BKN070 23/19 Q1019=
2025-10-15 04:00:00<>METAR SBGL 150400Z 14002KT 9999 BKN020 BKN030 BKN070 23/18 Q1018=
2025-10-15 05:00:00<>METAR SBGL 150500Z 20004KT 9999 BKN020 BKN030 BKN070 23/18 Q1018=
2025-10-15 06:00:00<>METAR SBGL 150600Z 21005KT 9999 BKN020 BKN030 BKN070 22/18 Q1018=
2025-10-15 07:00:00<>METAR SBGL 150700Z 21004KT 9999 BKN020 BKN030 BKN070 22/18 Q1018=
2025-10-15 08:00:00<>METAR SBGL 150800Z VRB02KT 9999 BKN020 BKN030 BKN070 21/18 Q1018=
2025-10-15 09:00:00<>METAR SBGL 150900Z VRB02KT 9999 SCT020 21/18 Q1019=
2025-10-15 10:00:00<>METAR SBGL 151000Z VRB02KT 9999 SCT018 BKN027 23/18 Q1019=
2025-10-15 11:00:00<>METAR SBGL 151100Z 04004KT 010V070 9999 BKN019 SCT040 23/18 Q1020=
2025-10-15 12:00:00<>METAR SBGL 151200Z 09005KT 050V130 9999 BKN020 SCT040 25/18 Q1020=
2025-10-15 13:00:00<>METAR SBGL 151300Z 12008KT 090V160 9999 BKN023 SCT050 24/18 Q1020=
2025-10-15 14:00:00<>METAR SBGL 151400Z 12010KT 100V170 9999 SCT025 BKN050 24/18 Q1020=
2025-10-15 15:00:00<>METAR SBGL 151500Z 13011KT 9999 SCT025 BKN050 BKN066 24/18 Q1019=
2025-10-15 16:00:00<>METAR SBGL 151600Z 12013KT 9999 VCSH SCT030 BKN050 BKN066 24/18 Q1019=
2025-10-15 17:00:00<>METAR SBGL 151700Z 13010KT 090V160 9999 VCSH SCT030 BKN050 BKN066 24/18 Q1018=
2025-10-15 18:00:00<>METAR SBGL 151800Z 12010KT 9999 VCSH SCT030 BKN050 BKN066 23/18 Q1018=
2025-10-15 19:00:00<>METAR SBGL 151900Z 13010KT 9999 FEW025 BKN040 BKN050 23/17 Q1018=
2025-10-15 20:00:00<>METAR SBGL 152000Z 11009KT 9999 FEW020 BKN030 BKN050 22/18 Q1018=
2025-10-15 21:00:00<>METAR SBGL 152100Z 13007KT 9999 FEW020 BKN030 OVC050 22/18 Q1018=
2025-10-15 22:00:00<>METAR SBGL 152200Z 14005KT 9999 FEW020 OVC040 22/18 Q1018=
2025-10-15 23:00:00<>METAR SBGL 152300Z 02005KT 9999 FEW014 OVC045 22/19 Q1019=
2025-10-16 00:00:00<>METAR SBGL 160000Z 06004KT 9999 FEW014 SCT020 OVC045 22/19 Q1019=
2025-10-16 01:00:00<>METAR SBGL 160100Z 07005KT 9999 FEW013 SCT031 OVC050 21/18 Q1019=
2025-10-16 02:00:00<>METAR SBGL 160200Z 08005KT 9999 FEW013 SCT031 OVC050 22/18 Q1019=
2025-10-16 03:00:00<>METAR SBGL 160300Z 08003KT 9999 FEW013 SCT031 OVC050 21/18 Q1019=
2025-10-16 04:00:00<>METAR SBGL 160400Z 11003KT 9999 FEW020 OVC050 21/18 Q1018=
2025-10-16 05:00:00<>METAR SBGL 160500Z 12002KT 9999 FEW020 SCT040 OVC050 21/18 Q1018=
2025-10-16 06:00:00<>METAR SBGL 160600Z 07002KT 9999 FEW020 OVC045 20/19 Q1017=
2025-10-16 07:00:00<>METAR SBGL 160700Z 06003KT 9999 FEW013 OVC045 20/18 Q1017=
2025-10-16 08:00:00<>METAR SBGL 160800Z 09002KT 9999 FEW011 OVC045 20/17 Q1017=
2025-10-16 09:00:00<>METAR SBGL 160900Z 35002KT 9999 FEW012 OVC025 21/19 Q1018=
2025-10-16 10:00:00<>METAR SBGL 161000Z VRB02KT 9999 FEW013 22/18 Q1018=
2025-10-16 11:00:00<>METAR SBGL 161100Z 07004KT 9999 SCT017 23/18 Q1018=
2025-10-16 12:00:00<>METAR SBGL 161200Z 04005KT 350V090 9999 FEW020 25/18 Q1018=
2025-10-16 13:00:00<>METAR SBGL 161300Z 05007KT 010V080 9999 FEW020 26/17 Q1017=
2025-10-16 14:00:00<>METAR SBGL 161400Z 13008KT 9999 FEW025 26/18 Q1016=
2025-10-16 15:00:00<>METAR SBGL 161500Z 12010KT 9999 FEW030 26/19 Q1015=
2025-10-16 16:00:00<>METAR SBGL 161600Z 14012KT 9999 FEW040 26/18 Q1014=
2025-10-16 17:00:00<>METAR SBGL 161700Z 14012KT 110V170 9999 FEW040 26/18 Q1014=
2025-10-16 18:00:00<>METAR SBGL 161800Z 14014KT CAVOK 25/18 Q1013=
2025-10-16 19:00:00<>METAR SBGL 161900Z 14012KT CAVOK 26/18 Q1013=
2025-10-16 20:00:00<>METAR SBGL 162000Z 13012KT CAVOK 25/19 Q1013=
2025-10-16 21:00:00<>METAR SBGL 162100Z 14010KT CAVOK 24/19 Q1014=
2025-10-16 22:00:00<>METAR SBGL 162200Z 15007KT CAVOK 23/19 Q1014=
2025-10-16 23:00:00<>METAR SBGL 162300Z 13004KT CAVOK 23/19 Q1014=
2025-10-17 00:00:00<>METAR SBGL 170000Z 12003KT 090V180 CAVOK 23/19 Q1015=
2025-10-17 01:00:00<>METAR SBGL 170100Z 10006KT CAVOK 23/19 Q1015=
2025-10-17 02:00:00<>METAR SBGL 170200Z VRB02KT 9999 FEW017 22/19 Q1015=
2025-10-17 03:00:00<>METAR SBGL 170300Z 11002KT 9999 FEW017 22/19 Q1014=
2025-10-17 04:00:00<>METAR SBGL 170400Z 16002KT 9999 FEW017 22/19 Q1014=
2025-10-17 05:00:00<>METAR SBGL 170500Z 14003KT 9999 FEW017 22/19 Q1014=
2025-10-17 06:00:00<>METAR SBGL 170600Z 14002KT 9999 FEW017 22/19 Q1013=
2025-10-17 07:00:00<>METAR SBGL 170700Z 07002KT 9999 FEW017 23/19 Q1013=
2025-10-17 08:00:00<>METAR SBGL 170800Z VRB02KT 9999 FEW017 23/19 Q1013=
2025-10-17 08:10:00<>SPECI SBGL 170810Z VRB02KT 9999 BKN012 23/19 Q1013=
2025-10-17 09:00:00<>METAR SBGL 170900Z VRB02KT 3500 HZ BKN012 23/19 Q1013=
2025-10-17 10:00:00<>METAR SBGL 171000Z 06002KT 3500 HZ BKN014 23/19 Q1013=
2025-10-17 11:00:00<>METAR SBGL 171100Z 35004KT 3500 HZ BKN015 24/18 Q1014=
2025-10-17 12:00:00<>METAR SBGL 171200Z 36002KT 4000 HZ BKN015 25/20 Q1014=
2025-10-17 13:00:00<>METAR SBGL 171300Z 32004KT 5000 HZ SCT020 26/21 Q1013=
2025-10-17 14:00:00<>METAR SBGL 171400Z 33007KT 5000 HZ SCT025 28/20 Q1012=
2025-10-17 15:00:00<>METAR SBGL 171500Z 10006KT 8000 FEW030 29/20 Q1011=
2025-10-17 16:00:00<>METAR SBGL 171600Z 14005KT 9000 NSC 29/20 Q1010=
2025-10-17 17:00:00<>METAR SBGL 171700Z 13011KT 9000 NSC 29/19 Q1009=
2025-10-17 18:00:00<>METAR SBGL 171800Z 10009KT 9999 FEW040 30/19 Q1009=
2025-10-17 19:00:00<>METAR SBGL 171900Z 13008KT 9999 FEW040 30/20 Q1009=
2025-10-17 20:00:00<>METAR SBGL 172000Z 14007KT 9999 FEW040 29/20 Q1009=
2025-10-17 21:00:00<>METAR SBGL 172100Z 15007KT 9999 FEW046 27/20 Q1008=
2025-10-17 22:00:00<>METAR SBGL 172200Z 24007KT CAVOK 27/20 Q1009=
2025-10-17 23:00:00<>METAR SBGL 172300Z 26012KT CAVOK 25/21 Q1010=
2025-10-18 00:00:00<>METAR SBGL 180000Z 29006KT CAVOK 26/20 Q1010=
2025-10-18 01:00:00<>METAR SBGL 180100Z 25006KT CAVOK 25/20 Q1010=
2025-10-18 02:00:00<>METAR SBGL 180200Z 27007KT CAVOK 25/20 Q1010=
2025-10-18 03:00:00<>METAR SBGL 180300Z 27006KT CAVOK 24/20 Q1009=
2025-10-18 04:00:00<>METAR SBGL 180400Z 26006KT CAVOK 23/20 Q1009=
2025-10-18 05:00:00<>METAR SBGL 180500Z 23005KT 9999 FEW040 SCT100 23/20 Q1008=
2025-10-18 06:00:00<>METAR SBGL 180600Z 28006KT 9999 FEW040 SCT100 23/20 Q1008=
2025-10-18 07:00:00<>METAR SBGL 180700Z 21005KT 9999 FEW040 SCT100 22/20 Q1008=
2025-10-18 08:00:00<>METAR SBGL 180800Z 26009KT 9999 FEW040 SCT100 23/20 Q1010=
2025-10-18 09:00:00<>METAR SBGL 180900Z 24008KT 9999 FEW040 BKN100 23/20 Q1011=
2025-10-18 10:00:00<>METAR SBGL 181000Z 27008KT 9999 SCT017 BKN100 24/20 Q1011=
2025-10-18 11:00:00<>METAR SBGL 181100Z 33003KT 280V020 9999 FEW017 BKN100 25/19 Q1010=
2025-10-18 12:00:00<>METAR SBGL 181200Z 05004KT 010V080 9999 FEW020 SCT100 26/20 Q1009=
2025-10-18 13:00:00<>METAR SBGL 181300Z 08007KT 9999 FEW020 26/20 Q1008=
2025-10-18 14:00:00<>METAR SBGL 181400Z 06007KT 9999 FEW020 28/21 Q1007=
2025-10-18 15:00:00<>METAR SBGL 181500Z 07008KT 9999 FEW025 28/21 Q1006=
2025-10-18 16:00:00<>METAR SBGL 181600Z 16006KT 9999 FEW025 BKN100 30/21 Q1006=
2025-10-18 17:00:00<>METAR SBGL 181700Z 14004KT 110V170 9999 FEW030 BKN100 30/20 Q1006=
2025-10-18 18:00:00<>METAR SBGL 181800Z 13005KT 9999 FEW030 BKN100 28/21 Q1006=
2025-10-18 19:00:00<>METAR SBGL 181900Z 22010KT 9999 FEW030 BKN100 30/20 Q1007=
2025-10-18 20:00:00<>METAR SBGL 182000Z 22011KT 190V260 9999 FEW030 BKN100 28/19 Q1007=
2025-10-18 21:00:00<>METAR SBGL 182100Z 05007KT 360V070 9999 FEW030 BKN066 BKN100 26/20 Q1008=
2025-10-18 22:00:00<>METAR SBGL 182200Z 15005KT 110V170 9999 FEW040 BKN066 BKN100 24/21 Q1009=
2025-10-18 23:00:00<>METAR SBGL 182300Z 27007KT 4500 -RA BR FEW025 OVC050 24/21 Q1011=
2025-10-19 00:00:00<>METAR SBGL 190000Z 26004KT 9999 SCT020 BKN035 23/21 Q1011=
2025-10-19 00:05:00<>SPECI SBGL 190005Z 26005KT 4000 RA BR SCT013 BKN030 23/21 Q1011=
2025-10-19 01:00:00<>METAR SBGL 190100Z VRB02KT 4500 -RA BR SCT010 BKN030 22/21 Q1011 RERA=
2025-10-19 02:00:00<>METAR SBGL 190200Z VRB02KT 4500 -RA BR SCT010 BKN016 OVC045 22/21 Q1011=
2025-10-19 03:00:00<>METAR SBGL 190300Z 30004KT 6000 FEW006 BKN010 OVC024 22/21 Q1011=
2025-10-19 04:00:00<>METAR SBGL 190400Z 22003KT 190V250 4000 RA BR SCT006 BKN010 OVC015 22/21 Q1010=
2025-10-19 05:00:00<>METAR SBGL 190500Z 23012KT 6000 -RA SCT010 BKN013 OVC030 21/19 Q1010 RERA=
2025-10-19 06:00:00<>METAR SBGL 190600Z 28005KT 6000 -RA SCT010 BKN013 OVC024 21/19 Q1011=
2025-10-19 07:00:00<>METAR SBGL 190700Z 29007KT 250V050 9000 -RA SCT015 OVC030 21/19 Q1011=
2025-10-19 08:00:00<>METAR SBGL 190800Z 22012KT 190V260 4000 -RA BR SCT010 BKN012 21/19 Q1012=
2025-10-19 09:00:00<>METAR SBGL 190900Z 24015G25KT 4500 -RA BR SCT010 BKN012 OVC024 20/18 Q1015=
2025-10-19 10:00:00<>METAR SBGL 191000Z 23016KT 9999 4000SW SCT013 BKN015 OVC030 20/17 Q1016=
2025-10-19 11:00:00<>METAR SBGL 191100Z 33015KT 6000 -RA BKN013 OVC060 19/17 Q1018=
2025-10-19 12:00:00<>METAR SBGL 191200Z 23011KT 6000 BKN013 SCT017 OVC060 20/17 Q1018=
2025-10-19 12:23:00<>SPECI SBGL 191223Z 23015KT 3000 -RA BR BKN010 SCT017 OVC060 19/17 Q1019=
2025-10-19 13:00:00<>METAR SBGL 191300Z 23009KT 8000 SCT018 BKN040 21/17 Q1019=
2025-10-19 14:00:00<>METAR SBGL 191400Z 22012KT 8000 BKN024 BKN040 22/15 Q1018=
2025-10-19 15:00:00<>METAR SBGL 191500Z 21013KT 9999 SCT024 BKN030 22/15 Q1019=
2025-10-19 16:00:00<>METAR SBGL 191600Z 20011KT 9999 SCT026 BKN045 21/16 Q1018=
2025-10-19 17:00:00<>METAR SBGL 191700Z 19006KT 9999 SCT027 BKN045 22/15 Q1018=
2025-10-19 18:00:00<>METAR SBGL 191800Z 21015KT 9999 SCT027 BKN040 22/14 Q1018=
2025-10-19 19:00:00<>METAR SBGL 191900Z 21012KT 9999 FEW025 BKN045 21/15 Q1018=
2025-10-19 20:00:00<>METAR SBGL 192000Z 21009KT 9999 FEW025 OVC040 20/14 Q1019=
2025-10-19 21:00:00<>METAR SBGL 192100Z 17004KT 9999 FEW012 OVC020 18/16 Q1020=
2025-10-19 22:00:00<>METAR SBGL 192200Z 22007KT 9000 FEW031 OVC040 18/15 Q1021=
2025-10-19 23:00:00<>METAR SBGL 192300Z 27005KT 6000 -RA FEW030 OVC036 19/15 Q1021=
2025-10-20 00:00:00<>METAR SBGL 200000Z 31006KT 290V360 6000 -RA BKN030 OVC070 18/15 Q1022=
2025-10-20 01:00:00<>METAR SBGL 200100Z 31007KT 290V350 9000 BKN030 OVC070 18/15 Q1022=
2025-10-20 02:00:00<>METAR SBGL 200200Z VRB05KT 9000 SCT007 BKN027 OVC070 18/16 Q1022=
2025-10-20 03:00:00<>METAR SBGL 200300Z 32004KT 280V010 9000 SCT012 BKN027 OVC070 18/16 Q1022=
2025-10-20 03:15:00<>SPECI SBGL 200315Z VRB04KT 2500 -RA BR BKN010 BKN027 OVC070 18/16 Q1022=
2025-10-20 04:00:00<>METAR SBGL 200400Z 27004KT 5000 -RA BR SCT010 BKN030 OVC060 17/15 Q1021=
2025-10-20 05:00:00<>METAR SBGL 200500Z 03003KT 5000 -RA BR SCT010 BKN030 OVC060 17/15 Q1021=
2025-10-20 06:00:00<>METAR SBGL 200600Z 33006KT 5000 -RA BR SCT010 BKN030 OVC060 17/15 Q1021=
2025-10-20 07:00:00<>METAR SBGL 200700Z 31007KT 5000 -RA BR SCT010 BKN030 OVC060 17/15 Q1022=
2025-10-20 08:00:00<>METAR SBGL 200800Z 29004KT 5000 -RA BR SCT010 BKN030 OVC060 17/15 Q1022=
2025-10-20 09:00:00<>METAR SBGL 200900Z 28004KT 9999 SCT010 BKN040 17/15 Q1023=
2025-10-20 10:00:00<>METAR SBGL 201000Z 17004KT 130V200 4000 -RA BR FEW010 BKN030 OVC040 18/15 Q1024=
2025-10-20 11:00:00<>METAR SBGL 201100Z VRB02KT 8000 SCT012 BKN030 BKN070 17/14 Q1025=
2025-10-20 12:00:00<>METAR SBGL 201200Z 12006KT 090V170 8000 SCT014 BKN035 BKN070 19/14 Q1025=
2025-10-20 13:00:00<>METAR SBGL 201300Z 10004KT 060V150 9999 SCT014 BKN035 BKN070 20/14 Q1025=
2025-10-20 14:00:00<>METAR SBGL 201400Z 14007KT 100V180 9999 VCSH SCT014 BKN035 FEW040TCU BKN080 20/13 Q1025=
2025-10-20 15:00:00<>METAR SBGL 201500Z 14008KT 100V200 9999 BKN017 BKN035 FEW040TCU BKN080 22/12 Q1025=
2025-10-20 16:00:00<>METAR SBGL 201600Z 13010KT 090V160 9999 BKN035 FEW040TCU BKN090 22/11 Q1024=
2025-10-20 17:00:00<>METAR SBGL 201700Z 13012KT 9999 BKN035 FEW040TCU BKN090 21/12 Q1024=
2025-10-20 18:00:00<>METAR SBGL 201800Z 12009KT 9999 BKN040 FEW045TCU BKN080 21/10 Q1024=
2025-10-20 19:00:00<>METAR SBGL 201900Z 13011KT 9999 BKN040 FEW045TCU SCT080 21/12 Q1024=
2025-10-20 20:00:00<>METAR SBGL 202000Z 14008KT 090V150 9999 BKN040 FEW045TCU SCT080 20/10 Q1024=
2025-10-20 21:00:00<>METAR SBGL 202100Z 13009KT 9999 BKN040 FEW045TCU BKN080 20/11 Q1025=
2025-10-20 22:00:00<>METAR SBGL 202200Z 16006KT 9999 SCT040 BKN070 20/12 Q1025=
2025-10-20 23:00:00<>METAR SBGL 202300Z 08008KT 9999 SCT040 SCT070 18/14 Q1026=
2025-10-21 00:00:00<>METAR SBGL 210000Z 07006KT CAVOK 17/15 Q1027=
2025-10-21 01:00:00<>METAR SBGL 210100Z 12005KT 9999 FEW040 SCT070 17/14 Q1027=
2025-10-21 02:00:00<>METAR SBGL 210200Z 14002KT 9999 FEW040 16/14 Q1027=
2025-10-21 03:00:00<>METAR SBGL 210300Z 07002KT 9999 FEW040 17/14 Q1027=
2025-10-21 04:00:00<>METAR SBGL 210400Z 02002KT CAVOK 16/14 Q1026=
2025-10-21 05:00:00<>METAR SBGL 210500Z 12001KT 9999 FEW040 SCT080 17/15 Q1026=
2025-10-21 06:00:00<>METAR SBGL 210600Z 01003KT 9999 FEW035 SCT070 17/14 Q1025=
2025-10-21 07:00:00<>METAR SBGL 210700Z 34003KT CAVOK 16/14 Q1025=
2025-10-21 08:00:00<>METAR SBGL 210800Z 27002KT CAVOK 15/13 Q1026=
2025-10-21 09:00:00<>METAR SBGL 210900Z 00000KT CAVOK 15/13 Q1026=
2025-10-21 10:00:00<>METAR SBGL 211000Z 10002KT 9999 FEW030 19/13 Q1027=
2025-10-21 11:00:00<>METAR SBGL 211100Z 01004KT 330V040 9999 FEW030 19/13 Q1028=
2025-10-21 12:00:00<>METAR SBGL 211200Z 01006KT 340V060 9999 FEW027 21/15 Q1028=
2025-10-21 13:00:00<>METAR SBGL 211300Z 35006KT 320V020 9999 BKN035 21/11 Q1028=
2025-10-21 14:00:00<>METAR SBGL 211400Z 14008KT 8000 -RA OVC035 20/12 Q1027=
2025-10-21 15:00:00<>METAR SBGL 211500Z 15006KT 9999 OVC035 22/13 Q1027=
2025-10-21 16:00:00<>METAR SBGL 211600Z 11011KT 6000 -RA SCT018 OVC045 19/15 Q1027=
2025-10-21 17:00:00<>METAR SBGL 211700Z 11005KT 9999 SCT018 OVC050 19/15 Q1026=
2025-10-21 18:00:00<>METAR SBGL 211800Z 13011KT 9999 SCT018 OVC050 19/14 Q1026=
2025-10-21 19:00:00<>METAR SBGL 211900Z 13007KT 8000 SCT025 OVC050 20/14 Q1026=
2025-10-21 20:00:00<>METAR SBGL 212000Z 11006KT 9999 SCT025 OVC050 20/13 Q1026=
2025-10-21 21:00:00<>METAR SBGL 212100Z 10006KT 9999 SCT025 OVC055 20/13 Q1026=
2025-10-21 22:00:00<>METAR SBGL 212200Z 05008KT 9999 SCT026 OVC070 19/14 Q1026=
2025-10-21 23:00:00<>METAR SBGL 212300Z 08006KT 9999 FEW026 BKN066 19/14 Q1027=
2025-10-22 00:00:00<>METAR SBGL 220000Z 12004KT 9999 FEW026 SCT066 18/13 Q1027=
2025-10-22 01:00:00<>METAR SBGL 220100Z 13006KT 9999 FEW020 18/14 Q1028=
2025-10-22 02:00:00<>METAR SBGL 220200Z 12006KT 9999 FEW020 18/13 Q1027=
2025-10-22 03:00:00<>METAR SBGL 220300Z 13005KT 9999 FEW043 17/13 Q1027=
2025-10-22 04:00:00<>METAR SBGL 220400Z 11004KT CAVOK 16/13 Q1026=
2025-10-22 05:00:00<>METAR SBGL 220500Z 12005KT CAVOK 16/13 Q1025=
2025-10-22 06:00:00<>METAR SBGL 220600Z 10006KT CAVOK 16/13 Q1025=
2025-10-22 07:00:00<>METAR SBGL 220700Z 32003KT 260V350 CAVOK 16/13 Q1025=
2025-10-22 08:00:00<>METAR SBGL 220800Z 33003KT CAVOK 15/12 Q1026=
2025-10-22 09:00:00<>METAR SBGL 220900Z 33003KT 9999 FEW015 16/12 Q1027=
2025-10-22 10:00:00<>METAR SBGL 221000Z 36004KT 330V030 9999 FEW015 17/12 Q1027=
2025-10-22 11:00:00<>METAR SBGL 221100Z 36005KT 340V040 9999 SCT015 19/14 Q1028=
2025-10-22 12:00:00<>METAR SBGL 221200Z 07007KT 040V120 9999 FEW015 BKN066 21/13 Q1028=
2025-10-22 13:00:00<>METAR SBGL 221300Z 08008KT 9999 SCT015 BKN066 23/13 Q1028=
2025-10-22 14:00:00<>METAR SBGL 221400Z 14010KT 9999 SCT015 SCT040 23/14 Q1027=
2025-10-22 15:00:00<>METAR SBGL 221500Z 15009KT 9999 SCT030 SCT050 23/14 Q1027=
2025-10-22 16:00:00<>METAR SBGL 221600Z 13012KT 100V160 9999 SCT030 SCT040 24/13 Q1026=
2025-10-22 17:00:00<>METAR SBGL 221700Z 14015KT 9999 SCT030 BKN060 23/13 Q1025=
2025-10-22 18:00:00<>METAR SBGL 221800Z 16012KT 120V180 9999 SCT030 BKN083 23/13 Q1025=
2025-10-22 19:00:00<>METAR SBGL 221900Z 14014KT 9999 SCT030 BKN083 22/14 Q1025=
2025-10-22 20:00:00<>METAR SBGL 222000Z 13012KT 9999 SCT030 SCT083 21/13 Q1025=
2025-10-22 21:00:00<>METAR SBGL 222100Z 15014KT 9999 SCT046 SCT083 21/13 Q1026=
2025-10-22 22:00:00<>METAR SBGL 222200Z 12011KT 9999 BKN043 20/14 Q1026=
2025-10-22 23:00:00<>METAR SBGL 222300Z 10011KT 9999 SCT045 20/13 Q1027=
2025-10-23 00:00:00<>METAR SBGL 230000Z 10009KT 9999 FEW045 19/13 Q1027=
2025-10-23 01:00:00<>METAR SBGL 230100Z 10007KT 9999 FEW045 19/13 Q1027=
2025-10-23 02:00:00<>METAR SBGL 230200Z 10012KT 9999 FEW045 19/14 Q1027=
2025-10-23 03:00:00<>METAR SBGL 230300Z 10012KT 9999 FEW045 18/14 Q1027=
2025-10-23 04:00:00<>METAR SBGL 230400Z 10008KT CAVOK 18/14 Q1026=
2025-10-23 05:00:00<>METAR SBGL 230500Z 09006KT 9999 FEW030 18/14 Q1026=
2025-10-23 06:00:00<>METAR SBGL 230600Z 08006KT 9999 FEW030 17/14 Q1025=
2025-10-23 07:00:00<>METAR SBGL 230700Z 11004KT 9999 FEW035 17/14 Q1026=
2025-10-23 08:00:00<>METAR SBGL 230800Z 10002KT 9999 FEW040 16/13 Q1026=
2025-10-23 09:00:00<>METAR SBGL 230900Z 10003KT 9999 FEW040 SCT070 17/14 Q1026=
2025-10-23 10:00:00<>METAR SBGL 231000Z 10004KT 9999 FEW030 SCT070 19/14 Q1026=
2025-10-23 11:00:00<>METAR SBGL 231100Z 10004KT 050V150 9999 FEW030 BKN070 21/14 Q1027=
2025-10-23 12:00:00<>METAR SBGL 231200Z 09009KT 9999 FEW030 BKN070 23/13 Q1026=
2025-10-23 13:00:00<>METAR SBGL 231300Z 06009KT 020V120 9999 FEW030 BKN070 25/14 Q1026=
2025-10-23 14:00:00<>METAR SBGL 231400Z 12010KT 9999 FEW048 25/12 Q1025=
2025-10-23 15:00:00<>METAR SBGL 231500Z 14014KT 9999 FEW048 25/14 Q1024=
2025-10-23 16:00:00<>METAR SBGL 231600Z 15014KT 9999 FEW048 25/15 Q1023=
2025-10-23 17:00:00<>METAR SBGL 231700Z 15014KT 9999 FEW048 25/15 Q1023=
2025-10-23 18:00:00<>METAR SBGL 231800Z 14016KT 9999 FEW048 24/15 Q1022=
2025-10-23 19:00:00<>METAR SBGL 231900Z 14016KT 9999 FEW048 23/15 Q1022=
2025-10-23 20:00:00<>METAR SBGL 232000Z 15013KT 9999 FEW030 SCT065 22/15 Q1023=
2025-10-23 21:00:00<>METAR SBGL 232100Z 14012KT 9999 FEW030 SCT075 21/15 Q1023=
2025-10-23 22:00:00<>METAR SBGL 232200Z 10010KT CAVOK 21/15 Q1024=
2025-10-23 23:00:00<>METAR SBGL 232300Z 10017KT 9999 FEW043 21/13 Q1025=
2025-10-24 00:00:00<>METAR SBGL 240000Z 10017KT 9999 SCT046 21/14 Q1025=
2025-10-24 01:00:00<>METAR SBGL 240100Z 10012KT 9999 SCT046 20/14 Q1025=
2025-10-24 02:00:00<>METAR SBGL 240200Z 10013KT 9999 FEW046 20/13 Q1025=
2025-10-24 03:00:00<>METAR SBGL 240300Z 10011KT 9999 FEW046 19/13 Q1025=
2025-10-24 04:00:00<>METAR SBGL 240400Z 09009KT 9999 FEW046 19/13 Q1024=
2025-10-24 05:00:00<>METAR SBGL 240500Z 11008KT 9999 FEW046 18/14 Q1024=
2025-10-24 06:00:00<>METAR SBGL 240600Z 12007KT 9999 FEW046 18/14 Q1024=
2025-10-24 07:00:00<>METAR SBGL 240700Z 13007KT 9999 FEW046 17/14 Q1023=
2025-10-24 08:00:00<>METAR SBGL 240800Z 13003KT 8000 FEW046 16/13 Q1024=
2025-10-24 09:00:00<>METAR SBGL 240900Z 13004KT CAVOK 18/14 Q1024=
2025-10-24 10:00:00<>METAR SBGL 241000Z 07006KT CAVOK 20/14 Q1025=
2025-10-24 11:00:00<>METAR SBGL 241100Z 06005KT 030V100 CAVOK 22/14 Q1025=
2025-10-24 12:00:00<>METAR SBGL 241200Z 06006KT 030V100 9999 FEW017 23/13 Q1025=
2025-10-24 13:00:00<>METAR SBGL 241300Z 05006KT 010V090 9999 FEW020 24/12 Q1024=
2025-10-24 14:00:00<>METAR SBGL 241400Z 03007KT 320V060 9999 FEW025 26/12 Q1023=
2025-10-24 15:00:00<>METAR SBGL 241500Z 13007KT 090V180 9999 FEW025 27/12 Q1022=
2025-10-24 16:00:00<>METAR SBGL 241600Z 13011KT 100V160 9999 FEW025 26/16 Q1021=
2025-10-24 17:00:00<>METAR SBGL 241700Z 15012KT 120V180 9999 FEW030 27/16 Q1020=
2025-10-24 18:00:00<>METAR SBGL 241800Z 15013KT 9999 FEW030 25/16 Q1020=
2025-10-24 19:00:00<>METAR SBGL 241900Z 14013KT 9999 FEW035 24/16 Q1019=
2025-10-24 20:00:00<>METAR SBGL 242000Z 14009KT 090V180 9999 FEW035 25/16 Q1019=
2025-10-24 21:00:00<>METAR SBGL 242100Z 10013KT 9999 FEW040 24/15 Q1019=
2025-10-24 22:00:00<>METAR SBGL 242200Z 11011KT CAVOK 22/15 Q1020=
2025-10-24 23:00:00<>METAR SBGL 242300Z 11012KT CAVOK 22/15 Q1020=
2025-10-25 00:00:00<>METAR SBGL 250000Z 10010KT CAVOK 21/15 Q1021=
2025-10-25 01:00:00<>METAR SBGL 250100Z 10010KT CAVOK 21/15 Q1021=
2025-10-25 02:00:00<>METAR SBGL 250200Z 10009KT CAVOK 20/16 Q1020=
2025-10-25 03:00:00<>METAR SBGL 250300Z 11007KT CAVOK 20/15 Q1020=
2025-10-25 04:00:00<>METAR SBGL 250400Z 10006KT CAVOK 19/15 Q1020=
2025-10-25 05:00:00<>METAR SBGL 250500Z 11004KT CAVOK 18/15 Q1019=
2025-10-25 06:00:00<>METAR SBGL 250600Z 11003KT CAVOK 18/15 Q1019=
2025-10-25 07:00:00<>METAR SBGL 250700Z 11003KT CAVOK 18/15 Q1018=
2025-10-25 08:00:00<>METAR SBGL 250800Z VRB02KT CAVOK 18/15 Q1018=
2025-10-25 09:00:00<>METAR SBGL 250900Z 16002KT 9999 FEW020 BKN095 19/16 Q1018=
2025-10-25 10:00:00<>METAR SBGL 251000Z 33005KT 9999 FEW020 21/17 Q1018=
2025-10-25 11:00:00<>METAR SBGL 251100Z VRB03KT 9999 FEW020 23/16 Q1019=
2025-10-25 12:00:00<>METAR SBGL 251200Z VRB03KT 9999 FEW020 25/16 Q1020=
2025-10-25 13:00:00<>METAR SBGL 251300Z 05004KT 330V140 9999 FEW020 26/16 Q1020=
2025-10-25 14:00:00<>METAR SBGL 251400Z VRB07KT 9999 FEW022 28/15 Q1019=
2025-10-25 15:00:00<>METAR SBGL 251500Z 05006KT 030V110 9999 FEW023 29/15 Q1018=
2025-10-25 16:00:00<>METAR SBGL 251600Z 15007KT 100V180 9999 FEW024 29/16 Q1017=
2025-10-25 17:00:00<>METAR SBGL 251700Z 13005KT 080V170 9999 FEW024 30/16 Q1016=
2025-10-25 18:00:00<>METAR SBGL 251800Z 13010KT 9999 FEW024 30/16 Q1014=
2025-10-25 19:00:00<>METAR SBGL 251900Z 14009KT 9999 FEW023 30/15 Q1014=
2025-10-25 20:00:00<>METAR SBGL 252000Z 09013KT CAVOK 30/18 Q1014=
2025-10-25 21:00:00<>METAR SBGL 252100Z 09012KT CAVOK 27/18 Q1014=
2025-10-25 22:00:00<>METAR SBGL 252200Z 09007KT CAVOK 26/19 Q1014=
2025-10-25 23:00:00<>METAR SBGL 252300Z 15004KT 9999 FEW010 25/18 Q1015=
2025-10-26 00:00:00<>METAR SBGL 260000Z 10004KT CAVOK 24/18 Q1015=
2025-10-26 01:00:00<>METAR SBGL 260100Z 08003KT CAVOK 23/18 Q1016=
2025-10-26 02:00:00<>METAR SBGL 260200Z 09004KT CAVOK 22/18 Q1015=
2025-10-26 03:00:00<>METAR SBGL 260300Z VRB02KT CAVOK 22/18 Q1014=
2025-10-26 04:00:00<>METAR SBGL 260400Z 14002KT CAVOK 21/18 Q1014=
2025-10-26 05:00:00<>METAR SBGL 260500Z 16001KT CAVOK 21/18 Q1013=
2025-10-26 06:00:00<>METAR SBGL 260600Z 27001KT CAVOK 20/17 Q1013=
2025-10-26 07:00:00<>METAR SBGL 260700Z 07002KT CAVOK 20/17 Q1013=
2025-10-26 08:00:00<>METAR SBGL 260800Z 26003KT CAVOK 21/18 Q1013=
2025-10-26 09:00:00<>METAR SBGL 260900Z 27002KT CAVOK 22/19 Q1014=
2025-10-26 10:00:00<>METAR SBGL 261000Z VRB02KT CAVOK 25/18 Q1014=
2025-10-26 11:00:00<>METAR SBGL 261100Z 04005KT CAVOK 27/18 Q1014=
2025-10-26 12:00:00<>METAR SBGL 261200Z 05004KT CAVOK 29/17 Q1013=
2025-10-26 13:00:00<>METAR SBGL 261300Z 07005KT 9999 FEW030 31/17 Q1013=
2025-10-26 14:00:00<>METAR SBGL 261400Z 35004KT 300V030 9999 FEW030 32/16 Q1012=
2025-10-26 15:00:00<>METAR SBGL 261500Z VRB03KT 9999 FEW030 34/16 Q1011=
2025-10-26 16:00:00<>METAR SBGL 261600Z 35003KT 270V050 9999 FEW035 35/14 Q1010=
2025-10-26 17:00:00<>METAR SBGL 261700Z VRB04KT 9999 FEW035 35/13 Q1009=
2025-10-26 18:00:00<>METAR SBGL 261800Z 14010KT 9999 FEW035 SCT100 33/17 Q1009=
2025-10-26 19:00:00<>METAR SBGL 261900Z 13010KT 9999 FEW035 32/18 Q1009=
2025-10-26 20:00:00<>METAR SBGL 262000Z 14011KT 9999 FEW035 32/17 Q1009=
2025-10-26 21:00:00<>METAR SBGL 262100Z 13008KT 9999 FEW040 29/18 Q1010=
2025-10-26 22:00:00<>METAR SBGL 262200Z 14005KT CAVOK 28/19 Q1010=
2025-10-26 23:00:00<>METAR SBGL 262300Z VRB01KT 9999 FEW040 27/19 Q1011=
2025-10-27 00:00:00<>METAR SBGL 270000Z 02004KT 350V050 CAVOK 27/21 Q1012=
2025-10-27 01:00:00<>METAR SBGL 270100Z 33003KT 300V020 CAVOK 27/19 Q1012=
2025-10-27 02:00:00<>METAR SBGL 270200Z 25006KT CAVOK 26/18 Q1012=
2025-10-27 03:00:00<>METAR SBGL 270300Z 26008KT 9999 FEW040 BKN100 26/17 Q1012=
2025-10-27 04:00:00<>METAR SBGL 270400Z 26007KT 230V310 9999 FEW040 BKN100 25/17 Q1012=
2025-10-27 05:00:00<>METAR SBGL 270500Z 26006KT CAVOK 24/17 Q1012=
2025-10-27 06:00:00<>METAR SBGL 270600Z VRB02KT CAVOK 24/17 Q1012=
2025-10-27 07:00:00<>METAR SBGL 270700Z VRB02KT CAVOK 22/18 Q1012=
2025-10-27 08:00:00<>METAR SBGL 270800Z VRB02KT CAVOK 22/18 Q1013=
2025-10-27 09:00:00<>METAR SBGL 270900Z 14003KT CAVOK 23/19 Q1014=
2025-10-27 10:00:00<>METAR SBGL 271000Z VRB02KT CAVOK 24/19 Q1014=
2025-10-27 11:00:00<>METAR SBGL 271100Z VRB03KT CAVOK 26/19 Q1015=
2025-10-27 12:00:00<>METAR SBGL 271200Z 14004KT 090V210 CAVOK 27/20 Q1015=
2025-10-27 13:00:00<>METAR SBGL 271300Z 14008KT CAVOK 27/19 Q1014=
2025-10-27 14:00:00<>METAR SBGL 271400Z 12011KT CAVOK 28/19 Q1014=
2025-10-27 15:00:00<>METAR SBGL 271500Z 13012KT 9999 FEW022 27/19 Q1013=
2025-10-27 16:00:00<>METAR SBGL 271600Z 12017KT 9999 FEW022 26/19 Q1013=
2025-10-27 17:00:00<>METAR SBGL 271700Z 13010KT 9999 FEW024 27/20 Q1013=
2025-10-27 18:00:00<>METAR SBGL 271800Z 21010KT 9999 FEW028 27/19 Q1013=
2025-10-27 19:00:00<>METAR SBGL 271900Z 22014KT 9000 BKN009 BKN070 25/19 Q1015=
2025-10-27 20:00:00<>METAR SBGL 272000Z 22013KT 9000 BKN009 BKN070 24/15 Q1016=
2025-10-27 21:00:00<>METAR SBGL 272100Z 22014KT 200V260 9000 BKN012 BKN070 23/19 Q1017=
2025-10-27 22:00:00<>METAR SBGL 272200Z 24011KT 8000 SCT015 BKN021 OVC036 23/19 Q1018=
2025-10-27 23:00:00<>METAR SBGL 272300Z 26010KT 7000 -RA SCT017 BKN026 OVC036 23/19 Q1018=
2025-10-28 00:00:00<>METAR SBGL 280000Z 28005KT 8000 -RA SCT015 BKN017 OVC036 22/20 Q1019=
2025-10-28 01:00:00<>METAR SBGL 280100Z 29007KT 7000 -RA FEW016 BKN021 OVC080 21/19 Q1019=
2025-10-28 02:00:00<>METAR SBGL 280200Z 30006KT 8000 -RA FEW011 BKN021 OVC100 21/19 Q1019=
2025-10-28 03:00:00<>METAR SBGL 280300Z 33006KT 6000 -RA SCT006 BKN007 OVC100 22/19 Q1018=
2025-10-28 04:00:00<>METAR SBGL 280400Z 30005KT 8000 -RA SCT007 SCT019 OVC100 21/19 Q1017=
2025-10-28 05:00:00<>METAR SBGL 280500Z 32005KT 8000 -RA FEW007 SCT019 OVC100 21/19 Q1017=
2025-10-28 06:00:00<>METAR SBGL 280600Z 31005KT 8000 -RA FEW007 SCT019 OVC100 20/19 Q1016=
2025-10-28 07:00:00<>METAR SBGL 280700Z 29005KT 8000 -RA FEW007 SCT019 OVC100 20/19 Q1016=
2025-10-28 08:00:00<>METAR SBGL 280800Z 28003KT 7000 -RA FEW009 SCT019 OVC080 21/19 Q1016=
2025-10-28 09:00:00<>METAR SBGL 280900Z 32003KT 7000 SCT008 SCT019 OVC080 21/19 Q1017=
2025-10-28 09:10:00<>SPECI SBGL 280910Z 29003KT 7000 BKN007 BKN009 OVC080 21/19 Q1017=
2025-10-28 10:00:00<>METAR SBGL 281000Z 30003KT 7000 BKN007 BKN009 OVC080 22/20 Q1017=
2025-10-28 11:00:00<>METAR SBGL 281100Z 04003KT 7000 BKN007 OVC080 22/20 Q1017=
2025-10-28 12:00:00<>METAR SBGL 281200Z 13004KT 8000 BKN008 OVC100 23/20 Q1017=
2025-10-28 12:40:00<>SPECI SBGL 281240Z VRB02KT 9999 FEW010 SCT100 25/20 Q1017=
2025-10-28 13:00:00<>METAR SBGL 281300Z 02003KT 9999 FEW010 SCT100 26/20 Q1017=
2025-10-28 14:00:00<>METAR SBGL 281400Z 35006KT 300V020 9999 FEW015 SCT100 26/20 Q1017=
2025-10-28 15:00:00<>METAR SBGL 281500Z 12007KT 030V150 9999 FEW025 SCT100 28/21 Q1016=
2025-10-28 16:00:00<>METAR SBGL 281600Z 12008KT 9999 FEW025 SCT100 27/20 Q1016=
2025-10-28 17:00:00<>METAR SBGL 281700Z 12010KT 9999 FEW025 BKN100 25/20 Q1015=
2025-10-28 18:00:00<>METAR SBGL 281800Z 12009KT 9999 FEW020 BKN100 26/20 Q1015=
2025-10-28 19:00:00<>METAR SBGL 281900Z 12010KT 9999 FEW020 BKN040 24/20 Q1015=
2025-10-28 20:00:00<>METAR SBGL 282000Z 13006KT 9999 FEW020 SCT040 23/20 Q1016=
2025-10-28 21:00:00<>METAR SBGL 282100Z 07003KT 010V130 9999 FEW020 SCT080 23/20 Q1016=
2025-10-28 22:00:00<>METAR SBGL 282200Z 09004KT 9999 -DZ FEW015 SCT020 BKN100 23/20 Q1017=
2025-10-28 23:00:00<>METAR SBGL 282300Z 09004KT 9999 -RA FEW012 SCT020 OVC100 22/20 Q1017=
2025-10-29 00:00:00<>METAR SBGL 290000Z 08003KT 9999 -DZ FEW011 SCT030 OVC100 22/20 Q1017=
2025-10-29 01:00:00<>METAR SBGL 290100Z VRB01KT 9999 FEW020 SCT040 OVC100 23/20 Q1017=
2025-10-29 02:00:00<>METAR SBGL 290200Z VRB02KT 9000 SCT012 BKN025 OVC100 23/20 Q1016=
2025-10-29 03:00:00<>METAR SBGL 290300Z VRB02KT 9999 SCT012 BKN015 OVC030 23/19 Q1015=
2025-10-29 04:00:00<>METAR SBGL 290400Z 00000KT 9999 SCT012 BKN015 22/17 Q1014=
2025-10-29 05:00:00<>METAR SBGL 290500Z VRB02KT 8000 SCT012 BKN015 OVC030 23/20 Q1014=
2025-10-29 06:00:00<>METAR SBGL 290600Z VRB02KT 8000 SCT012 OVC015 23/20 Q1013=
2025-10-29 07:00:00<>METAR SBGL 290700Z 29003KT 7000 SCT012 OVC015 23/20 Q1013=
2025-10-29 08:00:00<>METAR SBGL 290800Z 34003KT 6000 OVC015 23/20 Q1013=
2025-10-29 08:26:00<>SPECI SBGL 290826Z VRB02KT 4000 BR OVC008 23/20 Q1013=
2025-10-29 09:00:00<>METAR SBGL 290900Z VRB02KT 4000 BR OVC011 23/20 Q1013=
2025-10-29 10:00:00<>METAR SBGL 291000Z 05002KT 4000 BR SCT010 BKN080 24/20 Q1013=
2025-10-29 11:00:00<>METAR SBGL 291100Z VRB03KT 5000 BR FEW012 BKN100 25/21 Q1013=
2025-10-29 12:00:00<>METAR SBGL 291200Z VRB02KT 5000 HZ FEW012 SCT100 27/20 Q1013=
2025-10-29 13:00:00<>METAR SBGL 291300Z VRB03KT 6000 FEW012 BKN100 29/22 Q1013=
2025-10-29 14:00:00<>METAR SBGL 291400Z 18004KT 160V220 8000 FEW018 BKN100 27/21 Q1013=
2025-10-29 15:00:00<>METAR SBGL 291500Z 18004KT 130V250 9000 -RA FEW020 BKN100 29/20 Q1013=
2025-10-29 16:00:00<>METAR SBGL 291600Z 09006KT 9000 FEW020 BKN100 28/21 Q1011=
2025-10-29 17:00:00<>METAR SBGL 291700Z 12005KT 9000 FEW020 BKN100 29/21 Q1010=
2025-10-29 18:00:00<>METAR SBGL 291800Z 15006KT 9999 FEW020 BKN100 29/20 Q1010=
2025-10-29 19:00:00<>METAR SBGL 291900Z 13005KT CAVOK 30/20 Q1010=
2025-10-29 20:00:00<>METAR SBGL 292000Z 13002KT CAVOK 29/20 Q1010=
2025-10-29 21:00:00<>METAR SBGL 292100Z VRB02KT CAVOK 27/21 Q1011=
2025-10-29 22:00:00<>METAR SBGL 292200Z 24011KT CAVOK 25/20 Q1012=
2025-10-29 23:00:00<>METAR SBGL 292300Z 24009KT CAVOK 26/18 Q1014=
2025-10-30 00:00:00<>METAR SBGL 300000Z 26010KT 9999 BKN040 BKN100 25/18 Q1015=
2025-10-30 01:00:00<>METAR SBGL 300100Z 27008KT 9999 BKN040 BKN100 24/19 Q1015=
2025-10-30 02:00:00<>METAR SBGL 300200Z 23010KT 9999 BKN040 BKN100 24/19 Q1015=
2025-10-30 03:00:00<>METAR SBGL 300300Z 23010KT 9999 BKN040 BKN100 23/19 Q1015=
2025-10-30 04:00:00<>METAR SBGL 300400Z 21007KT 9999 FEW025 BKN040 BKN100 23/19 Q1015=
2025-10-30 05:00:00<>METAR SBGL 300500Z 24008KT 9999 FEW025 BKN040 BKN100 23/18 Q1014=
2025-10-30 06:00:00<>METAR SBGL 300600Z 25007KT 9999 FEW025 BKN040 BKN100 22/18 Q1014=
2025-10-30 07:00:00<>METAR SBGL 300700Z 24008KT 9999 FEW025 OVC040 22/18 Q1015=
2025-10-30 08:00:00<>METAR SBGL 300800Z 24005KT 9999 BKN025 OVC040 22/18 Q1015=
2025-10-30 09:00:00<>METAR SBGL 300900Z 23008KT 200V260 9999 BKN022 OVC027 23/18 Q1016=
2025-10-30 10:00:00<>METAR SBGL 301000Z 24013KT 9999 BKN025 OVC060 23/18 Q1017=
2025-10-30 11:00:00<>METAR SBGL 301100Z 23011KT 9999 BKN025 OVC050 24/17 Q1017=
2025-10-30 12:00:00<>METAR SBGL 301200Z 23010KT 9999 BKN025 OVC050 22/17 Q1018=
2025-10-30 13:00:00<>METAR SBGL 301300Z 24011KT 9999 BKN030 OVC050 25/17 Q1018=
2025-10-30 14:00:00<>METAR SBGL 301400Z 21011KT 9999 BKN030 OVC060 25/17 Q1018=
2025-10-30 15:00:00<>METAR SBGL 301500Z 21014KT 9999 BKN028 OVC060 25/17 Q1018=
2025-10-30 16:00:00<>METAR SBGL 301600Z 22012KT 9999 BKN028 OVC070 23/17 Q1018=
2025-10-30 17:00:00<>METAR SBGL 301700Z 20008KT 3000 RA BKN020 OVC060 21/18 Q1017=
2025-10-30 17:44:00<>SPECI SBGL 301744Z 20002KT 3000 -RA BKN010 OVC050 21/17 Q1016 RERA=
2025-10-30 18:00:00<>METAR SBGL 301800Z 26002KT 8000 -RA BKN010 OVC050 21/18 Q1016 RERA=
2025-10-30 19:00:00<>METAR SBGL 301900Z 10003KT 8000 -RA BKN010 OVC050 21/18 Q1016=
2025-10-30 20:00:00<>METAR COR SBGL 302000Z 12002KT 4000 -RA BR BKN010 OVC050 20/18 Q1017=
2025-10-30 20:18:00<>SPECI SBGL 302018Z 15002KT 8000 3000NW -RA BKN009 OVC050 20/18 Q1018=
2025-10-30 21:00:00<>METAR SBGL 302100Z 05002KT 9999 -RA FEW009 BKN015 OVC050 20/18 Q1018=
2025-10-30 22:00:00<>METAR SBGL 302200Z 32003KT 9999 -RA FEW010 BKN020 OVC050 20/18 Q1018=
2025-10-30 23:00:00<>METAR SBGL 302300Z 27004KT 8000 -RA SCT010 BKN023 OVC050 20/18 Q1019=
2025-10-31 00:00:00<>METAR SBGL 310000Z 31004KT 8000 FEW025 BKN030 OVC035 20/18 Q1019=
2025-10-31 01:00:00<>METAR SBGL 310100Z 34004KT 320V030 8000 FEW008 OVC040 20/18 Q1019=
2025-10-31 02:00:00<>METAR SBGL 310200Z 34004KT 8000 FEW008 OVC040 20/18 Q1018=
2025-10-31 03:00:00<>METAR SBGL 310300Z 30003KT 8000 FEW006 OVC045 20/18 Q1018=
2025-10-31 04:00:00<>METAR SBGL 310400Z 31002KT 9000 FEW007 OVC060 20/18 Q1017=
2025-10-31 05:00:00<>METAR SBGL 310500Z 33002KT 8000 FEW007 OVC060 20/18 Q1016=
2025-10-31 05:15:00<>SPECI SBGL 310515Z VRB02KT 3000 -RA BR BKN009 OVC015 20/18 Q1016=
2025-10-31 06:00:00<>METAR SBGL 310600Z 07002KT 2500 -RA BR BKN008 OVC015 19/18 Q1016=
2025-10-31 07:00:00<>METAR SBGL 310700Z 26003KT 8000 -RA FEW005 OVC023 19/18 Q1017=
2025-10-31 08:00:00<>METAR SBGL 310800Z VRB02KT 8000 FEW005 OVC030 19/18 Q1017=
2025-10-31 09:00:00<>METAR SBGL 310900Z 16002KT 9000 FEW005 BKN035 20/18 Q1017=
2025-10-31 10:00:00<>METAR SBGL 311000Z 15002KT 8000 FEW009 OVC040 20/19 Q1018=
2025-10-31 11:00:00<>METAR SBGL 311100Z 13003KT 9999 FEW011 SCT030 OVC045 21/18 Q1018=
2025-10-31 12:00:00<>METAR SBGL 311200Z 13004KT 090V160 9999 FEW011 SCT030 OVC045 21/19 Q1017=
2025-10-31 13:00:00<>METAR SBGL 311300Z 13004KT 9999 FEW015 SCT030 OVC045 22/17 Q1018=
2025-10-31 14:00:00<>METAR SBGL 311400Z 07011KT 8000 3000S -RA SCT018 BKN025 OVC040 22/18 Q1016=
2025-10-31 14:23:00<>SPECI SBGL 311423Z VRB03KT 9000 SCT018 BKN025 OVC060 22/18 Q1017=
2025-10-31 15:00:00<>METAR SBGL 311500Z 21003KT 160V240 5000 -RA BR SCT015 BKN025 OVC060 22/18 Q1017=
2025-10-31 16:00:00<>METAR SBGL 311600Z VRB01KT 9000 -RA SCT015 BKN020 OVC030 22/19 Q1016=
2025-10-31 17:00:00<>METAR SBGL 311700Z 11005KT 8000 SCT008 BKN018 OVC040 21/19 Q1015=
2025-10-31 18:00:00<>METAR SBGL 311800Z 14005KT 9999 FEW010 SCT015 OVC030 22/19 Q1015=
2025-10-31 19:00:00<>METAR SBGL 311900Z 15004KT 9999 FEW015 BKN025 OVC035 22/19 Q1015=
2025-10-31 20:00:00<>METAR SBGL 312000Z 13008KT 9999 FEW018 BKN030 OVC040 21/18 Q1015=
2025-10-31 21:00:00<>METAR SBGL 312100Z 15006KT 9999 BKN020 OVC030 21/18 Q1016=
2025-10-31 22:00:00<>METAR SBGL 312200Z 14006KT 9999 FEW020 SCT030 OVC040 21/18 Q1016=
2025-10-31 23:00:00<>METAR SBGL 312300Z 14005KT 9999 SCT025 SCT030 OVC040 21/18 Q1017=
2025-11-01 00:00:00<>METAR SBGL 010000Z 12005KT 9999 SCT011 BKN030 BKN040 21/19 Q1017=
2025-11-01 01:00:00<>METAR SBGL 010100Z 10005KT 9999 SCT012 BKN015 BKN017 21/18 Q1017=
2025-11-01 02:00:00<>METAR SBGL 010200Z 10006KT 9999 FEW012 BKN017 BKN021 21/18 Q1016=
2025-11-01 03:00:00<>METAR SBGL 010300Z 11004KT 9999 BKN009 BKN012 BKN021 21/19 Q1016=
2025-11-01 04:00:00<>METAR SBGL 010400Z 15004KT 9999 BKN008 BKN012 BKN030 20/18 Q1015=
2025-11-01 05:00:00<>METAR SBGL 010500Z 10004KT 9999 BKN008 BKN011 BKN015 20/19 Q1015=
2025-11-01 06:00:00<>METAR SBGL 010600Z 11004KT 9999 BKN008 BKN011 BKN014 20/18 Q1015=
2025-11-01 07:00:00<>METAR SBGL 010700Z 11004KT 9999 SCT008 BKN011 BKN014 21/18 Q1015=
2025-11-01 08:00:00<>METAR SBGL 010800Z VRB02KT 9999 FEW007 BKN011 BKN015 20/18 Q1015=
2025-11-01 09:00:00<>METAR SBGL 010900Z 10004KT 9999 BKN011 21/18 Q1016=
2025-11-01 10:00:00<>METAR SBGL 011000Z 09006KT 9999 OVC013 21/18 Q1016=
2025-11-01 11:00:00<>METAR SBGL 011100Z 08005KT 9999 SCT012 BKN015 22/18 Q1017=
2025-11-01 12:00:00<>METAR SBGL 011200Z 01005KT 300V080 9999 SCT013 SCT015 22/18 Q1017=
2025-11-01 13:00:00<>METAR SBGL 011300Z 03008KT 9999 FEW020 24/19 Q1016=
2025-11-01 14:00:00<>METAR SBGL 011400Z 04007KT 9999 FEW020 26/20 Q1015=
2025-11-01 15:00:00<>METAR SBGL 011500Z 15007KT 9999 FEW020 26/20 Q1015=
2025-11-01 16:00:00<>METAR SBGL 011600Z 13008KT 9999 FEW030 27/19 Q1014=
2025-11-01 17:00:00<>METAR SBGL 011700Z 12010KT 9999 FEW030 27/20 Q1013=
2025-11-01 18:00:00<>METAR SBGL 011800Z 13011KT 9999 FEW030 27/19 Q1013=
2025-11-01 19:00:00<>METAR SBGL 011900Z 12013KT 9999 FEW030 26/19 Q1013=
2025-11-01 20:00:00<>METAR SBGL 012000Z 14011KT 9999 FEW030 25/19 Q1013=
2025-11-01 21:00:00<>METAR SBGL 012100Z 14008KT 9999 BKN045 24/19 Q1013=
2025-11-01 22:00:00<>METAR SBGL 012200Z 13006KT 9999 BKN035 24/20 Q1014=
2025-11-01 23:00:00<>METAR SBGL 012300Z 10007KT 9999 BKN035 24/20 Q1015=
2025-11-02 00:00:00<>METAR SBGL 020000Z 10007KT 9999 BKN030 23/20 Q1016=
2025-11-02 01:00:00<>METAR SBGL 020100Z 11007KT 9999 BKN020 23/20 Q1015=
2025-11-02 02:00:00<>METAR SBGL 020200Z 10005KT 9999 BKN020 23/20 Q1015=
2025-11-02 03:00:00<>METAR SBGL 020300Z 10003KT 9999 SCT020 BKN070 23/19 Q1014=
2025-11-02 04:00:00<>METAR SBGL 020400Z 06003KT 9999 SCT020 BKN070 23/20 Q1013=
2025-11-02 05:00:00<>METAR SBGL 020500Z 07001KT 9999 FEW020 SCT070 22/20 Q1012=
2025-11-02 06:00:00<>METAR SBGL 020600Z 12003KT 9999 FEW030 SCT080 22/20 Q1012=
2025-11-02 07:00:00<>METAR SBGL 020700Z 32001KT 9999 FEW020 SCT080 22/20 Q1012=
2025-11-02 08:00:00<>METAR SBGL 020800Z 11003KT 9999 FEW012 BKN080 22/20 Q1013=
2025-11-02 09:00:00<>METAR SBGL 020900Z 07001KT 9999 FEW016 BKN070 22/20 Q1013=
2025-11-02 10:00:00<>METAR SBGL 021000Z 11002KT 9999 FEW010 SCT070 24/21 Q1013=
2025-11-02 11:00:00<>METAR SBGL 021100Z VRB03KT 9999 FEW010 BKN070 25/21 Q1013=
2025-11-02 12:00:00<>METAR SBGL 021200Z VRB02KT 9999 SCT010 BKN070 25/20 Q1013=
2025-11-02 13:00:00<>METAR SBGL 021300Z VRB02KT 9999 SCT020 BKN070 27/21 Q1013=
2025-11-02 14:00:00<>METAR SBGL 021400Z 22003KT 9999 SCT020 BKN070 29/21 Q1013=
2025-11-02 15:00:00<>METAR SBGL 021500Z 13007KT 9999 FEW020 BKN070 27/21 Q1013=
2025-11-02 16:00:00<>METAR SBGL 021600Z 25012KT 8000 FEW020 BKN070 26/20 Q1012=
2025-11-02 16:26:00<>SPECI SBGL 021626Z 25009KT 3500 -RA BR FEW020 SCT040 BKN070 24/21 Q1012=
2025-11-02 17:00:00<>METAR SBGL 021700Z 25008KT 4500 -RA BR SCT012 SCT030 BKN070 24/21 Q1012=
2025-11-02 18:00:00<>METAR SBGL 021800Z 28004KT 5000 HZ BKN014 BKN025 BKN070 25/21 Q1011=
2025-11-02 19:00:00<>METAR SBGL 021900Z 01003KT 320V040 4000 -RA BR BKN014 BKN025 BKN070 25/21 Q1011=
2025-11-02 20:00:00<>METAR SBGL 022000Z 08005KT 4500 BR BKN014 BKN025 BKN070 24/21 Q1010=
2025-11-02 21:00:00<>METAR SBGL 022100Z 08006KT 3500 -RA BR BKN010 BKN025 BKN070 24/22 Q1010=
2025-11-02 22:00:00<>METAR SBGL 022200Z 09006KT 4500 BR BKN010 BKN025 BKN070 23/21 Q1009=
2025-11-02 23:00:00<>METAR SBGL 022300Z 14004KT 8000 BKN025 BKN070 23/21 Q1009=
2025-11-03 00:00:00<>METAR SBGL 030000Z VRB02KT 9999 BKN025 BKN070 23/21 Q1010=
2025-11-03 01:00:00<>METAR SBGL 030100Z VRB02KT 8000 SCT025 BKN070 24/21 Q1010=
2025-11-03 02:00:00<>METAR SBGL 030200Z 32003KT 9999 FEW025 BKN070 24/21 Q1009=
2025-11-03 03:00:00<>METAR SBGL 030300Z 33003KT 290V080 9999 FEW025 BKN100 24/21 Q1009=
2025-11-03 04:00:00<>METAR SBGL 030400Z 25003KT 8000 FEW025 BKN100 23/21 Q1008=
2025-11-03 05:00:00<>METAR SBGL 030500Z 09003KT 9999 FEW025 BKN100 23/21 Q1008=
2025-11-03 06:00:00<>METAR SBGL 030600Z 29001KT 9999 FEW025 BKN100 23/21 Q1008=
2025-11-03 07:00:00<>METAR SBGL 030700Z 07003KT 8000 FEW025 BKN100 23/21 Q1008=
2025-11-03 08:00:00<>METAR SBGL 030800Z 06001KT 9999 FEW025 BKN100 23/21 Q1008=
2025-11-03 09:00:00<>METAR SBGL 030900Z 09002KT 9999 FEW025 BKN100 24/21 Q1009=
2025-11-03 10:00:00<>METAR SBGL 031000Z 06002KT CAVOK 25/22 Q1009=
2025-11-03 11:00:00<>METAR SBGL 031100Z 17003KT 140V260 9000 FEW030 BKN100 26/22 Q1010=
2025-11-03 12:00:00<>METAR SBGL 031200Z 17004KT 090V220 9000 FEW030 BKN100 29/22 Q1010=
2025-11-03 13:00:00<>METAR SBGL 031300Z 13006KT 100V190 9999 FEW030 SCT080 30/21 Q1010=
2025-11-03 14:00:00<>METAR SBGL 031400Z 13012KT 9999 FEW030 SCT100 27/21 Q1009=
2025-11-03 15:00:00<>METAR SBGL 031500Z 13013KT 9999 FEW035 SCT100 27/20 Q1009=
2025-11-03 16:00:00<>METAR SBGL 031600Z 12012KT 9999 FEW025 BKN080 26/20 Q1009=
2025-11-03 17:00:00<>METAR SBGL 031700Z VRB05KT 9999 SCT025 OVC080 29/20 Q1009=
2025-11-03 18:00:00<>METAR SBGL 031800Z 13004KT 070V220 9999 SCT020 OVC080 26/20 Q1010=
2025-11-03 19:00:00<>METAR SBGL 031900Z 11004KT 6000 -RA BKN020 OVC080 24/21 Q1009=
2025-11-03 20:00:00<>METAR SBGL 032000Z 12004KT 9999 BKN020 OVC080 25/21 Q1010=
2025-11-03 21:00:00<>METAR SBGL 032100Z 08004KT 9999 BKN030 BKN100 24/20 Q1010=
2025-11-03 22:00:00<>METAR SBGL 032200Z 01005KT 9999 BKN030 25/20 Q1011=
2025-11-03 23:00:00<>METAR SBGL 032300Z 11004KT 9999 BKN030 24/20 Q1012=
2025-11-04 00:00:00<>METAR SBGL 040000Z 27007KT 9999 OVC023 24/18 Q1012=
2025-11-04 01:00:00<>METAR SBGL 040100Z 31007KT 8000 -RA OVC023 24/20 Q1012=
2025-11-04 02:00:00<>METAR SBGL 040200Z 26004KT 8000 OVC030 23/20 Q1012=
2025-11-04 03:00:00<>METAR SBGL 040300Z 25005KT 9999 OVC030 23/20 Q1012=
2025-11-04 04:00:00<>METAR SBGL 040400Z 27008KT 8000 FEW020 OVC030 23/20 Q1011=
2025-11-04 05:00:00<>METAR SBGL 040500Z 28006KT 8000 FEW020 OVC030 23/20 Q1011=
2025-11-04 06:00:00<>METAR SBGL 040600Z 24006KT 8000 FEW020 OVC030 22/20 Q1011=
2025-11-04 07:00:00<>METAR SBGL 040700Z 31003KT 9999 SCT030 SCT100 22/20 Q1009=
2025-11-04 08:00:00<>METAR SBGL 040800Z 30005KT 9999 FEW030 SCT100 22/19 Q1010=
2025-11-04 09:00:00<>METAR SBGL 040900Z 06003KT 9999 FEW030 BKN100 22/20 Q1010=
2025-11-04 10:00:00<>METAR SBGL 041000Z 19003KT 9999 FEW030 BKN100 23/20 Q1012=
2025-11-04 11:00:00<>METAR SBGL 041100Z 35005KT 300V040 6000 SCT030 BKN100 26/20 Q1013=
2025-11-04 12:00:00<>METAR SBGL 041200Z 03007KT 9999 SCT020 SCT040 BKN100 26/20 Q1014=
2025-11-04 13:00:00<>METAR SBGL 041300Z 11009KT 9999 BKN020 OVC030 24/20 Q1014=
2025-11-04 14:00:00<>METAR SBGL 041400Z 13005KT 9999 BKN020 OVC030 25/20 Q1014=
2025-11-04 15:00:00<>METAR SBGL 041500Z VRB02KT 9999 BKN020 OVC030 25/20 Q1014=
2025-11-04 16:00:00<>METAR SBGL 041600Z 11005KT 9999 BKN020 OVC030 25/20 Q1013=
2025-11-04 17:00:00<>METAR SBGL 041700Z 04007KT 9999 BKN020 OVC030 25/20 Q1012=
2025-11-04 18:00:00<>METAR SBGL 041800Z 04009KT 6000 BKN020 OVC030 25/20 Q1012=
2025-11-04 19:00:00<>METAR SBGL 041900Z 08005KT 6000 BKN020 OVC030 25/20 Q1012=
2025-11-04 20:00:00<>METAR SBGL 042000Z 12005KT 8000 BKN025 OVC070 24/20 Q1011=
2025-11-04 21:00:00<>METAR SBGL 042100Z 10005KT 8000 SCT025 OVC070 24/20 Q1012=
2025-11-04 22:00:00<>METAR SBGL 042200Z 14006KT 9999 SCT025 OVC070 23/20 Q1013=
2025-11-04 23:00:00<>METAR SBGL 042300Z 13007KT 9999 SCT029 OVC070 23/20 Q1014=
2025-11-05 00:00:00<>METAR SBGL 050000Z 11003KT 7000 -TSRA FEW025CB BKN026 OVC070 23/20 Q1014=
2025-11-05 00:13:00<>SPECI SBGL 050013Z 35005KT 4000 TSRA FEW025CB BKN026 OVC070 22/20 Q1015=
2025-11-05 01:00:00<>METAR SBGL 050100Z 04003KT 6000 -RA BKN008 SCT050 OVC100 22/21 Q1014 RETSRA=
2025-11-05 02:00:00<>METAR SBGL 050200Z 18004KT 8000 FEW009 BKN100 22/21 Q1014=
2025-11-05 03:00:00<>METAR SBGL 050300Z 31002KT 9999 -RA BKN013 OVC100 22/21 Q1014=
2025-11-05 04:00:00<>METAR SBGL 050400Z 31001KT 8000 FEW007 BKN016 OVC100 22/21 Q1012=
2025-11-05 05:00:00<>METAR SBGL 050500Z 22002KT 8000 BKN010 OVC100 22/21 Q1012=
2025-11-05 06:00:00<>METAR SBGL 050600Z 08002KT 8000 BKN010 OVC100 22/21 Q1012=
2025-11-05 07:00:00<>METAR SBGL 050700Z 04003KT 5000 BR BKN009 OVC100 22/21 Q1011=
2025-11-05 08:00:00<>METAR SBGL 050800Z VRB01KT 6000 NSC 22/20 Q1011=
2025-11-05 09:00:00<>METAR SBGL 050900Z 30002KT 5000 BR FEW006 22/21 Q1011=
2025-11-05 10:00:00<>METAR SBGL 051000Z 05003KT 5000 BR FEW009 24/21 Q1011=
2025-11-05 11:00:00<>METAR COR SBGL 051100Z 11003KT 5000 BR FEW011 25/21 Q1011=
2025-11-05 12:00:00<>METAR SBGL 051200Z 03006KT 6000 FEW011 26/22 Q1011=
2025-11-05 13:00:00<>METAR SBGL 051300Z VRB02KT 9000 NSC 28/22 Q1010=
2025-11-05 14:00:00<>METAR SBGL 051400Z 36004KT 320V090 CAVOK 31/22 Q1009=
2025-11-05 15:00:00<>METAR SBGL 051500Z 05008KT CAVOK 32/22 Q1008=
2025-11-05 16:00:00<>METAR SBGL 051600Z 03004KT 330V070 9999 FEW048 34/22 Q1007=
2025-11-05 17:00:00<>METAR SBGL 051700Z 14005KT 9999 FEW048 34/23 Q1007=
2025-11-05 18:00:00<>METAR SBGL 051800Z 13010KT 9999 FEW049 30/22 Q1006=
2025-11-05 19:00:00<>METAR SBGL 051900Z 13009KT 9999 FEW048 28/21 Q1006=
2025-11-05 20:00:00<>METAR SBGL 052000Z 12003KT 070V140 9999 FEW046 FEW051TCU 27/21 Q1007=
2025-11-05 21:00:00<>METAR SBGL 052100Z VRB02KT 9999 FEW046 FEW051TCU 27/22 Q1008=
2025-11-05 22:00:00<>METAR SBGL 052200Z 26009KT 9999 VCTS SCT040 FEW050CB BKN100 29/21 Q1009=
2025-11-05 23:00:00<>METAR SBGL 052300Z 31006KT 9999 VCTS SCT040 FEW050CB BKN080 28/22 Q1009=
2025-11-06 00:00:00<>METAR SBGL 060000Z 07002KT 9999 VCTS SCT040 FEW050CB BKN080 27/22 Q1009=
2025-11-06 01:00:00<>METAR SBGL 060100Z 03013KT 5000 -TSRA SCT046 FEW060CB BKN080 26/23 Q1010=
2025-11-06 02:00:00<>METAR SBGL 060200Z 02005KT 8000 TS BKN046 FEW060CB BKN080 25/23 Q1010=
2025-11-06 02:10:00<>SPECI SBGL 060210Z 29012KT 5000 TSRA BKN046 FEW060CB BKN080 25/23 Q1011=
2025-11-06 02:20:00<>SPECI SBGL 060220Z 25010KT 3000 TSRA BKN046 FEW060CB BKN080 25/23 Q1011=
2025-11-06 03:00:00<>METAR SBGL 060300Z 04002KT 6000 -TSRA BKN046 FEW060CB BKN080 25/23 Q1010 RERA=
2025-11-06 04:00:00<>METAR SBGL 060400Z 16006KT 6000 -RA VCTS FEW009 BKN046 FEW060CB BKN080 25/23 Q1010 RETS=
2025-11-06 05:00:00<>METAR SBGL 060500Z 18004KT 7000 FEW009 BKN046 BKN080 24/23 Q1010=
2025-11-06 06:00:00<>METAR SBGL 060600Z 21004KT 7000 FEW009 BKN046 BKN080 24/23 Q1010=
2025-11-06 07:00:00<>METAR SBGL 060700Z 17004KT 7000 FEW009 BKN046 BKN080 23/22 Q1009=
2025-11-06 08:00:00<>METAR SBGL 060800Z 25011KT 7000 -RA SCT015 BKN017 OVC023 24/22 Q1011=
2025-11-06 09:00:00<>METAR SBGL 060900Z 24014KT 7000 SCT013 BKN015 OVC023 23/20 Q1013=
2025-11-06 10:00:00<>METAR SBGL 061000Z 22010KT 8000 FEW013 BKN023 BKN070 24/19 Q1014=
2025-11-06 11:00:00<>METAR SBGL 061100Z 23011KT 190V260 9999 FEW015 BKN025 OVC060 24/18 Q1015=
2025-11-06 12:00:00<>METAR SBGL 061200Z 22012KT 9999 FEW020 BKN030 OVC081 24/18 Q1016=
2025-11-06 13:00:00<>METAR SBGL 061300Z 23008KT 9999 FEW020 BKN030 OVC080 23/17 Q1017=
2025-11-06 14:00:00<>METAR SBGL 061400Z 26007KT 9999 FEW018 BKN030 OVC080 23/18 Q1016=
2025-11-06 15:00:00<>METAR SBGL 061500Z 22014KT 9999 BKN020 OVC035 23/18 Q1016=
2025-11-06 16:00:00<>METAR SBGL 061600Z 23013KT 9999 FEW020 BKN030 OVC081 24/16 Q1016=
2025-11-06 17:00:00<>METAR SBGL 061700Z 22010KT 9999 FEW020 BKN030 OVC081 24/16 Q1015=
2025-11-06 18:00:00<>METAR SBGL 061800Z 23010KT 9999 FEW025 SCT040 BKN081 24/16 Q1015=
2025-11-06 19:00:00<>METAR SBGL 061900Z 22008KT 9999 FEW025 SCT040 BKN081 23/15 Q1015=
2025-11-06 20:00:00<>METAR SBGL 062000Z 21008KT 9999 FEW025 SCT040 OVC081 23/14 Q1015=
2025-11-06 21:00:00<>METAR SBGL 062100Z 22006KT 9999 SCT030 OVC060 22/16 Q1016=
2025-11-06 22:00:00<>METAR SBGL 062200Z 22006KT 9999 FEW030 BKN060 22/16 Q1016=
2025-11-06 23:00:00<>METAR SBGL 062300Z 23005KT 9999 FEW030 BKN050 22/16 Q1016=
2025-11-07 00:00:00<>METAR SBGL 070000Z 22007KT 9999 FEW030 BKN050 22/16 Q1016=
2025-11-07 01:00:00<>METAR SBGL 070100Z 22009KT 9999 FEW030 BKN045 22/15 Q1016=
2025-11-07 02:00:00<>METAR SBGL 070200Z 23007KT 9999 SCT025 BKN040 21/16 Q1016=
2025-11-07 03:00:00<>METAR SBGL 070300Z 20005KT 9999 SCT020 BKN040 21/16 Q1016=
2025-11-07 04:00:00<>METAR SBGL 070400Z 15004KT 5000 -RA BR SCT015 OVC030 19/17 Q1015=
2025-11-07 05:00:00<>METAR SBGL 070500Z 10003KT 8000 SCT020 OVC030 19/17 Q1015=
2025-11-07 06:00:00<>METAR SBGL 070600Z 05004KT 9999 FEW020 OVC035 19/17 Q1015=
2025-11-07 07:00:00<>METAR SBGL 070700Z 06003KT 9999 FEW020 OVC035 19/17 Q1015=
2025-11-07 08:00:00<>METAR SBGL 070800Z 05004KT 9999 FEW010 OVC035 19/17 Q1015=
2025-11-07 09:00:00<>METAR SBGL 070900Z 35006KT 9999 BKN011 OVC020 19/17 Q1016=
2025-11-07 10:00:00<>METAR SBGL 071000Z 06004KT 8000 -RA BKN010 OVC020 19/17 Q1016=
2025-11-07 11:00:00<>METAR SBGL 071100Z 10006KT 9999 BKN014 BKN030 OVC040 21/16 Q1016=
2025-11-07 12:00:00<>METAR SBGL 071200Z 04007KT 9999 BKN014 BKN030 OVC040 21/17 Q1016=
2025-11-07 13:00:00<>METAR SBGL 071300Z 04008KT 9999 BKN020 BKN040 22/17 Q1016=
2025-11-07 14:00:00<>METAR SBGL 071400Z 05004KT 350V120 9999 BKN020 BKN040 OVC070 23/16 Q1015=
2025-11-07 15:00:00<>METAR SBGL 071500Z 12008KT 9999 BKN020 BKN040 OVC070 23/16 Q1014=
2025-11-07 16:00:00<>METAR SBGL 071600Z 14008KT 110V170 9999 BKN020 OVC040 23/15 Q1012=
2025-11-07 17:00:00<>METAR SBGL 071700Z 13010KT 9999 BKN017 OVC040 24/15 Q1011=
2025-11-07 18:00:00<>METAR SBGL 071800Z 07011KT 9999 BKN017 OVC040 23/15 Q1010=
2025-11-07 19:00:00<>METAR SBGL 071900Z 10010KT 9999 BKN017 OVC040 22/16 Q1010=
2025-11-07 20:00:00<>METAR SBGL 072000Z 09010KT 9999 BKN020 OVC040 23/15 Q1010=
2025-11-07 21:00:00<>METAR SBGL 072100Z 09010KT 9999 BKN020 OVC040 22/15 Q1009=
2025-11-07 22:00:00<>METAR SBGL 072200Z 10008KT 9999 BKN020 OVC040 22/16 Q1009=
2025-11-07 23:00:00<>METAR SBGL 072300Z 10009KT 9999 BKN035 21/16 Q1009=
2025-11-08 00:00:00<>METAR SBGL 080000Z 11006KT 9999 FEW035 21/16 Q1009=
2025-11-08 01:00:00<>METAR SBGL 080100Z 12003KT CAVOK 20/16 Q1009=
2025-11-08 02:00:00<>METAR SBGL 080200Z VRB01KT CAVOK 20/17 Q1008=
2025-11-08 03:00:00<>METAR SBGL 080300Z 11004KT 9999 SCT040 20/17 Q1006=
2025-11-08 04:00:00<>METAR SBGL 080400Z 20002KT 9999 BKN040 20/17 Q1005=
2025-11-08 04:33:00<>SPECI SBGL 080433Z 36005KT 4000 TSRA FEW015CB BKN030 21/17 Q1005=
2025-11-08 05:00:00<>METAR SBGL 080500Z 18005KT 120V250 6000 TS FEW013CB SCT020 BKN030 20/18 Q1004 RERA=
2025-11-08 06:00:00<>METAR SBGL 080600Z VRB03KT 9999 BKN040 20/18 Q1004 RETS=
2025-11-08 07:00:00<>METAR SBGL 080700Z 15005KT 9999 SCT040 20/18 Q1002=
2025-11-08 08:00:00<>METAR SBGL 080800Z 22004KT 9999 FEW035 BKN040 21/19 Q1002=
2025-11-08 09:00:00<>METAR SBGL 080900Z VRB02KT 9999 FEW035 BKN060 22/19 Q1004=
2025-11-08 09:12:00<>SPECI SBGL 080912Z 25028G42KT 9999 FEW035 BKN060 24/19 Q1006=
2025-11-08 09:32:00<>SPECI SBGL 080932Z 24025G37KT 4000 RA FEW035 BKN060 23/20 Q1008=
2025-11-08 10:00:00<>METAR SBGL 081000Z 25018KT 4000 -RA BR BKN035 OVC060 21/19 Q1008 RERA=
2025-11-08 10:28:00<>SPECI SBGL 081028Z 30006KT 8000 -RA SCT035 OVC070 22/20 Q1006=
2025-11-08 11:00:00<>METAR SBGL 081100Z 36003KT 8000 -RA FEW035 OVC070 22/20 Q1006=
2025-11-08 12:00:00<>METAR SBGL 081200Z 26004KT 8000 FEW035 OVC070 23/20 Q1006=
2025-11-08 13:00:00<>METAR SBGL 081300Z 04006KT 8000 -RA FEW032 OVC070 23/21 Q1005=
2025-11-08 14:00:00<>METAR SBGL 081400Z 19004KT 9999 FEW032 OVC070 24/21 Q1005=
2025-11-08 15:00:00<>METAR SBGL 081500Z 03005KT 8000 FEW032 BKN070 25/22 Q1003=
2025-11-08 16:00:00<>METAR SBGL 081600Z 25005KT 9999 FEW032 BKN070 29/21 Q1003=
2025-11-08 17:00:00<>METAR SBGL 081700Z 27007KT 9999 FEW032 BKN070 30/20 Q1002=
2025-11-08 18:00:00<>METAR SBGL 081800Z 26005KT 9999 FEW032 BKN070 29/20 Q1001=
2025-11-08 19:00:00<>METAR SBGL 081900Z 19005KT 9999 FEW032 BKN070 29/19 Q1001=
2025-11-08 20:00:00<>METAR SBGL 082000Z 24009KT 9999 FEW032 BKN070 29/19 Q1001=
2025-11-08 21:00:00<>METAR SBGL 082100Z 24016KT 9999 FEW032 BKN070 28/20 Q1003=
2025-11-08 22:00:00<>METAR SBGL 082200Z 21017KT 9999 FEW008 26/17 Q1006=
2025-11-08 23:00:00<>METAR SBGL 082300Z 22018KT 9999 FEW008 25/17 Q1008=
2025-11-09 00:00:00<>METAR SBGL 090000Z 24014KT 9999 FEW008 BKN050 25/16 Q1009=
2025-11-09 01:00:00<>METAR SBGL 090100Z 27009KT 9999 FEW008 BKN050 24/16 Q1010=
2025-11-09 02:00:00<>METAR SBGL 090200Z 26013KT 9999 FEW008 BKN050 24/16 Q1011=
2025-11-09 03:00:00<>METAR SBGL 090300Z 26013KT 9999 FEW008 BKN050 24/16 Q1011=
2025-11-09 04:00:00<>METAR SBGL 090400Z 26020KT 9999 FEW008 BKN040 BKN070 23/17 Q1011=
2025-11-09 05:00:00<>METAR SBGL 090500Z 27017KT 9999 FEW008 BKN040 BKN070 23/18 Q1012=
2025-11-09 06:00:00<>METAR SBGL 090600Z 23017KT 9999 FEW008 BKN030 BKN070 22/16 Q1013=
2025-11-09 07:00:00<>METAR SBGL 090700Z 21015KT 9999 FEW008 BKN030 BKN070 22/16 Q1014=
2025-11-09 08:00:00<>METAR SBGL 090800Z 23011KT 9999 FEW008 BKN030 BKN070 21/16 Q1014=
2025-11-09 09:00:00<>METAR SBGL 090900Z 25005KT 9999 FEW023 BKN030 BKN090 21/17 Q1015=
2025-11-09 10:00:00<>METAR SBGL 091000Z 28006KT 9999 VCSH FEW023 BKN033 BKN050 21/17 Q1016=
2025-11-09 11:00:00<>METAR SBGL 091100Z VRB02KT 9999 FEW020 SCT035 22/18 Q1018=
2025-11-09 12:00:00<>METAR SBGL 091200Z 25004KT 210V300 9999 VCSH SCT030 BKN035 22/16 Q1017=
2025-11-09 13:00:00<>METAR SBGL 091300Z 22013KT 9000 -DZ VCSH FEW020 BKN035 22/16 Q1017=
2025-11-09 14:00:00<>METAR SBGL 091400Z 23015KT 9999 FEW025 BKN035 23/16 Q1017=
2025-11-09 15:00:00<>METAR SBGL 091500Z 20008KT 9999 FEW025 BKN035 24/15 Q1017=
2025-11-09 16:00:00<>METAR SBGL 091600Z 22012KT 9999 FEW030 BKN040 24/15 Q1017=
2025-11-09 17:00:00<>METAR SBGL 091700Z 21013KT 9999 SCT030 BKN040 24/15 Q1017=
2025-11-09 18:00:00<>METAR SBGL 091800Z 22009KT 9999 SCT030 BKN040 24/15 Q1017=
2025-11-09 19:00:00<>METAR SBGL 091900Z 22010KT 9999 SCT030 BKN040 23/14 Q1017=
2025-11-09 20:00:00<>METAR SBGL 092000Z 21013KT 9999 SCT030 BKN040 22/15 Q1018=
2025-11-09 21:00:00<>METAR SBGL 092100Z 20006KT 9999 BKN040 22/15 Q1018=
2025-11-09 22:00:00<>METAR SBGL 092200Z 23006KT 9999 BKN040 22/15 Q1018=
2025-11-09 23:00:00<>METAR SBGL 092300Z 22006KT 9999 SCT026 BKN040 22/15 Q1019=
2025-11-10 00:00:00<>METAR SBGL 100000Z 34006KT 9999 SCT026 BKN040 20/16 Q1020=
2025-11-10 01:00:00<>METAR SBGL 100100Z 33004KT 9999 SCT026 BKN040 21/17 Q1020=
2025-11-10 02:00:00<>METAR SBGL 100200Z 21007KT 5000 -RA BR SCT007 BKN040 19/17 Q1020=
2025-11-10 03:00:00<>METAR SBGL 100300Z 32004KT 9999 FEW007 BKN033 19/17 Q1019=
2025-11-10 04:00:00<>METAR SBGL 100400Z 33005KT 9999 FEW007 BKN033 19/17 Q1019=
2025-11-10 05:00:00<>METAR SBGL 100500Z 31004KT 9999 FEW007 BKN019 BKN040 19/17 Q1019=
2025-11-10 06:00:00<>METAR SBGL 100600Z 36005KT 8000 FEW007 BKN019 BKN040 19/17 Q1018=
2025-11-10 07:00:00<>METAR SBGL 100700Z 35005KT 8000 FEW007 BKN019 BKN040 18/17 Q1018=
2025-11-10 08:00:00<>METAR SBGL 100800Z 31004KT 8000 FEW007 SCT019 BKN070 19/17 Q1019=
2025-11-10 09:00:00<>METAR SBGL 100900Z 30005KT 8000 FEW009 SCT070 19/17 Q1020=
2025-11-10 10:00:00<>METAR SBGL 101000Z 01005KT 8000 FEW011 SCT019 21/17 Q1021=
2025-11-10 11:00:00<>METAR SBGL 101100Z 35003KT 9999 FEW010 BKN030 21/17 Q1021=
2025-11-10 12:00:00<>METAR SBGL 101200Z 01003KT 9999 FEW010 SCT030 24/16 Q1021=
2025-11-10 13:00:00<>METAR SBGL 101300Z 12007KT 9999 FEW020 SCT030 24/15 Q1021=
2025-11-10 14:00:00<>METAR SBGL 101400Z 13008KT 9999 SCT030 23/14 Q1021=
2025-11-10 15:00:00<>METAR SBGL 101500Z 13009KT 9999 SCT030 BKN070 23/14 Q1020=
2025-11-10 16:00:00<>METAR SBGL 101600Z 13008KT 9999 FEW030 BKN070 23/14 Q1020=
2025-11-10 17:00:00<>METAR SBGL 101700Z 12011KT 9999 FEW030 SCT070 24/14 Q1019=
2025-11-10 18:00:00<>METAR SBGL 101800Z 11012KT 9999 FEW030 SCT070 24/14 Q1019=
2025-11-10 19:00:00<>METAR SBGL 101900Z 11012KT 9999 FEW030 23/14 Q1019=
2025-11-10 20:00:00<>METAR SBGL 102000Z 12010KT 9999 FEW020 BKN060 22/13 Q1019=
2025-11-10 21:00:00<>METAR SBGL 102100Z 13008KT 9999 FEW020 BKN060 22/11 Q1020=
2025-11-10 22:00:00<>METAR SBGL 102200Z 14007KT 9999 FEW020 SCT040 BKN060 22/14 Q1020=
2025-11-10 23:00:00<>METAR SBGL 102300Z 14005KT 9999 FEW020 SCT050 BKN066 21/14 Q1021=
2025-11-11 00:00:00<>METAR SBGL 110000Z 14004KT 9999 FEW020 BKN066 21/14 Q1021=
2025-11-11 01:00:00<>METAR SBGL 110100Z 14005KT 9999 FEW020 SCT066 20/14 Q1021=
2025-11-11 02:00:00<>METAR SBGL 110200Z 16004KT 9999 FEW020 BKN043 20/14 Q1021=
2025-11-11 03:00:00<>METAR SBGL 110300Z 08003KT 060V120 9999 FEW020 BKN043 20/14 Q1020=
2025-11-11 04:00:00<>METAR SBGL 110400Z 10002KT 9999 FEW040 BKN043 18/14 Q1020=
2025-11-11 05:00:00<>METAR SBGL 110500Z 00000KT 9999 BKN040 19/15 Q1019=
2025-11-11 06:00:00<>METAR SBGL 110600Z 20002KT 9999 BKN040 SCT066 19/15 Q1019=
2025-11-11 07:00:00<>METAR SBGL 110700Z 00000KT 9999 FEW040 BKN050 18/15 Q1020=
2025-11-11 08:00:00<>METAR SBGL 110800Z 18002KT 9999 FEW012 BKN050 BKN066 18/16 Q1020=
2025-11-11 09:00:00<>METAR SBGL 110900Z VRB01KT 9999 FEW015 BKN050 BKN066 19/16 Q1021=
2025-11-11 10:00:00<>METAR SBGL 111000Z 14003KT 110V180 9999 FEW015 BKN050 21/16 Q1021=
2025-11-11 11:00:00<>METAR SBGL 111100Z 01006KT 340V040 9999 SCT021 22/17 Q1021=
2025-11-11 12:00:00<>METAR SBGL 111200Z VRB05KT 9999 FEW029 SCT050 23/14 Q1022=
2025-11-11 13:00:00<>METAR SBGL 111300Z 12003KT 050V200 9999 FEW036 23/14 Q1021=
2025-11-11 14:00:00<>METAR SBGL 111400Z 15008KT 100V190 9999 FEW037 24/14 Q1021=
2025-11-11 15:00:00<>METAR SBGL 111500Z 14011KT 9999 FEW047 25/14 Q1020=
2025-11-11 16:00:00<>METAR SBGL 111600Z 13012KT CAVOK 26/14 Q1019=
2025-11-11 17:00:00<>METAR SBGL 111700Z 13015KT 9999 FEW030 24/13 Q1018=
2025-11-11 18:00:00<>METAR SBGL 111800Z 13015KT 9999 FEW035 SCT100 24/14 Q1018=
2025-11-11 19:00:00<>METAR SBGL 111900Z 14013KT 110V170 9999 BKN045 23/12 Q1018=
2025-11-11 20:00:00<>METAR SBGL 112000Z 14011KT 9999 BKN045 23/13 Q1019=
2025-11-11 21:00:00<>METAR SBGL 112100Z 13010KT 9999 SCT045 BKN050 23/13 Q1019=
2025-11-11 22:00:00<>METAR SBGL 112200Z 12009KT 9999 FEW040 BKN050 22/13 Q1020=
2025-11-11 23:00:00<>METAR SBGL 112300Z 11006KT 9999 FEW040 BKN050 22/13 Q1020=
2025-11-12 00:00:00<>METAR SBGL 120000Z 11007KT 9999 FEW040 SCT050 21/13 Q1020=
2025-11-12 01:00:00<>METAR SBGL 120100Z 13005KT 9999 FEW040 20/13 Q1020=
2025-11-12 02:00:00<>METAR SBGL 120200Z 13006KT 9999 FEW040 20/13 Q1020=
2025-11-12 03:00:00<>METAR SBGL 120300Z 11004KT 9999 FEW045 20/13 Q1019=
2025-11-12 04:00:00<>METAR SBGL 120400Z 09003KT 9999 FEW045 19/13 Q1019=
2025-11-12 05:00:00<>METAR SBGL 120500Z 11005KT 9999 FEW045 18/12 Q1018=
2025-11-12 06:00:00<>METAR SBGL 120600Z 10002KT 9999 FEW045 17/13 Q1018=
2025-11-12 07:00:00<>METAR SBGL 120700Z 09002KT CAVOK 16/13 Q1018=
2025-11-12 08:00:00<>METAR SBGL 120800Z 01001KT CAVOK 16/13 Q1018=
2025-11-12 09:00:00<>METAR SBGL 120900Z 36001KT 9000 NSC 18/15 Q1018=
2025-11-12 10:00:00<>METAR SBGL 121000Z 07001KT 9000 NSC 21/15 Q1019=
2025-11-12 11:00:00<>METAR SBGL 121100Z 07004KT 030V100 9000 NSC 22/14 Q1018=
2025-11-12 12:00:00<>METAR SBGL 121200Z 02007KT CAVOK 23/16 Q1018=
2025-11-12 13:00:00<>METAR SBGL 121300Z 06005KT CAVOK 25/14 Q1018=
2025-11-12 14:00:00<>METAR SBGL 121400Z 05007KT CAVOK 26/13 Q1017=
2025-11-12 15:00:00<>METAR SBGL 121500Z 13007KT CAVOK 27/15 Q1016=
2025-11-12 16:00:00<>METAR SBGL 121600Z 14009KT CAVOK 27/14 Q1016=
2025-11-12 17:00:00<>METAR SBGL 121700Z 14010KT CAVOK 29/14 Q1015=
2025-11-12 18:00:00<>METAR SBGL 121800Z 15012KT 110V180 CAVOK 29/15 Q1014=
2025-11-12 19:00:00<>METAR SBGL 121900Z 15011KT CAVOK 28/16 Q1014=
2025-11-12 20:00:00<>METAR SBGL 122000Z 15010KT CAVOK 27/16 Q1014=
2025-11-12 21:00:00<>METAR SBGL 122100Z 13007KT CAVOK 25/17 Q1014=
2025-11-12 22:00:00<>METAR SBGL 122200Z 10008KT CAVOK 24/16 Q1014=
2025-11-12 23:00:00<>METAR SBGL 122300Z 11006KT CAVOK 24/16 Q1014=
2025-11-13 00:00:00<>METAR SBGL 130000Z 10006KT 8000 NSC 22/16 Q1015=
2025-11-13 01:00:00<>METAR SBGL 130100Z VRB02KT CAVOK 22/16 Q1015=
2025-11-13 02:00:00<>METAR SBGL 130200Z 12003KT CAVOK 21/16 Q1014=
2025-11-13 03:00:00<>METAR SBGL 130300Z 11002KT CAVOK 20/16 Q1014=
2025-11-13 04:00:00<>METAR SBGL 130400Z 07002KT CAVOK 20/17 Q1014=
2025-11-13 05:00:00<>METAR SBGL 130500Z VRB02KT CAVOK 19/16 Q1013=
2025-11-13 06:00:00<>METAR SBGL 130600Z 09002KT CAVOK 19/15 Q1013=
2025-11-13 07:00:00<>METAR SBGL 130700Z 08003KT CAVOK 19/16 Q1014=
2025-11-13 08:00:00<>METAR SBGL 130800Z 08003KT CAVOK 19/16 Q1014=
2025-11-13 09:00:00<>METAR SBGL 130900Z 11002KT CAVOK 20/16 Q1015=
2025-11-13 10:00:00<>METAR SBGL 131000Z 02002KT CAVOK 24/16 Q1015=
2025-11-13 11:00:00<>METAR SBGL 131100Z 36003KT 310V040 CAVOK 24/18 Q1016=
2025-11-13 12:00:00<>METAR SBGL 131200Z 35005KT 330V040 CAVOK 26/18 Q1016=
2025-11-13 13:00:00<>METAR SBGL 131300Z 06005KT 020V100 CAVOK 28/16 Q1016=
2025-11-13 14:00:00<>METAR SBGL 131400Z 10005KT 030V160 CAVOK 29/17 Q1015=
2025-11-13 15:00:00<>METAR SBGL 131500Z 12009KT CAVOK 30/16 Q1014=
2025-11-13 16:00:00<>METAR SBGL 131600Z 13011KT CAVOK 29/17 Q1014=
2025-11-13 17:00:00<>METAR SBGL 131700Z 13014KT CAVOK 28/15 Q1013=
2025-11-13 18:00:00<>METAR SBGL 131800Z 13013KT CAVOK 28/16 Q1013=
2025-11-13 19:00:00<>METAR SBGL 131900Z 13012KT CAVOK 27/16 Q1013=
2025-11-13 20:00:00<>METAR SBGL 132000Z 13009KT CAVOK 27/16 Q1014=
2025-11-13 21:00:00<>METAR SBGL 132100Z 13007KT CAVOK 26/15 Q1014=
2025-11-13 22:00:00<>METAR SBGL 132200Z 26005KT CAVOK 24/16 Q1015=
2025-11-13 23:00:00<>METAR SBGL 132300Z 25008KT CAVOK 24/16 Q1016=
2025-11-14 00:00:00<>METAR SBGL 140000Z 28006KT 260V320 CAVOK 24/16 Q1017=
2025-11-14 01:00:00<>METAR SBGL 140100Z 28005KT 260V320 CAVOK 24/17 Q1017=
2025-11-14 02:00:00<>METAR SBGL 140200Z 31003KT 280V350 CAVOK 24/18 Q1016=
2025-11-14 03:00:00<>METAR SBGL 140300Z 32003KT CAVOK 23/18 Q1016=
2025-11-14 04:00:00<>METAR SBGL 140400Z 31002KT CAVOK 23/18 Q1015=
2025-11-14 05:00:00<>METAR SBGL 140500Z 31003KT 300V010 CAVOK 24/17 Q1015=
2025-11-14 06:00:00<>METAR SBGL 140600Z 35004KT CAVOK 23/19 Q1015=
2025-11-14 07:00:00<>METAR SBGL 140700Z 34004KT 320V050 8000 NSC 23/19 Q1015=
2025-11-14 08:00:00<>METAR SBGL 140800Z 34005KT 6000 NSC 22/19 Q1015=
2025-11-14 09:00:00<>METAR SBGL 140900Z 32003KT 6000 NSC 22/19 Q1016=
2025-11-14 10:00:00<>METAR SBGL 141000Z 10004KT CAVOK 23/19 Q1017=
2025-11-14 11:00:00<>METAR SBGL 141100Z 02004KT 340V050 9000 FEW018 BKN083 24/19 Q1018=
2025-11-14 12:00:00<>METAR SBGL 141200Z 28004KT 9999 SCT020 25/18 Q1018=
2025-11-14 13:00:00<>METAR SBGL 141300Z 30005KT 9999 SCT020 26/19 Q1018=
2025-11-14 14:00:00<>METAR SBGL 141400Z 22004KT 9999 SCT030 28/18 Q1017=
2025-11-14 15:00:00<>METAR SBGL 141500Z 11008KT 9999 SCT035 29/20 Q1017=
2025-11-14 16:00:00<>METAR SBGL 141600Z 13007KT 9999 SCT035 SCT100 29/19 Q1017=
2025-11-14 17:00:00<>METAR SBGL 141700Z 13009KT 090V150 9999 FEW035 SCT100 28/19 Q1016=
2025-11-14 18:00:00<>METAR SBGL 141800Z 12009KT 9999 FEW035 SCT100 28/18 Q1016=
2025-11-14 19:00:00<>METAR SBGL 141900Z 12007KT 9999 FEW043 SCT100 27/19 Q1016=
2025-11-14 20:00:00<>METAR SBGL 142000Z 20008KT 9999 FEW043 SCT100 26/18 Q1016=
2025-11-14 21:00:00<>METAR SBGL 142100Z 23009KT 9999 FEW040 BKN100 25/18 Q1017=
2025-11-14 22:00:00<>METAR SBGL 142200Z 23008KT 9999 FEW040 BKN100 24/18 Q1018=
2025-11-14 23:00:00<>METAR SBGL 142300Z 25006KT 9999 OVC040 24/17 Q1018=
2025-11-15 00:00:00<>METAR SBGL 150000Z 27007KT 9999 OVC040 24/18 Q1019=
2025-11-15 01:00:00<>METAR SBGL 150100Z 29004KT 9999 OVC040 24/18 Q1019=
2025-11-15 02:00:00<>METAR SBGL 150200Z 30002KT 9999 FEW020 OVC040 24/19 Q1018=
2025-11-15 03:00:00<>METAR SBGL 150300Z 04003KT 010V070 9999 SCT020 OVC040 23/19 Q1018=
2025-11-15 04:00:00<>METAR SBGL 150400Z 27005KT 9999 BKN040 24/18 Q1017=
2025-11-15 05:00:00<>METAR SBGL 150500Z 26004KT 9999 FEW020 BKN040 24/19 Q1017=
2025-11-15 06:00:00<>METAR SBGL 150600Z 29003KT 9999 BKN040 23/19 Q1016=
2025-11-15 07:00:00<>METAR SBGL 150700Z 32003KT 290V050 9999 FEW020 BKN040 23/19 Q1016=
2025-11-15 08:00:00<>METAR SBGL 150800Z 27002KT 9999 FEW028 BKN035 23/19 Q1016=
2025-11-15 09:00:00<>METAR SBGL 150900Z 25004KT 8000 SCT022 OVC035 23/19 Q1017=
2025-11-15 10:00:00<>METAR SBGL 151000Z 27004KT 9999 SCT024 OVC040 24/19 Q1017=
2025-11-15 11:00:00<>METAR SBGL 151100Z 09004KT 8000 SCT012 OVC020 23/20 Q1018=
2025-11-15 12:00:00<>METAR SBGL 151200Z 11006KT 8000 SCT011 OVC020 23/20 Q1018=
2025-11-15 13:00:00<>METAR SBGL 151300Z 30006KT 9999 SCT011 OVC020 23/20 Q1018=
2025-11-15 14:00:00<>METAR SBGL 151400Z 22002KT 8000 SCT013 OVC020 24/19 Q1017=
2025-11-15 15:00:00<>METAR SBGL 151500Z 32003KT 7000 FEW018 OVC030 26/20 Q1016=
2025-11-15 16:00:00<>METAR SBGL 151600Z 34005KT 7000 FEW018 SCT030 27/20 Q1015=
2025-11-15 17:00:00<>METAR SBGL 151700Z 02007KT 8000 FEW020 SCT035 27/19 Q1015=
2025-11-15 18:00:00<>METAR SBGL 151800Z 12011KT 9999 FEW035 27/20 Q1014=
2025-11-15 19:00:00<>METAR SBGL 151900Z 13012KT 9999 FEW035 25/20 Q1014=
2025-11-15 20:00:00<>METAR SBGL 152000Z 14013KT 9999 SCT030 24/20 Q1014=
2025-11-15 21:00:00<>METAR SBGL 152100Z 14011KT 9999 SCT025 BKN040 24/20 Q1014=
2025-11-15 22:00:00<>METAR SBGL 152200Z 13012KT 9999 SCT026 BKN040 24/20 Q1015=
2025-11-15 23:00:00<>METAR SBGL 152300Z 12010KT 7000 -RA SCT017 OVC030 23/20 Q1016=
2025-11-16 00:00:00<>METAR SBGL 160000Z 15004KT 8000 BKN023 OVC030 23/20 Q1016=
2025-11-16 01:00:00<>METAR SBGL 160100Z 10011KT 9999 SCT023 OVC036 24/19 Q1016=
2025-11-16 02:00:00<>METAR SBGL 160200Z 11008KT 9999 SCT023 OVC040 24/19 Q1015=
2025-11-16 03:00:00<>METAR SBGL 160300Z 12006KT 9999 SCT019 BKN043 23/19 Q1014=
2025-11-16 04:00:00<>METAR SBGL 160400Z 14007KT 9999 SCT019 BKN043 23/19 Q1014=
2025-11-16 05:00:00<>METAR SBGL 160500Z 18006KT 9999 SCT019 BKN043 23/19 Q1013=
2025-11-16 06:00:00<>METAR SBGL 160600Z 21005KT 8000 SCT019 BKN043 22/19 Q1013=
2025-11-16 07:00:00<>METAR SBGL 160700Z 24005KT 8000 SCT019 BKN043 22/19 Q1013=
2025-11-16 08:00:00<>METAR SBGL 160800Z 10007KT 9999 SCT043 BKN080 22/19 Q1012=
2025-11-16 09:00:00<>METAR SBGL 160900Z 09008KT 9999 FEW043 BKN080 23/20 Q1013=
2025-11-16 10:00:00<>METAR SBGL 161000Z 06008KT 9999 FEW043 BKN080 24/19 Q1013=
2025-11-16 11:00:00<>METAR COR SBGL 161100Z 01002KT 9999 FEW019 BKN066 25/19 Q1013=
2025-11-16 12:00:00<>METAR SBGL 161200Z 36005KT 330V040 9999 FEW020 25/19 Q1014=
2025-11-16 13:00:00<>METAR SBGL 161300Z VRB01KT 9999 FEW020 26/19 Q1014=
2025-11-16 14:00:00<>METAR SBGL 161400Z 30003KT 260V060 9999 FEW025 28/20 Q1014=
2025-11-16 15:00:00<>METAR SBGL 161500Z 02005KT 360V060 9999 FEW030 27/20 Q1012=
2025-11-16 16:00:00<>METAR SBGL 161600Z 13006KT 9999 FEW030 27/20 Q1012=
2025-11-16 17:00:00<>METAR SBGL 161700Z 08003KT 030V110 9999 FEW030 28/19 Q1011=
2025-11-16 18:00:00<>METAR SBGL 161800Z 01003KT 9999 FEW040 27/21 Q1010=
2025-11-16 19:00:00<>METAR SBGL 161900Z 05005KT 9999 -RA SCT043 BKN050 BKN066 26/21 Q1009=
2025-11-16 20:00:00<>METAR SBGL 162000Z VRB02KT 9999 FEW043 SCT066 27/22 Q1009=
2025-11-16 21:00:00<>METAR SBGL 162100Z VRB02KT 9999 FEW043 27/22 Q1010=
2025-11-16 22:00:00<>METAR SBGL 162200Z 16003KT 9999 FEW040 BKN100 26/22 Q1010=
2025-11-16 23:00:00<>METAR SBGL 162300Z 18003KT 9999 FEW040 BKN100 26/22 Q1010=
2025-11-17 00:00:00<>METAR SBGL 170000Z 36002KT 9000 -RA SCT030 OVC080 26/23 Q1010=
2025-11-17 01:00:00<>METAR SBGL 170100Z 12002KT 9999 SCT030 BKN080 25/23 Q1010=
2025-11-17 02:00:00<>METAR SBGL 170200Z 12001KT 9999 FEW030 BKN080 25/22 Q1010=
2025-11-17 03:00:00<>METAR SBGL 170300Z 09002KT 9999 FEW030 BKN080 25/22 Q1009=
2025-11-17 04:00:00<>METAR SBGL 170400Z 17002KT 9999 FEW030 BKN080 25/22 Q1008=
2025-11-17 05:00:00<>METAR SBGL 170500Z 24003KT 9999 FEW035 BKN080 25/22 Q1008=
2025-11-17 06:00:00<>METAR SBGL 170600Z 28001KT 9999 FEW035 BKN080 25/21 Q1007=
2025-11-17 07:00:00<>METAR SBGL 170700Z 18002KT 9999 FEW035 BKN100 24/21 Q1007=
2025-11-17 08:00:00<>METAR SBGL 170800Z 08004KT 9999 FEW035 BKN100 24/21 Q1007=
2025-11-17 09:00:00<>METAR SBGL 170900Z 14003KT 9999 FEW035 SCT100 24/22 Q1008=
2025-11-17 10:00:00<>METAR SBGL 171000Z 34003KT 9999 FEW040 BKN100 27/21 Q1008=
2025-11-17 11:00:00<>METAR SBGL 171100Z VRB02KT 9999 FEW040 BKN100 29/22 Q1009=
2025-11-17 12:00:00<>METAR SBGL 171200Z 30008KT 9999 FEW040 BKN100 31/19 Q1009=
2025-11-17 13:00:00<>METAR SBGL 171300Z 31010KT 9999 FEW040 BKN100 32/19 Q1009=
2025-11-17 14:00:00<>METAR SBGL 171400Z 31013KT 9999 FEW040 BKN100 32/19 Q1009=
2025-11-17 15:00:00<>METAR SBGL 171500Z 28013KT 9999 FEW040 BKN080 31/19 Q1009=
2025-11-17 16:00:00<>METAR SBGL 171600Z 31012KT 9999 FEW040 BKN080 33/20 Q1009=
2025-11-17 17:00:00<>METAR SBGL 171700Z 27009KT 9999 FEW040 BKN080 34/19 Q1008=
2025-11-17 18:00:00<>METAR SBGL 171800Z 36003KT 290V060 9999 FEW035 BKN075 33/19 Q1007=
2025-11-17 19:00:00<>METAR SBGL 171900Z 12010KT 9999 FEW035 BKN075 31/19 Q1007=
2025-11-17 20:00:00<>METAR SBGL 172000Z 13008KT 9999 FEW030 BKN070 30/20 Q1007=
2025-11-17 21:00:00<>METAR SBGL 172100Z 21010KT 9999 FEW030 BKN070 30/19 Q1007=
2025-11-17 22:00:00<>METAR SBGL 172200Z 22014KT 9999 SCT046 BKN070 28/20 Q1009=
2025-11-17 23:00:00<>METAR SBGL 172300Z 26012KT 9999 SCT046 BKN070 26/20 Q1010=
2025-11-18 00:00:00<>METAR SBGL 180000Z 27008KT 9999 SCT046 SCT070 26/20 Q1011=
2025-11-18 01:00:00<>METAR SBGL 180100Z 31004KT 9999 SCT046 SCT100 26/20 Q1011=
2025-11-18 02:00:00<>METAR SBGL 180200Z 08006KT 9999 FEW046 SCT100 25/20 Q1010=
2025-11-18 03:00:00<>METAR SBGL 180300Z 16004KT 9999 FEW046 BKN100 25/19 Q1009=
2025-11-18 04:00:00<>METAR SBGL 180400Z 15004KT 9999 FEW046 BKN100 24/19 Q1008=
2025-11-18 05:00:00<>METAR SBGL 180500Z 13005KT 9999 FEW046 BKN100 24/19 Q1008=
2025-11-18 06:00:00<>METAR SBGL 180600Z 17005KT 8000 FEW046 BKN100 23/19 Q1008=
2025-11-18 07:00:00<>METAR SBGL 180700Z 18005KT 8000 FEW046 BKN100 23/18 Q1007=
2025-11-18 08:00:00<>METAR SBGL 180800Z 30004KT 8000 SCT023 BKN100 23/19 Q1008=
2025-11-18 09:00:00<>METAR SBGL 180900Z 34005KT 8000 SCT023 24/20 Q1008=
2025-11-18 10:00:00<>METAR SBGL 181000Z 32005KT 9999 FEW023 25/20 Q1009=
2025-11-18 11:00:00<>METAR SBGL 181100Z 02005KT 9999 FEW016 25/20 Q1009=
2025-11-18 12:00:00<>METAR SBGL 181200Z 35005KT 300V050 9999 FEW016 SCT100 27/21 Q1009=
2025-11-18 13:00:00<>METAR SBGL 181300Z 01006KT 340V040 CAVOK 29/21 Q1008=
2025-11-18 14:00:00<>METAR SBGL 181400Z 04007KT 010V070 CAVOK 28/20 Q1007=
2025-11-18 15:00:00<>METAR SBGL 181500Z 07007KT CAVOK 31/20 Q1006=
2025-11-18 16:00:00<>METAR SBGL 181600Z 11006KT CAVOK 32/21 Q1005=
2025-11-18 17:00:00<>METAR SBGL 181700Z 13012KT 9999 FEW009 SCT100 30/22 Q1004=
2025-11-18 18:00:00<>METAR COR SBGL 181800Z 12006KT 2000 TSRA BKN004 FEW025CB OVC100 27/21 Q1004=
2025-11-18 18:11:00<>SPECI SBGL 181811Z 20004KT 1000 R10/1300D R33/1300D R15/1600D R28/2000U -TSRA BR SCT024 FEW025CB OVC100 25/23 Q1003 RERA=
2025-11-18 18:24:00<>SPECI SBGL 181824Z 14007KT 090V200 7000 -RA FEW019 SCT023TCU BKN100 26/23 Q1003 RETS=
2025-11-18 19:00:00<>METAR SBGL 181900Z 14011KT 9999 FEW019 FEW023TCU BKN100 26/23 Q1002=
2025-11-18 20:00:00<>METAR SBGL 182000Z VRB02KT 9999 FEW019 BKN100 27/23 Q1003=
2025-11-18 21:00:00<>METAR SBGL 182100Z 15003KT 090V190 9999 FEW019 BKN100 26/22 Q1003=
2025-11-18 22:00:00<>METAR SBGL 182200Z 09005KT 8000 TS SCT020 FEW025CB BKN100 26/23 Q1002=
2025-11-18 23:00:00<>METAR SBGL 182300Z 14003KT 110V180 9999 SCT020 BKN100 26/23 Q1003 RETS=
2025-11-19 00:00:00<>METAR SBGL 190000Z 25017KT 7000 BKN020 BKN080 26/22 Q1004=
2025-11-19 01:00:00<>METAR SBGL 190100Z 24009KT 5000 RA BR BKN012 BKN040 BKN080 24/22 Q1005=
2025-11-19 02:00:00<>METAR SBGL 190200Z 29006KT 2500 RA BR BKN012 BKN040 BKN080 24/22 Q1005=
2025-11-19 02:22:00<>SPECI SBGL 190222Z 26004KT 7000 RA BKN006 BKN040 BKN080 24/22 Q1004=
2025-11-19 03:00:00<>METAR SBGL 190300Z 28003KT 250V320 9999 -RA BKN025 BKN040 BKN070 24/23 Q1004 RERA=
2025-11-19 04:00:00<>METAR SBGL 190400Z 26005KT 9999 -RA BKN025 BKN040 BKN070 24/22 Q1004=
2025-11-19 05:00:00<>METAR SBGL 190500Z 20008KT 9999 BKN025 BKN040 BKN070 24/22 Q1004=
2025-11-19 06:00:00<>METAR SBGL 190600Z 22009KT 9999 BKN025 BKN040 BKN070 24/21 Q1004=
2025-11-19 07:00:00<>METAR SBGL 190700Z 25007KT 9999 SCT025 BKN070 23/20 Q1005=
2025-11-19 08:00:00<>METAR SBGL 190800Z 27006KT 9999 SCT025 22/19 Q1005=
2025-11-19 09:00:00<>METAR SBGL 190900Z 25005KT 9999 SCT025 24/20 Q1006=
2025-11-19 10:00:00<>METAR SBGL 191000Z 22006KT 9999 SCT020 25/19 Q1007=
2025-11-19 11:00:00<>METAR SBGL 191100Z 21009KT 9999 FEW025 26/19 Q1008=
2025-11-19 12:00:00<>METAR SBGL 191200Z 22010KT 190V270 9999 FEW025 27/18 Q1009=
2025-11-19 13:00:00<>METAR SBGL 191300Z 22012KT 9999 FEW030 28/17 Q1009=
2025-11-19 14:00:00<>METAR SBGL 191400Z 21016KT 180V250 9999 FEW030 SCT050 28/17 Q1010=
2025-11-19 15:00:00<>METAR SBGL 191500Z 22016KT 190V250 9999 SCT035 SCT066 29/16 Q1010=
2025-11-19 16:00:00<>METAR SBGL 191600Z 24020KT 9999 SCT035 28/15 Q1010=
2025-11-19 17:00:00<>METAR SBGL 191700Z 21017KT 9999 SCT035 SCT083 27/14 Q1010=
2025-11-19 18:00:00<>METAR SBGL 191800Z 21016KT 180V240 9999 SCT030 SCT083 27/15 Q1010=
2025-11-19 19:00:00<>METAR SBGL 191900Z 22014KT 9999 SCT030 SCT083 26/15 Q1010=
2025-11-19 20:00:00<>METAR SBGL 192000Z 20014KT 9999 FEW030 26/15 Q1011=
2025-11-19 21:00:00<>METAR SBGL 192100Z 21014KT 9999 FEW030 24/15 Q1011=
2025-11-19 22:00:00<>METAR SBGL 192200Z 20008KT 170V230 9999 FEW030 23/16 Q1012=
2025-11-19 23:00:00<>METAR SBGL 192300Z 20006KT CAVOK 23/17 Q1013=
2025-11-20 00:00:00<>METAR SBGL 200000Z 22007KT CAVOK 23/16 Q1014=
2025-11-20 01:00:00<>METAR SBGL 200100Z 23005KT CAVOK 22/16 Q1015=
2025-11-20 02:00:00<>METAR SBGL 200200Z 28004KT 9999 FEW030 22/16 Q1015=
2025-11-20 03:00:00<>METAR SBGL 200300Z 31004KT 8000 FEW031 21/17 Q1015=
2025-11-20 04:00:00<>METAR SBGL 200400Z 33006KT 8000 FEW031 20/16 Q1014=
2025-11-20 05:00:00<>METAR SBGL 200500Z 32007KT 8000 FEW031 20/16 Q1014=
2025-11-20 06:00:00<>METAR SBGL 200600Z 30005KT CAVOK 20/16 Q1014=
2025-11-20 07:00:00<>METAR SBGL 200700Z 32006KT 8000 FEW030 20/16 Q1014=
2025-11-20 08:00:00<>METAR SBGL 200800Z 30004KT 9999 FEW030 BKN060 21/17 Q1014=
2025-11-20 09:00:00<>METAR SBGL 200900Z 33006KT 310V010 7000 FEW032 BKN040 20/16 Q1015=
2025-11-20 10:00:00<>METAR SBGL 201000Z 31005KT 8000 -RA FEW032 SCT060 BKN080 20/18 Q1016=
2025-11-20 11:00:00<>METAR SBGL 201100Z 30006KT 290V350 9999 SCT027 BKN050 BKN090 22/18 Q1016=
2025-11-20 12:00:00<>METAR SBGL 201200Z 01007KT 9999 SCT018 BKN027 BKN080 22/18 Q1017=
2025-11-20 13:00:00<>METAR SBGL 201300Z VRB04KT 9999 FEW020 SCT030 BKN080 24/17 Q1017=
2025-11-20 14:00:00<>METAR SBGL 201400Z 11013KT 8000 FEW020 SCT030 BKN090 25/16 Q1017=
2025-11-20 15:00:00<>METAR SBGL 201500Z 11014KT 9999 FEW030 SCT040 BKN080 24/16 Q1017=
2025-11-20 16:00:00<>METAR SBGL 201600Z 12017KT 9999 SCT040 25/16 Q1016=
2025-11-20 17:00:00<>METAR SBGL 201700Z 12017KT 9999 SCT040 25/16 Q1016=
2025-11-20 18:00:00<>METAR SBGL 201800Z 13016KT 9999 SCT030 25/16 Q1015=
2025-11-20 19:00:00<>METAR SBGL 201900Z 13014KT 9999 SCT030 25/15 Q1015=
2025-11-20 20:00:00<>METAR SBGL 202000Z 12013KT 9999 SCT030 23/15 Q1015=
2025-11-20 21:00:00<>METAR SBGL 202100Z 14012KT 9999 SCT030 22/15 Q1016=
2025-11-20 22:00:00<>METAR SBGL 202200Z 14008KT 9999 FEW030 22/14 Q1016=
2025-11-20 23:00:00<>METAR SBGL 202300Z 10006KT 9999 FEW030 21/14 Q1017=
2025-11-21 00:00:00<>METAR SBGL 210000Z 12007KT 9999 FEW030 21/14 Q1017=
2025-11-21 01:00:00<>METAR SBGL 210100Z 12006KT 9999 FEW030 20/14 Q1017=
2025-11-21 02:00:00<>METAR SBGL 210200Z 11007KT 9999 FEW030 21/14 Q1017=
2025-11-21 03:00:00<>METAR SBGL 210300Z 10009KT 9999 FEW030 SCT066 20/14 Q1016=
2025-11-21 04:00:00<>METAR SBGL 210400Z 09008KT CAVOK 20/14 Q1015=
2025-11-21 05:00:00<>METAR SBGL 210500Z 10005KT CAVOK 19/14 Q1015=
2025-11-21 06:00:00<>METAR SBGL 210600Z 12004KT CAVOK 18/14 Q1015=
2025-11-21 07:00:00<>METAR SBGL 210700Z 11002KT CAVOK 17/14 Q1015=
2025-11-21 08:00:00<>METAR SBGL 210800Z 34003KT CAVOK 18/15 Q1015=
2025-11-21 09:00:00<>METAR SBGL 210900Z 33003KT 310V050 CAVOK 19/15 Q1016=
2025-11-21 10:00:00<>METAR SBGL 211000Z VRB02KT CAVOK 21/16 Q1016=
2025-11-21 11:00:00<>METAR SBGL 211100Z 36005KT 340V060 CAVOK 22/15 Q1017=
2025-11-21 12:00:00<>METAR SBGL 211200Z 15004KT 090V230 CAVOK 24/14 Q1017=
2025-11-21 13:00:00<>METAR SBGL 211300Z VRB05KT CAVOK 25/13 Q1017=
2025-11-21 14:00:00<>METAR SBGL 211400Z VRB05KT CAVOK 27/14 Q1016=
2025-11-21 15:00:00<>METAR SBGL 211500Z 13008KT CAVOK 27/15 Q1015=
2025-11-21 16:00:00<>METAR SBGL 211600Z 13008KT CAVOK 27/15 Q1014=
2025-11-21 17:00:00<>METAR SBGL 211700Z 13011KT CAVOK 28/16 Q1013=
2025-11-21 18:00:00<>METAR SBGL 211800Z 13010KT CAVOK 28/16 Q1013=
2025-11-21 19:00:00<>METAR SBGL 211900Z 13010KT CAVOK 28/16 Q1012=
2025-11-21 20:00:00<>METAR SBGL 212000Z 13007KT CAVOK 28/17 Q1011=
2025-11-21 21:00:00<>METAR SBGL 212100Z 14006KT CAVOK 26/18 Q1012=
2025-11-21 22:00:00<>METAR SBGL 212200Z 13005KT CAVOK 24/18 Q1012=
2025-11-21 23:00:00<>METAR SBGL 212300Z 12006KT CAVOK 24/19 Q1013=
2025-11-22 00:00:00<>METAR SBGL 220000Z 12008KT CAVOK 23/17 Q1013=
2025-11-22 01:00:00<>METAR SBGL 220100Z 09004KT CAVOK 23/16 Q1013=
2025-11-22 02:00:00<>METAR SBGL 220200Z 08005KT CAVOK 22/17 Q1013=
2025-11-22 03:00:00<>METAR SBGL 220300Z 10004KT CAVOK 22/17 Q1012=
2025-11-22 04:00:00<>METAR SBGL 220400Z 13006KT CAVOK 21/17 Q1012=
2025-11-22 05:00:00<>METAR SBGL 220500Z 18005KT CAVOK 21/17 Q1011=
2025-11-22 06:00:00<>METAR SBGL 220600Z 21004KT 8000 NSC 20/17 Q1011=
2025-11-22 07:00:00<>METAR SBGL 220700Z 29004KT 8000 NSC 20/16 Q1011=
2025-11-22 08:00:00<>METAR SBGL 220800Z 08004KT 8000 NSC 20/17 Q1011=
2025-11-22 09:00:00<>METAR SBGL 220900Z 03004KT 8000 NSC 21/19 Q1011=
2025-11-22 10:00:00<>METAR SBGL 221000Z 01005KT 8000 NSC 23/19 Q1011=
2025-11-22 11:00:00<>METAR SBGL 221100Z VRB02KT 9000 NSC 25/19 Q1012=
2025-11-22 12:00:00<>METAR SBGL 221200Z 20003KT CAVOK 29/19 Q1001=
2025-11-22 13:00:00<>METAR SBGL 221300Z 05006KT 350V090 CAVOK 30/20 Q1011=
2025-11-22 14:00:00<>METAR SBGL 221400Z 08004KT 040V120 CAVOK 32/19 Q1011=
2025-11-22 15:00:00<>METAR SBGL 221500Z VRB03KT CAVOK 33/14 Q1010=
2025-11-22 16:00:00<>METAR SBGL 221600Z 06005KT CAVOK 36/16 Q1009=
2025-11-22 17:00:00<>METAR SBGL 221700Z 13012KT CAVOK 33/17 Q1009=
2025-11-22 18:00:00<>METAR SBGL 221800Z 14010KT 9999 FEW015 31/17 Q1009=
2025-11-22 19:00:00<>METAR SBGL 221900Z 14009KT 9999 FEW020 32/17 Q1010=
2025-11-22 20:00:00<>METAR SBGL 222000Z 11006KT 9999 FEW020 29/16 Q1010=
2025-11-22 21:00:00<>METAR SBGL 222100Z 09003KT 9999 FEW020 27/17 Q1010=
2025-11-22 22:00:00<>METAR SBGL 222200Z 25010KT 8000 FEW020 26/19 Q1011=
2025-11-22 23:00:00<>METAR SBGL 222300Z 25011KT 9999 FEW040 25/20 Q1012=
2025-11-23 00:00:00<>METAR SBGL 230000Z 25010KT 9999 FEW030 BKN100 24/20 Q1013=
2025-11-23 01:00:00<>METAR SBGL 230100Z 25007KT 9999 FEW030 BKN100 24/20 Q1013=
2025-11-23 02:00:00<>METAR SBGL 230200Z 24009KT 9999 FEW030 BKN100 24/20 Q1013=
2025-11-23 03:00:00<>METAR SBGL 230300Z 27008KT 9999 FEW030 BKN080 24/20 Q1013=
2025-11-23 04:00:00<>METAR SBGL 230400Z 27008KT 9999 FEW016 BKN080 24/20 Q1013=
2025-11-23 05:00:00<>METAR SBGL 230500Z 26006KT 9999 FEW030 BKN080 24/19 Q1012=
2025-11-23 06:00:00<>METAR SBGL 230600Z 27007KT 9999 FEW025 BKN080 24/20 Q1012=
2025-11-23 07:00:00<>METAR SBGL 230700Z 27006KT 9999 SCT030 23/20 Q1012=
2025-11-23 08:00:00<>METAR SBGL 230800Z 28004KT 9999 FEW030 BKN100 23/20 Q1012=
2025-11-23 09:00:00<>METAR SBGL 230900Z 33004KT 9000 FEW030 BKN100 24/20 Q1013=
2025-11-23 10:00:00<>METAR SBGL 231000Z 29005KT 250V320 9000 FEW020 BKN080 25/20 Q1013=
2025-11-23 11:00:00<>METAR SBGL 231100Z 25008KT 9999 SCT020 26/20 Q1014=
2025-11-23 12:00:00<>METAR SBGL 231200Z 24004KT 190V290 9999 SCT025 28/19 Q1014=
2025-11-23 13:00:00<>METAR SBGL 231300Z 25004KT 170V310 9999 BKN030 27/19 Q1014=
2025-11-23 14:00:00<>METAR SBGL 231400Z 19009KT 9999 FEW025 BKN030 27/19 Q1014=
2025-11-23 15:00:00<>METAR SBGL 231500Z 21009KT 9999 FEW025 OVC030 27/18 Q1014=
2025-11-23 16:00:00<>METAR SBGL 231600Z 21009KT 9999 FEW020 SCT035 BKN080 26/18 Q1013=
2025-11-23 17:00:00<>METAR SBGL 231700Z 21010KT 9999 BKN035 BKN080 26/18 Q1013=
2025-11-23 18:00:00<>METAR SBGL 231800Z 21009KT 9999 OVC040 25/19 Q1013=
2025-11-23 19:00:00<>METAR SBGL 231900Z 22008KT 9999 OVC040 26/18 Q1012=
2025-11-23 20:00:00<>METAR SBGL 232000Z 22007KT 9999 OVC040 26/19 Q1012=
2025-11-23 21:00:00<>METAR SBGL 232100Z 25006KT 9999 OVC045 25/19 Q1012=
2025-11-23 22:00:00<>METAR SBGL 232200Z 24006KT 8000 FEW032TCU OVC040 25/19 Q1013=
2025-11-23 23:00:00<>METAR SBGL 232300Z 18004KT 9000 SCT030 OVC040 25/20 Q1013=
2025-11-24 00:00:00<>METAR SBGL 240000Z 36010KT 8000 SCT018 BKN027 OVC050 24/20 Q1014=
2025-11-24 01:00:00<>METAR SBGL 240100Z 01008KT 8000 SCT018 BKN035 23/20 Q1014=
2025-11-24 02:00:00<>METAR SBGL 240200Z 01006KT 4000 RA BR BKN008 BKN035 OVC050 22/20 Q1013=
2025-11-24 03:00:00<>METAR SBGL 240300Z 35005KT 300V020 8000 BKN014 BKN035 BKN050 22/20 Q1013 RERA=
2025-11-24 04:00:00<>METAR SBGL 240400Z 09003KT 8000 BKN014 BKN050 22/20 Q1012=
2025-11-24 05:00:00<>METAR SBGL 240500Z 09002KT 8000 BKN014 BKN050 22/20 Q1012=
2025-11-24 06:00:00<>METAR SBGL 240600Z 02003KT 340V070 7000 BKN014 BKN050 22/21 Q1012=
2025-11-24 07:00:00<>METAR SBGL 240700Z 11004KT 7000 BKN014 BKN050 22/20 Q1012=
2025-11-24 08:00:00<>METAR SBGL 240800Z 09004KT 7000 BKN014 BKN050 22/20 Q1012=
2025-11-24 09:00:00<>METAR SBGL 240900Z 09004KT 7000 BKN014 BKN050 22/20 Q1013=
2025-11-24 10:00:00<>METAR SBGL 241000Z 09006KT 9999 BKN014 BKN030 BKN080 23/20 Q1013=
2025-11-24 11:00:00<>METAR SBGL 241100Z 09007KT 9999 SCT013 BKN023 BKN080 23/20 Q1013=
2025-11-24 12:00:00<>METAR SBGL 241200Z 05006KT 9000 VCSH SCT013 BKN033 BKN080 23/20 Q1013=
2025-11-24 13:00:00<>METAR SBGL 241300Z 06003KT 9999 SCT011 BKN033 BKN080 24/21 Q1013=
2025-11-24 14:00:00<>METAR SBGL 241400Z 02004KT 9999 SCT013 SCT033 BKN080 24/20 Q1012=
2025-11-24 15:00:00<>METAR SBGL 241500Z 08006KT 9999 SCT013 SCT033 BKN080 26/20 Q1011=
2025-11-24 16:00:00<>METAR SBGL 241600Z 13008KT 9999 SCT033 BKN080 27/21 Q1010=
2025-11-24 17:00:00<>METAR SBGL 241700Z VRB03KT 9999 SCT030 SCT080 28/21 Q1009=
2025-11-24 18:00:00<>METAR SBGL 241800Z 12009KT 9999 SCT030 SCT080 28/20 Q1009=
2025-11-24 19:00:00<>METAR SBGL 241900Z 10010KT 9999 SCT030 SCT066 27/19 Q1008=
2025-11-24 20:00:00<>METAR SBGL 242000Z 10012KT 9999 4000NW RA BKN030 FEW035TCU BKN066 25/20 Q1008=
2025-11-24 20:08:00<>SPECI SBGL 242008Z 10009KT 9999 4000NW TSRA BKN030 FEW035CB BKN066 24/20 Q1008=
2025-11-24 21:00:00<>METAR SBGL 242100Z 11005KT 9000 -TSRA SCT030 FEW035CB BKN066 23/20 Q1009 RERA=
2025-11-24 22:00:00<>METAR COR SBGL 242200Z 19003KT 150V230 9000 4000SW -TSRA BKN025 FEW035CB BKN046 OVC066 23/20 Q1010=
2025-11-24 23:00:00<>METAR SBGL 242300Z 14007KT 7000 -RA FEW025 BKN055 OVC070 22/20 Q1011 RETS=
2025-11-25 00:00:00<>METAR COR SBGL 250000Z 14007KT 7000 -RA FEW025 BKN055 OVC070 22/20 Q1010=
2025-11-25 01:00:00<>METAR SBGL 250100Z 11003KT 070V170 7000 -RA FEW021 BKN048 OVC100 22/20 Q1010=
2025-11-25 02:00:00<>METAR SBGL 250200Z 12002KT 8000 -RA FEW011 BKN048 OVC100 22/20 Q1010=
2025-11-25 03:00:00<>METAR SBGL 250300Z 12002KT 8000 BKN012 OVC100 22/21 Q1009=
2025-11-25 04:00:00<>METAR SBGL 250400Z 16001KT 8000 BKN011 SCT023 OVC100 22/21 Q1009=
2025-11-25 05:00:00<>METAR SBGL 250500Z 06002KT 8000 BKN008 SCT023 OVC100 22/21 Q1008=
2025-11-25 06:00:00<>METAR SBGL 250600Z VRB01KT 8000 FEW011 SCT017 OVC100 22/20 Q1008=
2025-11-25 06:33:00<>SPECI SBGL 250633Z 34005KT 3000 -RA BR BKN011 SCT017 OVC100 22/21 Q1008=
2025-11-25 07:00:00<>METAR SBGL 250700Z VRB02KT 8000 -RA FEW005 OVC070 22/20 Q1008=
2025-11-25 08:00:00<>METAR SBGL 250800Z 24003KT 8000 FEW005 OVC070 22/20 Q1008=
2025-11-25 09:00:00<>METAR SBGL 250900Z 25005KT 8000 SCT030 BKN045 OVC070 22/20 Q1009=
2025-11-25 10:00:00<>METAR SBGL 251000Z 25010KT 9999 SCT020 OVC035 23/20 Q1010=
2025-11-25 11:00:00<>METAR SBGL 251100Z 27010KT 9999 SCT016 BKN036 23/20 Q1010=
2025-11-25 12:00:00<>METAR COR SBGL 251200Z 25017KT 9999 SCT036 29/17 Q1010=
2025-11-25 13:00:00<>METAR SBGL 251300Z 25018KT 9999 SCT030 26/18 Q1010=
2025-11-25 14:00:00<>METAR SBGL 251400Z 26018KT 9999 SCT033 27/18 Q1010=
2025-11-25 15:00:00<>METAR SBGL 251500Z 25019KT 9999 SCT036 28/17 Q1010=
2025-11-25 16:00:00<>METAR SBGL 251600Z 24015KT 9999 SCT043 28/16 Q1010=
2025-11-25 17:00:00<>METAR SBGL 251700Z 21013KT 9999 SCT043 SCT070 28/18 Q1010=
2025-11-25 18:00:00<>METAR SBGL 251800Z 22017KT 9999 FEW036 BKN070 27/16 Q1010=
2025-11-25 19:00:00<>METAR SBGL 251900Z 23014KT 9999 FEW033 BKN070 27/16 Q1010=
2025-11-25 20:00:00<>METAR SBGL 252000Z 20014KT 9999 SCT026 BKN070 25/17 Q1011=
2025-11-25 21:00:00<>METAR SBGL 252100Z 22010KT 9999 BKN026 24/17 Q1012=
2025-11-25 22:00:00<>METAR SBGL 252200Z 23009KT 9999 -RA BKN026 23/18 Q1013=
2025-11-25 23:00:00<>METAR SBGL 252300Z 27010KT 230V300 9999 BKN027 23/18 Q1013=
2025-11-26 00:00:00<>METAR SBGL 260000Z 26007KT 9999 BKN027 23/18 Q1014=
2025-11-26 01:00:00<>METAR SBGL 260100Z 22014KT 9999 BKN027 23/17 Q1014=
2025-11-26 02:00:00<>METAR SBGL 260200Z 29007KT 9999 BKN027 22/18 Q1014=
2025-11-26 03:00:00<>METAR SBGL 260300Z 28011KT 260V320 9999 BKN027 22/18 Q1014=
2025-11-26 04:00:00<>METAR SBGL 260400Z 29011KT 9999 BKN027 22/18 Q1013=
2025-11-26 05:00:00<>METAR SBGL 260500Z 25009KT 4500 -RA BR BKN020 20/18 Q1013=
2025-11-26 06:00:00<>METAR SBGL 260600Z 27009KT 4500 -RA BR FEW011 BKN020 20/18 Q1013=
2025-11-26 07:00:00<>METAR SBGL 260700Z 30006KT 9000 FEW025 BKN040 20/18 Q1013=
2025-11-26 08:00:00<>METAR SBGL 260800Z 30006KT 9000 FEW008 SCT030 BKN040 20/18 Q1014=
2025-11-26 09:00:00<>METAR SBGL 260900Z 31005KT 9999 SCT023 BKN040 20/18 Q1014=
2025-11-26 10:00:00<>METAR SBGL 261000Z 32003KT 9000 SCT010 BKN040 21/18 Q1014=
2025-11-26 11:00:00<>METAR SBGL 261100Z 01004KT 340V050 9999 SCT014 BKN030 23/19 Q1015=
2025-11-26 12:00:00<>METAR SBGL 261200Z 24003KT 9999 FEW018 BKN025 24/18 Q1015=
2025-11-26 13:00:00<>METAR SBGL 261300Z VRB04KT 9999 SCT025 25/17 Q1015=
2025-11-26 14:00:00<>METAR SBGL 261400Z 04007KT 010V090 9999 BKN025 25/19 Q1015=
2025-11-26 15:00:00<>METAR SBGL 261500Z 19008KT 150V240 9999 FEW030 BKN040 26/17 Q1015=
2025-11-26 16:00:00<>METAR SBGL 261600Z 20012KT 160V230 9999 SCT040 27/16 Q1014=
2025-11-26 17:00:00<>METAR SBGL 261700Z 21016KT 9999 FEW035 27/17 Q1014=
2025-11-26 18:00:00<>METAR SBGL 261800Z 21015KT 9999 FEW035 27/16 Q1014=
2025-11-26 19:00:00<>METAR SBGL 261900Z 22015KT 9999 FEW035 26/15 Q1014=
2025-11-26 20:00:00<>METAR SBGL 262000Z 21014KT 9999 SCT035 25/15 Q1014=
2025-11-26 21:00:00<>METAR SBGL 262100Z 21011KT 9999 FEW035 24/15 Q1015=
2025-11-26 22:00:00<>METAR SBGL 262200Z 20005KT 160V220 9999 FEW030 23/17 Q1015=
2025-11-26 23:00:00<>METAR SBGL 262300Z 21006KT 9999 FEW030 22/17 Q1016=
2025-11-27 00:00:00<>METAR SBGL 270000Z 26002KT 9999 FEW030 22/17 Q1016=
2025-11-27 01:00:00<>METAR SBGL 270100Z 20005KT 9999 SCT026 22/17 Q1017=
2025-11-27 02:00:00<>METAR SBGL 270200Z 12005KT 9999 SCT021 22/17 Q1016=
2025-11-27 03:00:00<>METAR SBGL 270300Z 15009KT 9999 SCT019 SCT050 21/18 Q1016=
2025-11-27 04:00:00<>METAR SBGL 270400Z 16008KT 9999 BKN019 BKN050 20/18 Q1016=
2025-11-27 05:00:00<>METAR SBGL 270500Z 18007KT 9999 BKN019 BKN050 20/18 Q1016=
2025-11-27 06:00:00<>METAR SBGL 270600Z 19007KT 8000 BKN019 BKN050 19/18 Q1015=
2025-11-27 07:00:00<>METAR SBGL 270700Z 20006KT 7000 BKN019 BKN050 19/18 Q1015=
2025-11-27 08:00:00<>METAR SBGL 270800Z 06004KT 8000 FEW011 SCT019 BKN033 20/18 Q1016=
2025-11-27 09:00:00<>METAR SBGL 270900Z 06005KT 8000 FEW009 SCT019 21/18 Q1017=
2025-11-27 10:00:00<>METAR SBGL 271000Z 09008KT 9000 SCT009 SCT019 22/18 Q1017=
2025-11-27 11:00:00<>METAR SBGL 271100Z 02006KT 350V060 9000 FEW015 23/17 Q1018=
2025-11-27 12:00:00<>METAR SBGL 271200Z 09005KT 9999 FEW024 25/16 Q1017=
2025-11-27 13:00:00<>METAR SBGL 271300Z 07006KT 030V110 9999 FEW030 26/16 Q1017=
2025-11-27 14:00:00<>METAR SBGL 271400Z 13006KT 9999 FEW035 26/16 Q1017=
2025-11-27 15:00:00<>METAR SBGL 271500Z 14011KT 9999 BKN035 25/17 Q1016=
2025-11-27 16:00:00<>METAR SBGL 271600Z 14011KT 9999 FEW020 BKN035 25/17 Q1016=
2025-11-27 17:00:00<>METAR SBGL 271700Z 14013KT 9999 FEW020 BKN035 BKN070 26/17 Q1015=
2025-11-27 18:00:00<>METAR SBGL 271800Z 14012KT 9999 BKN030 BKN070 25/17 Q1015=
2025-11-27 19:00:00<>METAR SBGL 271900Z 14014KT 9999 BKN020 BKN050 25/17 Q1015=
2025-11-27 20:00:00<>METAR SBGL 272000Z 14011KT 110V170 9999 BKN020 BKN050 24/18 Q1015=
2025-11-27 21:00:00<>METAR SBGL 272100Z 14008KT 9999 BKN020 BKN040 24/17 Q1015=
2025-11-27 22:00:00<>METAR SBGL 272200Z 13009KT 9999 SCT020 BKN040 BKN050 23/17 Q1015=
2025-11-27 23:00:00<>METAR SBGL 272300Z 12007KT 100V160 9999 FEW020 BKN040 BKN050 23/17 Q1015=
2025-11-28 00:00:00<>METAR SBGL 280000Z 12006KT 9999 FEW020 BKN046 23/18 Q1016=
2025-11-28 01:00:00<>METAR SBGL 280100Z 11008KT 9999 FEW020 OVC046 23/17 Q1016=
2025-11-28 02:00:00<>METAR SBGL 280200Z 11007KT 9999 FEW020 OVC046 23/17 Q1016=
2025-11-28 03:00:00<>METAR SBGL 280300Z 09006KT 9999 FEW020 OVC043 23/18 Q1015=
2025-11-28 04:00:00<>METAR SBGL 280400Z 09005KT 9999 FEW020 OVC043 23/18 Q1014=
2025-11-28 05:00:00<>METAR SBGL 280500Z 08004KT 9999 FEW020 SCT043 BKN066 22/18 Q1014=
2025-11-28 06:00:00<>METAR SBGL 280600Z 07003KT 9999 FEW017 SCT066 21/18 Q1014=
2025-11-28 07:00:00<>METAR SBGL 280700Z 12003KT 9999 FEW017 21/17 Q1013=
2025-11-28 08:00:00<>METAR COR SBGL 280800Z 13006KT 9999 FEW035 22/16 Q1017=
2025-11-28 09:00:00<>METAR SBGL 280900Z 00000KT 9999 FEW015 22/19 Q1014=
2025-11-28 10:00:00<>METAR SBGL 281000Z VRB01KT 9999 FEW015 23/18 Q1014=
2025-11-28 11:00:00<>METAR SBGL 281100Z 36006KT 9999 FEW015 24/19 Q1014=
2025-11-28 12:00:00<>METAR SBGL 281200Z 35006KT 9999 FEW015 24/19 Q1014=
2025-11-28 13:00:00<>METAR SBGL 281300Z 24004KT 9999 FEW015 27/19 Q1013=
2025-11-28 14:00:00<>METAR SBGL 281400Z 07008KT 020V110 9999 FEW020 29/19 Q1012=
2025-11-28 15:00:00<>METAR SBGL 281500Z 08007KT 040V130 9999 FEW020 30/18 Q1011=
2025-11-28 16:00:00<>METAR SBGL 281600Z 12009KT 9999 FEW020 30/18 Q1011=
2025-11-28 17:00:00<>METAR SBGL 281700Z 12010KT 9999 FEW020 30/20 Q1010=
2025-11-28 18:00:00<>METAR SBGL 281800Z 15012KT 110V170 9999 FEW020 29/20 Q1009=
2025-11-28 19:00:00<>METAR SBGL 281900Z 14013KT 9999 FEW022 29/20 Q1008=
2025-11-28 20:00:00<>METAR SBGL 282000Z 16011KT 9999 SCT023 28/20 Q1008=
2025-11-28 21:00:00<>METAR SBGL 282100Z 16004KT 140V230 9999 FEW014 BKN023 27/20 Q1009=
2025-11-28 22:00:00<>METAR SBGL 282200Z 09007KT 9999 SCT023 SCT046 26/20 Q1010=
2025-11-28 23:00:00<>METAR SBGL 282300Z 29015KT 9999 TS FEW025CB BKN030 25/20 Q1010=
2025-11-28 23:23:00<>SPECI SBGL 282323Z 24011KT 190V260 2000 TSRA BR FEW006 BKN014 FEW030CB BKN040 23/21 Q1012=
2025-11-29 00:00:00<>METAR SBGL 290000Z 24011KT 9999 -TSRA BKN013 FEW030CB BKN050 23/21 Q1011 RERA=
2025-11-29 01:00:00<>METAR SBGL 290100Z 31004KT 280V340 9999 FEW009 SCT030 BKN050 23/21 Q1011 RETS=
2025-11-29 02:00:00<>METAR SBGL 290200Z 31006KT 9999 FEW010 SCT030 BKN050 23/21 Q1011=
2025-11-29 03:00:00<>METAR SBGL 290300Z 31005KT 9999 FEW030 23/20 Q1009=
2025-11-29 04:00:00<>METAR SBGL 290400Z 29004KT 260V330 9999 FEW030 22/20 Q1009=
2025-11-29 05:00:00<>METAR SBGL 290500Z 25005KT 230V290 9999 FEW030 22/19 Q1008=
2025-11-29 06:00:00<>METAR SBGL 290600Z 02004KT 9999 FEW030 22/20 Q1008=
2025-11-29 07:00:00<>METAR SBGL 290700Z 02004KT 9999 FEW030 22/20 Q1008=
2025-11-29 08:00:00<>METAR SBGL 290800Z 13003KT 9999 FEW010 21/19 Q1009=
2025-11-29 08:10:00<>SPECI SBGL 290810Z 12004KT 4500 BR SCT010 BKN030 21/20 Q1009=
2025-11-29 09:00:00<>METAR SBGL 290900Z 12003KT 4500 BR BKN014 22/20 Q1009=
2025-11-29 10:00:00<>METAR SBGL 291000Z VRB02KT 5000 HZ SCT010 24/20 Q1009=
2025-11-29 11:00:00<>METAR SBGL 291100Z 02003KT 7000 FEW010 25/21 Q1009=
2025-11-29 12:00:00<>METAR SBGL 291200Z 22009KT 8000 FEW019 28/20 Q1009=
2025-11-29 13:00:00<>METAR SBGL 291300Z 14009KT 8000 NSC 28/21 Q1009=
2025-11-29 14:00:00<>METAR SBGL 291400Z 10013KT 8000 FEW020 29/22 Q1009=
2025-11-29 15:00:00<>METAR SBGL 291500Z 14009KT 9999 FEW020 29/22 Q1009=
2025-11-29 16:00:00<>METAR SBGL 291600Z 11011KT 9999 FEW026 30/21 Q1009=
2025-11-29 17:00:00<>METAR SBGL 291700Z 20011KT 9999 FEW026 32/16 Q1008=
2025-11-29 18:00:00<>METAR SBGL 291800Z 20012KT CAVOK 32/13 Q1008=
2025-11-29 19:00:00<>METAR SBGL 291900Z 19012KT CAVOK 31/12 Q1008=
2025-11-29 20:00:00<>METAR SBGL 292000Z 22012KT CAVOK 30/11 Q1009=
2025-11-29 21:00:00<>METAR SBGL 292100Z 19006KT 140V240 CAVOK 28/13 Q1009=
2025-11-29 22:00:00<>METAR SBGL 292200Z 13006KT CAVOK 25/19 Q1010=
2025-11-29 23:00:00<>METAR SBGL 292300Z 12004KT 070V160 CAVOK 24/19 Q1011=
2025-11-30 00:00:00<>METAR SBGL 300000Z 11003KT CAVOK 23/19 Q1012=
2025-11-30 01:00:00<>METAR SBGL 300100Z 13005KT 9999 FEW015 23/19 Q1012=
2025-11-30 02:00:00<>METAR SBGL 300200Z 07004KT 9999 FEW015 23/20 Q1012=
2025-11-30 03:00:00<>METAR SBGL 300300Z 08004KT 9999 FEW015 22/20 Q1012=
2025-11-30 04:00:00<>METAR SBGL 300400Z VRB02KT 9999 FEW012 22/19 Q1011=
2025-11-30 05:00:00<>METAR SBGL 300500Z 33004KT 9999 FEW012 22/19 Q1011=
2025-11-30 06:00:00<>METAR SBGL 300600Z 33005KT CAVOK 21/18 Q1010=
2025-11-30 07:00:00<>METAR SBGL 300700Z 30004KT CAVOK 21/18 Q1010=
2025-11-30 08:00:00<>METAR SBGL 300800Z VRB01KT CAVOK 20/18 Q1010=
2025-11-30 09:00:00<>METAR SBGL 300900Z 34004KT 7000 FEW020 21/19 Q1010=
2025-11-30 10:00:00<>METAR SBGL 301000Z 34004KT 310V030 8000 NSC 22/19 Q1011=
2025-11-30 11:00:00<>METAR SBGL 301100Z VRB02KT CAVOK 25/19 Q1011=
2025-11-30 12:00:00<>METAR SBGL 301200Z VRB02KT CAVOK 28/17 Q1010=
2025-11-30 13:00:00<>METAR SBGL 301300Z VRB03KT CAVOK 30/16 Q1010=
2025-11-30 14:00:00<>METAR SBGL 301400Z 13009KT 100V160 CAVOK 30/20 Q1010=
2025-11-30 15:00:00<>METAR SBGL 301500Z 13014KT CAVOK 28/20 Q1010=
2025-11-30 16:00:00<>METAR SBGL 301600Z 13014KT CAVOK 28/21 Q1010=
2025-11-30 17:00:00<>METAR SBGL 301700Z 13015KT 9999 FEW030 28/21 Q1009=
2025-11-30 18:00:00<>METAR SBGL 301800Z 13014KT 9999 FEW030 28/21 Q1009=
2025-11-30 19:00:00<>METAR SBGL 301900Z 13014KT 9999 FEW030 27/21 Q1008=
2025-11-30 20:00:00<>METAR SBGL 302000Z 13013KT CAVOK 26/19 Q1008=
2025-11-30 21:00:00<>METAR SBGL 302100Z 13011KT CAVOK 25/19 Q1009=
2025-11-30 22:00:00<>METAR SBGL 302200Z 13010KT CAVOK 24/20 Q1009=
2025-11-30 23:00:00<>METAR SBGL 302300Z 14008KT 9999 SCT040 24/19 Q1010=
2025-12-01 00:00:00<>METAR SBGL 010000Z 13005KT CAVOK 24/19 Q1011=
2025-12-01 01:00:00<>METAR SBGL 010100Z 13004KT CAVOK 23/19 Q1011=
2025-12-01 02:00:00<>METAR SBGL 010200Z 13004KT 9999 FEW030 23/19 Q1011=
2025-12-01 03:00:00<>METAR SBGL 010300Z 14004KT 9999 FEW040 23/19 Q1011=
2025-12-01 04:00:00<>METAR SBGL 010400Z 13003KT 9999 FEW017 BKN040 23/20 Q1010=
2025-12-01 05:00:00<>METAR SBGL 010500Z 14004KT 9999 FEW015 OVC040 23/20 Q1010=
2025-12-01 06:00:00<>METAR SBGL 010600Z 14003KT 9999 FEW015 OVC040 23/20 Q1010=
2025-12-01 07:00:00<>METAR SBGL 010700Z 13003KT 9999 FEW016 SCT040 23/20 Q1010=
2025-12-01 08:00:00<>METAR SBGL 010800Z 12006KT 9999 FEW016 BKN030 23/19 Q1010=
2025-12-01 09:00:00<>METAR SBGL 010900Z 11004KT 9999 FEW017 BKN030 23/19 Q1011=
2025-12-01 10:00:00<>METAR SBGL 011000Z 06005KT 9999 FEW017 BKN030 24/19 Q1012=
2025-12-01 11:00:00<>METAR SBGL 011100Z 04006KT 9999 FEW017 SCT030 25/19 Q1012=
2025-12-01 12:00:00<>METAR SBGL 011200Z VRB03KT 9999 FEW025 27/19 Q1011=
2025-12-01 13:00:00<>METAR SBGL 011300Z 16005KT 090V250 9999 FEW030 28/18 Q1011=
2025-12-01 14:00:00<>METAR SBGL 011400Z 03008KT 9999 FEW030 29/19 Q1010=
2025-12-01 15:00:00<>METAR SBGL 011500Z 13008KT CAVOK 29/20 Q1010=
2025-12-01 16:00:00<>METAR SBGL 011600Z 13009KT CAVOK 30/20 Q1009=
2025-12-01 17:00:00<>METAR SBGL 011700Z 14013KT 9999 FEW030 29/21 Q1008=
2025-12-01 18:00:00<>METAR SBGL 011800Z 13012KT CAVOK 29/21 Q1007=
2025-12-01 19:00:00<>METAR SBGL 011900Z 14015KT CAVOK 28/20 Q1006=
2025-12-01 20:00:00<>METAR SBGL 012000Z 14014KT 9999 FEW030TCU 27/20 Q1006=
2025-12-01 21:00:00<>METAR SBGL 012100Z 15015KT 9999 FEW020 26/20 Q1006=
2025-12-01 22:00:00<>METAR SBGL 012200Z 14013KT 9999 SCT030 25/21 Q1007=
2025-12-01 23:00:00<>METAR SBGL 012300Z 14009KT 9999 BKN036 25/21 Q1009=
2025-12-02 00:00:00<>METAR SBGL 020000Z 14012KT 9999 BKN030 25/21 Q1009=
2025-12-02 01:00:00<>METAR SBGL 020100Z 15008KT 9000 BKN030 25/21 Q1010=
2025-12-02 02:00:00<>METAR SBGL 020200Z 17005KT 9000 BKN026 25/21 Q1010=
2025-12-02 03:00:00<>METAR SBGL 020300Z 15006KT 8000 BKN023 25/21 Q1010=
2025-12-02 04:00:00<>METAR SBGL 020400Z 31005KT 6000 -RA FEW011 SCT019 BKN023 24/22 Q1009=
2025-12-02 05:00:00<>METAR SBGL 020500Z 04009KT 4000 -RA BR BKN011 BKN017 BKN100 23/22 Q1008=
2025-12-02 06:00:00<>METAR SBGL 020600Z 07008KT 4000 -RA BR SCT011 BKN017 BKN100 23/22 Q1007=
2025-12-02 07:00:00<>METAR SBGL 020700Z 12007KT 4000 -RA BR SCT011 BKN017 BKN100 23/22 Q1007=
2025-12-02 08:00:00<>METAR SBGL 020800Z 08003KT 6000 FEW009 BKN021 BKN100 23/22 Q1007=
2025-12-02 09:00:00<>METAR SBGL 020900Z 10004KT 7000 SCT009 SCT021 BKN100 24/22 Q1008=
2025-12-02 10:00:00<>METAR SBGL 021000Z 04005KT 7000 SCT009 SCT021 BKN100 25/22 Q1008=
2025-12-02 11:00:00<>METAR SBGL 021100Z 03004KT 360V060 7000 FEW009 SCT025 BKN100 25/22 Q1008=
2025-12-02 12:00:00<>METAR SBGL 021200Z 08005KT 050V130 7000 FEW009 SCT025 BKN100 26/22 Q1007=
2025-12-02 13:00:00<>METAR SBGL 021300Z 15003KT 7000 FEW009 SCT025 BKN100 27/23 Q1007=
2025-12-02 14:00:00<>METAR SBGL 021400Z VRB04KT 7000 SCT025 BKN100 29/22 Q1006=
2025-12-02 15:00:00<>METAR SBGL 021500Z VRB02KT 8000 FEW025 BKN100 31/23 Q1005=
2025-12-02 16:00:00<>METAR SBGL 021600Z VRB04KT 7000 FEW025 BKN100 34/22 Q1005=
2025-12-02 17:00:00<>METAR SBGL 021700Z 14011KT 7000 FEW025 BKN100 32/22 Q1004=
2025-12-02 18:00:00<>METAR SBGL 021800Z 16011KT 9000 SCT025 BKN100 32/22 Q1004=
2025-12-02 19:00:00<>METAR SBGL 021900Z 23011KT 210V270 9000 FEW030TCU SCT050 BKN100 30/21 Q1005=
2025-12-02 20:00:00<>METAR SBGL 022000Z 25010KT 7000 VCSH FEW030TCU SCT050 BKN100 28/21 Q1005=
2025-12-02 21:00:00<>METAR SBGL 022100Z 20016KT 160V220 2500 TSRA BR BKN014 FEW030CB BKN050 23/22 Q1006=
2025-12-02 21:30:00<>SPECI SBGL 022130Z VRB02KT 9000 TS FEW030CB BKN040 BKN100 24/22 Q1006 RERA=
2025-12-02 22:00:00<>METAR SBGL 022200Z 02004KT 350V060 9000 FEW030 BKN100 24/22 Q1006 RETSRA=
2025-12-02 23:00:00<>METAR SBGL 022300Z 27004KT 9999 FEW030 BKN100 24/21 Q1007=
2025-12-03 00:00:00<>METAR SBGL 030000Z 03003KT 9999 FEW010 BKN035 24/22 Q1008=
2025-12-03 01:00:00<>METAR SBGL 030100Z 33007KT 310V010 9999 BKN012 OVC035 24/21 Q1008=
2025-12-03 02:00:00<>METAR SBGL 030200Z VRB02KT 9999 SCT015 OVC060 24/21 Q1007=
2025-12-03 03:00:00<>METAR SBGL 030300Z 24006KT 9999 SCT015 OVC060 25/21 Q1007=
2025-12-03 04:00:00<>METAR SBGL 030400Z 34006KT 9999 SCT015 BKN060 24/22 Q1007=
2025-12-03 05:00:00<>METAR SBGL 030500Z 01001KT 9999 SCT010 BKN020 24/22 Q1006=
2025-12-03 06:00:00<>METAR SBGL 030600Z 26003KT 9999 FEW030 BKN066 24/22 Q1006=
2025-12-03 07:00:00<>METAR SBGL 030700Z 29003KT 9999 FEW030 BKN066 24/22 Q1006=
2025-12-03 08:00:00<>METAR SBGL 030800Z 32005KT 9000 FEW030 BKN080 24/22 Q1007=
2025-12-03 09:00:00<>METAR SBGL 030900Z 33005KT 310V020 9000 FEW030 BKN100 24/22 Q1008=
2025-12-03 10:00:00<>METAR SBGL 031000Z 26006KT 9999 FEW030 BKN100 26/22 Q1008=
2025-12-03 11:00:00<>METAR SBGL 031100Z 26006KT 9999 FEW018 27/22 Q1009=
2025-12-03 12:00:00<>METAR SBGL 031200Z 25006KT 9999 FEW018 29/22 Q1009=
2025-12-03 13:00:00<>METAR SBGL 031300Z 22005KT 9999 BKN027 29/22 Q1009=
2025-12-03 14:00:00<>METAR SBGL 031400Z 12006KT 100V170 9999 SCT030 BKN035 29/23 Q1008=
2025-12-03 15:00:00<>METAR SBGL 031500Z 12009KT 9999 FEW026 BKN035 29/22 Q1008=
2025-12-03 16:00:00<>METAR SBGL 031600Z 20010KT 9999 FEW030 BKN045 31/22 Q1008=
2025-12-03 17:00:00<>METAR SBGL 031700Z 21017KT 9999 BKN040 29/20 Q1008=
2025-12-03 18:00:00<>METAR SBGL 031800Z 20013KT 9999 BKN040 29/20 Q1007=
2025-12-03 19:00:00<>METAR SBGL 031900Z 22012KT 9999 BKN040 28/20 Q1007=
2025-12-03 20:00:00<>METAR SBGL 032000Z 17006KT 140V200 9999 SCT035 27/19 Q1008=
2025-12-03 21:00:00<>METAR SBGL 032100Z 13007KT 9999 SCT035 26/20 Q1008=
2025-12-03 22:00:00<>METAR SBGL 032200Z 12008KT 9999 FEW025 25/21 Q1009=
2025-12-03 23:00:00<>METAR SBGL 032300Z 12010KT 9999 SCT025 BKN040 25/20 Q1009=
2025-12-04 00:00:00<>METAR SBGL 040000Z 12007KT 9999 SCT030 BKN045 25/20 Q1010=
2025-12-04 01:00:00<>METAR SBGL 040100Z 11004KT 9999 SCT030 BKN045 25/20 Q1011=
2025-12-04 02:00:00<>METAR SBGL 040200Z 09004KT 9999 SCT030 BKN045 24/20 Q1011=
2025-12-04 03:00:00<>METAR SBGL 040300Z 16003KT 9999 SCT025 BKN045 24/20 Q1010=
2025-12-04 04:00:00<>METAR SBGL 040400Z 09002KT 9999 SCT025 BKN045 24/20 Q1009=
2025-12-04 05:00:00<>METAR SBGL 040500Z VRB02KT 9999 SCT025 BKN100 24/21 Q1009=
2025-12-04 06:00:00<>METAR SBGL 040600Z 01003KT 9999 SCT025 BKN100 24/20 Q1009=
2025-12-04 07:00:00<>METAR SBGL 040700Z 11003KT 9999 SCT020 BKN100 24/20 Q1009=
2025-12-04 08:00:00<>METAR SBGL 040800Z 09004KT 9999 SCT020 BKN100 24/21 Q1009=
2025-12-04 09:00:00<>METAR SBGL 040900Z VRB02KT 9999 SCT025 BKN050 BKN100 24/21 Q1010=
2025-12-04 10:00:00<>METAR SBGL 041000Z 01003KT 320V030 9999 SCT014 BKN050 BKN100 25/21 Q1011=
2025-12-04 11:00:00<>METAR SBGL 041100Z 01004KT 340V050 9999 SCT020 BKN066 25/21 Q1011=
2025-12-04 12:00:00<>METAR SBGL 041200Z 25008KT 9999 -RA VCSH BKN020 BKN066 26/20 Q1012=
2025-12-04 13:00:00<>METAR SBGL 041300Z 22009KT 180V250 9999 VCSH BKN020 BKN033 BKN066 27/20 Q1012=
2025-12-04 14:00:00<>METAR SBGL 041400Z 20012KT 180V250 9999 BKN025 BKN030 BKN066 29/19 Q1012=
2025-12-04 15:00:00<>METAR SBGL 041500Z 20011KT 9999 BKN030 BKN040 BKN066 27/19 Q1011=
2025-12-04 16:00:00<>METAR SBGL 041600Z 20013KT 9999 BKN033 BKN066 27/18 Q1011=
2025-12-04 17:00:00<>METAR SBGL 041700Z 20011KT 170V230 9999 BKN036 BKN050 27/17 Q1010=
2025-12-04 18:00:00<>METAR SBGL 041800Z 21012KT 9999 FEW023 BKN050 27/16 Q1010=
2025-12-04 19:00:00<>METAR SBGL 041900Z 20013KT 9999 FEW023 SCT043 BKN050 26/16 Q1010=
2025-12-04 20:00:00<>METAR SBGL 042000Z 21011KT 9999 FEW023 BKN050 26/16 Q1011=
2025-12-04 21:00:00<>METAR SBGL 042100Z 13006KT 9999 FEW025 SCT033 BKN066 25/18 Q1011=
2025-12-04 22:00:00<>METAR SBGL 042200Z 10004KT 050V120 9999 FEW025 BKN050 BKN066 24/19 Q1012=
2025-12-04 23:00:00<>METAR SBGL 042300Z 16010KT 9999 SCT032 OVC040 24/17 Q1013=
2025-12-05 00:00:00<>METAR SBGL 050000Z 12003KT 9999 SCT032 OVC055 23/18 Q1013=
2025-12-05 01:00:00<>METAR SBGL 050100Z 07004KT 9999 FEW030 OVC055 23/19 Q1014=
2025-12-05 02:00:00<>METAR SBGL 050200Z 35006KT 9999 SCT032 OVC055 23/19 Q1014=
2025-12-05 03:00:00<>METAR SBGL 050300Z 07002KT 9999 SCT019 OVC032 22/19 Q1013=
2025-12-05 04:00:00<>METAR SBGL 050400Z 14003KT 9999 SCT019 OVC032 22/19 Q1013=
2025-12-05 05:00:00<>METAR SBGL 050500Z 15003KT 9999 SCT019 OVC032 22/19 Q1013=
2025-12-05 06:00:00<>METAR SBGL 050600Z 36004KT 8000 FEW020 OVC032 22/19 Q1012=
2025-12-05 07:00:00<>METAR SBGL 050700Z 34004KT 320V040 8000 FEW010 BKN020 OVC061 22/18 Q1013=
2025-12-05 08:00:00<>METAR SBGL 050800Z 34003KT 9000 SCT018 BKN028 21/19 Q1013=
2025-12-05 09:00:00<>METAR SBGL 050900Z 33006KT 9999 FEW025 21/18 Q1014=
2025-12-05 10:00:00<>METAR SBGL 051000Z 36003KT 9999 FEW029 23/17 Q1014=
2025-12-05 11:00:00<>METAR SBGL 051100Z 03004KT 350V110 9999 SCT025 25/19 Q1015=
2025-12-05 12:00:00<>METAR SBGL 051200Z 01007KT 9999 SCT025 26/19 Q1014=
2025-12-05 13:00:00<>METAR SBGL 051300Z 01006KT 340V100 9999 FEW020 SCT030 26/17 Q1014=
2025-12-05 14:00:00<>METAR SBGL 051400Z 13009KT 9999 FEW020 SCT030 27/18 Q1014=
2025-12-05 15:00:00<>METAR SBGL 051500Z 13013KT 9999 FEW020 SCT030 26/18 Q1013=
2025-12-05 16:00:00<>METAR SBGL 051600Z 13012KT 9999 FEW030 27/18 Q1013=
2025-12-05 17:00:00<>METAR SBGL 051700Z 14014KT 9999 FEW030 27/18 Q1013=
2025-12-05 18:00:00<>METAR SBGL 051800Z 14015KT 9999 BKN040 27/18 Q1013=
2025-12-05 19:00:00<>METAR SBGL 051900Z 14015KT 9999 SCT040 26/18 Q1012=
2025-12-05 20:00:00<>METAR SBGL 052000Z 14014KT 9999 SCT020 BKN040 25/17 Q1013=
2025-12-05 21:00:00<>METAR SBGL 052100Z 14011KT 9999 SCT030 BKN060 25/17 Q1013=
2025-12-05 22:00:00<>METAR SBGL 052200Z 14012KT 9999 SCT030 BKN040 BKN060 24/17 Q1014=
2025-12-05 23:00:00<>METAR SBGL 052300Z 14011KT 9999 FEW030 BKN040 24/17 Q1015=
2025-12-06 00:00:00<>METAR SBGL 060000Z 10009KT 9999 FEW026 BKN033 24/18 Q1015=
2025-12-06 01:00:00<>METAR SBGL 060100Z 08012KT 9999 FEW026 BKN033 24/18 Q1016=
2025-12-06 02:00:00<>METAR SBGL 060200Z 07012KT 9999 FEW026 BKN033 23/18 Q1016=
2025-12-06 03:00:00<>METAR SBGL 060300Z 10008KT 8000 BKN033 22/18 Q1015=
2025-12-06 04:00:00<>METAR SBGL 060400Z 11007KT 8000 SCT033 22/18 Q1014=
2025-12-06 05:00:00<>METAR SBGL 060500Z 09007KT 8000 SCT033 22/18 Q1014=
2025-12-06 06:00:00<>METAR SBGL 060600Z 12006KT 7000 SCT033 21/18 Q1014=
2025-12-06 07:00:00<>METAR SBGL 060700Z 14006KT 7000 SCT033 21/18 Q1013=
2025-12-06 08:00:00<>METAR SBGL 060800Z 08003KT 7000 FEW015 21/18 Q1013=
2025-12-06 09:00:00<>METAR SBGL 060900Z 01006KT 8000 FEW015 22/19 Q1014=
2025-12-06 10:00:00<>METAR SBGL 061000Z 36004KT 8000 FEW011 23/20 Q1015=
2025-12-06 11:00:00<>METAR SBGL 061100Z VRB03KT 9999 FEW013 25/20 Q1015=
2025-12-06 12:00:00<>METAR SBGL 061200Z 14005KT 090V200 9999 FEW018 27/19 Q1015=
2025-12-06 13:00:00<>METAR SBGL 061300Z VRB06KT 9999 FEW023 28/18 Q1015=
2025-12-06 14:00:00<>METAR SBGL 061400Z 09007KT 040V180 9999 FEW025 30/18 Q1014=
2025-12-06 15:00:00<>METAR SBGL 061500Z 12009KT 090V150 9999 FEW030 29/19 Q1014=
2025-12-06 16:00:00<>METAR SBGL 061600Z 13010KT 9999 FEW030 29/19 Q1013=
2025-12-06 17:00:00<>METAR SBGL 061700Z 13013KT 9999 FEW030 29/20 Q1013=
2025-12-06 18:00:00<>METAR SBGL 061800Z 14015KT 9999 FEW030 29/19 Q1012=
2025-12-06 19:00:00<>METAR SBGL 061900Z 14013KT 9999 FEW030 28/20 Q1012=
2025-12-06 20:00:00<>METAR SBGL 062000Z 14012KT 9999 FEW030 28/20 Q1012=
2025-12-06 21:00:00<>METAR SBGL 062100Z 14010KT 9999 FEW035 27/20 Q1012=
2025-12-06 22:00:00<>METAR SBGL 062200Z 13006KT 9999 FEW035 26/20 Q1012=
2025-12-06 23:00:00<>METAR SBGL 062300Z 09013KT 9999 FEW035 26/20 Q1013=
2025-12-07 00:00:00<>METAR SBGL 070000Z 11012KT 9999 FEW035 25/19 Q1013=
2025-12-07 01:00:00<>METAR SBGL 070100Z 10010KT 9999 SCT035 25/19 Q1014=
2025-12-07 02:00:00<>METAR SBGL 070200Z 09005KT 9999 SCT035 24/20 Q1014=
2025-12-07 03:00:00<>METAR SBGL 070300Z 11003KT 9999 SCT035 22/20 Q1014=
2025-12-07 04:00:00<>METAR SBGL 070400Z 11002KT 9999 SCT035 23/19 Q1013=
2025-12-07 05:00:00<>METAR SBGL 070500Z 10003KT CAVOK 23/19 Q1012=
2025-12-07 06:00:00<>METAR SBGL 070600Z 08003KT CAVOK 23/19 Q1012=
2025-12-07 07:00:00<>METAR SBGL 070700Z 20004KT CAVOK 22/19 Q1012=
2025-12-07 08:00:00<>METAR SBGL 070800Z 10003KT CAVOK 22/19 Q1013=
2025-12-07 09:00:00<>METAR SBGL 070900Z 08004KT 9999 FEW020 23/20 Q1013=
2025-12-07 10:00:00<>METAR SBGL 071000Z 05003KT 9999 FEW020 24/21 Q1013=
2025-12-07 11:00:00<>METAR SBGL 071100Z 05005KT 9999 FEW020 26/21 Q1013=
2025-12-07 12:00:00<>METAR SBGL 071200Z 07006KT 9999 FEW020 28/21 Q1013=
2025-12-07 13:00:00<>METAR SBGL 071300Z 01007KT 9999 FEW020 29/20 Q1013=
2025-12-07 14:00:00<>METAR SBGL 071400Z 36007KT 9999 FEW020 31/19 Q1013=
2025-12-07 15:00:00<>METAR SBGL 071500Z 03011KT 9999 FEW020 33/19 Q1012=
2025-12-07 16:00:00<>METAR SBGL 071600Z 13011KT CAVOK 32/20 Q1011=
2025-12-07 17:00:00<>METAR SBGL 071700Z 14013KT 9999 FEW023 32/20 Q1011=
2025-12-07 18:00:00<>METAR SBGL 071800Z 13020KT 9999 FEW023 31/20 Q1010=
2025-12-07 19:00:00<>METAR SBGL 071900Z 16015KT 9999 FEW023 29/20 Q1011=
2025-12-07 20:00:00<>METAR SBGL 072000Z 15017KT 9999 FEW023 28/19 Q1010=
2025-12-07 21:00:00<>METAR SBGL 072100Z 17008KT 9999 FEW023 27/20 Q1010=
2025-12-07 22:00:00<>METAR SBGL 072200Z 16011KT CAVOK 27/20 Q1011=
2025-12-07 23:00:00<>METAR SBGL 072300Z 13006KT CAVOK 26/21 Q1011=
2025-12-08 00:00:00<>METAR SBGL 080000Z 13005KT 080V150 CAVOK 26/21 Q1012=
2025-12-08 01:00:00<>METAR SBGL 080100Z 10004KT 070V140 CAVOK 25/22 Q1013=
2025-12-08 02:00:00<>METAR SBGL 080200Z 07002KT CAVOK 25/22 Q1013=
2025-12-08 03:00:00<>METAR SBGL 080300Z 12003KT CAVOK 25/21 Q1012=
2025-12-08 04:00:00<>METAR SBGL 080400Z 27002KT CAVOK 25/22 Q1012=
2025-12-08 05:00:00<>METAR SBGL 080500Z 07004KT 9999 FEW017 24/21 Q1011=
2025-12-08 06:00:00<>METAR SBGL 080600Z 06003KT 9000 FEW017 24/21 Q1011=
2025-12-08 07:00:00<>METAR SBGL 080700Z 33006KT 7000 FEW017 24/22 Q1011=
2025-12-08 08:00:00<>METAR SBGL 080800Z 07003KT 5000 BR FEW017 23/21 Q1011=
2025-12-08 09:00:00<>METAR SBGL 080900Z 12003KT 7000 FEW017 24/22 Q1011=
2025-12-08 10:00:00<>METAR SBGL 081000Z 10006KT 7000 FEW010 26/22 Q1011=
2025-12-08 11:00:00<>METAR SBGL 081100Z 15004KT 090V190 8000 FEW010 27/22 Q1012=
2025-12-08 12:00:00<>METAR SBGL 081200Z 04004KT 340V150 9999 FEW010 29/23 Q1012=
2025-12-08 13:00:00<>METAR SBGL 081300Z 14005KT 9999 FEW010 30/22 Q1012=
2025-12-08 14:00:00<>METAR SBGL 081400Z 13006KT CAVOK 31/21 Q1011=
2025-12-08 15:00:00<>METAR SBGL 081500Z 13012KT CAVOK 31/22 Q1011=
2025-12-08 16:00:00<>METAR SBGL 081600Z 13014KT CAVOK 30/22 Q1010=
2025-12-08 17:00:00<>METAR SBGL 081700Z 01013KT CAVOK 30/23 Q1009=
2025-12-08 18:00:00<>METAR SBGL 081800Z 13013KT CAVOK 30/22 Q1009=
2025-12-08 19:00:00<>METAR SBGL 081900Z 16011KT CAVOK 30/21 Q1008=
2025-12-08 20:00:00<>METAR SBGL 082000Z 16008KT 9999 FEW008 30/21 Q1008=
2025-12-08 21:00:00<>METAR SBGL 082100Z 15007KT 9999 FEW008 29/21 Q1009=
2025-12-08 22:00:00<>METAR SBGL 082200Z 15004KT 9999 FEW008 28/21 Q1009=
2025-12-08 23:00:00<>METAR SBGL 082300Z 14003KT CAVOK 27/21 Q1010=
2025-12-09 00:00:00<>METAR SBGL 090000Z 32004KT 290V350 9999 -RA FEW040 BKN100 28/21 Q1010=
2025-12-09 01:00:00<>METAR SBGL 090100Z 27005KT 250V320 9999 FEW040 SCT100 27/22 Q1010=
2025-12-09 02:00:00<>METAR SBGL 090200Z 29005KT 240V350 9999 FEW040 SCT100 27/22 Q1010=
2025-12-09 03:00:00<>METAR SBGL 090300Z 29007KT 240V330 9999 FEW040 27/22 Q1010=
2025-12-09 04:00:00<>METAR SBGL 090400Z 32007KT 9999 FEW040 BKN100 26/22 Q1009=
2025-12-09 05:00:00<>METAR SBGL 090500Z 32006KT CAVOK 26/23 Q1009=
2025-12-09 06:00:00<>METAR SBGL 090600Z 01003KT 330V070 8000 NSC 26/23 Q1008=
2025-12-09 07:00:00<>METAR SBGL 090700Z 08005KT 9999 FEW020 SCT085 25/23 Q1008=
2025-12-09 08:00:00<>METAR SBGL 090800Z 07006KT 9999 FEW020 SCT100 25/22 Q1008=
2025-12-09 09:00:00<>METAR SBGL 090900Z 34007KT 310V010 9999 FEW020 BKN100 28/21 Q1009=
2025-12-09 10:00:00<>METAR SBGL 091000Z 01003KT 310V030 9999 FEW020 BKN075 28/21 Q1009=
2025-12-09 11:00:00<>METAR SBGL 091100Z 01005KT 330V050 9999 FEW025 BKN100 28/21 Q1008=
2025-12-09 12:00:00<>METAR SBGL 091200Z 36012KT 9999 FEW025 SCT100 29/20 Q1008=
2025-12-09 13:00:00<>METAR SBGL 091300Z 01011KT 9999 FEW030 SCT100 31/19 Q1008=
2025-12-09 14:00:00<>METAR SBGL 091400Z 02010KT 9999 -RA FEW030 32/20 Q1007=
2025-12-09 15:00:00<>METAR SBGL 091500Z 03005KT 9999 -RA SCT030 30/21 Q1007=
2025-12-09 16:00:00<>METAR SBGL 091600Z 11005KT 9999 -RA SCT033 29/23 Q1006=
2025-12-09 17:00:00<>METAR SBGL 091700Z 10003KT 060V150 9999 -RA BKN036 SCT066 28/23 Q1006=
2025-12-09 18:00:00<>METAR SBGL 091800Z 09006KT 060V130 9999 FEW036 29/22 Q1005=
2025-12-09 19:00:00<>METAR SBGL 091900Z 09008KT 9999 FEW036 SCT100 29/21 Q1004=
2025-12-09 20:00:00<>METAR SBGL 092000Z 10010KT 9999 -RA FEW033 SCT066 BKN083 27/22 Q1003=
2025-12-09 21:00:00<>METAR SBGL 092100Z 11010KT 9999 -RA FEW025 BKN083 26/22 Q1004=
2025-12-09 22:00:00<>METAR SBGL 092200Z 10009KT 9999 -RA FEW020 SCT066 BKN100 26/22 Q1004=
2025-12-09 23:00:00<>METAR SBGL 092300Z 10006KT 9999 -RA SCT025 BKN080 26/22 Q1004=
2025-12-10 00:00:00<>METAR SBGL 100000Z 24002KT 9999 -RA SCT025 BKN080 26/22 Q1004=
2025-12-10 01:00:00<>METAR SBGL 100100Z 14003KT 9999 SCT025 BKN080 26/22 Q1004=
2025-12-10 02:00:00<>METAR SBGL 100200Z 03006KT 9000 -RA SCT025 BKN080 28/21 Q1004=
2025-12-10 03:00:00<>METAR SBGL 100300Z 16006KT 8000 -RA SCT025 OVC070 25/23 Q1003=
2025-12-10 04:00:00<>METAR SBGL 100400Z 11005KT 9999 -RA SCT020 OVC070 25/22 Q1003=
2025-12-10 05:00:00<>METAR SBGL 100500Z 09005KT 9999 SCT020 BKN070 24/22 Q1002=
2025-12-10 06:00:00<>METAR SBGL 100600Z 03007KT 9999 SCT020 BKN070 27/22 Q1001=
2025-12-10 07:00:00<>METAR SBGL 100700Z 34009KT 9999 SCT025 BKN070 28/20 Q1001=
2025-12-10 08:00:00<>METAR SBGL 100800Z 35006KT 9999 SCT030 BKN070 28/20 Q1001=
2025-12-10 09:00:00<>METAR SBGL 100900Z 36010KT 9999 SCT018 BKN070 29/20 Q1002=
2025-12-10 10:00:00<>METAR SBGL 101000Z 35013KT 9999 SCT018 BKN070 30/20 Q1002=
2025-12-10 11:00:00<>METAR SBGL 101100Z 34012G24KT 310V010 8000 FEW008 OVC080 30/19 Q1002=
2025-12-10 12:00:00<>METAR SBGL 101200Z 33011KT 8000 FEW008 SCT060 OVC080 30/20 Q1003=
2025-12-10 13:00:00<>METAR SBGL 101300Z 34017G28KT 300V360 9000 FEW008 OVC070 32/20 Q1002=
2025-12-10 14:00:00<>METAR SBGL 101400Z 34014G28KT 8000 FEW008 OVC070 33/20 Q1002=
2025-12-10 15:00:00<>METAR SBGL 101500Z 34016G26KT 300V360 9999 FEW008 OVC070 33/20 Q1001=
2025-12-10 16:00:00<>METAR SBGL 101600Z 25023G33KT 7000 -RA FEW008 BKN050 23/22 Q1001=
2025-12-10 17:00:00<>METAR SBGL 101700Z 26015KT 8000 -RA FEW008 BKN050 OVC070 29/23 Q1001=
2025-12-10 18:00:00<>METAR SBGL 101800Z 33008KT 9999 FEW008 BKN050 OVC070 30/23 Q1000=
2025-12-10 19:00:00<>METAR SBGL 101900Z 07004KT 7000 FEW008 OVC070 30/23 Q0999=
2025-12-10 20:00:00<>METAR SBGL 102000Z 08007KT 9999 FEW008 OVC070 30/23 Q0999=
2025-12-10 21:00:00<>METAR SBGL 102100Z 07007KT 9999 FEW008 BKN070 31/22 Q0999=
2025-12-10 22:00:00<>METAR SBGL 102200Z 32006KT 9999 FEW008 BKN070 31/22 Q0999=
2025-12-10 23:00:00<>METAR SBGL 102300Z VRB02KT 9999 FEW020 30/21 Q0999=
2025-12-11 00:00:00<>METAR SBGL 110000Z VRB01KT 9999 FEW020 29/20 Q1000=
2025-12-11 01:00:00<>METAR SBGL 110100Z VRB02KT 9999 FEW020 28/19 Q1001=
2025-12-11 02:00:00<>METAR SBGL 110200Z 25004KT 9999 FEW020 30/18 Q1001=
2025-12-11 03:00:00<>METAR SBGL 110300Z 32006KT 280V010 9999 FEW020 30/19 Q1001=
2025-12-11 04:00:00<>METAR SBGL 110400Z 33012KT CAVOK 31/19 Q1000=
2025-12-11 05:00:00<>METAR SBGL 110500Z 28003KT 240V310 CAVOK 29/19 Q1000=
2025-12-11 06:00:00<>METAR SBGL 110600Z VRB02KT CAVOK 29/18 Q1000=
2025-12-11 07:00:00<>METAR SBGL 110700Z 29003KT 210V340 CAVOK 28/19 Q1000=
2025-12-11 08:00:00<>METAR SBGL 110800Z 25004KT 200V320 9999 FEW020 28/18 Q1001=
2025-12-11 09:00:00<>METAR SBGL 110900Z 29005KT 9999 FEW020 30/19 Q1002=
2025-12-11 10:00:00<>METAR SBGL 111000Z 28009KT 250V320 9999 FEW020 32/18 Q1002=
2025-12-11 11:00:00<>METAR SBGL 111100Z 33010KT CAVOK 33/18 Q1003=
2025-12-11 12:00:00<>METAR SBGL 111200Z 27008KT 9999 FEW020 34/18 Q1003=
2025-12-11 13:00:00<>METAR SBGL 111300Z 30012KT 9999 FEW025 35/17 Q1003=
2025-12-11 14:00:00<>METAR SBGL 111400Z 30010KT 9999 SCT025 BKN030 35/17 Q1003=
2025-12-11 15:00:00<>METAR SBGL 111500Z 22001KT 9999 SCT025 34/16 Q1003=
2025-12-11 16:00:00<>METAR SBGL 111600Z 24010KT 9999 FEW030 34/16 Q1003=
2025-12-11 17:00:00<>METAR SBGL 111700Z 23010KT 9999 FEW030 33/16 Q1003=
2025-12-11 18:00:00<>METAR SBGL 111800Z 22019KT 9999 FEW030 33/16 Q1004=
2025-12-11 19:00:00<>METAR SBGL 111900Z 21014KT 9999 FEW030 31/16 Q1004=
2025-12-11 20:00:00<>METAR SBGL 112000Z 21012KT 9999 FEW030 30/15 Q1005=
2025-12-11 21:00:00<>METAR SBGL 112100Z 21009KT 9999 FEW030 29/13 Q1006=
2025-12-11 22:00:00<>METAR SBGL 112200Z 14004KT 9999 FEW040 27/16 Q1006=
2025-12-11 23:00:00<>METAR SBGL 112300Z 12006KT 9999 FEW040 26/16 Q1007=
2025-12-12 00:00:00<>METAR SBGL 120000Z 08006KT CAVOK 25/16 Q1007=
2025-12-12 01:00:00<>METAR SBGL 120100Z 08005KT CAVOK 25/17 Q1008=
2025-12-12 02:00:00<>METAR SBGL 120200Z 09003KT CAVOK 24/18 Q1008=
2025-12-12 03:00:00<>METAR SBGL 120300Z 11001KT CAVOK 23/18 Q1008=
2025-12-12 04:00:00<>METAR SBGL 120400Z 07003KT CAVOK 23/18 Q1007=
2025-12-12 05:00:00<>METAR SBGL 120500Z 08002KT CAVOK 23/18 Q1007=
2025-12-12 06:00:00<>METAR SBGL 120600Z 10001KT CAVOK 22/18 Q1007=
2025-12-12 07:00:00<>METAR SBGL 120700Z 00000KT CAVOK 22/18 Q1007=
2025-12-12 08:00:00<>METAR SBGL 120800Z 06002KT CAVOK 22/18 Q1007=
2025-12-12 09:00:00<>METAR SBGL 120900Z 04002KT CAVOK 22/19 Q1008=
2025-12-12 10:00:00<>METAR SBGL 121000Z 01003KT CAVOK 25/20 Q1008=
2025-12-12 11:00:00<>METAR SBGL 121100Z 35006KT CAVOK 26/18 Q1007=
2025-12-12 12:00:00<>METAR SBGL 121200Z 12005KT CAVOK 28/18 Q1007=
2025-12-12 13:00:00<>METAR SBGL 121300Z 01007KT CAVOK 29/17 Q1007=
2025-12-12 14:00:00<>METAR SBGL 121400Z 07008KT CAVOK 31/18 Q1006=
2025-12-12 15:00:00<>METAR SBGL 121500Z 35007KT CAVOK 31/20 Q1006=
2025-12-12 16:00:00<>METAR SBGL 121600Z 14007KT CAVOK 33/18 Q1006=
2025-12-12 17:00:00<>METAR SBGL 121700Z 12010KT CAVOK 33/18 Q1005=
2025-12-12 18:00:00<>METAR SBGL 121800Z 13010KT CAVOK 32/18 Q1005=
2025-12-12 19:00:00<>METAR SBGL 121900Z 14013KT 9999 FEW030 33/18 Q1005=
2025-12-12 20:00:00<>METAR SBGL 122000Z 15008KT 9999 FEW030 32/17 Q1005=
2025-12-12 21:00:00<>METAR SBGL 122100Z 15008KT 9999 FEW030 31/19 Q1006=
2025-12-12 22:00:00<>METAR SBGL 122200Z 15007KT 9999 FEW030 29/20 Q1007=
2025-12-12 23:00:00<>METAR SBGL 122300Z 13008KT 9999 VCTS FEW030CB 28/20 Q1007=
2025-12-13 00:00:00<>METAR SBGL 130000Z 14007KT 9999 VCTS FEW030CB SCT035 27/21 Q1008=
2025-12-13 01:00:00<>METAR SBGL 130100Z 13006KT 9999 VCTS FEW025 FEW030CB 26/22 Q1008=
2025-12-13 02:00:00<>METAR SBGL 130200Z 07009KT 9999 VCTS FEW030CB 26/22 Q1007=
2025-12-13 03:00:00<>METAR SBGL 130300Z 11004KT CAVOK 26/23 Q1006=
2025-12-13 04:00:00<>METAR SBGL 130400Z 05002KT CAVOK 25/23 Q1006=
2025-12-13 05:00:00<>METAR SBGL 130500Z 11002KT CAVOK 25/23 Q1005=
2025-12-13 06:00:00<>METAR SBGL 130600Z 30024KT 4000 RA SCT020 BKN030 29/21 Q1007=
2025-12-13 06:10:00<>SPECI SBGL 130610Z 28015KT 4500 -TSRA SCT015CB BKN030 OVC040 23/21 Q1007 RERA=
2025-12-13 07:00:00<>METAR SBGL 130700Z 08003KT 010V110 6000 -RA SCT030 BKN040 23/21 Q1006 RETSRA=
2025-12-13 08:00:00<>METAR SBGL 130800Z 09003KT 9999 SCT030 BKN040 24/22 Q1006=
2025-12-13 09:00:00<>METAR SBGL 130900Z 23003KT 9999 SCT030 BKN040 OVC060 25/23 Q1007=
2025-12-13 10:00:00<>METAR SBGL 131000Z 21008KT 9999 SCT030 BKN060 OVC080 26/22 Q1007=
2025-12-13 11:00:00<>METAR SBGL 131100Z 24012KT 9999 -RA FEW030 SCT060 OVC100 26/21 Q1007=
2025-12-13 12:00:00<>METAR SBGL 131200Z 25018KT 8000 -RA FEW030 SCT060 OVC100 27/21 Q1008=
2025-12-13 13:00:00<>METAR SBGL 131300Z 25012KT 9999 FEW008 SCT060 OVC093 27/21 Q1008=
2025-12-13 14:00:00<>METAR SBGL 131400Z 28004KT 7000 -RA FEW008 BKN050 OVC070 26/22 Q1009=
2025-12-13 15:00:00<>METAR SBGL 131500Z VRB02KT 7000 -RA FEW008 BKN045 OVC070 25/23 Q1010=
2025-12-13 16:00:00<>METAR SBGL 131600Z 26003KT 220V290 7000 -RA FEW008 BKN040 OVC070 25/23 Q1010=
2025-12-13 17:00:00<>METAR SBGL 131700Z 06007KT 7000 -RA SCT009 OVC070 25/23 Q1008=
2025-12-13 18:00:00<>METAR SBGL 131800Z 03005KT 360V060 9999 SCT009 OVC100 26/23 Q1005=
2025-12-13 19:00:00<>METAR SBGL 131900Z 03005KT 360V060 9999 SCT009 OVC100 26/23 Q1005=
2025-12-13 20:00:00<>METAR SBGL 132000Z 05004KT 340V080 CAVOK 28/23 Q1004=
2025-12-13 21:00:00<>METAR SBGL 132100Z 06007KT CAVOK 27/22 Q1005=
2025-12-13 22:00:00<>METAR SBGL 132200Z 06007KT 9999 FEW033 BKN100 27/23 Q1006=
2025-12-13 23:00:00<>METAR SBGL 132300Z 08004KT 9999 FEW033 BKN100 27/24 Q1007=
2025-12-14 00:00:00<>METAR SBGL 140000Z 07008KT 9999 FEW033 BKN100 26/23 Q1008=
2025-12-14 01:00:00<>METAR SBGL 140100Z 17003KT 9999 FEW033 BKN100 26/23 Q1009=
2025-12-14 02:00:00<>METAR SBGL 140200Z 20006KT 4500 -RA BR SCT025 BKN070 26/23 Q1009=
2025-12-14 03:00:00<>METAR SBGL 140300Z 26007KT 8000 FEW025 BKN100 25/22 Q1009=
2025-12-14 04:00:00<>METAR SBGL 140400Z 25008KT 8000 FEW025 BKN100 25/22 Q1009=
2025-12-14 05:00:00<>METAR SBGL 140500Z 27007KT 8000 FEW025 BKN100 24/22 Q1008=
2025-12-14 06:00:00<>METAR SBGL 140600Z 29006KT 7000 FEW025 BKN100 24/22 Q1008=
2025-12-14 07:00:00<>METAR SBGL 140700Z 31006KT 7000 FEW025 BKN100 23/22 Q1008=
2025-12-14 08:00:00<>METAR SBGL 140800Z 09003KT 8000 FEW008 BKN100 24/23 Q1006=
2025-12-14 09:00:00<>METAR SBGL 140900Z 22004KT 8000 FEW008 BKN100 25/23 Q1007=
2025-12-14 10:00:00<>METAR SBGL 141000Z 26003KT 9999 FEW019 BKN100 26/23 Q1008=
2025-12-14 11:00:00<>METAR SBGL 141100Z 35003KT 280V080 9999 FEW019 BKN100 27/23 Q1008=
2025-12-14 12:00:00<>METAR SBGL 141200Z VRB02KT 9999 FEW025 BKN100 28/23 Q1009=
2025-12-14 13:00:00<>METAR SBGL 141300Z 34003KT 290V050 9999 FEW025 SCT100 29/22 Q1009=
2025-12-14 14:00:00<>METAR SBGL 141400Z 11005KT 060V160 9999 FEW025 BKN100 29/23 Q1009=
2025-12-14 15:00:00<>METAR SBGL 141500Z 13006KT 9999 FEW025 BKN100 29/23 Q1009=
2025-12-14 16:00:00<>METAR SBGL 141600Z 12009KT 9999 FEW030 BKN100 28/21 Q1009=
2025-12-14 17:00:00<>METAR SBGL 141700Z 13008KT 100V170 9999 FEW030 BKN100 28/21 Q1008=
2025-12-14 18:00:00<>METAR SBGL 141800Z 13008KT 9999 FEW030 SCT100 29/21 Q1007=
2025-12-14 19:00:00<>METAR SBGL 141900Z 13009KT 100V160 9999 SCT030 SCT100 29/20 Q1007=
2025-12-14 20:00:00<>METAR SBGL 142000Z 13009KT 9999 SCT030 FEW035TCU SCT100 29/20 Q1007=
2025-12-14 21:00:00<>METAR SBGL 142100Z 13008KT 9999 FEW030 FEW035TCU BKN100 28/20 Q1008=
2025-12-14 22:00:00<>METAR SBGL 142200Z 13008KT 9999 FEW030 BKN100 27/20 Q1008=
2025-12-14 23:00:00<>METAR SBGL 142300Z 14006KT 9999 FEW030 BKN100 27/21 Q1009=
2025-12-15 00:00:00<>METAR SBGL 150000Z 14006KT 9999 FEW030 BKN100 27/21 Q1009=
2025-12-15 01:00:00<>METAR SBGL 150100Z 14004KT CAVOK 27/21 Q1009=
2025-12-15 02:00:00<>METAR SBGL 150200Z VRB02KT CAVOK 27/21 Q1009=
2025-12-15 03:00:00<>METAR SBGL 150300Z VRB02KT CAVOK 26/21 Q1008=
2025-12-15 04:00:00<>METAR SBGL 150400Z 16002KT CAVOK 26/21 Q1008=
2025-12-15 05:00:00<>METAR COR SBGL 150500Z 06002KT CAVOK 26/21 Q1007=
2025-12-15 06:00:00<>METAR SBGL 150600Z 15003KT 9999 FEW030 OVC100 27/21 Q1007=
2025-12-15 07:00:00<>METAR SBGL 150700Z 07003KT 9999 FEW030 OVC100 26/22 Q1006=
2025-12-15 08:00:00<>METAR SBGL 150800Z 08002KT 9999 FEW030 OVC100 26/22 Q1006=
2025-12-15 09:00:00<>METAR SBGL 150900Z VRB01KT CAVOK 26/23 Q1007=
2025-12-15 10:00:00<>METAR SBGL 151000Z 30002KT CAVOK 27/23 Q1007=
2025-12-15 11:00:00<>METAR SBGL 151100Z 01002KT CAVOK 31/23 Q1007=
2025-12-15 12:00:00<>METAR SBGL 151200Z 35002KT CAVOK 32/22 Q1008=
2025-12-15 13:00:00<>METAR SBGL 151300Z 03006KT 9999 FEW030 33/23 Q1007=
2025-12-15 14:00:00<>METAR SBGL 151400Z 12007KT 9999 SCT030 33/22 Q1007=
2025-12-15 15:00:00<>METAR SBGL 151500Z 13011KT 9999 SCT030 31/22 Q1006=
2025-12-15 16:00:00<>METAR SBGL 151600Z 12012KT 9999 SCT030 31/22 Q1006=
2025-12-15 17:00:00<>METAR SBGL 151700Z 12013KT 9999 VCSH SCT030 FEW040TCU SCT100 30/22 Q1006=
2025-12-15 18:00:00<>METAR SBGL 151800Z 08006KT 9999 FEW030 FEW040TCU SCT100 31/24 Q1005=
2025-12-15 19:00:00<>METAR SBGL 151900Z 12011KT 9999 FEW030 FEW040TCU SCT100 30/22 Q1006=
2025-12-15 20:00:00<>METAR SBGL 152000Z 12011KT 9999 FEW030 SCT080 29/21 Q1006=
2025-12-15 21:00:00<>METAR SBGL 152100Z 08008KT 9999 FEW030 SCT080 29/23 Q1006=
2025-12-15 22:00:00<>METAR SBGL 152200Z 07005KT 9999 FEW035 SCT070 28/23 Q1007=
2025-12-15 23:00:00<>METAR SBGL 152300Z 10002KT 9999 FEW030 BKN083 28/23 Q1008=
2025-12-16 00:00:00<>METAR SBGL 160000Z 08003KT 040V120 9999 FEW030 BKN100 28/23 Q1008=
2025-12-16 01:00:00<>METAR SBGL 160100Z 03004KT 9999 FEW030 SCT083 BKN100 28/24 Q1009=
2025-12-16 02:00:00<>METAR SBGL 160200Z 31006KT 290V350 9999 FEW025 SCT083 BKN100 28/23 Q1008=
2025-12-16 03:00:00<>METAR SBGL 160300Z 32003KT 300V020 9999 FEW025 BKN100 28/22 Q1007=
2025-12-16 04:00:00<>METAR SBGL 160400Z VRB01KT 9999 FEW025 SCT100 27/23 Q1006=
2025-12-16 05:00:00<>METAR SBGL 160500Z 27003KT 230V320 CAVOK 27/22 Q1005=
2025-12-16 06:00:00<>METAR SBGL 160600Z VRB02KT 9000 NSC 26/23 Q1006=
2025-12-16 07:00:00<>METAR SBGL 160700Z 13003KT 9000 NSC 25/23 Q1006=
2025-12-16 08:00:00<>METAR SBGL 160800Z VRB02KT 9000 FEW025 25/23 Q1006=
2025-12-16 09:00:00<>METAR SBGL 160900Z VRB02KT 9000 FEW030 26/24 Q1006=
2025-12-16 10:00:00<>METAR SBGL 161000Z 02005KT 360V060 9999 FEW030 28/24 Q1006=
2025-12-16 11:00:00<>METAR SBGL 161100Z VRB02KT 9999 FEW030 30/23 Q1006=
2025-12-16 12:00:00<>METAR SBGL 161200Z VRB02KT 9999 FEW030 31/23 Q1006=
2025-12-16 13:00:00<>METAR SBGL 161300Z VRB03KT 9999 FEW030 34/23 Q1006=
2025-12-16 14:00:00<>METAR SBGL 161400Z 07007KT 9999 FEW030 35/23 Q1005=
2025-12-16 15:00:00<>METAR SBGL 161500Z 36004KT 290V060 9999 FEW030 36/23 Q1004=
2025-12-16 16:00:00<>METAR SBGL 161600Z 01007KT 9999 SCT030 36/22 Q1004=
2025-12-16 17:00:00<>METAR SBGL 161700Z 13012KT 9999 BKN040 33/23 Q1003=
2025-12-16 18:00:00<>METAR SBGL 161800Z 13014KT 7000 FEW025 BKN040 30/24 Q1003=
2025-12-16 19:00:00<>METAR SBGL 161900Z 13010KT 9999 FEW025 BKN040 31/24 Q1003=
2025-12-16 20:00:00<>METAR SBGL 162000Z 13010KT 9999 VCSH FEW025 BKN040 30/22 Q1004=
2025-12-16 21:00:00<>METAR SBGL 162100Z 15007KT 9999 FEW025 BKN040 30/22 Q1005=
2025-12-16 22:00:00<>METAR SBGL 162200Z 14005KT 9999 FEW030 BKN060 29/22 Q1006=
2025-12-16 23:00:00<>METAR SBGL 162300Z 12005KT 9999 FEW030 BKN080 29/23 Q1007=
2025-12-17 00:00:00<>METAR SBGL 170000Z 04003KT 9999 FEW030 SCT080 27/24 Q1008=
2025-12-17 01:00:00<>METAR SBGL 170100Z 07003KT 9999 FEW030 SCT080 28/24 Q1008=
2025-12-17 02:00:00<>METAR SBGL 170200Z 21012KT 9999 FEW030 BKN100 28/22 Q1008=
2025-12-17 03:00:00<>METAR SBGL 170300Z 23010KT 9999 SCT040 BKN100 29/22 Q1008=
2025-12-17 04:00:00<>METAR SBGL 170400Z 24010KT 9999 SCT040 BKN100 28/23 Q1007=
2025-12-17 05:00:00<>METAR SBGL 170500Z 25011KT 9999 SCT040 BKN100 28/23 Q1007=
2025-12-17 06:00:00<>METAR SBGL 170600Z 27009KT 9999 SCT040 BKN100 27/23 Q1007=
2025-12-17 07:00:00<>METAR SBGL 170700Z 31010KT 9999 SCT040 BKN100 27/22 Q1006=
2025-12-17 08:00:00<>METAR SBGL 170800Z 14012KT 8000 VCSH SCT021 BKN040 BKN100 26/23 Q1008=
2025-12-17 09:00:00<>METAR SBGL 170900Z 20012KT 4000 -RA BR BKN010 BKN015 BKN050 25/23 Q1010=
2025-12-17 10:00:00<>METAR SBGL 171000Z 20015KT 4500 -RA BR SCT010 BKN015 BKN019 24/21 Q1012=
2025-12-17 11:00:00<>METAR SBGL 171100Z 24015KT 4000 -RA BR SCT010 BKN015 OVC040 21/19 Q1013=
2025-12-17 11:34:00<>SPECI SBGL 171134Z 25014KT 6000 SCT010 BKN016 OVC045 21/19 Q1015=
2025-12-17 12:00:00<>METAR SBGL 171200Z 28012KT 9999 SCT010 BKN018 OVC045 21/18 Q1015=
2025-12-17 13:00:00<>METAR SBGL 171300Z 27012KT 9999 SCT010 BKN018 OVC045 21/18 Q1015=
2025-12-17 14:00:00<>METAR SBGL 171400Z 27011KT 9999 FEW010 BKN020 OVC050 22/18 Q1016=
2025-12-17 15:00:00<>METAR SBGL 171500Z 28009KT 9999 BKN020 OVC060 23/18 Q1015=
2025-12-17 16:00:00<>METAR SBGL 171600Z 29007KT 9999 BKN020 OVC060 24/18 Q1015=
2025-12-17 17:00:00<>METAR SBGL 171700Z 22010KT 9999 VCSH BKN020 OVC060 24/18 Q1015=
2025-12-17 18:00:00<>METAR SBGL 171800Z 22009KT 9000 VCSH BKN020 OVC060 23/18 Q1015=
2025-12-17 19:00:00<>METAR SBGL 171900Z 29007KT 9999 FEW012 BKN018 OVC040 22/18 Q1014=
2025-12-17 20:00:00<>METAR SBGL 172000Z 28007KT 8000 VCSH FEW012 BKN017 OVC030 21/19 Q1014=
2025-12-17 21:00:00<>METAR SBGL 172100Z 28006KT 4500 BR FEW009 BKN016 OVC025 21/19 Q1014=
2025-12-17 22:00:00<>METAR SBGL 172200Z 24007KT 4000 -RA BR SCT008 BKN015 OVC020 21/19 Q1015=
2025-12-17 23:00:00<>METAR SBGL 172300Z 28006KT 5000 2000S -RA BR FEW004 BKN007 OVC017 20/19 Q1015=
2025-12-17 23:22:00<>SPECI SBGL 172322Z 27004KT 240V310 8000 FEW004 BKN016 OVC025 20/19 Q1015=
2025-12-18 00:00:00<>METAR SBGL 180000Z 25004KT 220V280 8000 FEW007 SCT010 OVC019 20/19 Q1015=
2025-12-18 01:00:00<>METAR SBGL 180100Z 34004KT 9999 SCT015 OVC035 21/19 Q1016=
2025-12-18 02:00:00<>METAR SBGL 180200Z 32004KT 9999 SCT019 OVC065 21/19 Q1015=
2025-12-18 03:00:00<>METAR SBGL 180300Z 33005KT 300V010 9999 FEW021 BKN050 OVC060 21/19 Q1015=
2025-12-18 04:00:00<>METAR SBGL 180400Z 32005KT 9999 FEW022 BKN040 OVC065 20/19 Q1014=
2025-12-18 05:00:00<>METAR SBGL 180500Z 30005KT 9999 FEW022 BKN040 OVC045 21/19 Q1014=
2025-12-18 06:00:00<>METAR SBGL 180600Z 07003KT 040V120 8000 -RA SCT014 BKN017 OVC025 21/19 Q1014=
2025-12-18 07:00:00<>METAR SBGL 180700Z 31006KT 7000 -RA SCT014 BKN024 OVC045 21/19 Q1013=
2025-12-18 08:00:00<>METAR SBGL 180800Z 27003KT 9999 FEW007 BKN045 OVC100 20/19 Q1014=
2025-12-18 09:00:00<>METAR SBGL 180900Z VRB02KT 9999 FEW007 BKN045 OVC075 21/19 Q1015=
2025-12-18 10:00:00<>METAR SBGL 181000Z VRB01KT 9999 FEW010 SCT020 OVC040 22/19 Q1015=
2025-12-18 11:00:00<>METAR SBGL 181100Z 33002KT 7000 SCT013 BKN035 OVC070 22/19 Q1015=
2025-12-18 12:00:00<>METAR SBGL 181200Z VRB03KT 8000 FEW013 BKN035 OVC070 23/19 Q1016=
2025-12-18 13:00:00<>METAR SBGL 181300Z VRB02KT 8000 BKN032 OVC040 23/19 Q1016=
2025-12-18 14:00:00<>METAR SBGL 181400Z 13003KT 070V170 9999 FEW014 BKN040 23/19 Q1016=
2025-12-18 15:00:00<>METAR SBGL 181500Z 04005KT 360V130 9999 SCT016 BKN050 OVC080 25/19 Q1015=
2025-12-18 16:00:00<>METAR SBGL 181600Z 10003KT 7000 FEW025 BKN060 OVC080 25/18 Q1015=
2025-12-18 17:00:00<>METAR SBGL 181700Z 13012KT 9999 FEW025 BKN070 25/19 Q1014=
2025-12-18 18:00:00<>METAR SBGL 181800Z 14010KT 7000 FEW030 BKN060 24/19 Q1014=
2025-12-18 19:00:00<>METAR SBGL 181900Z 14010KT 6000 -RA FEW030 BKN040 23/19 Q1014=
2025-12-18 19:19:00<>SPECI SBGL 181919Z 14008KT 4000 -RA BR BKN010 BKN040 22/19 Q1014=
2025-12-18 20:00:00<>METAR SBGL 182000Z 15008KT 4000 -RA BR BKN010 OVC035 22/20 Q1014=
2025-12-18 21:00:00<>METAR SBGL 182100Z 15008KT 3000 RA BR BKN010 OVC035 21/20 Q1014=
2025-12-18 22:00:00<>METAR SBGL 182200Z 14005KT 3000 -RA BR BKN010 OVC035 21/20 Q1015 RERA=
2025-12-18 23:00:00<>METAR SBGL 182300Z 13003KT 7000 -RA BKN010 OVC035 21/20 Q1015=
2025-12-19 00:00:00<>METAR SBGL 190000Z 13004KT 7000 -RA SCT007 BKN013 BKN030 21/20 Q1016=
2025-12-19 01:00:00<>METAR SBGL 190100Z 12006KT 7000 -RA SCT008 BKN015 BKN030 21/20 Q1016=
2025-12-19 02:00:00<>METAR SBGL 190200Z 13007KT 7000 -RA BKN008 BKN016 BKN030 21/20 Q1015=
2025-12-19 03:00:00<>METAR SBGL 190300Z 10005KT 8000 SCT007 BKN030 BKN070 21/20 Q1015=
2025-12-19 04:00:00<>METAR SBGL 190400Z 12006KT 8000 -RA SCT005 BKN013 BKN070 21/20 Q1014=
2025-12-19 05:00:00<>METAR SBGL 190500Z 11007KT 8000 -RA SCT007 BKN013 BKN070 21/20 Q1014=
2025-12-19 06:00:00<>METAR SBGL 190600Z 18006KT 7000 -RA SCT007 BKN013 BKN070 20/19 Q1014=
2025-12-19 07:00:00<>METAR SBGL 190700Z 19006KT 7000 -RA SCT007 BKN013 BKN070 20/19 Q1013=
2025-12-19 08:00:00<>METAR SBGL 190800Z 11003KT 7000 -RA BKN007 BKN015 BKN025 21/20 Q1013=
2025-12-19 09:00:00<>METAR SBGL 190900Z 07004KT 7000 SCT011 BKN023 OVC070 21/20 Q1014=
2025-12-19 10:00:00<>METAR SBGL 191000Z 17002KT 7000 -RA SCT006 BKN023 OVC070 22/20 Q1014=
2025-12-19 11:00:00<>METAR SBGL 191100Z 10002KT 9999 BKN009 BKN023 OVC060 22/20 Q1014=
2025-12-19 12:00:00<>METAR SBGL 191200Z VRB02KT 9999 SCT009 BKN012 BKN023 23/21 Q1014=
2025-12-19 13:00:00<>METAR SBGL 191300Z VRB02KT 9999 FEW009 SCT013 BKN050 23/20 Q1014=
2025-12-19 14:00:00<>METAR SBGL 191400Z 01004KT 350V050 9999 FEW009 SCT015 BKN050 23/20 Q1014=
2025-12-19 15:00:00<>METAR SBGL 191500Z 02003KT 350V050 6000 -RA FEW009 SCT015 BKN043 23/20 Q1014=
2025-12-19 15:09:00<>SPECI SBGL 191509Z 01004KT 340V050 3000 -RA BR FEW009 SCT015 BKN043 23/20 Q1014=
2025-12-19 16:00:00<>METAR SBGL 191600Z 35006KT 9000 -RA SCT009 SCT033 BKN043 23/21 Q1014=
2025-12-19 17:00:00<>METAR SBGL 191700Z 07003KT 350V100 9999 -RA FEW009 BKN040 OVC060 24/21 Q1013=
2025-12-19 18:00:00<>METAR SBGL 191800Z 01003KT 350V060 9999 FEW011 BKN040 OVC060 24/20 Q1013=
2025-12-19 19:00:00<>METAR SBGL 191900Z 03003KT 9999 FEW015 BKN036 BKN050 24/20 Q1012=
2025-12-19 20:00:00<>METAR SBGL 192000Z 04003KT 010V070 9999 FEW015 SCT030 BKN050 24/20 Q1012=
2025-12-19 21:00:00<>METAR SBGL 192100Z VRB01KT 9999 FEW015 SCT030 BKN050 24/20 Q1013=
2025-12-19 22:00:00<>METAR SBGL 192200Z 07002KT 9999 FEW021 BKN030 BKN050 24/21 Q1013=
2025-12-19 23:00:00<>METAR SBGL 192300Z 10004KT 9999 -RA BKN017 OVC024 23/21 Q1014=
2025-12-19 23:27:00<>SPECI SBGL 192327Z 09003KT 3000 -RA BR BKN010 OVC024 23/21 Q1014=
2025-12-20 00:00:00<>METAR SBGL 200000Z VRB02KT 6000 -RA BKN012 OVC026 23/21 Q1015=
2025-12-20 01:00:00<>METAR SBGL 200100Z 13004KT 5000 -RA BR BKN009 OVC026 23/21 Q1015=
2025-12-20 02:00:00<>METAR SBGL 200200Z 11004KT 5000 -RA BR BKN007 OVC026 23/21 Q1015=
2025-12-20 03:00:00<>METAR SBGL 200300Z VRB02KT 3000 -RA BR BKN004 OVC020 22/21 Q1015=
2025-12-20 04:00:00<>METAR SBGL 200400Z VRB02KT 3000 -RA BR BKN004 OVC028 22/21 Q1014=
2025-12-20 05:00:00<>METAR COR SBGL 200500Z 30004KT 6000 -RA FEW005 OVC040 22/21 Q1013=
2025-12-20 06:00:00<>METAR SBGL 200600Z 31004KT 6000 -RA FEW003 BKN050 BKN070 22/21 Q1013=
2025-12-20 07:00:00<>METAR SBGL 200700Z 31003KT 6000 -RA SCT005 SCT060 BKN070 22/21 Q1013=
2025-12-20 08:00:00<>METAR SBGL 200800Z 23003KT 6000 -RA FEW005 SCT050 BKN070 22/21 Q1014=
2025-12-20 09:00:00<>METAR SBGL 200900Z VRB02KT 6000 -RA BKN009 BKN016 23/21 Q1014=
2025-12-20 10:00:00<>METAR SBGL 201000Z VRB02KT 4000 -RA BR BKN007 BKN016 23/22 Q1015=
2025-12-20 11:00:00<>METAR SBGL 201100Z 10004KT 6000 BKN007 OVC018 23/22 Q1015=
2025-12-20 12:00:00<>METAR SBGL 201200Z 12004KT 7000 SCT009 BKN016 OVC020 25/22 Q1015=
2025-12-20 13:00:00<>METAR SBGL 201300Z 11005KT 8000 FEW012 SCT018 BKN025 26/22 Q1015=
2025-12-20 14:00:00<>METAR SBGL 201400Z 10004KT 9999 FEW012 SCT020 BKN035 27/21 Q1015=
2025-12-20 15:00:00<>METAR SBGL 201500Z 12006KT 9999 SCT019 BKN040 28/22 Q1015=
2025-12-20 16:00:00<>METAR SBGL 201600Z 10006KT 9999 SCT019 BKN050 27/21 Q1014=
2025-12-20 17:00:00<>METAR SBGL 201700Z 12010KT 9999 SCT025 BKN070 28/22 Q1014=
2025-12-20 18:00:00<>METAR SBGL 201800Z 12012KT 9999 SCT030 SCT070 27/21 Q1013=
2025-12-20 19:00:00<>METAR SBGL 201900Z 14011KT 9999 SCT030 BKN070 27/22 Q1013=
2025-12-20 20:00:00<>METAR SBGL 202000Z 14009KT 9999 SCT030 FEW040TCU BKN070 26/21 Q1013=
2025-12-20 21:00:00<>METAR SBGL 202100Z 06011KT 9999 BKN020 BKN050 26/21 Q1014=
2025-12-20 22:00:00<>METAR SBGL 202200Z 12004KT 9999 FEW020 SCT050 25/21 Q1014=
2025-12-20 23:00:00<>METAR SBGL 202300Z 17005KT 9999 FEW020 SCT050 24/21 Q1014=
2025-12-21 00:00:00<>METAR SBGL 210000Z 23003KT 9999 FEW020 24/20 Q1014=
2025-12-21 01:00:00<>METAR SBGL 210100Z 10003KT 9999 FEW030 24/21 Q1015=
2025-12-21 02:00:00<>METAR SBGL 210200Z 12005KT 9999 FEW030 23/21 Q1015=
2025-12-21 03:00:00<>METAR SBGL 210300Z 13003KT 9999 FEW013 SCT019 24/21 Q1015=
2025-12-21 04:00:00<>METAR SBGL 210400Z 10006KT 9999 SCT011 SCT019 23/21 Q1014=
2025-12-21 05:00:00<>METAR SBGL 210500Z 07005KT 9999 FEW011 SCT026 22/20 Q1013=
2025-12-21 06:00:00<>METAR SBGL 210600Z 06006KT 8000 FEW009 SCT017 23/21 Q1013=
2025-12-21 07:00:00<>METAR SBGL 210700Z 08006KT 8000 FEW009 SCT017 22/20 Q1013=
2025-12-21 08:00:00<>METAR SBGL 210800Z 08006KT 5000 BR BKN004 BKN015 22/21 Q1014=
2025-12-21 09:00:00<>METAR SBGL 210900Z 10006KT 7000 FEW013 BKN015 22/21 Q1015=
2025-12-21 10:00:00<>METAR SBGL 211000Z 08007KT 8000 FEW009 BKN017 24/21 Q1015=
2025-12-21 11:00:00<>METAR SBGL 211100Z 07005KT 030V110 9999 FEW011 SCT017 25/20 Q1015=
2025-12-21 12:00:00<>METAR SBGL 211200Z 01006KT 330V040 9999 FEW019 26/19 Q1015=
2025-12-21 13:00:00<>METAR SBGL 211300Z 33003KT 300V030 9999 FEW021 27/21 Q1015=
2025-12-21 14:00:00<>METAR SBGL 211400Z 01006KT 340V060 9999 FEW025 29/20 Q1014=
2025-12-21 15:00:00<>METAR SBGL 211500Z 01007KT 350V070 9999 FEW025 30/18 Q1014=
2025-12-21 16:00:00<>METAR SBGL 211600Z 13008KT 080V170 9999 FEW030 31/20 Q1014=
2025-12-21 17:00:00<>METAR SBGL 211700Z 12007KT 9999 FEW030 31/20 Q1013=
2025-12-21 18:00:00<>METAR SBGL 211800Z 14007KT 100V180 9999 FEW030 31/20 Q1012=
2025-12-21 19:00:00<>METAR SBGL 211900Z 15012KT 120V190 9999 VCSH FEW030 FEW035TCU 31/20 Q1012=
2025-12-21 20:00:00<>METAR SBGL 212000Z 14011KT 9999 FEW030 30/22 Q1012=
2025-12-21 21:00:00<>METAR SBGL 212100Z 12008KT 080V150 9999 FEW030 29/21 Q1012=
2025-12-21 22:00:00<>METAR SBGL 212200Z 10011KT 9999 FEW030 28/20 Q1012=
2025-12-21 23:00:00<>METAR SBGL 212300Z 10012KT CAVOK 27/20 Q1013=
2025-12-22 00:00:00<>METAR SBGL 220000Z 10010KT CAVOK 26/20 Q1013=
2025-12-22 01:00:00<>METAR SBGL 220100Z 10008KT CAVOK 25/20 Q1014=
2025-12-22 02:00:00<>METAR SBGL 220200Z 10010KT CAVOK 24/20 Q1014=
2025-12-22 03:00:00<>METAR SBGL 220300Z 10007KT CAVOK 24/20 Q1014=
2025-12-22 04:00:00<>METAR SBGL 220400Z 10006KT CAVOK 24/20 Q1014=
2025-12-22 05:00:00<>METAR SBGL 220500Z 11003KT CAVOK 23/20 Q1013=
2025-12-22 06:00:00<>METAR SBGL 220600Z 10005KT CAVOK 23/19 Q1013=
2025-12-22 07:00:00<>METAR SBGL 220700Z 11004KT CAVOK 22/20 Q1013=
2025-12-22 08:00:00<>METAR SBGL 220800Z 18001KT CAVOK 22/19 Q1013=
2025-12-22 09:00:00<>METAR SBGL 220900Z 11004KT CAVOK 23/19 Q1013=
2025-12-22 10:00:00<>METAR SBGL 221000Z 10003KT CAVOK 25/19 Q1014=
2025-12-22 11:00:00<>METAR SBGL 221100Z 14005KT 100V180 CAVOK 27/19 Q1014=
2025-12-22 12:00:00<>METAR SBGL 221200Z 04006KT 010V070 CAVOK 27/18 Q1013=
2025-12-22 13:00:00<>METAR SBGL 221300Z 08005KT 340V150 CAVOK 30/17 Q1013=
2025-12-22 14:00:00<>METAR SBGL 221400Z VRB05KT CAVOK 31/17 Q1013=
2025-12-22 15:00:00<>METAR SBGL 221500Z 07006KT 030V110 CAVOK 32/16 Q1012=
2025-12-22 16:00:00<>METAR SBGL 221600Z 07008KT 030V100 9999 FEW030 33/17 Q1011=
2025-12-22 17:00:00<>METAR SBGL 221700Z 07004KT 360V130 9999 FEW030 34/16 Q1011=
2025-12-22 18:00:00<>METAR SBGL 221800Z VRB05KT 9999 FEW030 34/19 Q1010=
2025-12-22 19:00:00<>METAR SBGL 221900Z 13007KT 9999 FEW030 33/19 Q1010=
2025-12-22 20:00:00<>METAR SBGL 222000Z 14007KT 110V180 CAVOK 32/18 Q1009=
2025-12-22 21:00:00<>METAR SBGL 222100Z 09011KT CAVOK 30/21 Q1010=
2025-12-22 22:00:00<>METAR SBGL 222200Z 09011KT CAVOK 29/21 Q1010=
2025-12-22 23:00:00<>METAR SBGL 222300Z 09012KT CAVOK 28/21 Q1010=
2025-12-23 00:00:00<>METAR SBGL 230000Z 08013KT CAVOK 27/21 Q1011=
2025-12-23 01:00:00<>METAR SBGL 230100Z 10009KT CAVOK 26/21 Q1012=
2025-12-23 02:00:00<>METAR SBGL 230200Z 09007KT CAVOK 25/21 Q1012=
2025-12-23 03:00:00<>METAR SBGL 230300Z 07009KT CAVOK 25/20 Q1012=
2025-12-23 04:00:00<>METAR SBGL 230400Z 17008KT CAVOK 25/20 Q1012=
2025-12-23 05:00:00<>METAR SBGL 230500Z 08007KT CAVOK 24/20 Q1011=
2025-12-23 06:00:00<>METAR SBGL 230600Z 05006KT CAVOK 24/20 Q1011=
2025-12-23 07:00:00<>METAR SBGL 230700Z 01006KT 8000 NSC 23/20 Q1011=
2025-12-23 08:00:00<>METAR SBGL 230800Z 18003KT CAVOK 23/20 Q1012=
2025-12-23 09:00:00<>METAR SBGL 230900Z 07002KT CAVOK 24/21 Q1012=
2025-12-23 10:00:00<>METAR SBGL 231000Z 14003KT CAVOK 27/20 Q1012=
2025-12-23 11:00:00<>METAR SBGL 231100Z 03003KT CAVOK 28/21 Q1013=
2025-12-23 12:00:00<>METAR SBGL 231200Z 33002KT CAVOK 31/20 Q1013=
2025-12-23 13:00:00<>METAR SBGL 231300Z 02003KT CAVOK 32/19 Q1013=
2025-12-23 14:00:00<>METAR SBGL 231400Z 04007KT CAVOK 33/20 Q1012=
2025-12-23 15:00:00<>METAR SBGL 231500Z 04005KT 9999 FEW035 35/19 Q1012=
2025-12-23 16:00:00<>METAR SBGL 231600Z 01004KT 9999 FEW035 35/18 Q1011=
2025-12-23 17:00:00<>METAR SBGL 231700Z 02009KT 330V050 9999 FEW035 36/17 Q1010=
2025-12-23 18:00:00<>METAR SBGL 231800Z 05008KT 9999 FEW035 36/17 Q1010=
2025-12-23 19:00:00<>METAR SBGL 231900Z 05008KT 010V070 9999 SCT035 36/17 Q1009=
2025-12-23 20:00:00<>METAR SBGL 232000Z 13009KT 9999 FEW035 34/19 Q1009=
2025-12-23 21:00:00<>METAR SBGL 232100Z 14010KT 9999 FEW035 33/20 Q1009=
2025-12-23 22:00:00<>METAR SBGL 232200Z 15008KT 9999 FEW045 32/20 Q1010=
2025-12-23 23:00:00<>METAR SBGL 232300Z 13005KT CAVOK 31/22 Q1010=
2025-12-24 00:00:00<>METAR SBGL 240000Z 13005KT CAVOK 31/22 Q1010=
2025-12-24 01:00:00<>METAR SBGL 240100Z 11003KT CAVOK 29/22 Q1011=
2025-12-24 02:00:00<>METAR COR SBGL 240200Z 11003KT CAVOK 29/22 Q1011=
2025-12-24 03:00:00<>METAR SBGL 240300Z 11003KT CAVOK 29/22 Q1011=
2025-12-24 04:00:00<>METAR SBGL 240400Z 06003KT CAVOK 29/22 Q1011=
2025-12-24 05:00:00<>METAR SBGL 240500Z 07004KT CAVOK 27/23 Q1010=
2025-12-24 06:00:00<>METAR SBGL 240600Z 05004KT CAVOK 27/23 Q1010=
2025-12-24 07:00:00<>METAR SBGL 240700Z 05004KT 8000 FEW030 26/22 Q1010=
2025-12-24 08:00:00<>METAR SBGL 240800Z 05004KT 8000 FEW030 26/22 Q1010=
2025-12-24 09:00:00<>METAR SBGL 240900Z 08003KT 8000 NSC 26/22 Q1011=
2025-12-24 10:00:00<>METAR SBGL 241000Z 05002KT CAVOK 28/22 Q1011=
2025-12-24 11:00:00<>METAR SBGL 241100Z VRB03KT CAVOK 31/22 Q1011=
2025-12-24 12:00:00<>METAR SBGL 241200Z 36003KT 280V050 CAVOK 32/21 Q1011=
2025-12-24 13:00:00<>METAR SBGL 241300Z 01004KT 330V040 CAVOK 33/22 Q1011=
2025-12-24 14:00:00<>METAR SBGL 241400Z 02005KT 330V080 9999 FEW030 36/21 Q1011=
2025-12-24 15:00:00<>METAR SBGL 241500Z 03005KT 320V110 9999 FEW030 36/21 Q1010=
2025-12-24 16:00:00<>METAR SBGL 241600Z 04007KT 350V110 9999 FEW035 37/20 Q1009=
2025-12-24 17:00:00<>METAR SBGL 241700Z 12012KT 090V150 9999 FEW035 FEW040TCU 36/21 Q1009=
2025-12-24 18:00:00<>METAR SBGL 241800Z 13012KT 9999 FEW035 FEW040TCU 35/20 Q1009=
2025-12-24 19:00:00<>METAR SBGL 241900Z 13012KT 9999 FEW035 FEW040TCU 35/19 Q1008=
2025-12-24 20:00:00<>METAR SBGL 242000Z 13011KT 9999 VCSH FEW035 FEW040TCU 34/19 Q1008=
2025-12-24 20:17:00<>SPECI SBGL 242017Z 14011KT 9999 TS VCSH FEW035 FEW040CB 34/19 Q1008=
2025-12-24 21:00:00<>METAR SBGL 242100Z 14008KT 9999 VCSH FEW035 FEW040TCU 33/19 Q1009 RETS=
2025-12-24 22:00:00<>METAR SBGL 242200Z 13006KT 9999 FEW035 FEW040TCU 31/20 Q1009=
2025-12-24 23:00:00<>METAR SBGL 242300Z 14006KT CAVOK 30/22 Q1009=
2025-12-25 00:00:00<>METAR SBGL 250000Z 14006KT CAVOK 29/22 Q1010=
2025-12-25 01:00:00<>METAR SBGL 250100Z VRB02KT CAVOK 29/22 Q1010=
2025-12-25 02:00:00<>METAR SBGL 250200Z 15004KT CAVOK 28/22 Q1010=
2025-12-25 03:00:00<>METAR SBGL 250300Z 04005KT CAVOK 28/23 Q1010=
2025-12-25 04:00:00<>METAR SBGL 250400Z 02003KT CAVOK 28/23 Q1010=
2025-12-25 05:00:00<>METAR SBGL 250500Z VRB02KT CAVOK 27/22 Q1009=
2025-12-25 06:00:00<>METAR SBGL 250600Z 36005KT CAVOK 27/23 Q1009=
2025-12-25 07:00:00<>METAR COR SBGL 250700Z 35004KT CAVOK 27/26 Q1009=
2025-12-25 08:00:00<>METAR SBGL 250800Z 07003KT 360V090 CAVOK 25/22 Q1010=
2025-12-25 09:00:00<>METAR SBGL 250900Z 07004KT CAVOK 26/23 Q1010=
2025-12-25 10:00:00<>METAR SBGL 251000Z 06003KT 8000 NSC 28/23 Q1011=
2025-12-25 11:00:00<>METAR SBGL 251100Z 09004KT CAVOK 30/23 Q1011=
2025-12-25 12:00:00<>METAR SBGL 251200Z 35006KT CAVOK 32/22 Q1011=
2025-12-25 13:00:00<>METAR SBGL 251300Z 03006KT CAVOK 34/22 Q1010=
2025-12-25 14:00:00<>METAR SBGL 251400Z 06008KT CAVOK 35/21 Q1010=
2025-12-25 15:00:00<>METAR SBGL 251500Z 34008KT 9999 FEW026 37/17 Q1009=
2025-12-25 16:00:00<>METAR SBGL 251600Z 12012KT 9999 FEW026 38/17 Q1009=
2025-12-25 17:00:00<>METAR SBGL 251700Z 13014KT 9999 FEW040 36/20 Q1008=
2025-12-25 18:00:00<>METAR SBGL 251800Z 14013KT 9999 FEW040 34/21 Q1008=
2025-12-25 19:00:00<>METAR SBGL 251900Z 13015KT 9999 FEW040 32/21 Q1008=
2025-12-25 20:00:00<>METAR SBGL 252000Z 15016KT 9999 FEW040 32/20 Q1008=
2025-12-25 21:00:00<>METAR SBGL 252100Z 14015KT 9999 FEW040 31/19 Q1008=
2025-12-25 22:00:00<>METAR SBGL 252200Z 09006KT 9999 FEW040 31/18 Q1009=
2025-12-25 23:00:00<>METAR SBGL 252300Z 14005KT CAVOK 30/18 Q1010=
2025-12-26 00:00:00<>METAR SBGL 260000Z 12002KT CAVOK 29/18 Q1010=
2025-12-26 01:00:00<>METAR SBGL 260100Z 07003KT 020V120 CAVOK 28/20 Q1011=
2025-12-26 02:00:00<>METAR SBGL 260200Z 31003KT 280V030 CAVOK 29/22 Q1011=
2025-12-26 03:00:00<>METAR SBGL 260300Z 20005KT CAVOK 28/21 Q1010=
2025-12-26 04:00:00<>METAR SBGL 260400Z 35004KT CAVOK 27/23 Q1009=
2025-12-26 05:00:00<>METAR SBGL 260500Z VRB02KT CAVOK 26/23 Q1009=
2025-12-26 06:00:00<>METAR SBGL 260600Z 35003KT 320V030 CAVOK 26/23 Q1009=
2025-12-26 07:00:00<>METAR SBGL 260700Z 06004KT CAVOK 25/22 Q1009=
2025-12-26 08:00:00<>METAR SBGL 260800Z 04003KT CAVOK 26/23 Q1010=
2025-12-26 09:00:00<>METAR SBGL 260900Z 07003KT CAVOK 26/23 Q1010=
2025-12-26 10:00:00<>METAR SBGL 261000Z 01004KT 330V070 CAVOK 28/23 Q1011=
2025-12-26 11:00:00<>METAR SBGL 261100Z 04004KT CAVOK 30/23 Q1011=
2025-12-26 12:00:00<>METAR SBGL 261200Z 33004KT CAVOK 32/23 Q1011=
2025-12-26 13:00:00<>METAR SBGL 261300Z 01009KT CAVOK 34/23 Q1011=
2025-12-26 14:00:00<>METAR SBGL 261400Z 15011KT CAVOK 34/22 Q1011=
2025-12-26 15:00:00<>METAR SBGL 261500Z 12012KT CAVOK 34/22 Q1010=
2025-12-26 16:00:00<>METAR SBGL 261600Z 11010KT CAVOK 35/22 Q1010=
2025-12-26 17:00:00<>METAR SBGL 261700Z 13009KT CAVOK 35/23 Q1009=
2025-12-26 18:00:00<>METAR SBGL 261800Z 12013KT CAVOK 32/24 Q1009=
2025-12-26 19:00:00<>METAR SBGL 261900Z 17012KT CAVOK 31/23 Q1009=
2025-12-26 20:00:00<>METAR SBGL 262000Z 13011KT CAVOK 31/23 Q1009=
2025-12-26 21:00:00<>METAR SBGL 262100Z 13011KT CAVOK 29/23 Q1009=
2025-12-26 22:00:00<>METAR SBGL 262200Z 13010KT CAVOK 27/23 Q1010=
2025-12-26 23:00:00<>METAR SBGL 262300Z 12008KT CAVOK 27/23 Q1011=
2025-12-27 00:00:00<>METAR SBGL 270000Z 04002KT CAVOK 27/23 Q1012=
2025-12-27 01:00:00<>METAR SBGL 270100Z 29005KT CAVOK 29/22 Q1012=
2025-12-27 02:00:00<>METAR SBGL 270200Z 33004KT CAVOK 29/23 Q1012=
2025-12-27 03:00:00<>METAR SBGL 270300Z 28003KT CAVOK 28/22 Q1011=
2025-12-27 04:00:00<>METAR SBGL 270400Z 33005KT CAVOK 28/22 Q1011=
2025-12-27 05:00:00<>METAR SBGL 270500Z 31004KT CAVOK 27/22 Q1010=
2025-12-27 06:00:00<>METAR SBGL 270600Z 34003KT CAVOK 27/23 Q1010=
2025-12-27 07:00:00<>METAR SBGL 270700Z 35003KT CAVOK 26/23 Q1010=
2025-12-27 08:00:00<>METAR SBGL 270800Z 33002KT CAVOK 26/22 Q1010=
2025-12-27 09:00:00<>METAR SBGL 270900Z 06003KT CAVOK 26/23 Q1011=
2025-12-27 10:00:00<>METAR SBGL 271000Z 01004KT 310V050 5000 HZ NSC 28/23 Q1012=
2025-12-27 11:00:00<>METAR SBGL 271100Z 07003KT 320V130 5000 HZ NSC 29/23 Q1013=
2025-12-27 12:00:00<>METAR SBGL 271200Z VRB04KT 6000 NSC 31/23 Q1013=
2025-12-27 13:00:00<>METAR SBGL 271300Z 14005KT 100V170 6000 NSC 32/23 Q1012=
2025-12-27 14:00:00<>METAR SBGL 271400Z 12010KT 080V160 8000 FEW030 33/22 Q1012=
2025-12-27 15:00:00<>METAR SBGL 271500Z 12011KT 9000 FEW030 33/22 Q1011=
2025-12-27 16:00:00<>METAR SBGL 271600Z 13014KT 9999 FEW030 33/22 Q1011=
2025-12-27 17:00:00<>METAR SBGL 271700Z 13014KT 9999 FEW030 32/23 Q1011=
2025-12-27 18:00:00<>METAR SBGL 271800Z 13015KT 9999 FEW030 32/23 Q1010=
2025-12-27 19:00:00<>METAR SBGL 271900Z 13013KT 9999 FEW030 31/23 Q1009=
2025-12-27 20:00:00<>METAR SBGL 272000Z 12014KT 9999 FEW030 31/22 Q1009=
2025-12-27 21:00:00<>METAR SBGL 272100Z 14009KT 9999 FEW030 30/21 Q1009=
2025-12-27 22:00:00<>METAR SBGL 272200Z 14007KT CAVOK 29/21 Q1010=
2025-12-27 23:00:00<>METAR SBGL 272300Z 12008KT CAVOK 29/21 Q1010=
2025-12-28 00:00:00<>METAR SBGL 280000Z 07006KT CAVOK 29/21 Q1011=
2025-12-28 01:00:00<>METAR SBGL 280100Z 24003KT CAVOK 28/20 Q1011=
2025-12-28 02:00:00<>METAR SBGL 280200Z 10003KT CAVOK 27/21 Q1011=
2025-12-28 03:00:00<>METAR SBGL 280300Z 09003KT CAVOK 27/21 Q1010=
2025-12-28 04:00:00<>METAR SBGL 280400Z 11004KT CAVOK 26/21 Q1010=
2025-12-28 05:00:00<>METAR SBGL 280500Z 15004KT CAVOK 26/21 Q1009=
2025-12-28 06:00:00<>METAR SBGL 280600Z 18003KT CAVOK 26/21 Q1009=
2025-12-28 07:00:00<>METAR SBGL 280700Z 19003KT CAVOK 25/21 Q1009=
2025-12-28 08:00:00<>METAR SBGL 280800Z 08002KT 7000 NSC 25/22 Q1009=
2025-12-28 09:00:00<>METAR SBGL 280900Z 04007KT 8000 NSC 27/23 Q1010=
2025-12-28 10:00:00<>METAR SBGL 281000Z 01004KT 8000 NSC 28/24 Q1010=
2025-12-28 11:00:00<>METAR SBGL 281100Z 35003KT 290V050 9000 NSC 29/22 Q1010=
2025-12-28 12:00:00<>METAR SBGL 281200Z 36004KT 330V050 CAVOK 32/22 Q1010=
2025-12-28 13:00:00<>METAR SBGL 281300Z VRB04KT 9999 FEW025 34/22 Q1009=
2025-12-28 14:00:00<>METAR SBGL 281400Z 13011KT 100V160 9999 FEW025 33/23 Q1009=
2025-12-28 15:00:00<>METAR SBGL 281500Z 12012KT 9999 FEW025 34/24 Q1008=
2025-12-28 16:00:00<>METAR SBGL 281600Z 13013KT 9999 FEW025 34/24 Q1008=
2025-12-28 17:00:00<>METAR SBGL 281700Z 12014KT CAVOK 33/24 Q1008=
2025-12-28 18:00:00<>METAR SBGL 281800Z 12014KT 9999 FEW025 33/23 Q1008=
2025-12-28 19:00:00<>METAR SBGL 281900Z 13014KT CAVOK 31/21 Q1007=
2025-12-28 20:00:00<>METAR SBGL 282000Z 13013KT 9999 FEW025TCU 31/21 Q1008=
2025-12-28 21:00:00<>METAR SBGL 282100Z 12011KT CAVOK 30/20 Q1008=
2025-12-28 22:00:00<>METAR SBGL 282200Z 12009KT 9999 FEW025TCU 29/18 Q1009=
2025-12-28 23:00:00<>METAR SBGL 282300Z 15005KT CAVOK 28/20 Q1009=
2025-12-29 00:00:00<>METAR SBGL 290000Z 15004KT CAVOK 28/18 Q1010=
2025-12-29 01:00:00<>METAR SBGL 290100Z 05003KT 020V090 CAVOK 28/19 Q1010=
2025-12-29 02:00:00<>METAR SBGL 290200Z 33003KT 290V030 CAVOK 28/21 Q1010=
2025-12-29 03:00:00<>METAR SBGL 290300Z 28005KT 250V340 CAVOK 28/20 Q1010=
2025-12-29 04:00:00<>METAR SBGL 290400Z 25004KT CAVOK 28/20 Q1009=
2025-12-29 05:00:00<>METAR SBGL 290500Z 26005KT CAVOK 27/21 Q1008=
2025-12-29 06:00:00<>METAR SBGL 290600Z 31003KT CAVOK 27/21 Q1008=
2025-12-29 07:00:00<>METAR SBGL 290700Z 32004KT 290V030 CAVOK 27/21 Q1008=
2025-12-29 08:00:00<>METAR SBGL 290800Z 33005KT CAVOK 26/20 Q1009=
2025-12-29 09:00:00<>METAR SBGL 290900Z 35003KT CAVOK 27/21 Q1009=
2025-12-29 10:00:00<>METAR SBGL 291000Z 01003KT 310V040 CAVOK 28/20 Q1010=
2025-12-29 11:00:00<>METAR SBGL 291100Z 05003KT CAVOK 30/21 Q1010=
2025-12-29 12:00:00<>METAR SBGL 291200Z 06004KT CAVOK 31/22 Q1010=
2025-12-29 13:00:00<>METAR SBGL 291300Z 05005KT 9999 FEW030 33/22 Q1010=
2025-12-29 14:00:00<>METAR SBGL 291400Z 12010KT 9999 FEW030 33/24 Q1009=
2025-12-29 15:00:00<>METAR SBGL 291500Z 12013KT 9999 FEW030 32/23 Q1009=
2025-12-29 16:00:00<>METAR SBGL 291600Z 12014KT 9999 FEW030 32/24 Q1009=
2025-12-29 17:00:00<>METAR SBGL 291700Z 21015KT 9999 FEW030 33/19 Q1009=
2025-12-29 18:00:00<>METAR SBGL 291800Z 21013KT 9999 FEW030 BKN050 34/18 Q1009=
2025-12-29 19:00:00<>METAR SBGL 291900Z 22011KT 180V270 9999 FEW030 BKN050 32/17 Q1009=
2025-12-29 20:00:00<>METAR SBGL 292000Z 12009KT 9999 FEW030 BKN050 28/22 Q1010=
2025-12-29 21:00:00<>METAR SBGL 292100Z 12011KT 9999 FEW030 SCT050 27/22 Q1009=
2025-12-29 22:00:00<>METAR SBGL 292200Z 12006KT 090V150 9999 FEW030 27/23 Q1009=
2025-12-29 23:00:00<>METAR SBGL 292300Z 17004KT 140V200 9999 FEW030 28/21 Q1010=
2025-12-30 00:00:00<>METAR SBGL 300000Z 06005KT 9999 FEW030 28/20 Q1010=
2025-12-30 01:00:00<>METAR SBGL 300100Z 04003KT 9999 FEW030 28/21 Q1011=
2025-12-30 02:00:00<>METAR SBGL 300200Z 05004KT 9999 FEW030 28/21 Q1010=
2025-12-30 03:00:00<>METAR COR SBGL 300300Z 05004KT CAVOK 27/22 Q1010=
2025-12-30 04:00:00<>METAR SBGL 300400Z 12002KT 9999 FEW008 27/23 Q1010=
2025-12-30 05:00:00<>METAR SBGL 300500Z 06003KT CAVOK 27/23 Q1010=
2025-12-30 06:00:00<>METAR SBGL 300600Z 32005KT CAVOK 27/22 Q1010=
2025-12-30 07:00:00<>METAR SBGL 300700Z 36002KT CAVOK 27/22 Q1009=
2025-12-30 08:00:00<>METAR SBGL 300800Z 30003KT CAVOK 27/22 Q1010=
2025-12-30 09:00:00<>METAR SBGL 300900Z 34006KT CAVOK 27/23 Q1011=
2025-12-30 10:00:00<>METAR SBGL 301000Z 33005KT 300V010 CAVOK 28/23 Q1012=
2025-12-30 11:00:00<>METAR SBGL 301100Z 25003KT 9000 FEW030 SCT100 30/22 Q1012=
2025-12-30 12:00:00<>METAR SBGL 301200Z 24010KT 8000 FEW025 SCT100 29/23 Q1013=
2025-12-30 13:00:00<>METAR SBGL 301300Z 24004KT 8000 SCT020 SCT100 31/23 Q1013=
2025-12-30 14:00:00<>METAR SBGL 301400Z 09006KT 9000 SCT030 32/24 Q1012=
2025-12-30 15:00:00<>METAR SBGL 301500Z 12010KT 9999 FEW030 32/23 Q1011=
2025-12-30 16:00:00<>METAR SBGL 301600Z 01009KT 9999 FEW030 33/23 Q1010=
2025-12-30 17:00:00<>METAR SBGL 301700Z 14008KT 9999 FEW030 33/23 Q1009=
2025-12-30 18:00:00<>METAR SBGL 301800Z 13011KT 9999 FEW030 33/22 Q1009=
2025-12-30 19:00:00<>METAR SBGL 301900Z 13014KT 9999 FEW035 31/21 Q1008=
2025-12-30 20:00:00<>METAR SBGL 302000Z 14013KT 9999 FEW035 30/21 Q1008=
2025-12-30 21:00:00<>METAR SBGL 302100Z 13013KT 9999 FEW035 FEW040TCU 29/22 Q1008=
2025-12-30 22:00:00<>METAR SBGL 302200Z 13009KT 9999 FEW040 28/22 Q1009=
2025-12-30 23:00:00<>METAR SBGL 302300Z 14003KT 110V220 9999 FEW040 28/22 Q1010=
2025-12-31 00:00:00<>METAR SBGL 310000Z VRB02KT 9999 FEW040 29/22 Q1010=
2025-12-31 01:00:00<>METAR SBGL 310100Z 30008KT 9999 FEW040 29/23 Q1011=
2025-12-31 02:00:00<>METAR SBGL 310200Z 22004KT 190V260 9999 FEW040 28/23 Q1011=
2025-12-31 03:00:00<>METAR SBGL 310300Z 25010KT 9999 FEW040 28/23 Q1011=
2025-12-31 04:00:00<>METAR SBGL 310400Z 21008KT 180V240 9999 FEW040 27/23 Q1011=
2025-12-31 04:13:00<>SPECI SBGL 310413Z 20008KT 160V230 8000 TS FEW035CB BKN040 26/24 Q1011=
2025-12-31 05:00:00<>METAR SBGL 310500Z VRB02KT 8000 FEW035 BKN040 26/24 Q1010 RETS=
2025-12-31 06:00:00<>METAR SBGL 310600Z 27003KT 230V310 5000 -TSRA BR FEW035CB BKN040 26/24 Q1010=
2025-12-31 07:00:00<>METAR SBGL 310700Z VRB02KT 6000 BKN040 26/24 Q1010 RETS=
2025-12-31 08:00:00<>METAR SBGL 310800Z VRB02KT 8000 SCT015 BKN040 25/23 Q1011=
2025-12-31 09:00:00<>METAR SBGL 310900Z VRB02KT 9999 SCT015 BKN040 26/24 Q1011=
2025-12-31 10:00:00<>METAR SBGL 311000Z 12003KT 9000 SCT015 BKN040 27/24 Q1012=
2025-12-31 11:00:00<>METAR SBGL 311100Z 32003KT 230V040 9999 FEW015 BKN040 28/24 Q1012=
2025-12-31 12:00:00<>METAR SBGL 311200Z 34005KT 8000 FEW015 BKN040 29/24 Q1013=
2025-12-31 13:00:00<>METAR SBGL 311300Z 25003KT CAVOK 29/23 Q1013=
2025-12-31 14:00:00<>METAR SBGL 311400Z 29012KT CAVOK 32/19 Q1013=
2025-12-31 15:00:00<>METAR SBGL 311500Z 29012KT CAVOK 33/18 Q1011=
2025-12-31 16:00:00<>METAR SBGL 311600Z 30015KT CAVOK 35/18 Q1011=
2025-12-31 17:00:00<>METAR SBGL 311700Z 32014KT 9999 FEW030 SCT100 35/18 Q1010=
2025-12-31 18:00:00<>METAR SBGL 311800Z 03009KT 9999 FEW030 SCT100 34/21 Q1009=
2025-12-31 19:00:00<>METAR SBGL 311900Z 05006KT 9999 FEW030 SCT100 33/22 Q1008=
2025-12-31 20:00:00<>METAR SBGL 312000Z 12011KT 9999 FEW030 SCT100 32/23 Q1008=
2025-12-31 21:00:00<>METAR SBGL 312100Z 16010KT CAVOK 30/23 Q1009=
2025-12-31 22:00:00<>METAR SBGL 312200Z 18008KT CAVOK 31/21 Q1010=
2025-12-31 23:00:00<>METAR SBGL 312300Z 14009KT CAVOK 29/23 Q1010=