datetime<>metar
2025-01-01 00:00:00<>METAR SBSV 010000Z 09012KT CAVOK 27/22 Q1013=
2025-01-01 01:00:00<>METAR SBSV 010100Z 08012KT CAVOK 27/22 Q1013=
2025-01-01 02:00:00<>METAR SBSV 010200Z 07011KT CAVOK 26/22 Q1013=
2025-01-01 03:00:00<>METAR SBSV 010300Z 08012KT 9999 FEW021 26/22 Q1012=
2025-01-01 04:00:00<>METAR SBSV 010400Z 08011KT 9999 FEW021 26/22 Q1012=
2025-01-01 05:00:00<>METAR SBSV 010500Z 07010KT CAVOK 26/22 Q1012=
2025-01-01 06:00:00<>METAR SBSV 010600Z 05006KT CAVOK 26/22 Q1012=
2025-01-01 07:00:00<>METAR SBSV 010700Z 07009KT CAVOK 26/22 Q1011=
2025-01-01 08:00:00<>METAR SBSV 010800Z 07009KT 9999 FEW023 26/22 Q1012=
2025-01-01 09:00:00<>METAR SBSV 010900Z 08009KT 9999 FEW020 27/23 Q1012=
2025-01-01 10:00:00<>METAR SBSV 011000Z 08011KT 9999 BKN019 FEW025TCU 28/23 Q1013=
2025-01-01 11:00:00<>METAR SBSV 011100Z 06011KT 9999 SCT020 FEW025TCU 29/23 Q1014=
2025-01-01 12:00:00<>METAR SBSV 011200Z 08012KT 9999 SCT025 29/23 Q1014=
2025-01-01 13:00:00<>METAR SBSV 011300Z 08011G21KT 9999 SCT023 FEW025TCU 29/23 Q1014=
2025-01-01 14:00:00<>METAR SBSV 011400Z 08015KT 9999 SCT022 29/23 Q1014=
2025-01-01 15:00:00<>METAR SBSV 011500Z 07015KT 9999 SCT023 30/22 Q1013=
2025-01-01 16:00:00<>METAR SBSV 011600Z 09014KT 9999 FEW021 30/23 Q1013=
2025-01-01 17:00:00<>METAR SBSV 011700Z 10012KT 9999 FEW021 30/23 Q1012=
2025-01-01 18:00:00<>METAR SBSV 011800Z 10013KT 9999 FEW021 29/22 Q1011=
2025-01-01 19:00:00<>METAR SBSV 011900Z 09013KT 9999 FEW021 29/22 Q1011=
2025-01-01 20:00:00<>METAR SBSV 012000Z 10011KT 9999 FEW021 28/22 Q1011=
2025-01-01 21:00:00<>METAR SBSV 012100Z 09010KT 9999 FEW022 28/22 Q1011=
2025-01-01 22:00:00<>METAR SBSV 012200Z 10009KT 9999 FEW022 27/22 Q1012=
2025-01-01 23:00:00<>METAR SBSV 012300Z 10009KT CAVOK 27/22 Q1012=
2025-01-02 00:00:00<>METAR SBSV 020000Z 09009KT CAVOK 27/22 Q1013=
2025-01-02 01:00:00<>METAR SBSV 020100Z 09008KT CAVOK 27/23 Q1013=
2025-01-02 02:00:00<>METAR SBSV 020200Z 09008KT 9999 FEW023 26/22 Q1014=
2025-01-02 03:00:00<>METAR SBSV 020300Z 09008KT 9999 SCT021 26/22 Q1013=
2025-01-02 04:00:00<>METAR SBSV 020400Z 09007KT 9999 FEW021 26/22 Q1012=
2025-01-02 05:00:00<>METAR SBSV 020500Z 10008KT 9999 FEW023 26/22 Q1012=
2025-01-02 06:00:00<>METAR SBSV 020600Z 09006KT CAVOK 26/22 Q1012=
2025-01-02 07:00:00<>METAR SBSV 020700Z 06007KT 9999 FEW023 26/22 Q1012=
2025-01-02 08:00:00<>METAR SBSV 020800Z 09006KT 9999 FEW023 25/22 Q1012=
2025-01-02 09:00:00<>METAR SBSV 020900Z 08008KT 9999 FEW023 27/22 Q1013=
2025-01-02 10:00:00<>METAR SBSV 021000Z 09008KT 9999 SCT022 BKN055 28/23 Q1013=
2025-01-02 11:00:00<>METAR SBSV 021100Z 08008KT 9999 SCT022 28/23 Q1014=
2025-01-02 12:00:00<>METAR SBSV 021200Z 08007KT 050V130 9999 SCT023 29/23 Q1014=
2025-01-02 13:00:00<>METAR SBSV 021300Z 08008KT 050V130 9999 BKN026 29/23 Q1014=
2025-01-02 14:00:00<>METAR SBSV 021400Z 09010KT 9999 SCT027 29/23 Q1014=
2025-01-02 15:00:00<>METAR SBSV 021500Z 09012KT 9999 FEW025 30/23 Q1013=
2025-01-02 16:00:00<>METAR SBSV 021600Z 09013KT 9999 FEW026 30/23 Q1013=
2025-01-02 17:00:00<>METAR SBSV 021700Z 08013KT 9999 FEW026 31/23 Q1012=
2025-01-02 18:00:00<>METAR SBSV 021800Z 08016KT 9999 FEW028 29/22 Q1011=
2025-01-02 19:00:00<>METAR SBSV 021900Z 08014KT 9999 FEW020 28/22 Q1011=
2025-01-02 20:00:00<>METAR SBSV 022000Z 08013KT 9999 FEW017 28/22 Q1011=
2025-01-02 21:00:00<>METAR SBSV 022100Z 08013KT CAVOK 27/21 Q1011=
2025-01-02 22:00:00<>METAR SBSV 022200Z 07011KT CAVOK 27/22 Q1011=
2025-01-02 23:00:00<>METAR SBSV 022300Z 07010KT CAVOK 27/22 Q1012=
2025-01-03 00:00:00<>METAR SBSV 030000Z 08010KT CAVOK 26/22 Q1012=
2025-01-03 01:00:00<>METAR SBSV 030100Z 07009KT 9999 SCT020 26/22 Q1013=
2025-01-03 02:00:00<>METAR SBSV 030200Z 07009KT 9999 SCT020 26/23 Q1013=
2025-01-03 03:00:00<>METAR SBSV 030300Z 07007KT 9999 FEW021 25/22 Q1012=
2025-01-03 04:00:00<>METAR SBSV 030400Z 06006KT 9999 FEW021 26/22 Q1012=
2025-01-03 05:00:00<>METAR SBSV 030500Z 07006KT 9999 SCT019 25/22 Q1012=
2025-01-03 06:00:00<>METAR SBSV 030600Z 02004KT 9999 FEW020 25/22 Q1012=
2025-01-03 07:00:00<>METAR SBSV 030700Z 05003KT 9999 FEW020 24/22 Q1011=
2025-01-03 08:00:00<>METAR SBSV 030800Z 03004KT 9999 SCT020 BKN050 24/22 Q1012=
2025-01-03 09:00:00<>METAR SBSV 030900Z 04004KT 9999 SCT019 25/22 Q1012=
2025-01-03 10:00:00<>METAR SBSV 031000Z 07008KT 9999 FEW020 27/22 Q1013=
2025-01-03 11:00:00<>METAR SBSV 031100Z 08011KT 9999 SCT020 28/23 Q1013=
2025-01-03 12:00:00<>METAR SBSV 031200Z 06011KT 030V090 9999 SCT020 28/22 Q1013=
2025-01-03 13:00:00<>METAR SBSV 031300Z 07011KT 9999 SCT025 29/22 Q1013=
2025-01-03 14:00:00<>METAR SBSV 031400Z 09013KT 9999 SCT025 30/23 Q1013=
2025-01-03 15:00:00<>METAR SBSV 031500Z 09012KT 060V140 9999 SCT025 30/23 Q1013=
2025-01-03 16:00:00<>METAR SBSV 031600Z 08014KT 9999 SCT025 30/22 Q1012=
2025-01-03 17:00:00<>METAR SBSV 031700Z 08015KT 9999 FEW025 29/22 Q1011=
2025-01-03 18:00:00<>METAR SBSV 031800Z 08014KT 9999 FEW018 29/22 Q1011=
2025-01-03 19:00:00<>METAR SBSV 031900Z 08014KT 9999 FEW021 29/23 Q1010=
2025-01-03 20:00:00<>METAR SBSV 032000Z 08013KT 9999 FEW023 28/22 Q1010=
2025-01-03 21:00:00<>METAR SBSV 032100Z 07013KT 9999 FEW030 27/21 Q1010=
2025-01-03 22:00:00<>METAR SBSV 032200Z 07011KT 9999 FEW022 27/22 Q1011=
2025-01-03 23:00:00<>METAR SBSV 032300Z 07010KT 9999 FEW023 26/23 Q1012=
2025-01-04 00:00:00<>METAR SBSV 040000Z 07010KT 9999 FEW022 27/22 Q1012=
2025-01-04 01:00:00<>METAR SBSV 040100Z 07010KT CAVOK 26/22 Q1013=
2025-01-04 02:00:00<>METAR SBSV 040200Z 06009KT CAVOK 26/22 Q1012=
2025-01-04 03:00:00<>METAR SBSV 040300Z 06009KT CAVOK 26/22 Q1012=
2025-01-04 04:00:00<>METAR SBSV 040400Z 05008KT CAVOK 26/22 Q1012=
2025-01-04 05:00:00<>METAR SBSV 040500Z 03005KT CAVOK 26/22 Q1011=
2025-01-04 06:00:00<>METAR SBSV 040600Z VRB02KT CAVOK 25/22 Q1011=
2025-01-04 07:00:00<>METAR SBSV 040700Z 01004KT 340V050 9999 FEW015 25/22 Q1011=
2025-01-04 08:00:00<>METAR SBSV 040800Z 36003KT 9999 SCT020 24/22 Q1011=
2025-01-04 09:00:00<>METAR SBSV 040900Z 36003KT 9999 FEW020 25/22 Q1012=
2025-01-04 10:00:00<>METAR SBSV 041000Z 03003KT 9999 FEW019 27/23 Q1012=
2025-01-04 11:00:00<>METAR SBSV 041100Z 03009KT 360V060 9999 SCT021 28/23 Q1013=
2025-01-04 12:00:00<>METAR SBSV 041200Z 07012KT 9999 SCT022 29/22 Q1013=
2025-01-04 13:00:00<>METAR SBSV 041300Z 07013KT 9999 SCT023 29/23 Q1013=
2025-01-04 14:00:00<>METAR SBSV 041400Z 07014KT 9999 SCT023 30/23 Q1012=
2025-01-04 15:00:00<>METAR SBSV 041500Z 07015KT 9999 SCT023 30/24 Q1012=
2025-01-04 16:00:00<>METAR SBSV 041600Z 08015KT 9999 FEW020 30/24 Q1011=
2025-01-04 17:00:00<>METAR SBSV 041700Z 08017KT 9999 FEW020 30/23 Q1010=
2025-01-04 18:00:00<>METAR SBSV 041800Z 08014KT 9999 FEW019 30/23 Q1010=
2025-01-04 19:00:00<>METAR SBSV 041900Z 08016KT 9999 FEW019 29/23 Q1010=
2025-01-04 20:00:00<>METAR SBSV 042000Z 08014KT 9999 FEW024 28/23 Q1010=
2025-01-04 21:00:00<>METAR SBSV 042100Z 08014KT 9999 FEW019 27/23 Q1010=
2025-01-04 22:00:00<>METAR SBSV 042200Z 08012KT CAVOK 27/23 Q1010=
2025-01-04 23:00:00<>METAR SBSV 042300Z 08013KT 9999 FEW020 27/23 Q1011=
2025-01-05 00:00:00<>METAR SBSV 050000Z 08011KT CAVOK 26/23 Q1011=
2025-01-05 01:00:00<>METAR SBSV 050100Z 07012KT 9999 FEW021 27/23 Q1011=
2025-01-05 02:00:00<>METAR SBSV 050200Z 07010KT 9999 FEW019 26/23 Q1012=
2025-01-05 03:00:00<>METAR SBSV 050300Z 07009KT 9999 FEW017 26/23 Q1011=
2025-01-05 04:00:00<>METAR SBSV 050400Z 06008KT 9999 SCT019 26/23 Q1011=
2025-01-05 05:00:00<>METAR SBSV 050500Z 06006KT 9999 SCT019 BKN025 26/23 Q1011=
2025-01-05 06:00:00<>METAR SBSV 050600Z 07006KT 9999 SCT017 BKN025 26/23 Q1010=
2025-01-05 07:00:00<>METAR SBSV 050700Z 06004KT 9999 VCSH BKN020 26/24 Q1011=
2025-01-05 08:00:00<>METAR SBSV 050800Z 03005KT 9999 VCSH BKN020 FEW025TCU 26/24 Q1011=
2025-01-05 09:00:00<>METAR SBSV 050900Z 02005KT 9999 SCT022 26/24 Q1011=
2025-01-05 10:00:00<>METAR SBSV 051000Z 04005KT 320V070 9999 BKN020 27/24 Q1012=
2025-01-05 11:00:00<>METAR SBSV 051100Z 03005KT 350V060 9999 SCT015 BKN050 27/24 Q1012=
2025-01-05 12:00:00<>METAR SBSV 051200Z 07014KT 9999 SCT015 BKN050 28/24 Q1012=
2025-01-05 13:00:00<>METAR SBSV 051300Z 07014KT 9999 SCT015 BKN050 29/25 Q1012=
2025-01-05 14:00:00<>METAR SBSV 051400Z 07014KT 9999 SCT020 31/25 Q1012=
2025-01-05 15:00:00<>METAR SBSV 051500Z 08016KT 9999 SCT020 31/25 Q1011=
2025-01-05 16:00:00<>METAR SBSV 051600Z 08016KT 9999 SCT020 30/25 Q1011=
2025-01-05 17:00:00<>METAR SBSV 051700Z 08017KT 9999 FEW015 30/25 Q1010=
2025-01-05 18:00:00<>METAR SBSV 051800Z 08016KT 9999 FEW017 30/25 Q1009=
2025-01-05 19:00:00<>METAR SBSV 051900Z 08013KT 9999 FEW018 30/25 Q1009=
2025-01-05 20:00:00<>METAR SBSV 052000Z 07015KT 9999 FEW018 29/25 Q1009=
2025-01-05 21:00:00<>METAR SBSV 052100Z 08012KT 9999 FEW020 27/24 Q1009=
2025-01-05 22:00:00<>METAR SBSV 052200Z 07011KT 9999 FEW015 27/24 Q1010=
2025-01-05 23:00:00<>METAR SBSV 052300Z 06009KT 9999 FEW016 27/24 Q1011=
2025-01-06 00:00:00<>METAR SBSV 060000Z 06012KT 9999 SCT018 27/24 Q1011=
2025-01-06 01:00:00<>METAR SBSV 060100Z 06011KT 9999 SCT020 27/24 Q1012=
2025-01-06 02:00:00<>METAR SBSV 060200Z 06010KT 9999 SCT015 SCT050 27/24 Q1012=
2025-01-06 03:00:00<>METAR SBSV 060300Z 06011KT 9999 SCT015 SCT050 27/24 Q1011=
2025-01-06 04:00:00<>METAR SBSV 060400Z 05010KT 9999 SCT015 SCT050 27/24 Q1010=
2025-01-06 05:00:00<>METAR SBSV 060500Z 07006KT 9999 SCT015 SCT050 27/24 Q1010=
2025-01-06 06:00:00<>METAR SBSV 060600Z 06007KT 9999 SCT015 SCT050 27/24 Q1011=
2025-01-06 07:00:00<>METAR SBSV 060700Z 09006KT 9999 SCT015 SCT050 27/24 Q1011=
2025-01-06 08:00:00<>METAR SBSV 060800Z 06007KT 9999 FEW015 SCT050 26/24 Q1011=
2025-01-06 09:00:00<>METAR SBSV 060900Z 06008KT 9999 FEW015 BKN050 27/24 Q1011=
2025-01-06 10:00:00<>METAR SBSV 061000Z 06010KT 9999 SCT019 28/24 Q1012=
2025-01-06 11:00:00<>METAR SBSV 061100Z 07012KT 9999 SCT017 29/24 Q1012=
2025-01-06 12:00:00<>METAR SBSV 061200Z 07012KT 9999 SCT017 BKN030 30/24 Q1012=
2025-01-06 13:00:00<>METAR SBSV 061300Z 08013KT 9999 SCT020 30/24 Q1012=
2025-01-06 14:00:00<>METAR SBSV 061400Z 07014KT 9999 SCT017 30/24 Q1012=
2025-01-06 15:00:00<>METAR SBSV 061500Z 09014KT 9999 SCT017 30/24 Q1012=
2025-01-06 16:00:00<>METAR SBSV 061600Z 08014KT 9999 SCT019 30/25 Q1011=
2025-01-06 17:00:00<>METAR SBSV 061700Z 09012KT 9999 VCSH SCT019 30/25 Q1011=
2025-01-06 18:00:00<>METAR SBSV 061800Z 08013KT 9999 SCT019 29/24 Q1010=
2025-01-06 19:00:00<>METAR SBSV 061900Z 08015KT 9999 SCT016 28/24 Q1010=
2025-01-06 20:00:00<>METAR SBSV 062000Z 07012KT 9999 FEW017 29/24 Q1009=
2025-01-06 21:00:00<>METAR SBSV 062100Z 08012KT 9999 FEW020 27/24 Q1010=
2025-01-06 22:00:00<>METAR SBSV 062200Z 07010KT 9999 SCT020 27/24 Q1011=
2025-01-06 23:00:00<>METAR SBSV 062300Z 07012KT 9999 FEW020 27/24 Q1011=
2025-01-07 00:00:00<>METAR SBSV 070000Z 06010KT 9999 FEW020 27/23 Q1011=
2025-01-07 01:00:00<>METAR SBSV 070100Z 05009KT CAVOK 27/23 Q1012=
2025-01-07 02:00:00<>METAR SBSV 070200Z 06009KT CAVOK 27/23 Q1012=
2025-01-07 03:00:00<>METAR SBSV 070300Z 05007KT 9999 FEW019 26/23 Q1012=
2025-01-07 04:00:00<>METAR SBSV 070400Z 04007KT 9999 FEW022 26/23 Q1011=
2025-01-07 05:00:00<>METAR SBSV 070500Z 05006KT 9999 FEW021 26/23 Q1011=
2025-01-07 06:00:00<>METAR SBSV 070600Z 05006KT 9999 FEW021 26/23 Q1010=
2025-01-07 07:00:00<>METAR SBSV 070700Z 03001KT 9999 BKN019 25/23 Q1011=
2025-01-07 08:00:00<>METAR SBSV 070800Z VRB02KT 9999 SCT022 BKN032 25/23 Q1011=
2025-01-07 09:00:00<>METAR SBSV 070900Z 04003KT 9999 BKN024 BKN043 26/23 Q1012=
2025-01-07 10:00:00<>METAR SBSV 071000Z 03005KT 360V070 9999 SCT021 SCT050 27/23 Q1012=
2025-01-07 11:00:00<>METAR SBSV 071100Z 07012KT 9999 VCSH SCT020 FEW023TCU SCT060 29/23 Q1013=
2025-01-07 12:00:00<>METAR SBSV 071200Z 07013KT 9999 SCT022 SCT060 29/23 Q1013=
2025-01-07 13:00:00<>METAR COR SBSV 071300Z 07015KT 9999 SCT022 30/22 Q1012=
2025-01-07 14:00:00<>METAR SBSV 071400Z 07014KT 040V100 9999 SCT020 30/22 Q1012=
2025-01-07 15:00:00<>METAR SBSV 071500Z 08014KT 9999 FEW020 30/22 Q1012=
2025-01-07 16:00:00<>METAR SBSV 071600Z 08014KT 9999 FEW018 30/21 Q1011=
2025-01-07 17:00:00<>METAR SBSV 071700Z 09015KT 9999 FEW020 30/22 Q1011=
2025-01-07 18:00:00<>METAR SBSV 071800Z 07013KT 9999 FEW020 30/23 Q1010=
2025-01-07 19:00:00<>METAR SBSV 071900Z 08015KT 9999 FEW020 29/22 Q1009=
2025-01-07 20:00:00<>METAR SBSV 072000Z 07013KT 9999 FEW020 28/23 Q1009=
2025-01-07 21:00:00<>METAR SBSV 072100Z 07012KT 9999 FEW020 27/22 Q1010=
2025-01-07 22:00:00<>METAR SBSV 072200Z 07011KT CAVOK 27/23 Q1010=
2025-01-07 23:00:00<>METAR SBSV 072300Z 06011KT CAVOK 27/23 Q1010=
2025-01-08 00:00:00<>METAR SBSV 080000Z 06009KT 9999 FEW020 27/23 Q1011=
2025-01-08 01:00:00<>METAR SBSV 080100Z 06010KT CAVOK 27/22 Q1012=
2025-01-08 02:00:00<>METAR SBSV 080200Z 05010KT CAVOK 26/22 Q1011=
2025-01-08 03:00:00<>METAR SBSV 080300Z 05009KT CAVOK 26/22 Q1011=
2025-01-08 04:00:00<>METAR SBSV 080400Z 05008KT CAVOK 26/22 Q1011=
2025-01-08 05:00:00<>METAR SBSV 080500Z 02007KT 360V070 CAVOK 25/22 Q1011=
2025-01-08 06:00:00<>METAR SBSV 080600Z 01005KT CAVOK 25/22 Q1010=
2025-01-08 07:00:00<>METAR SBSV 080700Z 02004KT 9999 FEW021 25/22 Q1010=
2025-01-08 08:00:00<>METAR SBSV 080800Z 02005KT 9999 FEW021 FEW025TCU SCT070 25/22 Q1011=
2025-01-08 09:00:00<>METAR SBSV 080900Z 01004KT 340V050 9999 FEW020 SCT080 24/22 Q1012=
2025-01-08 10:00:00<>METAR SBSV 081000Z 36004KT 310V040 9999 SCT025 SCT080 26/22 Q1012=
2025-01-08 11:00:00<>METAR SBSV 081100Z 01007KT 9999 FEW025 27/22 Q1013=
2025-01-08 12:00:00<>METAR SBSV 081200Z 35008KT 320V020 9999 VCSH FEW020 FEW024TCU BKN035 28/21 Q1013=
2025-01-08 13:00:00<>METAR SBSV 081300Z 07006KT 020V100 9999 SCT025 BKN040 28/21 Q1013=
2025-01-08 14:00:00<>METAR SBSV 081400Z 05007KT 010V080 9999 FEW024 BKN050 29/22 Q1012=
2025-01-08 15:00:00<>METAR SBSV 081500Z 09012KT 9999 FEW023 BKN050 30/22 Q1012=
2025-01-08 16:00:00<>METAR SBSV 081600Z 10012KT 9999 FEW026 BKN050 29/22 Q1011=
2025-01-08 17:00:00<>METAR SBSV 081700Z 10011KT 9999 FEW026 SCT050 30/23 Q1010=
2025-01-08 18:00:00<>METAR SBSV 081800Z 10012KT 9999 FEW015 29/23 Q1009=
2025-01-08 19:00:00<>METAR SBSV 081900Z 10010KT 080V150 9999 FEW015 29/23 Q1009=
2025-01-08 20:00:00<>METAR SBSV 082000Z 09009KT 9999 FEW015 28/23 Q1010=
2025-01-08 21:00:00<>METAR SBSV 082100Z 08011KT 9999 FEW015 27/23 Q1009=
2025-01-08 22:00:00<>METAR SBSV 082200Z 08010KT 9999 FEW025 27/23 Q1010=
2025-01-08 23:00:00<>METAR SBSV 082300Z 07009KT 9999 FEW025 27/23 Q1010=
2025-01-09 00:00:00<>METAR SBSV 090000Z 06010KT 9999 FEW020 27/23 Q1011=
2025-01-09 01:00:00<>METAR SBSV 090100Z 07009KT 9999 FEW020 26/23 Q1011=
2025-01-09 02:00:00<>METAR SBSV 090200Z 06013KT 9999 FEW020 BKN070 26/23 Q1010=
2025-01-09 03:00:00<>METAR SBSV 090300Z 06009KT CAVOK 26/22 Q1010=
2025-01-09 04:00:00<>METAR SBSV 090400Z 06009KT CAVOK 26/22 Q1010=
2025-01-09 05:00:00<>METAR SBSV 090500Z 05006KT CAVOK 26/22 Q1009=
2025-01-09 06:00:00<>METAR SBSV 090600Z 03005KT CAVOK 25/22 Q1009=
2025-01-09 07:00:00<>METAR SBSV 090700Z 02004KT CAVOK 25/22 Q1009=
2025-01-09 08:00:00<>METAR SBSV 090800Z 33004KT 300V030 9999 FEW017 24/22 Q1010=
2025-01-09 09:00:00<>METAR SBSV 090900Z 34004KT 9999 FEW020 25/22 Q1011=
2025-01-09 10:00:00<>METAR SBSV 091000Z 36004KT 300V050 9999 FEW020 26/23 Q1011=
2025-01-09 11:00:00<>METAR SBSV 091100Z 04006KT 020V090 9999 FEW018 BKN022 28/23 Q1011=
2025-01-09 12:00:00<>METAR SBSV 091200Z 02007KT 330V060 9999 FEW020 BKN023 29/23 Q1011=
2025-01-09 13:00:00<>METAR SBSV 091300Z 07014KT 9999 FEW020 SCT025 30/23 Q1011=
2025-01-09 14:00:00<>METAR SBSV 091400Z 08014KT 9999 FEW020 SCT025 30/23 Q1011=
2025-01-09 15:00:00<>METAR SBSV 091500Z 08014KT 9999 SCT025 30/24 Q1010=
2025-01-09 16:00:00<>METAR SBSV 091600Z 08016KT 9999 FEW021 29/23 Q1009=
2025-01-09 17:00:00<>METAR SBSV 091700Z 08015KT 9999 FEW023 30/24 Q1008=
2025-01-09 18:00:00<>METAR SBSV 091800Z 08016KT 9999 FEW017 29/24 Q1008=
2025-01-09 19:00:00<>METAR SBSV 091900Z 07013KT 9999 FEW018 29/24 Q1007=
2025-01-09 20:00:00<>METAR SBSV 092000Z 07012KT 9999 FEW019 28/23 Q1007=
2025-01-09 21:00:00<>METAR SBSV 092100Z 06010KT 9999 FEW024 27/24 Q1008=
2025-01-09 22:00:00<>METAR SBSV 092200Z 07010KT 9999 FEW020 27/24 Q1009=
2025-01-09 23:00:00<>METAR SBSV 092300Z 07011KT 9999 FEW020 27/24 Q1009=
2025-01-10 00:00:00<>METAR COR SBSV 100000Z 07012KT 9999 FEW020 SCT020 27/24 Q1010=
2025-01-10 01:00:00<>METAR SBSV 100100Z 05008KT 9999 FEW020 SCT020 27/23 Q1010=
2025-01-10 02:00:00<>METAR SBSV 100200Z 05008KT 9999 FEW020 SCT020 27/23 Q1010=
2025-01-10 03:00:00<>METAR SBSV 100300Z 36004KT 320V040 9999 SCT016 BKN025 27/23 Q1010=
2025-01-10 04:00:00<>METAR SBSV 100400Z 33003KT 310V040 9999 SCT020 27/23 Q1010=
2025-01-10 05:00:00<>METAR SBSV 100500Z 29003KT 9999 BKN020 26/23 Q1009=
2025-01-10 06:00:00<>METAR SBSV 100600Z VRB02KT 9999 FEW030 BKN050 26/23 Q1009=
2025-01-10 07:00:00<>METAR SBSV 100700Z 00000KT 9999 FEW030 BKN050 26/23 Q1009=
2025-01-10 08:00:00<>METAR SBSV 100800Z VRB02KT CAVOK 26/23 Q1009=
2025-01-10 09:00:00<>METAR SBSV 100900Z 07003KT 9999 FEW023 BKN080 26/23 Q1010=
2025-01-10 10:00:00<>METAR SBSV 101000Z 06003KT 9000 VCSH FEW030 OVC080 27/24 Q1010=
2025-01-10 11:00:00<>METAR SBSV 101100Z 02006KT 9000 FEW023 OVC100 28/24 Q1011=
2025-01-10 12:00:00<>METAR SBSV 101200Z 03008KT 9000 VCSH BKN019 FEW025TCU OVC080 30/23 Q1011=
2025-01-10 13:00:00<>METAR SBSV 101300Z 08012KT 9000 VCSH BKN022 FEW025TCU OVC090 29/24 Q1010=
2025-01-10 14:00:00<>METAR SBSV 101400Z 07012KT 8000 VCSH BKN022 FEW025TCU BKN070 30/25 Q1010=
2025-01-10 15:00:00<>METAR SBSV 101500Z 09015KT 6000 -SHRA FEW010 BKN017 FEW025TCU BKN100 29/25 Q1010=
2025-01-10 15:39:00<>SPECI SBSV 101539Z 08012KT 5000 -SHRA BKN014 BKN022 FEW025TCU BKN090 29/24 Q1009=
2025-01-10 15:44:00<>SPECI SBSV 101544Z 09012KT 5000 -SHRA BKN008 BKN022 FEW025TCU BKN090 29/25 Q1009=
2025-01-10 16:00:00<>METAR SBSV 101600Z 10011KT 6000 -RA BKN010 BKN020 FEW025TCU BKN090 28/25 Q1008=
2025-01-10 17:00:00<>METAR SBSV 101700Z 09011KT 5000 -RA FEW009 BKN015 FEW025TCU BKN090 27/25 Q1008=
2025-01-10 18:00:00<>METAR SBSV 101800Z 07010KT 4000 -RA BR BKN012 BKN018 FEW025TCU OVC090 27/25 Q1008=
2025-01-10 18:19:00<>SPECI SBSV 101819Z 06011KT 4000 TSRA BKN012 BKN018 FEW025CB OVC090 27/25 Q1008=
2025-01-10 18:29:00<>SPECI SBSV 101829Z 05012KT 5000 -TSRA BKN007 BKN015 FEW025CB OVC090 26/25 Q1008 RERA=
2025-01-10 18:40:00<>SPECI SBSV 101840Z 01012KT 2500 TSRA BKN007 BKN015 FEW025CB OVC090 24/23 Q1008=
2025-01-10 19:00:00<>METAR SBSV 101900Z 03010KT 360V060 4000 TSRA BKN007 BKN015 FEW025CB OVC090 24/23 Q1008=
2025-01-10 19:38:00<>SPECI SBSV 101938Z 05013KT 8000 -TSRA FEW009 BKN015 FEW025CB OVC090 25/23 Q1011 RERA=
2025-01-10 20:00:00<>METAR SBSV 102000Z 05009KT 9999 -RA FEW010 BKN015 FEW025TCU OVC090 24/23 Q1008 RETS=
2025-01-10 21:00:00<>METAR SBSV 102100Z 05013KT 8000 FEW009 SCT015 FEW025TCU BKN090 24/22 Q1008=
2025-01-10 22:00:00<>METAR SBSV 102200Z 03008KT 340V050 9999 FEW009 SCT018 FEW025TCU BKN100 24/22 Q1009=
2025-01-10 23:00:00<>METAR SBSV 102300Z 34003KT 9999 RA FEW009 SCT020 OVC090 24/22 Q1011=
2025-01-11 00:00:00<>METAR SBSV 110000Z 35004KT 320V020 6000 RA SCT020 OVC070 24/23 Q1011=
2025-01-11 01:00:00<>METAR SBSV 110100Z VRB01KT 8000 -RA FEW020 OVC070 24/23 Q1011 RERA=
2025-01-11 02:00:00<>METAR SBSV 110200Z VRB02KT 8000 -RA FEW020 OVC080 24/23 Q1011=
2025-01-11 03:00:00<>METAR SBSV 110300Z 32003KT 290V020 9000 -RA FEW020 OVC100 24/23 Q1011=
2025-01-11 04:00:00<>METAR SBSV 110400Z 30003KT 9000 -RA FEW019 BKN100 24/23 Q1010=
2025-01-11 05:00:00<>METAR SBSV 110500Z 30003KT 260V010 9000 -RA FEW021 BKN100 24/23 Q1010=
2025-01-11 06:00:00<>METAR SBSV 110600Z 31005KT 9999 FEW019 BKN100 24/23 Q1009=
2025-01-11 07:00:00<>METAR SBSV 110700Z 33004KT 240V360 9000 -RA FEW019 BKN090 24/23 Q1010=
2025-01-11 08:00:00<>METAR SBSV 110800Z 32004KT 9999 -RA FEW019 BKN090 24/23 Q1010=
2025-01-11 09:00:00<>METAR SBSV 110900Z VRB02KT 7000 -RA FEW015 BKN090 24/23 Q1010=
2025-01-11 10:00:00<>METAR SBSV 111000Z 03003KT 8000 FEW015 BKN090 24/23 Q1010=
2025-01-11 11:00:00<>METAR SBSV 111100Z 03004KT 9999 FEW005 BKN090 25/24 Q1011=
2025-01-11 12:00:00<>METAR SBSV 111200Z 02008KT 350V060 9999 FEW005 BKN090 26/24 Q1011=
2025-01-11 13:00:00<>METAR SBSV 111300Z 06010KT 9999 FEW005 SCT013 BKN090 27/25 Q1011=
2025-01-11 14:00:00<>METAR SBSV 111400Z 05011KT 010V080 9999 SCT013 BKN090 28/24 Q1011=
2025-01-11 15:00:00<>METAR SBSV 111500Z 07014KT 9999 SCT015 BKN090 29/24 Q1010=
2025-01-11 16:00:00<>METAR SBSV 111600Z 07014KT 9999 SCT020 BKN100 29/24 Q1009=
2025-01-11 17:00:00<>METAR SBSV 111700Z 08014KT 9000 VCSH BKN023 FEW025TCU BKN100 29/25 Q1008=
2025-01-11 18:00:00<>METAR SBSV 111800Z 07017KT 8000 VCSH FEW010 BKN019 FEW025TCU BKN080 28/24 Q1007=
2025-01-11 18:21:00<>SPECI SBSV 111821Z 06014KT 4000 -TSRA BKN011 BKN018 FEW025CB OVC090 27/24 Q1007=
2025-01-11 18:26:00<>SPECI COR SBSV 111826Z 35015G25KT 0800 R10/1500 R28/1500 +TSRA BKN005 BKN018 ///025CB 25/23 Q1007=
2025-01-11 18:40:00<>SPECI SBSV 111840Z 04016KT 3000 TSRA BKN009 BKN016 FEW025CB OVC055 24/23 Q1007 RERA=
2025-01-11 19:00:00<>METAR SBSV 111900Z 06014G24KT 5000 -TSRA BKN009 BKN020 FEW025CB OVC050 24/23 Q1007 RERA=
2025-01-11 19:23:00<>SPECI SBSV 111923Z 06012KT 8000 VCSH BKN015 BKN021 OVC060 25/24 Q1007 RETS=
2025-01-11 20:00:00<>METAR SBSV 112000Z 07015KT 8000 VCSH SCT008 BKN016 OVC070 26/24 Q1007 RETS=
2025-01-11 20:06:00<>SPECI SBSV 112006Z 06011KT 3000 RA BR BKN007 BKN016 OVC050 26/24 Q1008=
2025-01-11 20:34:00<>SPECI SBSV 112034Z 06014KT 7000 -RA SCT006 BKN016 BKN070 25/24 Q1008 RERA=
2025-01-11 21:00:00<>METAR SBSV 112100Z 06012KT 8000 VCSH SCT005 BKN015 OVC080 25/24 Q1008 RERA=
2025-01-11 21:34:00<>SPECI SBSV 112134Z 05012KT 8000 TS VCSH SCT011 BKN017 FEW025CB OVC080 25/24 Q1009=
2025-01-11 22:00:00<>METAR SBSV 112200Z 05014KT 9000 TS VCSH SCT009 BKN020 FEW025CB BKN100 25/23 Q1009=
2025-01-11 22:24:00<>SPECI SBSV 112224Z 01008KT 9000 TS VCSH BKN009 BKN019 FEW025CB OVC040 24/22 Q1010=
2025-01-11 23:00:00<>METAR SBSV 112300Z 36008KT 9000 TS VCSH BKN007 OVC011 //////CB 24/22 Q1010=
2025-01-12 00:00:00<>METAR SBSV 120000Z 36007KT 9000 VCSH SCT009 BKN014 OVC060 24/22 Q1011 RETS=
2025-01-12 00:10:00<>SPECI SBSV 120010Z 01008KT 9000 VCSH FEW010 BKN016 OVC060 24/22 Q1011 RETS=
2025-01-12 01:00:00<>METAR SBSV 120100Z 02006KT 9000 VCSH SCT007 SCT018 OVC060 24/22 Q1011=
2025-01-12 02:00:00<>METAR SBSV 120200Z 03006KT 9999 SCT007 SCT018 BKN070 24/22 Q1011=
2025-01-12 03:00:00<>METAR SBSV 120300Z 04005KT 9999 FEW007 SCT018 BKN080 24/22 Q1010=
2025-01-12 04:00:00<>METAR SBSV 120400Z 03004KT 9999 FEW007 SCT018 BKN080 24/22 Q1010=
2025-01-12 05:00:00<>METAR SBSV 120500Z 32003KT 290V010 9999 FEW007 SCT018 BKN080 24/22 Q1009=
2025-01-12 06:00:00<>METAR SBSV 120600Z 35003KT 300V030 9999 FEW007 SCT018 BKN096 24/22 Q1009=
2025-01-12 07:00:00<>METAR SBSV 120700Z 31003KT 270V360 9999 FEW007 BKN096 24/23 Q1009=
2025-01-12 08:00:00<>METAR SBSV 120800Z VRB02KT 9999 FEW018 BKN096 24/23 Q1009=
2025-01-12 09:00:00<>METAR SBSV 120900Z 04003KT 8000 -RA FEW010 SCT020 OVC070 24/23 Q1011=
2025-01-12 10:00:00<>METAR SBSV 121000Z 03005KT 350V050 6000 -RA FEW004 SCT023 OVC050 24/23 Q1011=
2025-01-12 11:00:00<>METAR SBSV 121100Z 01005KT 340V040 5000 -RA BR FEW005 SCT019 OVC080 24/23 Q1011=
2025-01-12 12:00:00<>METAR SBSV 121200Z 36005KT 6000 -RA SCT007 SCT020 OVC030 24/23 Q1011=
2025-01-12 13:00:00<>METAR SBSV 121300Z 02009KT 5000 -RA BR SCT007 SCT050 OVC070 24/23 Q1011=
2025-01-12 13:05:00<>SPECI SBSV 121305Z 02009KT 5000 -RA BR FEW005 BKN007 OVC070 24/23 Q1011=
2025-01-12 13:25:00<>SPECI SBSV 121325Z 02007KT 340V040 7000 -RA FEW007 OVC070 25/23 Q1011=
2025-01-12 14:00:00<>METAR SBSV 121400Z 02007KT 8000 -RA FEW007 OVC070 25/23 Q1010=
2025-01-12 15:00:00<>METAR SBSV 121500Z 01008KT 9999 FEW007 BKN070 26/23 Q1010=
2025-01-12 16:00:00<>METAR SBSV 121600Z 35005KT 300V020 9999 FEW012 BKN015 OVC100 27/24 Q1010=
2025-01-12 17:00:00<>METAR SBSV 121700Z 01008KT 320V050 9999 FEW019 BKN063 29/23 Q1008=
2025-01-12 18:00:00<>METAR SBSV 121800Z 36010KT 330V030 9999 BKN025 BKN050 28/23 Q1007=
2025-01-12 19:00:00<>METAR SBSV 121900Z 01013KT 9999 FEW030 BKN100 28/22 Q1007=
2025-01-12 20:00:00<>METAR SBSV 122000Z 36011G21KT 330V040 9999 FEW030 BKN100 27/22 Q1006=
2025-01-12 21:00:00<>METAR SBSV 122100Z 01008KT 9999 FEW030 BKN100 26/22 Q1007=
2025-01-12 22:00:00<>METAR SBSV 122200Z 02006KT CAVOK 26/21 Q1008=
2025-01-12 23:00:00<>METAR SBSV 122300Z 36006KT CAVOK 25/21 Q1009=
2025-01-13 00:00:00<>METAR SBSV 130000Z 01006KT 330V040 CAVOK 25/22 Q1009=
2025-01-13 01:00:00<>METAR SBSV 130100Z 01009KT 350V050 9999 FEW025 BKN070 25/21 Q1009=
2025-01-13 02:00:00<>METAR COR SBSV 130200Z 04003KT 9999 FEW023 BKN070 25/23 Q1009=
2025-01-13 03:00:00<>METAR SBSV 130300Z 36009KT 330V030 9999 FEW020 FEW025TCU BKN070 25/21 Q1008=
2025-01-13 04:00:00<>METAR SBSV 130400Z 01005KT 340V120 9999 FEW020 FEW025TCU BKN080 25/22 Q1008=
2025-01-13 05:00:00<>METAR SBSV 130500Z 03006KT 9999 FEW020 FEW025TCU BKN070 24/22 Q1007=
2025-01-13 06:00:00<>METAR SBSV 130600Z 01005KT 9999 FEW020 BKN070 24/22 Q1007=
2025-01-13 07:00:00<>METAR SBSV 130700Z 02005KT CAVOK 24/22 Q1007=
2025-01-13 08:00:00<>METAR SBSV 130800Z 35006KT 9999 FEW019 BKN070 25/22 Q1008=
2025-01-13 09:00:00<>METAR SBSV 130900Z 30004KT 9999 FEW019 OVC060 25/22 Q1009=
2025-01-13 10:00:00<>METAR SBSV 131000Z 34003KT 290V010 9999 FEW015 BKN066 25/22 Q1009=
2025-01-13 11:00:00<>METAR SBSV 131100Z 33003KT 300V020 9999 FEW015 BKN066 BKN100 26/23 Q1010=
2025-01-13 12:00:00<>METAR SBSV 131200Z 35006KT 320V020 9999 FEW018 BKN070 28/23 Q1010=
2025-01-13 13:00:00<>METAR SBSV 131300Z 32008KT 290V360 9999 FEW020 BKN080 29/23 Q1010=
2025-01-13 14:00:00<>METAR SBSV 131400Z 34003KT 290V040 9999 SCT020 BKN070 29/23 Q1010=
2025-01-13 15:00:00<>METAR SBSV 131500Z VRB02KT 9999 SCT020 BKN070 29/23 Q1010=
2025-01-13 16:00:00<>METAR SBSV 131600Z 14007KT 9000 VCSH SCT022 BKN060 28/23 Q1009=
2025-01-13 17:00:00<>METAR SBSV 131700Z 10007KT 060V130 9999 VCSH SCT022 FEW025TCU SCT066 27/23 Q1008=
2025-01-13 18:00:00<>METAR SBSV 131800Z 08008KT 9999 VCSH FEW025TCU BKN070 26/23 Q1007=
2025-01-13 19:00:00<>METAR SBSV 131900Z 10008KT 9999 FEW020 BKN060 27/22 Q1007=
2025-01-13 20:00:00<>METAR SBSV 132000Z 06010KT 9999 FEW020 BKN100 27/23 Q1007=
2025-01-13 21:00:00<>METAR SBSV 132100Z 07007KT 9999 FEW025TCU BKN100 26/23 Q1008=
2025-01-13 22:00:00<>METAR SBSV 132200Z 05008KT CAVOK 26/24 Q1008=
2025-01-13 23:00:00<>METAR SBSV 132300Z 03006KT 360V060 CAVOK 26/23 Q1009=
2025-01-14 00:00:00<>METAR SBSV 140000Z 02004KT 320V050 9999 VCTS FEW025CB 26/23 Q1009=
2025-01-14 01:00:00<>METAR SBSV 140100Z 03003KT 9999 FEW025 25/23 Q1009=
2025-01-14 02:00:00<>METAR SBSV 140200Z 35003KT 9999 FEW025 SCT060 25/23 Q1009=
2025-01-14 03:00:00<>METAR SBSV 140300Z VRB02KT 9999 FEW025 BKN050 25/23 Q1009=
2025-01-14 04:00:00<>METAR SBSV 140400Z 32002KT 9999 FEW025 SCT060 25/23 Q1008=
2025-01-14 05:00:00<>METAR SBSV 140500Z 29003KT 9999 FEW025 SCT070 25/23 Q1008=
2025-01-14 06:00:00<>METAR SBSV 140600Z 35002KT 9999 FEW025 BKN070 25/23 Q1007=
2025-01-14 07:00:00<>METAR SBSV 140700Z VRB01KT 9999 FEW025 BKN070 25/23 Q1008=
2025-01-14 08:00:00<>METAR SBSV 140800Z VRB02KT 9999 FEW025 SCT070 25/23 Q1008=
2025-01-14 09:00:00<>METAR SBSV 140900Z VRB01KT 9999 FEW023 BKN050 25/23 Q1009=
2025-01-14 10:00:00<>METAR SBSV 141000Z 04003KT 9999 FEW023 BKN050 26/23 Q1009=
2025-01-14 11:00:00<>METAR SBSV 141100Z 02003KT 340V050 9999 FEW023 BKN060 28/23 Q1010=
2025-01-14 12:00:00<>METAR SBSV 141200Z 35004KT 270V050 9999 SCT023 SCT060 30/23 Q1010=
2025-01-14 13:00:00<>METAR SBSV 141300Z 14007KT 120V190 9999 SCT025 SCT070 29/23 Q1009=
2025-01-14 14:00:00<>METAR SBSV 141400Z 16007KT 130V200 9999 SCT025 SCT060 30/23 Q1009=
2025-01-14 15:00:00<>METAR SBSV 141500Z 15008KT 120V200 9999 VCTS SCT023 FEW027CB SCT060 30/24 Q1009=
2025-01-14 16:00:00<>METAR SBSV 141600Z 14007KT 080V180 9999 VCSH SCT023 FEW027TCU SCT060 29/24 Q1008=
2025-01-14 17:00:00<>METAR SBSV 141700Z 14008KT 100V180 9999 FEW022 FEW027TCU SCT060 29/24 Q1007=
2025-01-14 18:00:00<>METAR SBSV 141800Z 13009KT 9999 FEW022 SCT060 29/24 Q1007=
2025-01-14 19:00:00<>METAR SBSV 141900Z 11010KT 9999 SCT020 BKN060 29/24 Q1006=
2025-01-14 20:00:00<>METAR SBSV 142000Z 12008KT 9999 SCT020 BKN060 29/24 Q1007=
2025-01-14 21:00:00<>METAR SBSV 142100Z 09009KT 9999 SCT023 FEW025TCU BKN060 28/25 Q1008=
2025-01-14 22:00:00<>METAR SBSV 142200Z 08011KT 9999 TS SCT010 BKN018 FEW025CB BKN060 27/25 Q1009=
2025-01-14 23:00:00<>METAR SBSV 142300Z 05011KT 9999 SCT010 BKN018 BKN060 28/25 Q1010 RETS=
2025-01-15 00:00:00<>METAR SBSV 150000Z 05009KT 020V080 9999 FEW015 27/24 Q1010 WS R10=
2025-01-15 01:00:00<>METAR SBSV 150100Z 03009KT 360V060 9999 FEW020 26/22 Q1010=
2025-01-15 02:00:00<>METAR SBSV 150200Z 35006KT 9999 VCTS FEW025CB 24/22 Q1010=
2025-01-15 03:00:00<>METAR SBSV 150300Z 36004KT 320V040 9999 VCTS FEW025CB 24/22 Q1010=
2025-01-15 04:00:00<>METAR SBSV 150400Z 23003KT 9999 VCTS FEW025CB 24/21 Q1009=
2025-01-15 05:00:00<>METAR SBSV 150500Z 02004KT 340V040 CAVOK 24/22 Q1009=
2025-01-15 06:00:00<>METAR SBSV 150600Z 35005KT 310V030 9999 FEW017 25/22 Q1009=
2025-01-15 07:00:00<>METAR SBSV 150700Z 34003KT 9999 FEW017 25/22 Q1009=
2025-01-15 08:00:00<>METAR SBSV 150800Z 33003KT 280V010 9999 FEW017 25/22 Q1010=
2025-01-15 09:00:00<>METAR SBSV 150900Z 01003KT 340V050 9999 VCSH FEW025TCU OVC080 25/22 Q1010=
2025-01-15 10:00:00<>METAR SBSV 151000Z 36004KT 320V030 9999 VCSH FEW022 FEW025TCU OVC070 25/23 Q1011=
2025-01-15 11:00:00<>METAR SBSV 151100Z 02003KT 350V050 9999 FEW022 BKN070 26/24 Q1011=
2025-01-15 12:00:00<>METAR SBSV 151200Z 01007KT 340V040 9999 FEW022 BKN070 28/24 Q1011=
2025-01-15 13:00:00<>METAR SBSV 151300Z 36006KT 320V050 9999 FEW015 BKN021 BKN070 28/23 Q1011=
2025-01-15 14:00:00<>METAR SBSV 151400Z 09009KT 9999 FEW015 BKN023 BKN055 27/24 Q1011=
2025-01-15 15:00:00<>METAR SBSV 151500Z 07014KT 9999 FEW016 BKN023 BKN090 27/24 Q1011=
2025-01-15 16:00:00<>METAR SBSV 151600Z 08011KT 6000 -RA FEW016 BKN023 BKN090 26/24 Q1010=
2025-01-15 17:00:00<>METAR SBSV 151700Z 06014KT 9000 VCSH FEW008 BKN023 BKN070 27/24 Q1009=
2025-01-15 18:00:00<>METAR SBSV 151800Z 06012KT 9999 BKN023 BKN070 27/24 Q1009=
2025-01-15 19:00:00<>METAR SBSV 151900Z 06012KT 9999 FEW030 BKN100 28/24 Q1008=
2025-01-15 20:00:00<>METAR SBSV 152000Z 05010KT 9999 FEW016 BKN100 28/24 Q1009=
2025-01-15 21:00:00<>METAR SBSV 152100Z 06012KT 9999 FEW016 BKN100 27/23 Q1010=
2025-01-15 22:00:00<>METAR SBSV 152200Z 05010KT 9999 FEW016 BKN100 26/24 Q1010=
2025-01-15 23:00:00<>METAR SBSV 152300Z 05009KT 9999 FEW016 BKN100 26/24 Q1012=
2025-01-16 00:00:00<>METAR SBSV 160000Z 05010KT 9999 FEW016 BKN100 27/24 Q1012=
2025-01-16 01:00:00<>METAR SBSV 160100Z 05008KT 9999 FEW016 BKN100 26/24 Q1013=
2025-01-16 02:00:00<>METAR SBSV 160200Z 26006KT 9999 SCT018 BKN100 26/24 Q1012=
2025-01-16 03:00:00<>METAR SBSV 160300Z 02005KT 9999 FEW018 BKN080 26/24 Q1012=
2025-01-16 04:00:00<>METAR SBSV 160400Z 02004KT 9999 FEW018 BKN080 25/23 Q1012=
2025-01-16 05:00:00<>METAR SBSV 160500Z 36003KT 9999 FEW018 BKN080 25/23 Q1012=
2025-01-16 06:00:00<>METAR SBSV 160600Z 02003KT 9999 FEW018 BKN080 25/23 Q1012=
2025-01-16 07:00:00<>METAR SBSV 160700Z 02003KT 350V060 9999 FEW018 BKN080 25/23 Q1012=
2025-01-16 08:00:00<>METAR SBSV 160800Z 05004KT 9999 FEW016 BKN070 25/23 Q1012=
2025-01-16 09:00:00<>METAR SBSV 160900Z 03003KT 360V080 9999 SCT020 BKN060 25/23 Q1013=
2025-01-16 10:00:00<>METAR SBSV 161000Z 05006KT 9999 SCT020 BKN060 27/24 Q1013=
2025-01-16 11:00:00<>METAR SBSV 161100Z 04009KT 9999 SCT021 SCT070 29/24 Q1014=
2025-01-16 12:00:00<>METAR SBSV 161200Z 07014KT 9999 SCT021 FEW023TCU SCT070 29/24 Q1014=
2025-01-16 13:00:00<>METAR SBSV 161300Z 07015KT 9999 SCT021 FEW023TCU SCT070 29/24 Q1014=
2025-01-16 14:00:00<>METAR SBSV 161400Z 08014KT 9999 SCT021 30/25 Q1014=
2025-01-16 15:00:00<>METAR SBSV 161500Z 07016KT 9999 SCT021 30/24 Q1013=
2025-01-16 16:00:00<>METAR SBSV 161600Z 08015KT 9999 FEW023 29/23 Q1013=
2025-01-16 17:00:00<>METAR SBSV 161700Z 08014KT 9999 FEW023 30/24 Q1012=
2025-01-16 18:00:00<>METAR SBSV 161800Z 08013KT 9999 FEW020 29/24 Q1012=
2025-01-16 19:00:00<>METAR SBSV 161900Z 08013KT 9999 FEW017 29/24 Q1012=
2025-01-16 20:00:00<>METAR SBSV 162000Z 08011KT 9999 FEW017 28/24 Q1011=
2025-01-16 21:00:00<>METAR SBSV 162100Z 08009KT 9999 SCT019 27/24 Q1012=
2025-01-16 22:00:00<>METAR SBSV 162200Z 08010KT 9999 FEW020 27/24 Q1012=
2025-01-16 23:00:00<>METAR SBSV 162300Z 08010KT 9999 FEW020 27/23 Q1013=
2025-01-17 00:00:00<>METAR SBSV 170000Z 09009KT 9999 FEW023 27/23 Q1014=
2025-01-17 01:00:00<>METAR SBSV 170100Z 08007KT 9999 FEW016 26/23 Q1015=
2025-01-17 02:00:00<>METAR SBSV 170200Z 09007KT 9999 FEW016 26/23 Q1015=
2025-01-17 03:00:00<>METAR SBSV 170300Z 09005KT 9999 FEW010 26/23 Q1014=
2025-01-17 04:00:00<>METAR SBSV 170400Z 08004KT 9999 FEW020 26/23 Q1014=
2025-01-17 05:00:00<>METAR SBSV 170500Z VRB02KT 9999 SCT020 25/23 Q1014=
2025-01-17 06:00:00<>METAR SBSV 170600Z 09005KT 9999 FEW020 26/23 Q1013=
2025-01-17 07:00:00<>METAR SBSV 170700Z 08004KT CAVOK 25/22 Q1013=
2025-01-17 08:00:00<>METAR SBSV 170800Z VRB02KT 9999 FEW020 25/22 Q1013=
2025-01-17 09:00:00<>METAR SBSV 170900Z VRB01KT 9999 FEW020 24/23 Q1014=
2025-01-17 10:00:00<>METAR SBSV 171000Z 13005KT 9999 FEW020 27/22 Q1015=
2025-01-17 11:00:00<>METAR SBSV 171100Z 15005KT 120V180 9999 VCSH FEW023TCU BKN026 BKN070 26/23 Q1015=
2025-01-17 12:00:00<>METAR SBSV 171200Z 13006KT 080V160 9999 SCT019 FEW025TCU BKN072 29/22 Q1016=
2025-01-17 13:00:00<>METAR SBSV 171300Z 14003KT 100V200 9999 FEW019 SCT030 BKN068 28/23 Q1016=
2025-01-17 14:00:00<>METAR SBSV 171400Z 11008KT 090V150 9999 FEW019 29/22 Q1015=
2025-01-17 15:00:00<>METAR SBSV 171500Z 13008KT 080V180 9999 FEW024 29/22 Q1015=
2025-01-17 16:00:00<>METAR SBSV 171600Z 13009KT 100V170 9999 FEW025 30/23 Q1014=
2025-01-17 17:00:00<>METAR SBSV 171700Z 12010KT 9999 FEW025 30/22 Q1014=
2025-01-17 18:00:00<>METAR SBSV 171800Z 02009KT 070V180 9999 SCT025 29/22 Q1013=
2025-01-17 19:00:00<>METAR SBSV 171900Z 11010KT 9999 SCT025 29/22 Q1013=
2025-01-17 20:00:00<>METAR SBSV 172000Z 12009KT 100V160 9999 SCT025 28/22 Q1013=
2025-01-17 21:00:00<>METAR SBSV 172100Z 12009KT 9999 SCT025 28/22 Q1013=
2025-01-17 22:00:00<>METAR SBSV 172200Z 11007KT 9999 FEW025 27/22 Q1014=
2025-01-17 23:00:00<>METAR SBSV 172300Z 11009KT 9999 FEW022 27/22 Q1014=
2025-01-18 00:00:00<>METAR SBSV 180000Z 10008KT 9999 FEW022 27/21 Q1015=
2025-01-18 01:00:00<>METAR SBSV 180100Z 09007KT 9999 FEW023 26/22 Q1015=
2025-01-18 02:00:00<>METAR SBSV 180200Z 09007KT 9999 FEW023 26/22 Q1014=
2025-01-18 03:00:00<>METAR SBSV 180300Z 10005KT 9999 FEW023 26/22 Q1014=
2025-01-18 04:00:00<>METAR SBSV 180400Z 10005KT 9999 FEW023 26/21 Q1013=
2025-01-18 05:00:00<>METAR SBSV 180500Z 09005KT 9999 FEW023 26/21 Q1013=
2025-01-18 06:00:00<>METAR SBSV 180600Z 11004KT 9999 FEW023 26/21 Q1013=
2025-01-18 07:00:00<>METAR COR SBSV 180700Z 09003KT 9999 FEW023 25/22 Q1013=
2025-01-18 08:00:00<>METAR SBSV 180800Z 09011KT 9999 SCT023 25/21 Q1014=
2025-01-18 09:00:00<>METAR SBSV 180900Z 08005KT 9999 SCT023 BKN070 25/23 Q1014=
2025-01-18 10:00:00<>METAR SBSV 181000Z 08006KT 9999 VCSH SCT023 FEW025TCU BKN030 BKN070 26/21 Q1014=
2025-01-18 10:25:00<>SPECI SBSV 181025Z 07008KT 040V100 5000 2000N SHRA SCT015 FEW025TCU BKN030 23/21 Q1015=
2025-01-18 10:42:00<>SPECI SBSV 181042Z 03006KT 7000 -SHRA SCT015 FEW025TCU BKN030 24/22 Q1015 RESHRA=
2025-01-18 11:00:00<>METAR SBSV 181100Z 03006KT 9999 VCSH FEW015 FEW025TCU BKN030 24/21 Q1015 RESHRA=
2025-01-18 12:00:00<>METAR SBSV 181200Z 08011KT 5000 2000SE -SHRA SCT015 FEW025TCU OVC032 23/22 Q1015=
2025-01-18 13:00:00<>METAR SBSV 181300Z 05005KT 9999 VCSH FEW025TCU OVC060 26/22 Q1015=
2025-01-18 14:00:00<>METAR SBSV 181400Z 09011KT 9999 VCSH FEW025TCU OVC070 26/22 Q1015=
2025-01-18 15:00:00<>METAR SBSV 181500Z 06012KT 9999 FEW025TCU OVC070 26/21 Q1015=
2025-01-18 16:00:00<>METAR SBSV 181600Z 09011KT 9999 FEW023 BKN070 28/20 Q1014=
2025-01-18 17:00:00<>METAR SBSV 181700Z 11007KT 060V150 9999 FEW023 BKN090 28/19 Q1013=
2025-01-18 18:00:00<>METAR SBSV 181800Z 16006KT 9999 FEW023 BKN090 29/20 Q1012=
2025-01-18 19:00:00<>METAR SBSV 181900Z 12006KT 080V160 9999 FEW023 SCT100 28/20 Q1013=
2025-01-18 20:00:00<>METAR SBSV 182000Z 12006KT 080V140 9999 FEW025 SCT100 27/21 Q1013=
2025-01-18 21:00:00<>METAR SBSV 182100Z 13006KT 9999 VCSH FEW025 SCT100 27/22 Q1013=
2025-01-18 22:00:00<>METAR SBSV 182200Z 14005KT 110V190 9999 FEW025 SCT100 26/21 Q1013=
2025-01-18 23:00:00<>METAR SBSV 182300Z 11004KT 9999 FEW025 SCT100 26/22 Q1013=
2025-01-19 00:00:00<>METAR SBSV 190000Z VRB03KT 9999 FEW017 25/22 Q1014=
2025-01-19 01:00:00<>METAR SBSV 190100Z 14004KT 100V170 9999 FEW016 26/23 Q1014=
2025-01-19 02:00:00<>METAR SBSV 190200Z 14003KT 9999 FEW019 26/22 Q1014=
2025-01-19 03:00:00<>METAR SBSV 190300Z 16004KT 130V200 9999 FEW019 26/22 Q1013=
2025-01-19 04:00:00<>METAR SBSV 190400Z 08004KT 040V160 9999 FEW021 25/22 Q1013=
2025-01-19 05:00:00<>METAR SBSV 190500Z 00000KT 9999 FEW020 24/22 Q1012=
2025-01-19 06:00:00<>METAR SBSV 190600Z 12004KT 9999 SCT016 25/22 Q1012=
2025-01-19 07:00:00<>METAR SBSV 190700Z 15003KT 9999 FEW016 SCT100 25/22 Q1012=
2025-01-19 08:00:00<>METAR SBSV 190800Z 15003KT 130V190 9999 VCSH FEW017 BKN100 25/22 Q1012=
2025-01-19 09:00:00<>METAR SBSV 190900Z VRB02KT 9999 VCSH FEW017 FEW025TCU BKN100 24/22 Q1013=
2025-01-19 10:00:00<>METAR SBSV 191000Z VRB02KT 9999 VCSH FEW017 FEW025TCU BKN080 26/22 Q1014=
2025-01-19 11:00:00<>METAR SBSV 191100Z 10004KT 9999 SCT025 BKN080 26/22 Q1014=
2025-01-19 12:00:00<>METAR SBSV 191200Z 09005KT 050V120 9999 SCT025 BKN080 27/22 Q1014=
2025-01-19 13:00:00<>METAR SBSV 191300Z 11006KT 9999 VCSH SCT025 BKN080 28/22 Q1014=
2025-01-19 14:00:00<>METAR SBSV 191400Z 36004KT 300V080 9999 VCSH SCT023 SCT050 27/23 Q1014=
2025-01-19 15:00:00<>METAR SBSV 191500Z 08008KT 050V110 9999 FEW023 BKN080 28/22 Q1013=
2025-01-19 16:00:00<>METAR SBSV 191600Z 10009KT 060V130 9999 FEW023 BKN080 29/22 Q1012=
2025-01-19 17:00:00<>METAR SBSV 191700Z 10010KT 9999 VCSH FEW023 SCT090 29/23 Q1012=
2025-01-19 18:00:00<>METAR SBSV 191800Z 11011KT 9999 SCT020 FEW025TCU SCT080 28/22 Q1011=
2025-01-19 19:00:00<>METAR SBSV 191900Z 09010KT 9999 FEW020 SCT080 29/23 Q1011=
2025-01-19 20:00:00<>METAR SBSV 192000Z 09012KT 9999 FEW023 28/23 Q1011=
2025-01-19 21:00:00<>METAR SBSV 192100Z 08011KT 9999 SCT015 SCT023 27/23 Q1011=
2025-01-19 21:56:00<>METAR SBSV 192156 07008KT CAVOK 27/23 Q1011=
2025-01-19 22:00:00<>METAR SBSV 192200Z 07008KT CAVOK 27/23 Q1011=
2025-01-19 23:00:00<>METAR SBSV 192300Z 07009KT CAVOK 27/23 Q1012=
2025-01-20 00:00:00<>METAR SBSV 200000Z 06009KT CAVOK 27/23 Q1012=
2025-01-20 01:00:00<>METAR SBSV 200100Z 05008KT 9999 FEW016 27/23 Q1013=
2025-01-20 02:00:00<>METAR SBSV 200200Z 06010KT 9999 FEW016 26/23 Q1013=
2025-01-20 03:00:00<>METAR SBSV 200300Z 06007KT 9999 SCT017 26/23 Q1013=
2025-01-20 04:00:00<>METAR SBSV 200400Z 05006KT 360V070 9999 FEW017 26/23 Q1012=
2025-01-20 05:00:00<>METAR SBSV 200500Z 35003KT 300V010 9999 FEW018 25/23 Q1012=
2025-01-20 06:00:00<>METAR SBSV 200600Z 34003KT 9999 FEW020 25/23 Q1012=
2025-01-20 07:00:00<>METAR SBSV 200700Z VRB02KT 9999 FEW016 25/23 Q1012=
2025-01-20 08:00:00<>METAR SBSV 200800Z 35003KT 320V080 9999 FEW018 24/23 Q1012=
2025-01-20 09:00:00<>METAR SBSV 200900Z VRB02KT CAVOK 25/23 Q1013=
2025-01-20 10:00:00<>METAR SBSV 201000Z 36006KT 330V030 9999 FEW017 26/23 Q1014=
2025-01-20 11:00:00<>METAR SBSV 201100Z 01007KT 340V050 9999 SCT017 28/24 Q1014=
2025-01-20 12:00:00<>METAR SBSV 201200Z 04006KT 340V080 9999 SCT020 30/23 Q1014=
2025-01-20 13:00:00<>METAR SBSV 201300Z 09011KT 9999 FEW016 SCT023 30/24 Q1014=
2025-01-20 14:00:00<>METAR SBSV 201400Z 08014KT 9999 FEW016 SCT023 30/24 Q1014=
2025-01-20 15:00:00<>METAR SBSV 201500Z 08015KT 9999 FEW016 SCT022 30/23 Q1013=
2025-01-20 16:00:00<>METAR SBSV 201600Z 08016KT 9999 VCSH SCT021 FEW025TCU 30/24 Q1013=
2025-01-20 17:00:00<>METAR SBSV 201700Z 08014KT 9999 SCT021 30/24 Q1012=
2025-01-20 18:00:00<>METAR SBSV 201800Z 08014KT 9999 SCT023 29/24 Q1011=
2025-01-20 19:00:00<>METAR SBSV 201900Z 08015KT 9999 SCT023 29/23 Q1011=
2025-01-20 20:00:00<>METAR SBSV 202000Z 08014KT 9999 FEW023 28/24 Q1011=
2025-01-20 21:00:00<>METAR SBSV 202100Z 07012KT 9999 FEW023 27/24 Q1011=
2025-01-20 22:00:00<>METAR SBSV 202200Z 07010KT 9999 FEW023 27/24 Q1011=
2025-01-20 23:00:00<>METAR SBSV 202300Z 06009KT CAVOK 27/24 Q1012=
2025-01-21 00:00:00<>METAR SBSV 210000Z 06009KT CAVOK 27/24 Q1012=
2025-01-21 01:00:00<>METAR SBSV 210100Z 06009KT CAVOK 27/23 Q1013=
2025-01-21 02:00:00<>METAR SBSV 210200Z 05009KT CAVOK 26/23 Q1013=
2025-01-21 03:00:00<>METAR SBSV 210300Z 04008KT 9999 SCT015 26/23 Q1012=
2025-01-21 04:00:00<>METAR SBSV 210400Z 03005KT 9999 SCT015 26/23 Q1012=
2025-01-21 05:00:00<>METAR SBSV 210500Z 01004KT 340V050 9999 FEW015 25/23 Q1012=
2025-01-21 06:00:00<>METAR SBSV 210600Z VRB02KT 9999 FEW015 25/23 Q1012=
2025-01-21 07:00:00<>METAR SBSV 210700Z 01002KT 9999 FEW017 25/23 Q1012=
2025-01-21 08:00:00<>METAR SBSV 210800Z VRB02KT CAVOK 24/23 Q1012=
2025-01-21 09:00:00<>METAR SBSV 210900Z VRB02KT 9999 SCT020 25/23 Q1013=
2025-01-21 10:00:00<>METAR SBSV 211000Z 35004KT 310V040 9999 FEW020 27/23 Q1014=
2025-01-21 11:00:00<>METAR SBSV 211100Z 02007KT 350V060 9999 SCT015 28/23 Q1014=
2025-01-21 12:00:00<>METAR SBSV 211200Z 07008KT 040V100 9999 SCT023 30/24 Q1015=
2025-01-21 13:00:00<>METAR SBSV 211300Z 08013KT 9999 SCT023 30/24 Q1015=
2025-01-21 14:00:00<>METAR SBSV 211400Z 08013KT 9999 SCT025 30/24 Q1014=
2025-01-21 15:00:00<>METAR SBSV 211500Z 08014KT 9999 SCT025 30/25 Q1014=
2025-01-21 16:00:00<>METAR SBSV 211600Z 09013KT 9999 SCT023 FEW025TCU 30/25 Q1013=
2025-01-21 17:00:00<>METAR SBSV 211700Z 09012KT 9999 FEW023 FEW025TCU 30/25 Q1012=
2025-01-21 18:00:00<>METAR SBSV 211800Z 09011KT 9999 FEW023 30/25 Q1012=
2025-01-21 19:00:00<>METAR SBSV 211900Z 09011KT 9999 FEW023 30/25 Q1012=
2025-01-21 20:00:00<>METAR SBSV 212000Z 08013KT 9999 FEW020 29/25 Q1012=
2025-01-21 21:00:00<>METAR SBSV 212100Z 08011KT 9999 FEW015 28/25 Q1012=
2025-01-21 22:00:00<>METAR SBSV 212200Z 08011KT 9999 FEW015 27/25 Q1012=
2025-01-21 23:00:00<>METAR SBSV 212300Z 08011KT 9999 FEW015 27/24 Q1012=
2025-01-22 00:00:00<>METAR SBSV 220000Z 06008KT 9999 FEW015 27/25 Q1013=
2025-01-22 01:00:00<>METAR SBSV 220100Z 06009KT 9999 SCT013 27/24 Q1013=
2025-01-22 02:00:00<>METAR SBSV 220200Z 06010KT 9999 SCT013 27/25 Q1014=
2025-01-22 03:00:00<>METAR SBSV 220300Z 06008KT 9999 FEW015 27/25 Q1013=
2025-01-22 04:00:00<>METAR SBSV 220400Z 05008KT 9999 FEW012 SCT016 27/24 Q1013=
2025-01-22 05:00:00<>METAR SBSV 220500Z 04007KT 9999 FEW012 26/24 Q1012=
2025-01-22 06:00:00<>METAR SBSV 220600Z 36004KT 9999 FEW015 26/24 Q1012=
2025-01-22 07:00:00<>METAR SBSV 220700Z 02005KT 360V060 9999 FEW012 25/24 Q1012=
2025-01-22 08:00:00<>METAR SBSV 220800Z 01004KT 330V090 9999 FEW017 25/24 Q1013=
2025-01-22 09:00:00<>METAR SBSV 220900Z VRB01KT 9999 FEW016 25/24 Q1013=
2025-01-22 10:00:00<>METAR SBSV 221000Z 01003KT 330V060 9999 BKN017 27/24 Q1014=
2025-01-22 11:00:00<>METAR SBSV 221100Z 01007KT 9999 SCT013 BKN017 28/24 Q1014=
2025-01-22 12:00:00<>METAR SBSV 221200Z 08012KT 9999 BKN023 30/24 Q1015=
2025-01-22 13:00:00<>METAR SBSV 221300Z 08013KT 9999 SCT023 FEW025TCU 30/25 Q1015=
2025-01-22 14:00:00<>METAR SBSV 221400Z 09011KT 9999 SCT023 FEW025TCU 30/25 Q1015=
2025-01-22 15:00:00<>METAR SBSV 221500Z 08014KT 9999 SCT021 30/25 Q1014=
2025-01-22 16:00:00<>METAR SBSV 221600Z 07014KT 9999 SCT022 30/25 Q1013=
2025-01-22 17:00:00<>METAR SBSV 221700Z 07014KT 9999 FEW022 30/25 Q1013=
2025-01-22 18:00:00<>METAR SBSV 221800Z 08013KT 9999 FEW018 30/25 Q1012=
2025-01-22 19:00:00<>METAR SBSV 221900Z 08012KT 9999 FEW018 30/25 Q1012=
2025-01-22 20:00:00<>METAR SBSV 222000Z 08013KT 9999 FEW017 29/24 Q1012=
2025-01-22 21:00:00<>METAR SBSV 222100Z 08012KT 9999 FEW017 28/24 Q1012=
2025-01-22 22:00:00<>METAR SBSV 222200Z 08012KT 9999 FEW016 27/24 Q1012=
2025-01-22 23:00:00<>METAR SBSV 222300Z 07013KT 9999 FEW017 27/24 Q1013=
2025-01-23 00:00:00<>METAR SBSV 230000Z 07012KT CAVOK 27/24 Q1013=
2025-01-23 01:00:00<>METAR SBSV 230100Z 06010KT 9999 SCT017 27/24 Q1013=
2025-01-23 02:00:00<>METAR SBSV 230200Z 06009KT 9999 FEW019 27/23 Q1014=
2025-01-23 03:00:00<>METAR SBSV 230300Z 06007KT 9999 FEW018 26/23 Q1014=
2025-01-23 04:00:00<>METAR SBSV 230400Z 07007KT 9999 FEW018 26/23 Q1013=
2025-01-23 05:00:00<>METAR SBSV 230500Z 08004KT 9999 SCT018 26/23 Q1013=
2025-01-23 06:00:00<>METAR SBSV 230600Z 07004KT 9999 SCT018 26/23 Q1013=
2025-01-23 07:00:00<>METAR SBSV 230700Z 06004KT 9999 FEW018 26/23 Q1013=
2025-01-23 08:00:00<>METAR SBSV 230800Z VRB02KT 9999 SCT019 BKN060 25/23 Q1013=
2025-01-23 09:00:00<>METAR SBSV 230900Z VRB02KT 9999 SCT019 25/23 Q1013=
2025-01-23 10:00:00<>METAR SBSV 231000Z 01003KT 340V050 9999 SCT020 27/23 Q1014=
2025-01-23 11:00:00<>METAR SBSV 231100Z 07009KT 020V100 9999 SCT020 29/22 Q1014=
2025-01-23 12:00:00<>METAR SBSV 231200Z 08010KT 9999 SCT023 29/23 Q1015=
2025-01-23 13:00:00<>METAR SBSV 231300Z 08013KT 9999 SCT023 30/23 Q1015=
2025-01-23 14:00:00<>METAR SBSV 231400Z 09013KT 060V140 9999 SCT023 30/23 Q1014=
2025-01-23 15:00:00<>METAR SBSV 231500Z 09014KT 9999 SCT025 30/23 Q1014=
2025-01-23 16:00:00<>METAR SBSV 231600Z 09013KT 9999 FEW025 30/23 Q1013=
2025-01-23 17:00:00<>METAR SBSV 231700Z 10012KT 9999 FEW025 30/23 Q1013=
2025-01-23 18:00:00<>METAR SBSV 231800Z 10010KT 070V130 9999 FEW025 30/23 Q1012=
2025-01-23 19:00:00<>METAR SBSV 231900Z 10010KT 080V160 CAVOK 29/23 Q1012=
2025-01-23 20:00:00<>METAR SBSV 232000Z 10011KT CAVOK 29/23 Q1012=
2025-01-23 21:00:00<>METAR SBSV 232100Z 11009KT CAVOK 28/21 Q1013=
2025-01-23 22:00:00<>METAR SBSV 232200Z 10007KT CAVOK 28/22 Q1013=
2025-01-23 23:00:00<>METAR SBSV 232300Z 10008KT CAVOK 27/22 Q1013=
2025-01-24 00:00:00<>METAR SBSV 240000Z 10008KT CAVOK 27/22 Q1014=
2025-01-24 01:00:00<>METAR SBSV 240100Z 11008KT 9999 FEW020 27/22 Q1014=
2025-01-24 02:00:00<>METAR SBSV 240200Z 10010KT 9999 FEW025 27/22 Q1013=
2025-01-24 03:00:00<>METAR SBSV 240300Z 09007KT 9999 FEW025 27/22 Q1013=
2025-01-24 04:00:00<>METAR SBSV 240400Z 09008KT 9999 SCT025 27/22 Q1013=
2025-01-24 05:00:00<>METAR SBSV 240500Z 09007KT 9999 FEW020 27/22 Q1012=
2025-01-24 06:00:00<>METAR SBSV 240600Z 10007KT 9999 SCT020 27/23 Q1012=
2025-01-24 07:00:00<>METAR SBSV 240700Z 10006KT 9999 SCT020 SCT070 27/23 Q1012=
2025-01-24 08:00:00<>METAR SBSV 240800Z 09007KT 9999 SCT020 SCT070 26/23 Q1012=
2025-01-24 09:00:00<>METAR SBSV 240900Z 08005KT 9999 VCSH SCT020 FEW025TCU SCT070 26/22 Q1013=
2025-01-24 10:00:00<>METAR SBSV 241000Z VRB02KT 9999 VCSH SCT020 FEW025TCU SCT070 27/21 Q1014=
2025-01-24 11:00:00<>METAR SBSV 241100Z 10007KT 9999 SCT020 FEW025TCU SCT070 29/23 Q1014=
2025-01-24 12:00:00<>METAR SBSV 241200Z 07008KT 040V100 9999 SCT020 FEW025TCU SCT090 29/23 Q1014=
2025-01-24 13:00:00<>METAR SBSV 241300Z 11011KT 7000 3000E TSRA BKN021 FEW025CB SCT090 26/23 Q1015=
2025-01-24 13:20:00<>SPECI SBSV 241320Z 04003KT 350V090 9999 TS VCSH SCT021 FEW025CB SCT090 27/24 Q1014 RERA=
2025-01-24 14:00:00<>METAR SBSV 241400Z 03006KT 010V070 9999 SCT021 FEW025TCU SCT050 27/23 Q1014 RETS=
2025-01-24 15:00:00<>METAR SBSV 241500Z 07003KT 020V190 9999 VCSH SCT030 FEW035TCU SCT050 28/24 Q1013=
2025-01-24 16:00:00<>METAR SBSV 241600Z 11009KT 9999 VCSH SCT035 FEW040TCU SCT080 29/23 Q1013=
2025-01-24 17:00:00<>METAR SBSV 241700Z 11008KT 080V140 9999 SCT035 FEW040TCU SCT080 29/23 Q1012=
2025-01-24 18:00:00<>METAR SBSV 241800Z 11010KT 030V150 9999 SCT035 SCT080 30/23 Q1012=
2025-01-24 19:00:00<>METAR SBSV 241900Z 10011KT 9999 SCT025 29/22 Q1011=
2025-01-24 20:00:00<>METAR SBSV 242000Z 10009KT 070V140 9999 SCT025 29/22 Q1012=
2025-01-24 21:00:00<>METAR SBSV 242100Z 09009KT 060V170 9999 SCT025 28/22 Q1012=
2025-01-24 22:00:00<>METAR SBSV 242200Z 10009KT 9999 SCT023 28/23 Q1013=
2025-01-24 23:00:00<>METAR SBSV 242300Z 09009KT 9999 SCT023 27/22 Q1013=
2025-01-25 00:00:00<>METAR SBSV 250000Z 10009KT 9999 SCT023 SCT080 28/22 Q1014=
2025-01-25 01:00:00<>METAR SBSV 250100Z 10009KT 9999 SCT023 28/22 Q1014=
2025-01-25 02:00:00<>METAR SBSV 250200Z 09009KT 9999 SCT024 27/22 Q1014=
2025-01-25 03:00:00<>METAR SBSV 250300Z 09010KT 9999 FEW023 27/22 Q1013=
2025-01-25 04:00:00<>METAR SBSV 250400Z 09009KT 9999 FEW024 27/21 Q1013=
2025-01-25 05:00:00<>METAR SBSV 250500Z 08009KT 9999 FEW024 26/21 Q1012=
2025-01-25 06:00:00<>METAR SBSV 250600Z 08006KT 9999 SCT024 26/22 Q1012=
2025-01-25 07:00:00<>METAR SBSV 250700Z 08006KT 9999 SCT024 SCT060 26/22 Q1012=
2025-01-25 08:00:00<>METAR SBSV 250800Z 07007KT 060V130 9999 FEW024 BKN070 26/22 Q1013=
2025-01-25 09:00:00<>METAR SBSV 250900Z 33003KT 300V020 9999 SCT023 BKN070 25/22 Q1014=
2025-01-25 10:00:00<>METAR SBSV 251000Z VRB02KT 9999 SCT023 BKN070 27/23 Q1014=
2025-01-25 11:00:00<>METAR SBSV 251100Z 06003KT 350V140 9999 SCT023 SCT070 28/22 Q1015=
2025-01-25 12:00:00<>METAR SBSV 251200Z 10007KT 9999 SCT023 FEW025TCU BKN070 29/22 Q1015=
2025-01-25 13:00:00<>METAR SBSV 251300Z 09008KT 030V120 9999 SCT023 FEW025TCU SCT070 30/23 Q1015=
2025-01-25 14:00:00<>METAR SBSV 251400Z 11009KT 090V170 9999 SCT023 FEW025TCU SCT070 30/22 Q1015=
2025-01-25 15:00:00<>METAR SBSV 251500Z 12012KT 090V150 9999 SCT023 SCT070 29/23 Q1014=
2025-01-25 16:00:00<>METAR SBSV 251600Z 12010KT 090V150 9999 SCT023 SCT070 29/23 Q1014=
2025-01-25 17:00:00<>METAR SBSV 251700Z 12010KT 9999 SCT023 SCT070 29/22 Q1013=
2025-01-25 18:00:00<>METAR SBSV 251800Z 13010KT 100V180 9999 FEW025 SCT070 30/22 Q1013=
2025-01-25 19:00:00<>METAR SBSV 251900Z 13010KT 090V150 9999 FEW025 SCT070 29/22 Q1012=
2025-01-25 20:00:00<>METAR SBSV 252000Z 11009KT 9999 FEW025 SCT080 28/22 Q1013=
2025-01-25 21:00:00<>METAR SBSV 252100Z 11009KT 9999 FEW030 SCT080 28/22 Q1013=
2025-01-25 22:00:00<>METAR SBSV 252200Z 11009KT 9999 FEW030 SCT080 28/22 Q1013=
2025-01-25 23:00:00<>METAR SBSV 252300Z 10010KT 9999 FEW030 SCT080 28/22 Q1014=
2025-01-26 00:00:00<>METAR SBSV 260000Z 11011KT 9999 FEW021 SCT080 28/23 Q1014=
2025-01-26 01:00:00<>METAR SBSV 260100Z 11009KT 080V140 9999 FEW021 SCT080 28/23 Q1014=
2025-01-26 02:00:00<>METAR SBSV 260200Z 10008KT 9999 FEW021 SCT080 27/23 Q1014=
2025-01-26 03:00:00<>METAR SBSV 260300Z 10009KT CAVOK 27/23 Q1013=
2025-01-26 04:00:00<>METAR SBSV 260400Z 10008KT CAVOK 27/22 Q1013=
2025-01-26 05:00:00<>METAR SBSV 260500Z 09008KT CAVOK 27/22 Q1012=
2025-01-26 06:00:00<>METAR SBSV 260600Z 09008KT CAVOK 27/22 Q1013=
2025-01-26 07:00:00<>METAR SBSV 260700Z 06008KT 020V080 9999 SHRA BKN020 FEW025TCU 24/23 Q1013=
2025-01-26 07:15:00<>SPECI SBSV 260715Z 00000KT 9999 SCT020 FEW025TCU 24/23 Q1013 RESHRA=
2025-01-26 08:00:00<>METAR COR SBSV 260800Z VRB01KT 9999 SCT023 24/23 Q1013 RESHRA=
2025-01-26 09:00:00<>METAR SBSV 260900Z 00000KT 9999 SCT023 24/23 Q1014=
2025-01-26 10:00:00<>METAR SBSV 261000Z 28002KT 9999 SCT023 25/24 Q1014=
2025-01-26 11:00:00<>METAR SBSV 261100Z 09006KT 9999 SCT023 28/23 Q1015=
2025-01-26 12:00:00<>METAR SBSV 261200Z 11008KT 9999 SCT023 30/23 Q1015=
2025-01-26 13:00:00<>METAR SBSV 261300Z 13010KT 100V170 9999 SCT023 SCT080 28/23 Q1015=
2025-01-26 14:00:00<>METAR SBSV 261400Z 12010KT 080V150 9999 SCT020 SCT080 29/23 Q1015=
2025-01-26 15:00:00<>METAR SBSV 261500Z 12011KT 090V150 9999 FEW023 SCT080 29/23 Q1015=
2025-01-26 16:00:00<>METAR SBSV 261600Z 11009KT 9999 FEW023 SCT080 29/22 Q1014=
2025-01-26 17:00:00<>METAR SBSV 261700Z 12009KT 090V150 9999 SCT023 29/23 Q1013=
2025-01-26 18:00:00<>METAR SBSV 261800Z 12009KT 070V190 9999 SCT024 30/23 Q1013=
2025-01-26 19:00:00<>METAR SBSV 261900Z 11009KT 080V150 9999 SCT022 29/23 Q1012=
2025-01-26 20:00:00<>METAR SBSV 262000Z 10009KT 070V140 9999 FEW020 29/23 Q1012=
2025-01-26 21:00:00<>METAR SBSV 262100Z 10010KT 9999 FEW021 28/23 Q1012=
2025-01-26 22:00:00<>METAR SBSV 262200Z 10009KT 9999 FEW023 28/22 Q1012=
2025-01-26 23:00:00<>METAR SBSV 262300Z 09010KT 9999 FEW023 27/22 Q1013=
2025-01-27 00:00:00<>METAR SBSV 270000Z 08010KT 9999 SCT023 27/22 Q1013=
2025-01-27 01:00:00<>METAR SBSV 270100Z 08009KT 9999 SCT023 27/22 Q1014=
2025-01-27 02:00:00<>METAR SBSV 270200Z 07010KT 9999 SCT023 27/22 Q1014=
2025-01-27 03:00:00<>METAR SBSV 270300Z 06009KT 9999 SCT023 27/22 Q1013=
2025-01-27 04:00:00<>METAR SBSV 270400Z 07007KT 9999 SCT023 27/22 Q1013=
2025-01-27 05:00:00<>METAR SBSV 270500Z 06005KT 9999 FEW020 26/22 Q1012=
2025-01-27 06:00:00<>METAR SBSV 270600Z 34002KT 9999 FEW020 25/22 Q1012=
2025-01-27 07:00:00<>METAR SBSV 270700Z 29002KT 9999 FEW020 24/22 Q1012=
2025-01-27 08:00:00<>METAR SBSV 270800Z 30002KT 9999 SCT020 24/22 Q1012=
2025-01-27 09:00:00<>METAR SBSV 270900Z VRB02KT 9999 SCT020 24/22 Q1013=
2025-01-27 10:00:00<>METAR SBSV 271000Z VRB02KT 9999 SCT020 27/23 Q1013=
2025-01-27 11:00:00<>METAR SBSV 271100Z 04004KT 010V140 9999 SCT022 28/23 Q1014=
2025-01-27 12:00:00<>METAR SBSV 271200Z 09006KT 050V130 9999 BKN023 29/23 Q1014=
2025-01-27 13:00:00<>METAR SBSV 271300Z 07006KT 360V110 9999 BKN023 30/23 Q1013=
2025-01-27 14:00:00<>METAR SBSV 271400Z 11011KT 9999 BKN025 30/23 Q1013=
2025-01-27 15:00:00<>METAR SBSV 271500Z 13010KT 100V180 9999 BKN023 30/24 Q1013=
2025-01-27 16:00:00<>METAR SBSV 271600Z 14010KT 090V200 9999 VCSH SCT020 FEW025TCU BKN070 30/24 Q1013=
2025-01-27 17:00:00<>METAR SBSV 271700Z 12008KT 080V160 9999 SCT023 SCT070 30/24 Q1012=
2025-01-27 18:00:00<>METAR SBSV 271800Z 12010KT 090V170 9999 SCT023 SCT070 30/24 Q1012=
2025-01-27 19:00:00<>METAR SBSV 271900Z 11011KT 9999 SCT023 SCT070 29/24 Q1011=
2025-01-27 20:00:00<>METAR SBSV 272000Z 09012KT 9999 SCT023 SCT070 29/23 Q1011=
2025-01-27 21:00:00<>METAR SBSV 272100Z 08012KT 9999 SCT023 SCT070 28/23 Q1011=
2025-01-27 22:00:00<>METAR SBSV 272200Z 08011KT 9999 FEW021 28/23 Q1011=
2025-01-27 23:00:00<>METAR SBSV 272300Z 07012KT 9999 FEW021 28/23 Q1012=
2025-01-28 00:00:00<>METAR SBSV 280000Z 06011KT 9999 SCT021 28/23 Q1013=
2025-01-28 01:00:00<>METAR SBSV 280100Z 07011KT 9999 SCT023 28/23 Q1013=
2025-01-28 02:00:00<>METAR SBSV 280200Z 07010KT 9999 SCT020 27/23 Q1014=
2025-01-28 03:00:00<>METAR SBSV 280300Z 06010KT 9999 SCT019 27/23 Q1013=
2025-01-28 04:00:00<>METAR SBSV 280400Z 05008KT 9999 SCT017 27/23 Q1012=
2025-01-28 05:00:00<>METAR SBSV 280500Z 04009KT 350V070 9999 FEW020 27/23 Q1012=
2025-01-28 06:00:00<>METAR SBSV 280600Z 36005KT 340V050 9999 SCT019 26/23 Q1012=
2025-01-28 07:00:00<>METAR SBSV 280700Z 01003KT 9999 SCT019 BKN050 26/23 Q1012=
2025-01-28 08:00:00<>METAR SBSV 280800Z 16003KT 6000 -SHRA BKN020 FEW025TCU BKN035 26/23 Q1012=
2025-01-28 09:00:00<>METAR SBSV 280900Z 36003KT 9000 VCSH SCT020 FEW025TCU SCT045 25/23 Q1013=
2025-01-28 10:00:00<>METAR SBSV 281000Z 01004KT 330V060 9999 SCT020 FEW025TCU 27/23 Q1013=
2025-01-28 11:00:00<>METAR SBSV 281100Z 02007KT 340V050 9999 BKN020 28/23 Q1014=
2025-01-28 12:00:00<>METAR SBSV 281200Z 01005KT 310V070 9999 BKN020 FEW025TCU 30/23 Q1014=
2025-01-28 13:00:00<>METAR SBSV 281300Z 09011KT 9999 SCT020 SCT070 30/23 Q1014=
2025-01-28 14:00:00<>METAR SBSV 281400Z 09012KT 9999 VCSH BKN022 FEW025TCU 31/23 Q1014=
2025-01-28 15:00:00<>METAR SBSV 281500Z 09013KT 9999 VCSH SCT020 FEW025TCU 31/23 Q1013=
2025-01-28 16:00:00<>METAR SBSV 281600Z 09012KT 9999 VCSH SCT020 FEW025TCU SCT070 31/24 Q1012=
2025-01-28 17:00:00<>METAR SBSV 281700Z 10014KT 9999 VCSH SCT023 FEW025TCU SCT070 30/25 Q1012=
2025-01-28 18:00:00<>METAR SBSV 281800Z 09015KT 9999 SCT015 FEW025TCU SCT050 29/25 Q1011=
2025-01-28 19:00:00<>METAR SBSV 281900Z 09014KT 9999 FEW015 FEW025TCU 29/24 Q1011=
2025-01-28 20:00:00<>METAR SBSV 282000Z 09013KT 9999 FEW016 28/23 Q1010=
2025-01-28 21:00:00<>METAR SBSV 282100Z 08012KT CAVOK 27/23 Q1011=
2025-01-28 22:00:00<>METAR SBSV 282200Z 08012KT CAVOK 27/23 Q1011=
2025-01-28 23:00:00<>METAR SBSV 282300Z 08008KT CAVOK 27/22 Q1012=
2025-01-29 00:00:00<>METAR SBSV 290000Z 08010KT CAVOK 27/23 Q1013=
2025-01-29 01:00:00<>METAR SBSV 290100Z 07011KT CAVOK 27/23 Q1013=
2025-01-29 02:00:00<>METAR SBSV 290200Z 06010KT 9999 FEW020 27/23 Q1013=
2025-01-29 03:00:00<>METAR SBSV 290300Z 06008KT 9999 SCT020 27/23 Q1012=
2025-01-29 04:00:00<>METAR SBSV 290400Z 06008KT 9999 SCT020 27/23 Q1012=
2025-01-29 05:00:00<>METAR SBSV 290500Z 06007KT 9999 SCT020 27/23 Q1012=
2025-01-29 06:00:00<>METAR SBSV 290600Z 05005KT 9999 SCT020 26/22 Q1011=
2025-01-29 07:00:00<>METAR SBSV 290700Z VRB04KT 8000 VCSH SCT023 FEW025TCU 26/23 Q1012=
2025-01-29 08:00:00<>METAR SBSV 290800Z VRB02KT 8000 VCSH BKN023 FEW025TCU 25/23 Q1012=
2025-01-29 09:00:00<>METAR SBSV 290900Z 05006KT 010V070 9999 VCSH SCT016 FEW023TCU 25/23 Q1012=
2025-01-29 10:00:00<>METAR SBSV 291000Z 04004KT 350V070 9000 VCSH SCT016 FEW023TCU 26/22 Q1013=
2025-01-29 11:00:00<>METAR SBSV 291100Z 02007KT 9000 VCSH SCT016 FEW023TCU 25/22 Q1014=
2025-01-29 12:00:00<>METAR SBSV 291200Z 36004KT 9999 VCSH SCT016 FEW023TCU BKN070 27/23 Q1014=
2025-01-29 13:00:00<>METAR SBSV 291300Z 06007KT 010V100 9999 VCSH SCT016 FEW023TCU BKN070 29/23 Q1014=
2025-01-29 14:00:00<>METAR SBSV 291400Z 08010KT 9999 VCSH SCT019 FEW023TCU BKN060 29/23 Q1014=
2025-01-29 15:00:00<>METAR SBSV 291500Z 07012KT 9999 VCSH SCT019 FEW023TCU BKN060 30/23 Q1013=
2025-01-29 16:00:00<>METAR SBSV 291600Z 09012KT 9999 SCT020 FEW023TCU SCT070 30/23 Q1013=
2025-01-29 17:00:00<>METAR SBSV 291700Z 08011KT 9999 SCT020 FEW023TCU 30/24 Q1012=
2025-01-29 18:00:00<>METAR SBSV 291800Z 08011KT 9999 SCT023 FEW025TCU 30/23 Q1011=
2025-01-29 19:00:00<>METAR SBSV 291900Z 08011KT 9999 FEW023 30/23 Q1011=
2025-01-29 20:00:00<>METAR SBSV 292000Z 08011KT 9999 SCT023 29/23 Q1011=
2025-01-29 21:00:00<>METAR SBSV 292100Z 08012KT 9999 SCT021 28/20 Q1011=
2025-01-29 22:00:00<>METAR SBSV 292200Z 09011KT 9999 SCT021 28/23 Q1011=
2025-01-29 23:00:00<>METAR SBSV 292300Z 09010KT 9999 SCT021 28/22 Q1012=
2025-01-30 00:00:00<>METAR SBSV 300000Z 09011KT 9999 SCT021 27/22 Q1013=
2025-01-30 01:00:00<>METAR SBSV 300100Z 09010KT 9999 SCT021 27/22 Q1013=
2025-01-30 02:00:00<>METAR SBSV 300200Z 08010KT 9999 SCT023 27/22 Q1013=
2025-01-30 03:00:00<>METAR SBSV 300300Z 09009KT 9999 SCT023 27/22 Q1013=
2025-01-30 04:00:00<>METAR SBSV 300400Z 05009KT 9999 SCT023 27/22 Q1012=
2025-01-30 05:00:00<>METAR SBSV 300500Z 09009KT 9999 SCT020 27/22 Q1012=
2025-01-30 06:00:00<>METAR SBSV 300600Z 09009KT 9999 FEW020 27/22 Q1011=
2025-01-30 07:00:00<>METAR SBSV 300700Z 09009KT 9999 SCT020 27/22 Q1011=
2025-01-30 08:00:00<>METAR SBSV 300800Z 08009KT 9999 BKN008 27/22 Q1012=
2025-01-30 09:00:00<>METAR SBSV 300900Z 09009KT 9999 SCT020 27/22 Q1012=
2025-01-30 10:00:00<>METAR SBSV 301000Z 08010KT 9999 SCT020 28/22 Q1013=
2025-01-30 11:00:00<>METAR SBSV 301100Z 07011KT 9999 SCT023 29/22 Q1013=
2025-01-30 12:00:00<>METAR SBSV 301200Z 08011KT 9999 SCT023 29/22 Q1014=
2025-01-30 13:00:00<>METAR SBSV 301300Z 08010KT 9999 SCT023 30/23 Q1014=
2025-01-30 14:00:00<>METAR SBSV 301400Z 08011KT 9999 SCT023 30/23 Q1014=
2025-01-30 15:00:00<>METAR SBSV 301500Z 10012KT 060V130 9999 SCT023 30/23 Q1013=
2025-01-30 16:00:00<>METAR SBSV 301600Z 10011KT 040V160 9999 SCT023 30/23 Q1013=
2025-01-30 17:00:00<>METAR SBSV 301700Z 10013KT 9999 SCT023 30/23 Q1012=
2025-01-30 18:00:00<>METAR SBSV 301800Z 11011KT 9999 SCT023 30/23 Q1012=
2025-01-30 19:00:00<>METAR SBSV 301900Z 11010KT 9999 SCT023 30/23 Q1011=
2025-01-30 20:00:00<>METAR SBSV 302000Z 11011KT 9999 SCT023 29/22 Q1011=
2025-01-30 21:00:00<>METAR SBSV 302100Z 10010KT 080V170 9999 FEW023 28/22 Q1011=
2025-01-30 22:00:00<>METAR SBSV 302200Z 10010KT 070V160 9999 FEW023 28/22 Q1012=
2025-01-30 23:00:00<>METAR SBSV 302300Z 10011KT 9999 FEW023 28/22 Q1012=
2025-01-31 00:00:00<>METAR SBSV 310000Z 10010KT 9999 FEW023 27/22 Q1013=
2025-01-31 01:00:00<>METAR SBSV 310100Z 09010KT 9999 FEW023 27/22 Q1013=
2025-01-31 02:00:00<>METAR SBSV 310200Z 09008KT 070V130 9999 FEW022 27/23 Q1013=
2025-01-31 03:00:00<>METAR SBSV 310300Z 09007KT 9999 FEW021 27/22 Q1013=
2025-01-31 04:00:00<>METAR SBSV 310400Z 09006KT 9999 FEW024 27/22 Q1012=
2025-01-31 05:00:00<>METAR SBSV 310500Z 10006KT 9999 FEW021 27/23 Q1012=
2025-01-31 06:00:00<>METAR SBSV 310600Z 09005KT 9999 FEW018 27/23 Q1012=
2025-01-31 07:00:00<>METAR SBSV 310700Z 13003KT 9999 SCT018 SCT023 27/23 Q1012=
2025-01-31 08:00:00<>METAR SBSV 310800Z 26002KT 9999 SCT018 25/23 Q1012=
2025-01-31 09:00:00<>METAR SBSV 310900Z VRB01KT 9999 FEW018 25/24 Q1012=
2025-01-31 10:00:00<>METAR SBSV 311000Z VRB02KT 9999 SCT018 27/24 Q1013=
2025-01-31 11:00:00<>METAR SBSV 311100Z 08004KT 010V140 9999 BKN019 29/23 Q1013=
2025-01-31 12:00:00<>METAR SBSV 311200Z 10006KT 060V140 9999 BKN019 30/23 Q1013=
2025-01-31 13:00:00<>METAR SBSV 311300Z 10009KT 060V140 9999 VCSH BKN020 FEW025TCU 30/24 Q1013=
2025-01-31 14:00:00<>METAR SBSV 311400Z 09009KT 060V130 9999 VCSH BKN023 FEW025TCU 30/23 Q1013=
2025-01-31 15:00:00<>METAR SBSV 311500Z 08011KT 9999 VCSH BKN023 FEW025TCU 30/22 Q1012=
2025-01-31 16:00:00<>METAR SBSV 311600Z 10013KT 9999 VCSH SCT023 FEW025TCU 30/23 Q1012=
2025-01-31 17:00:00<>METAR SBSV 311700Z 10013KT 9999 SCT023 31/24 Q1011=
2025-01-31 18:00:00<>METAR SBSV 311800Z 08014KT 9999 SCT023 30/24 Q1011=
2025-01-31 19:00:00<>METAR SBSV 311900Z 09012KT 9999 SCT023 30/24 Q1010=
2025-01-31 20:00:00<>METAR SBSV 312000Z 08015KT 9999 SCT023 29/22 Q1010=
2025-01-31 21:00:00<>METAR SBSV 312100Z 08013KT 9999 FEW023 28/23 Q1010=
2025-01-31 22:00:00<>METAR SBSV 312200Z 08014KT 9999 FEW023 28/22 Q1010=
2025-01-31 23:00:00<>METAR SBSV 312300Z 08013KT 9999 FEW023 28/22 Q1011=
2025-02-01 00:00:00<>METAR SBSV 010000Z 07011KT 9999 FEW023 27/23 Q1012=
2025-02-01 01:00:00<>METAR SBSV 010100Z 08011KT 9999 FEW020 27/23 Q1012=
2025-02-01 02:00:00<>METAR SBSV 010200Z 07010KT 9999 FEW020 27/22 Q1013=
2025-02-01 03:00:00<>METAR SBSV 010300Z 06009KT 9999 FEW020 27/22 Q1012=
2025-02-01 04:00:00<>METAR SBSV 010400Z 06008KT 9999 FEW020 27/22 Q1012=
2025-02-01 05:00:00<>METAR SBSV 010500Z 06005KT 9999 FEW025 27/22 Q1011=
2025-02-01 06:00:00<>METAR SBSV 010600Z 02003KT 9999 FEW025 26/22 Q1011=
2025-02-01 07:00:00<>METAR SBSV 010700Z 35003KT 9999 FEW025 25/22 Q1011=
2025-02-01 08:00:00<>METAR SBSV 010800Z 27002KT 9999 FEW025 25/22 Q1011=
2025-02-01 09:00:00<>METAR SBSV 010900Z VRB02KT 9999 SCT020 25/22 Q1012=
2025-02-01 10:00:00<>METAR SBSV 011000Z VRB02KT 9999 FEW020 27/22 Q1012=
2025-02-01 11:00:00<>METAR SBSV 011100Z 05003KT 320V120 9999 SCT023 SCT060 29/23 Q1012=
2025-02-01 12:00:00<>METAR SBSV 011200Z 08008KT 040V120 9999 FEW025 30/23 Q1013=
2025-02-01 13:00:00<>METAR SBSV 011300Z 09008KT 060V120 9999 FEW026 30/23 Q1013=
2025-02-01 14:00:00<>METAR SBSV 011400Z 10008KT 050V140 9999 FEW026 30/23 Q1013=
2025-02-01 15:00:00<>METAR SBSV 011500Z 10010KT 060V150 9999 FEW023 31/23 Q1012=
2025-02-01 16:00:00<>METAR SBSV 011600Z 09013KT 9999 FEW023 30/23 Q1012=
2025-02-01 17:00:00<>METAR SBSV 011700Z 08013KT 9999 FEW024 30/23 Q1011=
2025-02-01 18:00:00<>METAR SBSV 011800Z 08014KT 9999 SCT024 31/23 Q1011=
2025-02-01 19:00:00<>METAR SBSV 011900Z 09014KT 9999 SCT023 30/23 Q1010=
2025-02-01 20:00:00<>METAR SBSV 012000Z 08015KT 9999 SCT021 29/23 Q1009=
2025-02-01 21:00:00<>METAR SBSV 012100Z 07014KT 9999 SCT023 28/23 Q1010=
2025-02-01 22:00:00<>METAR SBSV 012200Z 08014KT 9999 SCT023 28/23 Q1010=
2025-02-01 23:00:00<>METAR SBSV 012300Z 07016KT 9999 FEW023 SCT070 28/22 Q1011=
2025-02-02 00:00:00<>METAR SBSV 020000Z 07012KT 9999 FEW023 27/22 Q1011=
2025-02-02 01:00:00<>METAR SBSV 020100Z 08012KT 9999 FEW021 27/23 Q1012=
2025-02-02 02:00:00<>METAR SBSV 020200Z 08011KT 9999 SCT020 27/23 Q1012=
2025-02-02 03:00:00<>METAR SBSV 020300Z 08013KT 9999 FEW022 27/23 Q1011=
2025-02-02 04:00:00<>METAR SBSV 020400Z 08011KT 9999 SCT020 27/23 Q1011=
2025-02-02 05:00:00<>METAR SBSV 020500Z 06010KT 9999 SCT022 27/23 Q1010=
2025-02-02 06:00:00<>METAR SBSV 020600Z 05008KT 9999 SCT022 27/23 Q1010=
2025-02-02 07:00:00<>METAR SBSV 020700Z 06009KT 9999 FEW022 27/23 Q1010=
2025-02-02 08:00:00<>METAR SBSV 020800Z 06007KT 9999 FEW022 27/23 Q1011=
2025-02-02 09:00:00<>METAR SBSV 020900Z 06009KT 9999 SCT022 27/23 Q1011=
2025-02-02 10:00:00<>METAR SBSV 021000Z 07010KT 9999 VCSH SCT022 FEW025TCU 29/23 Q1012=
2025-02-02 11:00:00<>METAR SBSV 021100Z 07011KT 9999 SCT021 29/23 Q1012=
2025-02-02 12:00:00<>METAR SBSV 021200Z 08012KT 9999 VCSH BKN021 FEW025TCU 29/23 Q1013=
2025-02-02 13:00:00<>METAR SBSV 021300Z 08012KT 9999 SCT021 30/24 Q1013=
2025-02-02 14:00:00<>METAR SBSV 021400Z 08014KT 9999 SCT022 30/24 Q1013=
2025-02-02 15:00:00<>METAR SBSV 021500Z 08013KT 9999 SCT023 31/24 Q1012=
2025-02-02 16:00:00<>METAR SBSV 021600Z 09014KT 9999 SCT023 31/25 Q1012=
2025-02-02 17:00:00<>METAR SBSV 021700Z 08014KT 9999 SCT023 31/24 Q1011=
2025-02-02 18:00:00<>METAR SBSV 021800Z 10015KT 9999 SCT023 31/24 Q1010=
2025-02-02 19:00:00<>METAR SBSV 021900Z 09016KT 9999 SCT023 30/24 Q1010=
2025-02-02 20:00:00<>METAR SBSV 022000Z 08014KT 9999 SCT023 29/23 Q1010=
2025-02-02 21:00:00<>METAR SBSV 022100Z 09013KT 9999 SCT023 28/23 Q1010=
2025-02-02 22:00:00<>METAR SBSV 022200Z 09013KT 9999 SCT023 28/23 Q1011=
2025-02-02 23:00:00<>METAR SBSV 022300Z 08011KT 9999 SCT023 28/23 Q1011=
2025-02-03 00:00:00<>METAR SBSV 030000Z 08012KT 9999 SCT023 28/23 Q1012=
2025-02-03 01:00:00<>METAR SBSV 030100Z 08012KT 9999 SCT021 28/23 Q1012=
2025-02-03 02:00:00<>METAR SBSV 030200Z 09011KT 9999 SCT021 28/23 Q1012=
2025-02-03 03:00:00<>METAR SBSV 030300Z 08010KT 9999 SCT019 27/23 Q1012=
2025-02-03 04:00:00<>METAR SBSV 030400Z 09011KT 9999 SCT019 28/23 Q1011=
2025-02-03 05:00:00<>METAR SBSV 030500Z 10010KT 9999 SCT019 26/23 Q1011=
2025-02-03 06:00:00<>METAR SBSV 030600Z 09007KT 9999 FEW019 SCT070 26/24 Q1011=
2025-02-03 07:00:00<>METAR SBSV 030700Z 09007KT 9999 FEW019 SCT070 27/24 Q1011=
2025-02-03 08:00:00<>METAR SBSV 030800Z 09009KT 9999 FEW023 SCT070 27/23 Q1011=
2025-02-03 09:00:00<>METAR SBSV 030900Z 09009KT 9999 BKN021 27/23 Q1012=
2025-02-03 10:00:00<>METAR SBSV 031000Z 10006KT 9999 SCT020 27/23 Q1012=
2025-02-03 11:00:00<>METAR SBSV 031100Z 10010KT 9999 SCT020 29/24 Q1013=
2025-02-03 12:00:00<>METAR SBSV 031200Z 11012KT 9999 SCT020 SCT050 29/24 Q1013=
2025-02-03 13:00:00<>METAR SBSV 031300Z 10012KT 9999 SCT020 30/24 Q1013=
2025-02-03 14:00:00<>METAR SBSV 031400Z 11011KT 9999 SCT020 31/24 Q1013=
2025-02-03 15:00:00<>METAR SBSV 031500Z 12011KT 080V140 9999 SCT020 30/23 Q1013=
2025-02-03 16:00:00<>METAR SBSV 031600Z 11011KT 080V140 9999 SCT020 30/24 Q1012=
2025-02-03 17:00:00<>METAR SBSV 031700Z 11011KT 9999 SCT020 31/24 Q1012=
2025-02-03 18:00:00<>METAR SBSV 031800Z 12010KT 090V150 9999 SCT021 31/24 Q1012=
2025-02-03 19:00:00<>METAR SBSV 031900Z 12010KT 090V160 9999 SCT021 30/24 Q1012=
2025-02-03 20:00:00<>METAR SBSV 032000Z 12010KT 9999 SCT021 30/24 Q1011=
2025-02-03 21:00:00<>METAR SBSV 032100Z 10009KT 080V160 9999 SCT021 29/24 Q1012=
2025-02-03 22:00:00<>METAR SBSV 032200Z 11008KT 070V150 9999 SCT020 FEW025TCU 28/23 Q1012=
2025-02-03 23:00:00<>METAR SBSV 032300Z 12007KT 9999 SCT020 FEW025TCU 28/24 Q1013=
2025-02-04 00:00:00<>METAR SBSV 040000Z 09012KT 9999 SCT020 28/23 Q1013=
2025-02-04 01:00:00<>METAR SBSV 040100Z 09012KT 9999 SCT020 28/23 Q1014=
2025-02-04 02:00:00<>METAR SBSV 040200Z 08013KT 9999 SCT023 28/22 Q1013=
2025-02-04 03:00:00<>METAR SBSV 040300Z 09013KT 9999 SCT023 28/22 Q1013=
2025-02-04 04:00:00<>METAR SBSV 040400Z 08010KT 9999 SCT023 27/22 Q1013=
2025-02-04 05:00:00<>METAR SBSV 040500Z 09009KT 9999 FEW023 27/22 Q1012=
2025-02-04 06:00:00<>METAR COR SBSV 040600Z 09008KT 9999 FEW023 27/22 Q1012=
2025-02-04 07:00:00<>METAR SBSV 040700Z 09010KT 9999 FEW023 27/22 Q1012=
2025-02-04 08:00:00<>METAR SBSV 040800Z 09009KT 9999 SCT023 27/22 Q1012=
2025-02-04 09:00:00<>METAR SBSV 040900Z 09007KT 9999 SCT023 27/22 Q1013=
2025-02-04 10:00:00<>METAR SBSV 041000Z 09009KT 9999 SCT023 28/22 Q1014=
2025-02-04 11:00:00<>METAR SBSV 041100Z 09011KT 9999 SCT023 29/22 Q1014=
2025-02-04 12:00:00<>METAR SBSV 041200Z 09012KT 9999 SCT023 30/22 Q1015=
2025-02-04 13:00:00<>METAR SBSV 041300Z 09012KT 060V120 9999 SCT023 30/22 Q1014=
2025-02-04 14:00:00<>METAR SBSV 041400Z 10011KT 9999 SCT023 30/21 Q1014=
2025-02-04 15:00:00<>METAR SBSV 041500Z 10010KT 060V130 9999 SCT030 31/22 Q1014=
2025-02-04 16:00:00<>METAR SBSV 041600Z 10011KT 070V130 9999 SCT030 30/22 Q1013=
2025-02-04 17:00:00<>METAR SBSV 041700Z 10009KT 9999 SCT030 31/23 Q1013=
2025-02-04 18:00:00<>METAR SBSV 041800Z 10011KT 9999 FEW026 30/23 Q1013=
2025-02-04 19:00:00<>METAR SBSV 041900Z 11010KT 080V140 9999 FEW026 30/22 Q1012=
2025-02-04 20:00:00<>METAR SBSV 042000Z 12009KT 9999 FEW025 30/22 Q1012=
2025-02-04 21:00:00<>METAR SBSV 042100Z 11007KT 080V160 9999 FEW025 29/22 Q1013=
2025-02-04 22:00:00<>METAR SBSV 042200Z 11007KT 9999 FEW025 BKN040 29/22 Q1013=
2025-02-04 23:00:00<>METAR SBSV 042300Z 11007KT 9999 SCT025 27/23 Q1013=
2025-02-05 00:00:00<>METAR SBSV 050000Z 10009KT 9999 SCT025 27/22 Q1014=
2025-02-05 01:00:00<>METAR SBSV 050100Z 10010KT 9999 FEW023 27/22 Q1014=
2025-02-05 02:00:00<>METAR SBSV 050200Z 11007KT 9999 FEW023 28/21 Q1014=
2025-02-05 03:00:00<>METAR SBSV 050300Z 11008KT 9999 SCT023 28/22 Q1013=
2025-02-05 04:00:00<>METAR SBSV 050400Z 11008KT 9999 SCT023 27/22 Q1012=
2025-02-05 05:00:00<>METAR SBSV 050500Z 06007KT 8000 VCSH SCT023 FEW025TCU BKN070 24/21 Q1012=
2025-02-05 06:00:00<>METAR SBSV 050600Z 18003KT 9999 SCT023 FEW025TCU BKN070 25/21 Q1012=
2025-02-05 07:00:00<>METAR SBSV 050700Z 08006KT 9999 FEW025 25/22 Q1012=
2025-02-05 08:00:00<>METAR SBSV 050800Z VRB02KT 9999 FEW025 24/22 Q1012=
2025-02-05 09:00:00<>METAR SBSV 050900Z VRB02KT 9999 FEW025 24/22 Q1013=
2025-02-05 10:00:00<>METAR SBSV 051000Z 08004KT 010V120 9999 FEW023 28/22 Q1014=
2025-02-05 11:00:00<>METAR SBSV 051100Z 13005KT 060V180 9999 FEW023 29/22 Q1014=
2025-02-05 12:00:00<>METAR SBSV 051200Z 12008KT 090V160 9999 FEW023 29/23 Q1015=
2025-02-05 13:00:00<>METAR SBSV 051300Z 11008KT 080V150 9999 SCT023 30/22 Q1014=
2025-02-05 14:00:00<>METAR SBSV 051400Z 11008KT 070V140 9999 SCT023 29/23 Q1014=
2025-02-05 15:00:00<>METAR SBSV 051500Z 12008KT 080V220 9999 SCT025 30/23 Q1014=
2025-02-05 16:00:00<>METAR SBSV 051600Z 14009KT 090V180 9999 SCT025 31/22 Q1013=
2025-02-05 17:00:00<>METAR SBSV 051700Z 13011KT 090V170 9999 SCT025 31/22 Q1013=
2025-02-05 18:00:00<>METAR SBSV 051800Z 13010KT 100V180 9999 SCT025 SCT080 30/22 Q1012=
2025-02-05 19:00:00<>METAR SBSV 051900Z 13011KT 9999 SCT023 FEW025TCU SCT080 31/22 Q1012=
2025-02-05 20:00:00<>METAR SBSV 052000Z 09011KT 9999 FEW023 SCT090 29/22 Q1012=
2025-02-05 21:00:00<>METAR SBSV 052100Z 13008KT 100V180 9999 FEW023 BKN090 28/22 Q1012=
2025-02-05 22:00:00<>METAR SBSV 052200Z 12008KT 090V170 9999 FEW023 28/23 Q1013=
2025-02-05 23:00:00<>METAR SBSV 052300Z 11008KT 9999 FEW023 28/22 Q1013=
2025-02-06 00:00:00<>METAR SBSV 060000Z 11008KT 080V140 9999 FEW025 28/22 Q1013=
2025-02-06 01:00:00<>METAR SBSV 060100Z 11008KT 9999 FEW024 28/22 Q1013=
2025-02-06 02:00:00<>METAR SBSV 060200Z 11009KT 9999 SCT023 28/22 Q1013=
2025-02-06 03:00:00<>METAR SBSV 060300Z 09009KT 9999 FEW024 27/22 Q1012=
2025-02-06 04:00:00<>METAR SBSV 060400Z 08008KT 9999 FEW024 BKN060 27/21 Q1012=
2025-02-06 05:00:00<>METAR SBSV 060500Z 09007KT 9999 FEW025 BKN060 27/22 Q1011=
2025-02-06 06:00:00<>METAR SBSV 060600Z 10006KT 9999 SCT025 BKN060 28/22 Q1011=
2025-02-06 07:00:00<>METAR SBSV 060700Z 10007KT 9999 SCT024 BKN060 28/22 Q1012=
2025-02-06 08:00:00<>METAR SBSV 060800Z VRB03KT 9999 SCT023 BKN080 24/22 Q1012=
2025-02-06 09:00:00<>METAR SBSV 060900Z 02006KT 350V110 4000 SHRA BR BKN023 OVC060 26/23 Q1013=
2025-02-06 09:30:00<>SPECI SBSV 060930Z 09007KT 9999 VCSH FEW016 BKN050 26/22 Q1013 RESHRA=
2025-02-06 10:00:00<>METAR SBSV 061000Z VRB05KT 9999 VCSH SCT023 FEW025TCU OVC060 25/22 Q1014=
2025-02-06 11:00:00<>METAR SBSV 061100Z 30004KT 260V340 9999 SCT023 FEW025TCU OVC060 25/23 Q1014=
2025-02-06 12:00:00<>METAR SBSV 061200Z 28004KT 240V320 9999 BKN023 OVC060 26/23 Q1015=
2025-02-06 13:00:00<>METAR SBSV 061300Z 24003KT 190V280 9999 SCT023 BKN060 27/23 Q1014=
2025-02-06 14:00:00<>METAR SBSV 061400Z 09006KT 050V130 9999 SCT023 BKN060 29/22 Q1014=
2025-02-06 15:00:00<>METAR SBSV 061500Z 10008KT 9999 SCT023 BKN060 29/23 Q1014=
2025-02-06 16:00:00<>METAR SBSV 061600Z 15008KT 9000 VCSH SCT023 FEW025TCU BKN060 27/23 Q1013=
2025-02-06 17:00:00<>METAR SBSV 061700Z 01003KT 280V070 9999 SCT023 BKN060 27/21 Q1012=
2025-02-06 18:00:00<>METAR SBSV 061800Z 13008KT 110V170 9999 SCT021 BKN070 29/23 Q1012=
2025-02-06 19:00:00<>METAR SBSV 061900Z 14008KT 110V200 9999 SCT021 BKN070 28/22 Q1012=
2025-02-06 20:00:00<>METAR SBSV 062000Z 13007KT 100V160 9999 FEW020 BKN070 28/22 Q1012=
2025-02-06 21:00:00<>METAR SBSV 062100Z 12008KT 9999 FEW020 BKN080 28/22 Q1012=
2025-02-06 22:00:00<>METAR SBSV 062200Z 13006KT 100V170 9999 FEW020 BKN080 28/22 Q1013=
2025-02-06 23:00:00<>METAR SBSV 062300Z 12006KT 100V170 9999 SCT023 BKN100 28/22 Q1013=
2025-02-07 00:00:00<>METAR SBSV 070000Z 03007KT 9999 -RA SCT023 BKN100 24/20 Q1014=
2025-02-07 01:00:00<>METAR SBSV 070100Z 10005KT 9999 -RA SCT023 BKN100 24/22 Q1013=
2025-02-07 02:00:00<>METAR SBSV 070200Z 09010KT 070V130 9999 SCT023 BKN100 25/22 Q1013=
2025-02-07 03:00:00<>METAR SBSV 070300Z 14004KT 110V170 9999 FEW020 SCT060 26/22 Q1012=
2025-02-07 04:00:00<>METAR SBSV 070400Z VRB05KT 3000 -SHRA SCT015 FEW025TCU BKN060 24/23 Q1011=
2025-02-07 05:00:00<>METAR SBSV 070500Z 00000KT 9999 SCT015 BKN060 24/23 Q1011=
2025-02-07 06:00:00<>METAR SBSV 070600Z 12002KT 9999 SCT015 BKN060 24/22 Q1010=
2025-02-07 07:00:00<>METAR SBSV 070700Z 00000KT 9999 SCT015 BKN060 24/22 Q1010=
2025-02-07 08:00:00<>METAR SBSV 070800Z 28004KT 9999 FEW015 BKN060 23/22 Q1011=
2025-02-07 09:00:00<>METAR SBSV 070900Z 00000KT 9999 FEW015 23/22 Q1011=
2025-02-07 10:00:00<>METAR SBSV 071000Z VRB01KT 9999 FEW015 26/23 Q1012=
2025-02-07 11:00:00<>METAR SBSV 071100Z 13004KT 090V170 9999 VCSH FEW015 28/23 Q1012=
2025-02-07 12:00:00<>METAR SBSV 071200Z 13009KT 100V160 9999 VCSH SCT020 FEW025TCU 29/24 Q1013=
2025-02-07 13:00:00<>METAR SBSV 071300Z 13014KT 9999 VCSH SCT020 FEW025TCU BKN070 28/23 Q1013=
2025-02-07 14:00:00<>METAR SBSV 071400Z 10013KT 9999 SCT020 FEW025TCU BKN070 28/22 Q1013=
2025-02-07 15:00:00<>METAR SBSV 071500Z 09007KT 050V150 9999 SCT020 BKN070 28/21 Q1013=
2025-02-07 16:00:00<>METAR SBSV 071600Z 09010KT 9999 SCT020 BKN070 29/20 Q1012=
2025-02-07 17:00:00<>METAR SBSV 071700Z 15009KT 120V190 9999 SCT023 FEW025TCU BKN090 30/22 Q1011=
2025-02-07 18:00:00<>METAR SBSV 071800Z 12014KT 100V160 9999 VCSH BKN023 FEW025TCU BKN100 27/22 Q1011=
2025-02-07 19:00:00<>METAR SBSV 071900Z 12007KT 090V180 9999 SCT023 SCT100 28/22 Q1011=
2025-02-07 20:00:00<>METAR SBSV 072000Z 10006KT 060V150 9999 SCT023 SCT100 28/22 Q1011=
2025-02-07 21:00:00<>METAR SBSV 072100Z 10004KT 020V170 9999 FEW023 SCT100 27/21 Q1011=
2025-02-07 22:00:00<>METAR SBSV 072200Z 15004KT 9999 FEW023 BKN100 27/22 Q1012=
2025-02-07 23:00:00<>METAR SBSV 072300Z 14006KT 9999 SCT023 27/22 Q1012=
2025-02-08 00:00:00<>METAR COR SBSV 080000Z 14014G25KT 100V160 7000 SHRA SCT023 25/22 Q1013=
2025-02-08 00:13:00<>SPECI SBSV 080013Z 14006KT 060V180 9000 SCT023 SCT090 25/22 Q1013 RESHRA=
2025-02-08 01:00:00<>METAR SBSV 080100Z 12005KT 9999 FEW023 BKN060 26/22 Q1012 RESHRA=
2025-02-08 02:00:00<>METAR SBSV 080200Z 13007KT 100V160 9999 FEW023 27/23 Q1012=
2025-02-08 03:00:00<>METAR SBSV 080300Z 12005KT 9999 FEW023 SCT070 27/22 Q1012=
2025-02-08 04:00:00<>METAR SBSV 080400Z 11007KT 9999 FEW023 SCT080 27/22 Q1011=
2025-02-08 05:00:00<>METAR SBSV 080500Z 03004KT 9999 FEW024 BKN072 25/20 Q1011=
2025-02-08 06:00:00<>METAR SBSV 080600Z 09007KT 9999 FEW024 SCT080 26/22 Q1010=
2025-02-08 07:00:00<>METAR SBSV 080700Z 09006KT 9999 FEW025 SCT070 26/22 Q1010=
2025-02-08 08:00:00<>METAR SBSV 080800Z VRB02KT 9999 FEW025 25/22 Q1011=
2025-02-08 09:00:00<>METAR SBSV 080900Z 09005KT 9999 FEW025 BKN080 26/22 Q1011=
2025-02-08 10:00:00<>METAR SBSV 081000Z 10007KT 9999 FEW025 SCT070 28/21 Q1012=
2025-02-08 11:00:00<>METAR SBSV 081100Z 10007KT 070V130 9999 SCT023 SCT050 29/23 Q1012=
2025-02-08 12:00:00<>METAR SBSV 081200Z 11008KT 060V150 9999 SCT023 SCT050 29/22 Q1013=
2025-02-08 13:00:00<>METAR SBSV 081300Z 11008KT 9999 SCT023 SCT050 30/22 Q1013=
2025-02-08 14:00:00<>METAR SBSV 081400Z 12008KT 080V170 9999 SCT023 SCT050 29/23 Q1013=
2025-02-08 15:00:00<>METAR SBSV 081500Z 13009KT 090V180 9999 SCT023 SCT100 30/22 Q1012=
2025-02-08 16:00:00<>METAR SBSV 081600Z 08013KT 9999 SCT020 SCT070 29/24 Q1012=
2025-02-08 17:00:00<>METAR SBSV 081700Z 13011KT 090V150 9999 SCT020 SCT070 28/20 Q1011=
2025-02-08 18:00:00<>METAR SBSV 081800Z 12011KT 9999 SCT020 SCT070 30/21 Q1010=
2025-02-08 19:00:00<>METAR SBSV 081900Z 12010KT 9999 SCT020 SCT070 28/22 Q1011=
2025-02-08 20:00:00<>METAR SBSV 082000Z 12010KT 9999 VCSH SCT020 FEW025TCU SCT070 29/21 Q1011=
2025-02-08 21:00:00<>METAR SBSV 082100Z 14013KT 9000 VCSH BKN020 FEW025TCU BKN060 25/21 Q1012=
2025-02-08 22:00:00<>METAR SBSV 082200Z 13007KT 110V170 9999 BKN020 FEW025TCU BKN060 27/20 Q1012=
2025-02-08 23:00:00<>METAR SBSV 082300Z 13006KT 9999 FEW023 SCT070 27/22 Q1013=
2025-02-09 00:00:00<>METAR SBSV 090000Z 13007KT 100V160 9999 FEW023 27/22 Q1013=
2025-02-09 01:00:00<>METAR SBSV 090100Z 13006KT 100V160 9999 SCT023 27/22 Q1013=
2025-02-09 02:00:00<>METAR SBSV 090200Z 09004KT 9999 FEW024 SCT080 25/23 Q1014=
2025-02-09 03:00:00<>METAR SBSV 090300Z 05008KT 010V070 9999 FEW017 BKN100 24/22 Q1013=
2025-02-09 04:00:00<>METAR SBSV 090400Z 15007KT 9999 FEW020 BKN100 25/23 Q1012=
2025-02-09 05:00:00<>METAR SBSV 090500Z 05004KT 9999 SCT020 BKN100 24/22 Q1012=
2025-02-09 06:00:00<>METAR SBSV 090600Z 31002KT 9999 FEW023 24/23 Q1012=
2025-02-09 07:00:00<>METAR SBSV 090700Z VRB01KT 9999 FEW023 24/23 Q1012=
2025-02-09 08:00:00<>METAR SBSV 090800Z 00000KT 9999 FEW020 BKN100 24/23 Q1012=
2025-02-09 09:00:00<>METAR SBSV 090900Z VRB01KT 9999 SCT020 FEW023TCU 24/23 Q1012=
2025-02-09 10:00:00<>METAR SBSV 091000Z VRB01KT 9999 BKN020 FEW023TCU 25/23 Q1013=
2025-02-09 11:00:00<>METAR SBSV 091100Z VRB02KT 9999 BKN020 SCT050 27/24 Q1013=
2025-02-09 12:00:00<>METAR SBSV 091200Z 05007KT 9999 SCT020 SCT050 28/23 Q1014=
2025-02-09 13:00:00<>METAR SBSV 091300Z 08009KT 060V120 9999 SCT020 30/23 Q1014=
2025-02-09 14:00:00<>METAR SBSV 091400Z 08012KT 060V120 9999 SCT020 30/24 Q1014=
2025-02-09 15:00:00<>METAR SBSV 091500Z 09013KT 9999 SCT020 30/24 Q1013=
2025-02-09 16:00:00<>METAR SBSV 091600Z 09013KT 9999 SCT020 31/23 Q1012=
2025-02-09 17:00:00<>METAR SBSV 091700Z 09012KT 9999 SCT020 30/23 Q1012=
2025-02-09 18:00:00<>METAR SBSV 091800Z 10004KT 9999 SCT020 30/23 Q1011=
2025-02-09 19:00:00<>METAR SBSV 091900Z 09012KT 9999 SCT020 30/22 Q1011=
2025-02-09 20:00:00<>METAR SBSV 092000Z 09012KT 9999 SCT020 29/23 Q1012=
2025-02-09 21:00:00<>METAR SBSV 092100Z 09010KT 9999 FEW021 28/23 Q1012=
2025-02-09 22:00:00<>METAR SBSV 092200Z 09010KT 9999 FEW023 28/23 Q1012=
2025-02-09 23:00:00<>METAR SBSV 092300Z 11009KT 9999 FEW023 28/23 Q1013=
2025-02-10 00:00:00<>METAR SBSV 100000Z 09010KT 9999 SCT021 SCT080 28/23 Q1014=
2025-02-10 01:00:00<>METAR SBSV 100100Z 10010KT 9999 SCT022 SCT060 28/23 Q1014=
2025-02-10 02:00:00<>METAR SBSV 100200Z 10011KT 9999 FEW022 28/22 Q1013=
2025-02-10 03:00:00<>METAR SBSV 100300Z 10010KT 9999 FEW023 28/22 Q1013=
2025-02-10 04:00:00<>METAR SBSV 100400Z 08008KT 9999 FEW023 27/23 Q1013=
2025-02-10 05:00:00<>METAR SBSV 100500Z 09007KT 9999 SCT024 SCT050 27/23 Q1012=
2025-02-10 06:00:00<>METAR SBSV 100600Z 11007KT 9999 FEW024 27/23 Q1012=
2025-02-10 07:00:00<>METAR SBSV 100700Z 13009KT 9999 FEW021 SCT030 26/22 Q1012=
2025-02-10 08:00:00<>METAR SBSV 100800Z 11007KT 090V150 9999 FEW018 SCT030 26/22 Q1012=
2025-02-10 09:00:00<>METAR SBSV 100900Z 14004KT 100V190 9999 VCSH SCT021 FEW025TCU BKN080 26/23 Q1012=
2025-02-10 10:00:00<>METAR SBSV 101000Z 10006KT 070V130 9999 SCT021 FEW025TCU BKN050 27/23 Q1013=
2025-02-10 11:00:00<>METAR SBSV 101100Z 10007KT 9999 SCT021 FEW025TCU BKN050 28/22 Q1014=
2025-02-10 12:00:00<>METAR SBSV 101200Z 09010KT 9999 SCT021 BKN050 26/22 Q1014=
2025-02-10 12:10:00<>SPECI SBSV 101210Z 04011KT 9999 SHRA SCT021 BKN050 26/23 Q1014=
2025-02-10 13:00:00<>METAR SBSV 101300Z 09010KT 9999 SCT023 SCT050 29/23 Q1014 RESHRA=
2025-02-10 14:00:00<>METAR SBSV 101400Z 09010KT 9999 SCT023 SCT050 30/24 Q1014=
2025-02-10 15:00:00<>METAR SBSV 101500Z 10010KT 9999 SCT023 SCT050 30/23 Q1013=
2025-02-10 16:00:00<>METAR SBSV 101600Z 14007KT 110V210 9999 SCT025 SCT050 28/22 Q1013=
2025-02-10 17:00:00<>METAR SBSV 101700Z 12008KT 090V160 9999 SCT025 SCT050 30/23 Q1012=
2025-02-10 18:00:00<>METAR SBSV 101800Z 13009KT 090V170 9999 SCT023 FEW025TCU SCT050 30/23 Q1012=
2025-02-10 19:00:00<>METAR SBSV 101900Z 13009KT 9999 VCSH SCT023 FEW025TCU SCT060 29/22 Q1011=
2025-02-10 20:00:00<>METAR SBSV 102000Z 17005KT 140V210 9999 VCSH SCT023 FEW025TCU SCT060 28/21 Q1012=
2025-02-10 21:00:00<>METAR SBSV 102100Z 13008KT 9999 SCT023 SCT060 28/22 Q1012=
2025-02-10 22:00:00<>METAR SBSV 102200Z 13008KT 110V180 9999 SCT025 SCT060 28/22 Q1012=
2025-02-10 23:00:00<>METAR SBSV 102300Z 13007KT 9999 SCT025 28/22 Q1013=
2025-02-11 00:00:00<>METAR SBSV 110000Z 12008KT 9999 SCT025 28/21 Q1013=
2025-02-11 01:00:00<>METAR SBSV 110100Z 13007KT 110V170 9999 SCT025 28/21 Q1014=
2025-02-11 02:00:00<>METAR SBSV 110200Z 12006KT 090V150 9999 SCT025 27/21 Q1013=
2025-02-11 03:00:00<>METAR SBSV 110300Z 13006KT 9999 SCT025 27/22 Q1013=
2025-02-11 04:00:00<>METAR SBSV 110400Z 13005KT 9999 SCT023 27/22 Q1012=
2025-02-11 05:00:00<>METAR SBSV 110500Z 13008KT 9999 SCT023 27/22 Q1011=
2025-02-11 06:00:00<>METAR SBSV 110600Z 09003KT 050V110 9999 FEW023 BKN060 26/22 Q1011=
2025-02-11 07:00:00<>METAR SBSV 110700Z 10002KT 9999 FEW023 BKN060 25/23 Q1011=
2025-02-11 08:00:00<>METAR SBSV 110800Z 12005KT 9999 FEW023 BKN060 27/22 Q1011=
2025-02-11 09:00:00<>METAR SBSV 110900Z 13003KT 100V210 9999 SCT023 27/22 Q1012=
2025-02-11 10:00:00<>METAR SBSV 111000Z 13005KT 9999 SCT026 28/22 Q1012=
2025-02-11 11:00:00<>METAR SBSV 111100Z 17006KT 9999 -SHRA SCT023 FEW026TCU BKN040 28/22 Q1013=
2025-02-11 12:00:00<>METAR SBSV 111200Z 12008KT 090V160 9999 SCT023 30/22 Q1013=
2025-02-11 13:00:00<>METAR SBSV 111300Z 12009KT 9999 SCT025 30/22 Q1013=
2025-02-11 14:00:00<>METAR SBSV 111400Z 12010KT 090V150 9999 SCT026 30/22 Q1013=
2025-02-11 15:00:00<>METAR SBSV 111500Z 13009KT 100V190 9999 SCT025 31/23 Q1013=
2025-02-11 16:00:00<>METAR SBSV 111600Z 14010KT 100V190 9999 FEW026 31/22 Q1012=
2025-02-11 17:00:00<>METAR SBSV 111700Z 13009KT 100V170 9999 FEW026 30/23 Q1012=
2025-02-11 18:00:00<>METAR SBSV 111800Z 15010KT 110V180 9999 SCT025 31/22 Q1011=
2025-02-11 19:00:00<>METAR SBSV 111900Z 12010KT 9999 SCT026 30/22 Q1011=
2025-02-11 20:00:00<>METAR SBSV 112000Z 15010KT 110V170 9999 FEW023 29/22 Q1011=
2025-02-11 21:00:00<>METAR SBSV 112100Z 13008KT 070V180 9999 FEW021 29/22 Q1011=
2025-02-11 22:00:00<>METAR SBSV 112200Z 13008KT 9999 FEW021 28/22 Q1011=
2025-02-11 23:00:00<>METAR SBSV 112300Z 13009KT 090V150 9999 FEW022 28/22 Q1012=
2025-02-12 00:00:00<>METAR SBSV 120000Z 12009KT 090V150 9999 SCT022 28/23 Q1012=
2025-02-12 01:00:00<>METAR SBSV 120100Z 12008KT 9999 SCT022 28/22 Q1013=
2025-02-12 02:00:00<>METAR SBSV 120200Z 12008KT 9999 SCT023 28/22 Q1013=
2025-02-12 03:00:00<>METAR SBSV 120300Z 12007KT 090V160 9999 SCT023 28/22 Q1012=
2025-02-12 04:00:00<>METAR SBSV 120400Z 12006KT 9999 SCT023 28/22 Q1012=
2025-02-12 05:00:00<>METAR SBSV 120500Z 12006KT 9999 SCT023 27/22 Q1011=
2025-02-12 06:00:00<>METAR SBSV 120600Z 11005KT 9999 SCT023 27/23 Q1011=
2025-02-12 07:00:00<>METAR SBSV 120700Z 08006KT 9999 SCT023 26/23 Q1011=
2025-02-12 08:00:00<>METAR SBSV 120800Z 12004KT 9999 SCT023 27/22 Q1012=
2025-02-12 09:00:00<>METAR SBSV 120900Z VRB01KT 9999 SCT023 25/22 Q1012=
2025-02-12 10:00:00<>METAR SBSV 121000Z 00000KT 9999 SCT023 27/23 Q1013=
2025-02-12 11:00:00<>METAR SBSV 121100Z 12006KT 090V150 9999 SCT023 29/22 Q1013=
2025-02-12 12:00:00<>METAR SBSV 121200Z 10008KT 060V140 9999 SCT023 30/23 Q1014=
2025-02-12 13:00:00<>METAR SBSV 121300Z 11009KT 9999 SCT023 30/23 Q1014=
2025-02-12 14:00:00<>METAR SBSV 121400Z 10010KT 050V130 9999 SCT023 30/23 Q1013=
2025-02-12 15:00:00<>METAR SBSV 121500Z 10010KT 070V140 9999 SCT025 30/23 Q1013=
2025-02-12 16:00:00<>METAR SBSV 121600Z 10011KT 070V140 9999 SCT025 30/23 Q1013=
2025-02-12 17:00:00<>METAR SBSV 121700Z 10013KT 9999 SCT025 30/23 Q1012=
2025-02-12 18:00:00<>METAR SBSV 121800Z 10012KT 9999 FEW023 SCT025TCU 30/22 Q1012=
2025-02-12 19:00:00<>METAR SBSV 121900Z 10013KT 9999 FEW023 FEW025TCU 30/22 Q1011=
2025-02-12 20:00:00<>METAR SBSV 122000Z 09012KT 9999 FEW023 FEW025TCU 30/22 Q1011=
2025-02-12 21:00:00<>METAR SBSV 122100Z 09012KT CAVOK 28/22 Q1012=
2025-02-12 22:00:00<>METAR SBSV 122200Z 09011KT 9999 FEW018 28/23 Q1012=
2025-02-12 23:00:00<>METAR SBSV 122300Z 09011KT CAVOK 27/22 Q1012=
2025-02-13 00:00:00<>METAR SBSV 130000Z 09011KT 9999 FEW022 28/23 Q1013=
2025-02-13 01:00:00<>METAR SBSV 130100Z 08010KT 9999 SCT020 27/23 Q1013=
2025-02-13 02:00:00<>METAR SBSV 130200Z 08010KT 9999 SCT021 27/23 Q1013=
2025-02-13 03:00:00<>METAR SBSV 130300Z 09009KT 9999 SCT020 27/23 Q1013=
2025-02-13 04:00:00<>METAR SBSV 130400Z 08009KT 9999 SCT020 SCT050 27/22 Q1012=
2025-02-13 05:00:00<>METAR SBSV 130500Z 07007KT 9999 SCT023 26/22 Q1012=
2025-02-13 06:00:00<>METAR SBSV 130600Z 08006KT 9999 SCT023 BKN080 26/22 Q1012=
2025-02-13 07:00:00<>METAR SBSV 130700Z 08006KT 9999 FEW022 SCT080 26/22 Q1012=
2025-02-13 08:00:00<>METAR SBSV 130800Z 07005KT 9999 SCT023 26/22 Q1013=
2025-02-13 09:00:00<>METAR SBSV 130900Z 32004KT 310V100 9999 VCSH SCT023 FEW025TCU 25/23 Q1013=
2025-02-13 10:00:00<>METAR SBSV 131000Z VRB02KT 9999 SCT023 26/22 Q1014=
2025-02-13 11:00:00<>METAR SBSV 131100Z 05002KT 9999 SCT023 30/24 Q1014=
2025-02-13 12:00:00<>METAR SBSV 131200Z 12006KT 9999 SCT023 30/23 Q1015=
2025-02-13 13:00:00<>METAR SBSV 131300Z 12008KT 070V160 9999 SCT023 30/23 Q1015=
2025-02-13 14:00:00<>METAR SBSV 131400Z 11010KT 070V160 9999 SCT023 30/22 Q1015=
2025-02-13 15:00:00<>METAR SBSV 131500Z 11008KT 070V170 9999 SCT023 30/23 Q1014=
2025-02-13 16:00:00<>METAR SBSV 131600Z 12010KT 090V180 9999 SCT023 31/23 Q1013=
2025-02-13 17:00:00<>METAR SBSV 131700Z 12010KT 9999 SCT025 30/23 Q1013=
2025-02-13 18:00:00<>METAR SBSV 131800Z 13009KT 090V200 9999 SCT025 30/23 Q1013=
2025-02-13 19:00:00<>METAR SBSV 131900Z 13009KT 100V160 9999 SCT025 29/23 Q1012=
2025-02-13 20:00:00<>METAR SBSV 132000Z 11009KT 9999 SCT023 29/23 Q1012=
2025-02-13 21:00:00<>METAR SBSV 132100Z 11010KT 9999 SCT023 SCT100 28/22 Q1012=
2025-02-13 22:00:00<>METAR SBSV 132200Z 10010KT 9999 FEW023 SCT100 28/21 Q1012=
2025-02-13 23:00:00<>METAR SBSV 132300Z 09011KT 9999 FEW021 SCT100 28/23 Q1012=
2025-02-14 00:00:00<>METAR SBSV 140000Z 09010KT 9999 SCT021 SCT100 28/23 Q1013=
2025-02-14 01:00:00<>METAR SBSV 140100Z 09010KT 9999 FEW023 28/22 Q1013=
2025-02-14 02:00:00<>METAR SBSV 140200Z 10010KT 9999 SCT020 28/22 Q1012=
2025-02-14 03:00:00<>METAR SBSV 140300Z 08007KT 9999 SCT023 27/23 Q1013=
2025-02-14 04:00:00<>METAR SBSV 140400Z 08006KT 9999 FEW024 27/22 Q1013=
2025-02-14 05:00:00<>METAR SBSV 140500Z 08009KT 9999 FEW023 27/22 Q1012=
2025-02-14 06:00:00<>METAR SBSV 140600Z 07007KT 9999 SCT023 SCT050 27/22 Q1012=
2025-02-14 07:00:00<>METAR SBSV 140700Z 08007KT 9999 FEW023 SCT050 27/22 Q1012=
2025-02-14 08:00:00<>METAR SBSV 140800Z 07007KT 9999 SCT023 26/22 Q1012=
2025-02-14 09:00:00<>METAR SBSV 140900Z VRB02KT 9999 SCT023 FEW025TCU 25/22 Q1013=
2025-02-14 10:00:00<>METAR SBSV 141000Z 29007KT 250V060 9999 VCSH SCT023 FEW025TCU BKN040 26/23 Q1013=
2025-02-14 11:00:00<>METAR SBSV 141100Z 07006KT 010V120 9999 VCSH SCT023 FEW025TCU SCT055 29/22 Q1014=
2025-02-14 12:00:00<>METAR SBSV 141200Z 10009KT 060V130 9999 BKN025 30/22 Q1015=
2025-02-14 13:00:00<>METAR SBSV 141300Z 09009KT 060V130 9999 SCT025 30/22 Q1014=
2025-02-14 14:00:00<>METAR SBSV 141400Z 09010KT 050V120 9999 SCT027 30/22 Q1014=
2025-02-14 15:00:00<>METAR SBSV 141500Z 08010KT 050V140 9999 FEW027 30/23 Q1013=
2025-02-14 16:00:00<>METAR SBSV 141600Z 10010KT 050V130 9999 SCT025 30/23 Q1012=
2025-02-14 17:00:00<>METAR SBSV 141700Z 09012KT 060V120 9999 SCT023 30/23 Q1012=
2025-02-14 18:00:00<>METAR SBSV 141800Z 09012KT 9999 FEW025 30/22 Q1011=
2025-02-14 19:00:00<>METAR SBSV 141900Z 09011KT 9999 FEW025 29/22 Q1011=
2025-02-14 20:00:00<>METAR SBSV 142000Z 09011KT 9999 FEW025 29/22 Q1011=
2025-02-14 21:00:00<>METAR SBSV 142100Z 08011KT 9999 FEW025 28/22 Q1011=
2025-02-14 22:00:00<>METAR SBSV 142200Z 09010KT 9999 FEW025 28/22 Q1011=
2025-02-14 23:00:00<>METAR SBSV 142300Z 09010KT 9999 SCT023 28/23 Q1012=
2025-02-15 00:00:00<>METAR SBSV 150000Z 08011KT 9999 SCT023 27/22 Q1012=
2025-02-15 01:00:00<>METAR SBSV 150100Z 08010KT 9999 SCT023 27/23 Q1012=
2025-02-15 02:00:00<>METAR SBSV 150200Z 08010KT 9999 SCT023 27/22 Q1012=
2025-02-15 03:00:00<>METAR SBSV 150300Z 09009KT 9999 SCT023 27/22 Q1012=
2025-02-15 04:00:00<>METAR SBSV 150400Z 08007KT 9999 SCT023 27/22 Q1012=
2025-02-15 05:00:00<>METAR SBSV 150500Z 08007KT 9999 SCT023 27/22 Q1011=
2025-02-15 06:00:00<>METAR SBSV 150600Z 08009KT 9999 SCT023 27/22 Q1011=
2025-02-15 07:00:00<>METAR SBSV 150700Z 08006KT 9999 FEW023 26/21 Q1011=
2025-02-15 08:00:00<>METAR SBSV 150800Z 05006KT 9999 SCT023 26/23 Q1011=
2025-02-15 09:00:00<>METAR SBSV 150900Z 07005KT 9999 SCT023 26/23 Q1012=
2025-02-15 10:00:00<>METAR SBSV 151000Z 09009KT 9999 SCT021 SCT060 29/23 Q1012=
2025-02-15 11:00:00<>METAR SBSV 151100Z 07010KT 9999 BKN024 29/23 Q1013=
2025-02-15 12:00:00<>METAR SBSV 151200Z 08012KT 9999 SCT025 30/23 Q1013=
2025-02-15 13:00:00<>METAR SBSV 151300Z 08013KT 9999 SCT023 30/23 Q1013=
2025-02-15 14:00:00<>METAR SBSV 151400Z 08012KT 9999 SCT024 31/24 Q1013=
2025-02-15 15:00:00<>METAR SBSV 151500Z 09014KT 9999 SCT024 31/23 Q1013=
2025-02-15 16:00:00<>METAR SBSV 151600Z 09014KT 9999 SCT024 31/23 Q1012=
2025-02-15 17:00:00<>METAR SBSV 151700Z 08014KT 9999 SCT024 SCT055 31/23 Q1012=
2025-02-15 18:00:00<>METAR SBSV 151800Z 09014KT 9999 SCT024 SCT055 31/23 Q1011=
2025-02-15 19:00:00<>METAR SBSV 151900Z 09013KT 9999 SCT024 30/23 Q1011=
2025-02-15 20:00:00<>METAR SBSV 152000Z 08012KT 9999 SCT024 29/22 Q1011=
2025-02-15 21:00:00<>METAR SBSV 152100Z 09012KT 9999 FEW023 28/22 Q1011=
2025-02-15 22:00:00<>METAR SBSV 152200Z 08010KT 9999 FEW023 28/22 Q1012=
2025-02-15 23:00:00<>METAR SBSV 152300Z 09010KT 9999 FEW023 28/22 Q1012=
2025-02-16 00:00:00<>METAR SBSV 160000Z 09011KT 9999 SCT023 28/23 Q1013=
2025-02-16 01:00:00<>METAR SBSV 160100Z 09013KT 9999 FEW023 28/22 Q1013=
2025-02-16 02:00:00<>METAR SBSV 160200Z 09009KT 9999 FEW023 27/22 Q1013=
2025-02-16 03:00:00<>METAR SBSV 160300Z 09009KT 9999 FEW023 27/22 Q1012=
2025-02-16 04:00:00<>METAR SBSV 160400Z 09009KT 9999 FEW023 27/22 Q1012=
2025-02-16 05:00:00<>METAR SBSV 160500Z 10009KT 9999 FEW023 27/22 Q1012=
2025-02-16 06:00:00<>METAR SBSV 160600Z 10008KT 9999 SCT023 27/21 Q1012=
2025-02-16 07:00:00<>METAR SBSV 160700Z 10007KT 9999 SCT023 27/22 Q1012=
2025-02-16 08:00:00<>METAR SBSV 160800Z 11006KT 9999 SCT023 27/22 Q1012=
2025-02-16 09:00:00<>METAR SBSV 160900Z 11006KT 9999 SCT023 27/22 Q1013=
2025-02-16 10:00:00<>METAR SBSV 161000Z 13007KT 9999 SCT023 28/23 Q1013=
2025-02-16 11:00:00<>METAR SBSV 161100Z 11007KT 9999 SCT023 BKN050 29/22 Q1014=
2025-02-16 12:00:00<>METAR SBSV 161200Z 13008KT 080V170 9999 SCT023 BKN050 30/22 Q1015=
2025-02-16 13:00:00<>METAR SBSV 161300Z 14008KT 110V180 9999 SCT023 BKN050 30/23 Q1015=
2025-02-16 14:00:00<>METAR SBSV 161400Z 16009KT 120V190 9999 VCSH SCT023 FEW025TCU BKN050 30/23 Q1015=
2025-02-16 14:18:00<>SPECI SBSV 161418Z 10013G25KT 070V150 2000 R28/0450D R10/P2000D SHRA SCT011 BKN015 FEW025TCU BKN050 28/23 Q1015=
2025-02-16 15:00:00<>METAR SBSV 161500Z 18007KT 140V230 9000 VCSH SCT007 SCT015 FEW025TCU BKN050 26/24 Q1014 RESHRA=
2025-02-16 16:00:00<>METAR SBSV 161600Z 12009KT 9999 FEW011 SCT020 FEW023TCU BKN050 29/24 Q1014=
2025-02-16 17:00:00<>METAR SBSV 161700Z 14008KT 9999 VCSH FEW008 FEW023TCU SCT026 BKN050 29/23 Q1013=
2025-02-16 18:00:00<>METAR SBSV 161800Z 15009KT 130V190 9999 FEW023TCU BKN060 29/23 Q1013=
2025-02-16 19:00:00<>METAR SBSV 161900Z 16007KT 9999 FEW023 28/23 Q1013=
2025-02-16 20:00:00<>METAR SBSV 162000Z 14006KT 110V170 9999 FEW018 28/24 Q1013=
2025-02-16 21:00:00<>METAR SBSV 162100Z 14005KT 090V180 9999 SCT020 SCT030 28/24 Q1013=
2025-02-16 22:00:00<>METAR SBSV 162200Z 10009KT 9999 -RA BKN023 BKN060 28/24 Q1013=
2025-02-16 23:00:00<>METAR SBSV 162300Z 10009KT 9999 FEW021 27/24 Q1014=
2025-02-17 00:00:00<>METAR SBSV 170000Z 09009KT 9999 FEW022 27/23 Q1014=
2025-02-17 01:00:00<>METAR SBSV 170100Z 10009KT 9999 SCT023 27/23 Q1014=
2025-02-17 02:00:00<>METAR SBSV 170200Z 08008KT 9999 SCT021 SCT050 27/23 Q1014=
2025-02-17 03:00:00<>METAR SBSV 170300Z 08007KT 9999 SCT021 SCT050 27/23 Q1013=
2025-02-17 04:00:00<>METAR SBSV 170400Z 08009KT 9999 SCT022 BKN050 26/23 Q1013=
2025-02-17 05:00:00<>METAR SBSV 170500Z 09004KT 9999 VCSH SCT021 FEW025TCU BKN055 26/23 Q1012=
2025-02-17 06:00:00<>METAR SBSV 170600Z 11007KT 9999 FEW016 SCT022 BKN080 26/23 Q1012=
2025-02-17 07:00:00<>METAR SBSV 170700Z 09010KT 9999 SCT022 SCT060 27/22 Q1012=
2025-02-17 08:00:00<>METAR SBSV 170800Z 09010KT 9999 SCT021 SCT060 27/22 Q1012=
2025-02-17 09:00:00<>METAR SBSV 170900Z 09008KT 9999 FEW023 27/22 Q1013=
2025-02-17 10:00:00<>METAR SBSV 171000Z 09009KT 9999 SCT023 28/23 Q1014=
2025-02-17 11:00:00<>METAR SBSV 171100Z 08009KT 9999 SCT023 29/23 Q1014=
2025-02-17 12:00:00<>METAR SBSV 171200Z 09010KT 9999 SCT023 30/23 Q1015=
2025-02-17 13:00:00<>METAR SBSV 171300Z 09009KT 050V120 9999 SCT023 30/23 Q1015=
2025-02-17 14:00:00<>METAR SBSV 171400Z 10010KT 9999 SCT023 30/23 Q1015=
2025-02-17 15:00:00<>METAR SBSV 171500Z 10009KT 070V220 9999 SCT023 31/23 Q1014=
2025-02-17 16:00:00<>METAR SBSV 171600Z 11010KT 9999 SCT023 30/23 Q1014=
2025-02-17 17:00:00<>METAR SBSV 171700Z 10011KT 9999 SCT023 30/24 Q1013=
2025-02-17 18:00:00<>METAR SBSV 171800Z 12010KT 090V150 9999 SCT023 30/23 Q1013=
2025-02-17 19:00:00<>METAR SBSV 171900Z 11010KT 9999 SCT023 29/22 Q1013=
2025-02-17 20:00:00<>METAR SBSV 172000Z 11009KT 9999 SCT023 29/22 Q1013=
2025-02-17 21:00:00<>METAR SBSV 172100Z 11007KT 9999 FEW023 28/21 Q1013=
2025-02-17 22:00:00<>METAR SBSV 172200Z 11006KT 9999 FEW025 28/21 Q1013=
2025-02-17 23:00:00<>METAR SBSV 172300Z 12006KT 9999 FEW025 28/21 Q1013=
2025-02-18 00:00:00<>METAR SBSV 180000Z 11008KT 9999 FEW025 28/22 Q1013=
2025-02-18 01:00:00<>METAR SBSV 180100Z 13005KT 100V160 9999 FEW024 28/21 Q1014=
2025-02-18 02:00:00<>METAR SBSV 180200Z 12008KT 100V160 9999 SCT023 28/22 Q1013=
2025-02-18 03:00:00<>METAR SBSV 180300Z 14006KT 9999 SCT023 SCT032 27/22 Q1013=
2025-02-18 04:00:00<>METAR SBSV 180400Z 13005KT 9999 SCT023 SCT032 27/21 Q1012=
2025-02-18 05:00:00<>METAR COR SBSV 180500Z 13005KT 9999 SCT023 27/20 Q1011=
2025-02-18 06:00:00<>METAR SBSV 180600Z 12004KT 9999 FEW021 27/21 Q1011=
2025-02-18 07:00:00<>METAR SBSV 180700Z VRB01KT 9999 FEW021 SCT033 24/21 Q1011=
2025-02-18 08:00:00<>METAR SBSV 180800Z VRB01KT 9999 SCT023 24/21 Q1012=
2025-02-18 09:00:00<>METAR SBSV 180900Z VRB02KT 9999 FEW024 23/21 Q1012=
2025-02-18 10:00:00<>METAR SBSV 181000Z 27002KT 9999 FEW022 FEW025TCU 27/21 Q1013=
2025-02-18 11:00:00<>METAR SBSV 181100Z 15005KT 130V200 9999 SCT023 28/20 Q1013=
2025-02-18 12:00:00<>METAR SBSV 181200Z 16006KT 110V200 9999 FEW020 SCT026 29/21 Q1013=
2025-02-18 13:00:00<>METAR SBSV 181300Z 16007KT 080V210 9999 FEW020 SCT026 30/22 Q1013=
2025-02-18 14:00:00<>METAR SBSV 181400Z 15008KT 110V200 9999 FEW019 SCT026 29/22 Q1013=
2025-02-18 15:00:00<>METAR SBSV 181500Z 16010KT 110V190 9999 SCT025 30/22 Q1013=
2025-02-18 16:00:00<>METAR SBSV 181600Z 14009KT 090V250 9999 SCT022 30/22 Q1012=
2025-02-18 17:00:00<>METAR SBSV 181700Z 14010KT 110V180 9999 SCT023 30/23 Q1012=
2025-02-18 18:00:00<>METAR SBSV 181800Z 15010KT 9999 SCT023 30/22 Q1011=
2025-02-18 19:00:00<>METAR SBSV 181900Z 12009KT 9999 SCT025 30/22 Q1011=
2025-02-18 20:00:00<>METAR SBSV 182000Z 12009KT 9999 FEW025 29/22 Q1011=
2025-02-18 21:00:00<>METAR SBSV 182100Z 12008KT 100V190 9999 FEW025 28/22 Q1011=
2025-02-18 22:00:00<>METAR SBSV 182200Z 12009KT 9999 FEW025 28/22 Q1011=
2025-02-18 23:00:00<>METAR SBSV 182300Z 11009KT 9999 FEW025 28/21 Q1012=
2025-02-19 00:00:00<>METAR SBSV 190000Z 11008KT 080V150 9999 FEW025 28/22 Q1012=
2025-02-19 01:00:00<>METAR SBSV 190100Z 11008KT 9999 FEW025 28/22 Q1012=
2025-02-19 02:00:00<>METAR SBSV 190200Z 10007KT 9999 SCT025 28/22 Q1012=
2025-02-19 03:00:00<>METAR SBSV 190300Z 09008KT 9999 FEW025 28/21 Q1012=
2025-02-19 04:00:00<>METAR SBSV 190400Z 09008KT 9999 FEW025 27/22 Q1011=
2025-02-19 05:00:00<>METAR SBSV 190500Z 08007KT 9999 FEW025 26/21 Q1011=
2025-02-19 06:00:00<>METAR SBSV 190600Z 08007KT 9999 FEW025 26/21 Q1011=
2025-02-19 07:00:00<>METAR SBSV 190700Z 08005KT 9999 FEW025 26/21 Q1011=
2025-02-19 08:00:00<>METAR SBSV 190800Z VRB01KT 9999 FEW025 25/21 Q1012=
2025-02-19 09:00:00<>METAR SBSV 190900Z VRB02KT 9999 FEW025 24/22 Q1012=
2025-02-19 10:00:00<>METAR SBSV 191000Z VRB01KT 9999 FEW025 27/22 Q1013=
2025-02-19 11:00:00<>METAR SBSV 191100Z 09006KT 9999 FEW025 29/22 Q1014=
2025-02-19 12:00:00<>METAR SBSV 191200Z 10008KT 060V140 9999 SCT025 30/22 Q1014=
2025-02-19 13:00:00<>METAR SBSV 191300Z 11010KT 9999 SCT025 SCT070 30/22 Q1014=
2025-02-19 14:00:00<>METAR SBSV 191400Z 10010KT 070V130 9999 SCT025 SCT070 30/22 Q1014=
2025-02-19 15:00:00<>METAR SBSV 191500Z 11009KT 070V150 9999 SCT025 SCT080 31/24 Q1014=
2025-02-19 16:00:00<>METAR SBSV 191600Z 12011KT 080V180 9999 FEW025 SCT080 31/23 Q1013=
2025-02-19 17:00:00<>METAR SBSV 191700Z 10012KT 9999 FEW025 30/22 Q1012=
2025-02-19 18:00:00<>METAR SBSV 191800Z 09012KT 060V130 9999 SCT023 31/22 Q1012=
2025-02-19 19:00:00<>METAR SBSV 191900Z 09012KT 070V130 9999 FEW023 SCT080 30/23 Q1012=
2025-02-19 20:00:00<>METAR SBSV 192000Z 08013KT 9999 SCT019 SCT090 29/23 Q1012=
2025-02-19 21:00:00<>METAR SBSV 192100Z 07012KT 9999 SCT020 SCT100 28/23 Q1013=
2025-02-19 22:00:00<>METAR SBSV 192200Z 08012KT 9999 FEW022 28/22 Q1013=
2025-02-19 23:00:00<>METAR SBSV 192300Z 09011KT CAVOK 28/22 Q1013=
2025-02-20 00:00:00<>METAR SBSV 200000Z 08009KT CAVOK 28/22 Q1014=
2025-02-20 01:00:00<>METAR SBSV 200100Z 09008KT 9999 FEW025 SCT080 28/22 Q1014=
2025-02-20 02:00:00<>METAR SBSV 200200Z 10009KT 9999 FEW025 28/22 Q1013=
2025-02-20 03:00:00<>METAR SBSV 200300Z 09008KT 9999 SCT021 28/23 Q1013=
2025-02-20 04:00:00<>METAR SBSV 200400Z 09008KT 9999 SCT020 28/23 Q1012=
2025-02-20 05:00:00<>METAR SBSV 200500Z 08008KT 9999 SCT020 SCT080 28/23 Q1012=
2025-02-20 06:00:00<>METAR SBSV 200600Z 08009KT 9999 SCT020 SCT080 27/23 Q1012=
2025-02-20 07:00:00<>METAR SBSV 200700Z 08009KT 9999 SCT020 SCT080 27/23 Q1012=
2025-02-20 08:00:00<>METAR SBSV 200800Z 08008KT 9999 SCT020 27/22 Q1013=
2025-02-20 09:00:00<>METAR SBSV 200900Z 08007KT 9999 SCT023 27/22 Q1013=
2025-02-20 10:00:00<>METAR SBSV 201000Z 01004KT 330V100 9999 SCT023 28/23 Q1014=
2025-02-20 11:00:00<>METAR SBSV 201100Z 08008KT 050V110 9999 FEW024 30/23 Q1014=
2025-02-20 12:00:00<>METAR SBSV 201200Z 12008KT 9999 -SHRA SCT019 FEW023TCU BKN060 28/24 Q1015=
2025-02-20 13:00:00<>METAR SBSV 201300Z 19008KT 9999 FEW021 30/24 Q1015=
2025-02-20 14:00:00<>METAR SBSV 201400Z 10011KT 9999 SCT020 31/24 Q1015=
2025-02-20 15:00:00<>METAR SBSV 201500Z 11012KT 9999 SCT020 FEW023TCU 31/24 Q1014=
2025-02-20 16:00:00<>METAR SBSV 201600Z 11011KT 070V140 9999 FEW016 31/24 Q1013=
2025-02-20 17:00:00<>METAR SBSV 201700Z 11012KT 9999 FEW023 31/24 Q1013=
2025-02-20 18:00:00<>METAR SBSV 201800Z 10010KT 070V170 9999 FEW017 31/24 Q1013=
2025-02-20 19:00:00<>METAR SBSV 201900Z 10012KT 9999 FEW020 30/24 Q1013=
2025-02-20 20:00:00<>METAR SBSV 202000Z 08012KT 9999 FEW017 29/24 Q1013=
2025-02-20 21:00:00<>METAR SBSV 202100Z 08013KT 9999 FEW017 FEW023TCU SCT100 28/23 Q1013=
2025-02-20 22:00:00<>METAR SBSV 202200Z 09011KT 9999 FEW017 FEW023TCU 28/23 Q1014=
2025-02-20 23:00:00<>METAR SBSV 202300Z 09012KT 9999 FEW017 FEW023TCU 28/23 Q1014=
2025-02-21 00:00:00<>METAR SBSV 210000Z 09016KT 8000 2000NE +SHRA SCT017 FEW023TCU SCT100 26/24 Q1015=
2025-02-21 00:25:00<>SPECI SBSV 210025Z 09013KT 9000 VCSH FEW014 SCT020 FEW025TCU 27/24 Q1015 RESHRA=
2025-02-21 01:00:00<>METAR SBSV 210100Z 08011KT 9999 VCSH FEW016 SCT020 FEW025TCU 27/24 Q1015 RESHRA=
2025-02-21 02:00:00<>METAR SBSV 210200Z 09012KT 9999 VCSH BKN019 FEW025TCU 27/24 Q1015=
2025-02-21 03:00:00<>METAR SBSV 210300Z 09010KT 9999 FEW014 SCT017 27/23 Q1014=
2025-02-21 04:00:00<>METAR SBSV 210400Z 08010KT 9999 FEW015 SCT021 27/23 Q1014=
2025-02-21 05:00:00<>METAR SBSV 210500Z 07009KT 9999 BKN020 BKN100 27/23 Q1013=
2025-02-21 06:00:00<>METAR SBSV 210600Z 07009KT 9999 FEW014 SCT020 BKN100 27/23 Q1013=
2025-02-21 07:00:00<>METAR SBSV 210700Z 08010KT 9999 VCSH SCT016 BKN023 BKN100 26/23 Q1013=
2025-02-21 08:00:00<>METAR SBSV 210800Z 08010KT 9000 VCSH FEW014 BKN021 BKN100 27/23 Q1013=
2025-02-21 09:00:00<>METAR SBSV 210900Z 08009KT 9999 FEW015 SCT022 27/23 Q1013=
2025-02-21 10:00:00<>METAR SBSV 211000Z 09009KT 9999 SCT025 29/22 Q1014=
2025-02-21 11:00:00<>METAR SBSV 211100Z 08010KT 9999 VCSH SCT023 FEW025TCU BKN060 28/23 Q1014=
2025-02-21 12:00:00<>METAR SBSV 211200Z 09012KT 9999 SCT023 30/23 Q1014=
2025-02-21 13:00:00<>METAR SBSV 211300Z 09013KT 9999 SCT023 30/23 Q1014=
2025-02-21 14:00:00<>METAR SBSV 211400Z 10011KT 060V120 9999 SCT023 FEW025TCU 31/24 Q1014=
2025-02-21 15:00:00<>METAR SBSV 211500Z 09013KT 060V120 9999 SCT023 FEW025TCU 31/23 Q1014=
2025-02-21 16:00:00<>METAR SBSV 211600Z 10013KT 9999 SCT023 31/23 Q1013=
2025-02-21 17:00:00<>METAR SBSV 211700Z 08013KT 9999 SCT023 31/23 Q1013=
2025-02-21 18:00:00<>METAR SBSV 211800Z 09013KT 9999 SCT023 31/22 Q1013=
2025-02-21 19:00:00<>METAR SBSV 211900Z 09012KT 9999 SCT023 30/23 Q1012=
2025-02-21 20:00:00<>METAR SBSV 212000Z 11011KT 9999 SCT023 29/23 Q1013=
2025-02-21 21:00:00<>METAR SBSV 212100Z 11008KT 070V140 9999 SCT023 29/22 Q1013=
2025-02-21 22:00:00<>METAR SBSV 212200Z 10009KT 9999 FEW023 28/22 Q1013=
2025-02-21 23:00:00<>METAR SBSV 212300Z 10010KT 9999 FEW023 28/21 Q1014=
2025-02-22 00:00:00<>METAR SBSV 220000Z 10009KT 9999 SCT023 28/22 Q1015=
2025-02-22 01:00:00<>METAR SBSV 220100Z 11008KT 9999 SCT023 BKN100 28/22 Q1015=
2025-02-22 02:00:00<>METAR SBSV 220200Z 10008KT 9999 FEW023 28/21 Q1015=
2025-02-22 03:00:00<>METAR SBSV 220300Z 10008KT 9999 FEW026 28/21 Q1015=
2025-02-22 04:00:00<>METAR SBSV 220400Z 11006KT 060V160 9999 FEW026 27/22 Q1014=
2025-02-22 05:00:00<>METAR SBSV 220500Z 12004KT 9999 FEW026 SCT051 27/22 Q1013=
2025-02-22 06:00:00<>METAR SBSV 220600Z VRB03KT 9999 FEW023 28/22 Q1013=
2025-02-22 07:00:00<>METAR SBSV 220700Z 13006KT 050V200 9000 -RA BKN023 SCT060 25/22 Q1013=
2025-02-22 08:00:00<>METAR SBSV 220800Z VRB02KT 9999 FEW023 SCT060 24/22 Q1014=
2025-02-22 09:00:00<>METAR SBSV 220900Z 27003KT 190V350 9999 VCSH BKN023 FEW025TCU 24/23 Q1014=
2025-02-22 10:00:00<>METAR SBSV 221000Z 27006KT 9999 BKN023 25/23 Q1014=
2025-02-22 11:00:00<>METAR SBSV 221100Z 25004KT 230V290 9999 BKN023 27/23 Q1015=
2025-02-22 11:34:00<>SPECI SBSV 221134Z VRB08KT 2000 SHRA BKN023 FEW025TCU 25/22 Q1015=
2025-02-22 11:45:00<>SPECI SBSV 221145Z VRB03KT 9999 BKN023 FEW025TCU 25/22 Q1015 RESHRA=
2025-02-22 12:00:00<>METAR SBSV 221200Z VRB02KT 9999 VCSH BKN023 FEW025TCU 26/22 Q1015 RESHRA=
2025-02-22 13:00:00<>METAR SBSV 221300Z 13007KT 100V180 9999 BKN020 28/23 Q1015=
2025-02-22 14:00:00<>METAR SBSV 221400Z 12008KT 080V150 9999 VCSH BKN020 FEW023TCU 30/22 Q1015=
2025-02-22 15:00:00<>METAR SBSV 221500Z 13009KT 080V210 9999 VCSH BKN020 FEW023TCU 30/22 Q1014=
2025-02-22 16:00:00<>METAR SBSV 221600Z 13009KT 080V170 9999 VCSH BKN023 FEW025TCU 30/23 Q1013=
2025-02-22 17:00:00<>METAR SBSV 221700Z 13009KT 110V170 9999 SCT023 30/23 Q1013=
2025-02-22 18:00:00<>METAR SBSV 221800Z 13010KT 090V160 9999 SCT023 30/23 Q1013=
2025-02-22 19:00:00<>METAR SBSV 221900Z 12010KT 080V170 9999 SCT023 30/22 Q1012=
2025-02-22 20:00:00<>METAR SBSV 222000Z 11010KT 9999 SCT023 29/23 Q1012=
2025-02-22 21:00:00<>METAR SBSV 222100Z 12008KT 9999 SCT023 28/22 Q1013=
2025-02-22 22:00:00<>METAR SBSV 222200Z 11008KT 080V190 9999 SCT023 28/23 Q1013=
2025-02-22 23:00:00<>METAR SBSV 222300Z 11008KT 9999 SCT023 28/22 Q1013=
2025-02-23 00:00:00<>METAR SBSV 230000Z 10010KT 9999 SCT023 28/22 Q1014=
2025-02-23 01:00:00<>METAR SBSV 230100Z 11010KT 9999 SCT021 SCT060 28/23 Q1014=
2025-02-23 02:00:00<>METAR SBSV 230200Z 11010KT 9999 SCT022 SCT060 28/23 Q1014=
2025-02-23 03:00:00<>METAR SBSV 230300Z 11010KT 9999 VCSH SCT020 FEW025TCU SCT060 28/23 Q1014=
2025-02-23 04:00:00<>METAR SBSV 230400Z 11009KT 9999 SCT022 28/22 Q1013=
2025-02-23 05:00:00<>METAR SBSV 230500Z 10010KT 9999 SCT022 27/22 Q1013=
2025-02-23 06:00:00<>METAR SBSV 230600Z 09009KT 9999 VCSH SCT020 BKN055 27/23 Q1012=
2025-02-23 07:00:00<>METAR SBSV 230700Z 10008KT 9999 VCSH SCT022 BKN055 27/22 Q1012=
2025-02-23 08:00:00<>METAR SBSV 230800Z 11009KT 9999 VCSH SCT022 BKN055 27/22 Q1012=
2025-02-23 09:00:00<>METAR SBSV 230900Z 09010KT 6000 -SHRA FEW015 SCT022 BKN050 27/22 Q1013=
2025-02-23 10:00:00<>METAR SBSV 231000Z 09010KT 9999 BKN019 29/23 Q1013=
2025-02-23 11:00:00<>METAR SBSV 231100Z 08008KT 9999 BKN019 FEW020TCU 29/23 Q1014=
2025-02-23 12:00:00<>METAR SBSV 231200Z 09010KT 9999 VCSH BKN021 FEW023TCU 30/23 Q1015=
2025-02-23 13:00:00<>METAR SBSV 231300Z 12009KT 080V150 9999 VCSH BKN021 FEW023TCU 30/22 Q1015=
2025-02-23 14:00:00<>METAR SBSV 231400Z 10010KT 070V140 9999 SCT023 30/22 Q1015=
2025-02-23 15:00:00<>METAR SBSV 231500Z 10009KT 070V200 9999 SCT023 30/22 Q1014=
2025-02-23 16:00:00<>METAR SBSV 231600Z 12008KT 080V160 9999 SCT023 30/22 Q1013=
2025-02-23 17:00:00<>METAR SBSV 231700Z 16008KT 110V190 9999 SCT023 30/23 Q1013=
2025-02-23 18:00:00<>METAR SBSV 231800Z 15009KT 120V270 9999 SCT023 31/23 Q1012=
2025-02-23 19:00:00<>METAR SBSV 231900Z 16012KT 9999 SCT023 30/23 Q1012=
2025-02-23 20:00:00<>METAR SBSV 232000Z 15011KT 9999 SCT023 29/23 Q1012=
2025-02-23 21:00:00<>METAR SBSV 232100Z 15008KT 120V190 9999 FEW020 SCT050 28/23 Q1012=
2025-02-23 22:00:00<>METAR SBSV 232200Z 15009KT 9999 FEW020 SCT070 28/23 Q1012=
2025-02-23 23:00:00<>METAR SBSV 232300Z 14006KT 9999 FEW020 SCT070 28/24 Q1013=
2025-02-24 00:00:00<>METAR SBSV 240000Z 12008KT 090V170 9999 FEW020 SCT050 28/23 Q1013=
2025-02-24 01:00:00<>METAR SBSV 240100Z 12009KT 9999 FEW020 SCT050 28/23 Q1013=
2025-02-24 02:00:00<>METAR SBSV 240200Z 11009KT 9999 SCT020 28/23 Q1013=
2025-02-24 03:00:00<>METAR SBSV 240300Z 11007KT 090V150 9999 SCT020 28/23 Q1013=
2025-02-24 04:00:00<>METAR SBSV 240400Z 12006KT 080V190 9999 FEW020 27/23 Q1012=
2025-02-24 05:00:00<>METAR SBSV 240500Z 12010KT 9999 SCT020 SCT050 27/23 Q1012=
2025-02-24 06:00:00<>METAR SBSV 240600Z 11005KT 080V140 9999 SCT020 SCT050 27/22 Q1012=
2025-02-24 07:00:00<>METAR SBSV 240700Z 13004KT 100V180 9999 SCT020 SCT050 27/23 Q1012=
2025-02-24 08:00:00<>METAR SBSV 240800Z 32003KT 280V010 9999 SCT020 25/23 Q1012=
2025-02-24 09:00:00<>METAR SBSV 240900Z 06009KT 340V100 9999 3000N SHRA BKN016 FEW025TCU SCT050 25/23 Q1012=
2025-02-24 10:00:00<>METAR SBSV 241000Z VRB02KT 9999 VCSH FEW025TCU BKN040 27/24 Q1013 RESHRA=
2025-02-24 11:00:00<>METAR SBSV 241100Z 09007KT 9999 VCSH FEW018 FEW025TCU SCT040 BKN050 28/23 Q1014=
2025-02-24 12:00:00<>METAR SBSV 241200Z 10005KT 050V150 9999 VCSH FEW021 FEW025TCU SCT060 30/24 Q1014=
2025-02-24 13:00:00<>METAR SBSV 241300Z 11009KT 9999 VCSH FEW021 FEW025TCU 29/23 Q1014=
2025-02-24 14:00:00<>METAR SBSV 241400Z 09010KT 060V130 9999 SCT019 30/24 Q1014=
2025-02-24 15:00:00<>METAR SBSV 241500Z 11008KT 9999 FEW022 30/23 Q1014=
2025-02-24 16:00:00<>METAR SBSV 241600Z 11009KT 070V150 9999 FEW023 30/23 Q1013=
2025-02-24 17:00:00<>METAR SBSV 241700Z 12008KT 9999 FEW023 30/23 Q1012=
2025-02-24 18:00:00<>METAR SBSV 241800Z 12009KT 050V220 9999 FEW023 30/23 Q1012=
2025-02-24 19:00:00<>METAR SBSV 241900Z 13010KT 090V160 9999 SCT021 30/22 Q1012=
2025-02-24 20:00:00<>METAR SBSV 242000Z 13009KT 9999 SCT023 30/23 Q1013=
2025-02-24 21:00:00<>METAR SBSV 242100Z 12008KT 9999 SCT023 29/23 Q1013=
2025-02-24 22:00:00<>METAR SBSV 242200Z 12009KT 9999 SCT023 28/22 Q1013=
2025-02-24 23:00:00<>METAR SBSV 242300Z 12010KT 9999 SCT023 29/23 Q1014=
2025-02-25 00:00:00<>METAR SBSV 250000Z 11010KT 9999 SCT023 28/22 Q1015=
2025-02-25 01:00:00<>METAR SBSV 250100Z 11008KT 9999 FEW023 28/22 Q1015=
2025-02-25 02:00:00<>METAR SBSV 250200Z 10009KT 9999 FEW021 28/23 Q1015=
2025-02-25 03:00:00<>METAR SBSV 250300Z 11008KT 090V150 9999 FEW021 28/22 Q1014=
2025-02-25 04:00:00<>METAR SBSV 250400Z 11010KT 060V160 9999 SCT023 28/23 Q1014=
2025-02-25 05:00:00<>METAR SBSV 250500Z 12005KT 100V160 9999 SCT023 26/23 Q1013=
2025-02-25 06:00:00<>METAR SBSV 250600Z 11005KT 9999 FEW023 27/23 Q1013=
2025-02-25 07:00:00<>METAR SBSV 250700Z 12006KT 100V160 9999 SCT020 27/23 Q1013=
2025-02-25 08:00:00<>METAR SBSV 250800Z 12008KT 090V150 9999 SCT020 27/23 Q1013=
2025-02-25 08:27:00<>SPECI SBSV 250827Z 12010G22KT 100V160 9000 VCSH SCT020 FEW023TCU BKN070 26/22 Q1014=
2025-02-25 09:00:00<>METAR SBSV 250900Z 13008KT 100V170 9999 VCSH SCT020 FEW023TCU BKN070 27/23 Q1014=
2025-02-25 10:00:00<>METAR SBSV 251000Z 12006KT 080V150 9999 VCSH SCT022 FEW025TCU BKN070 28/23 Q1015=
2025-02-25 11:00:00<>METAR SBSV 251100Z 03006KT 010V090 6000 -SHRA SCT015 BKN021 FEW025TCU 27/23 Q1015=
2025-02-25 12:00:00<>METAR SBSV 251200Z 12007KT 080V200 8000 VCSH SCT009 BKN017 FEW025TCU 27/23 Q1016=
2025-02-25 13:00:00<>METAR SBSV 251300Z 11007KT 070V160 9999 SCT020 SCT070 29/24 Q1016=
2025-02-25 14:00:00<>METAR SBSV 251400Z 09011KT 9999 SCT022 SCT060 30/24 Q1015=
2025-02-25 15:00:00<>METAR SBSV 251500Z 10011KT 060V150 9999 FEW016 SCT023 32/23 Q1015=
2025-02-25 16:00:00<>METAR SBSV 251600Z 10013KT 070V140 9999 VCSH FEW017 SCT024 31/23 Q1014=
2025-02-25 17:00:00<>METAR SBSV 251700Z 09013KT 9999 SCT024 31/23 Q1013=
2025-02-25 18:00:00<>METAR SBSV 251800Z 11011KT 090V150 9999 SCT024 30/24 Q1013=
2025-02-25 19:00:00<>METAR SBSV 251900Z 10011KT 070V130 9999 SCT023 30/23 Q1013=
2025-02-25 20:00:00<>METAR SBSV 252000Z 11010KT 9999 SCT024 30/23 Q1013=
2025-02-25 21:00:00<>METAR SBSV 252100Z 08004KT 9999 VCSH SCT024 FEW026TCU BKN060 25/22 Q1014=
2025-02-25 22:00:00<>METAR SBSV 252200Z 08005KT 9999 FEW024 26/23 Q1014=
2025-02-25 23:00:00<>METAR SBSV 252300Z 03003KT 9999 SCT024 26/23 Q1015=
2025-02-26 00:00:00<>METAR SBSV 260000Z 06005KT 030V130 9999 BKN023 27/23 Q1015=
2025-02-26 01:00:00<>METAR SBSV 260100Z 03005KT 9999 BKN023 26/22 Q1015=
2025-02-26 02:00:00<>METAR SBSV 260200Z 09007KT 9999 SCT023 27/23 Q1015=
2025-02-26 03:00:00<>METAR SBSV 260300Z 08009KT 050V110 9999 SCT023 27/23 Q1015=
2025-02-26 04:00:00<>METAR SBSV 260400Z 09008KT 9999 SCT023 27/23 Q1014=
2025-02-26 05:00:00<>METAR SBSV 260500Z VRB03KT 9999 SCT023 26/22 Q1013=
2025-02-26 06:00:00<>METAR SBSV 260600Z VRB02KT 9999 SCT023 25/22 Q1013=
2025-02-26 07:00:00<>METAR SBSV 260700Z VRB01KT 9999 SCT023 25/22 Q1013=
2025-02-26 08:00:00<>METAR SBSV 260800Z VRB01KT 9999 FEW023 24/22 Q1013=
2025-02-26 09:00:00<>METAR SBSV 260900Z VRB02KT 9999 VCSH SCT023 FEW025TCU 24/22 Q1014=
2025-02-26 10:00:00<>METAR SBSV 261000Z VRB02KT 9999 SCT023 FEW025TCU SCT033 26/23 Q1014=
2025-02-26 11:00:00<>METAR SBSV 261100Z 11007KT 9999 SCT023 FEW025TCU 28/22 Q1015=
2025-02-26 12:00:00<>METAR SBSV 261200Z 11007KT 080V160 9999 SCT023 FEW025TCU 29/22 Q1016=
2025-02-26 13:00:00<>METAR SBSV 261300Z 13007KT 080V170 9999 SCT023 FEW025TCU 30/23 Q1016=
2025-02-26 14:00:00<>METAR SBSV 261400Z 12008KT 080V180 9999 SCT023 FEW025TCU 31/23 Q1016=
2025-02-26 15:00:00<>METAR SBSV 261500Z 13009KT 090V210 9999 SCT023 30/22 Q1015=
2025-02-26 16:00:00<>METAR SBSV 261600Z 13008KT 080V200 9999 SCT023 31/22 Q1014=
2025-02-26 17:00:00<>METAR SBSV 261700Z 14009KT 090V170 9999 SCT023 30/23 Q1014=
2025-02-26 18:00:00<>METAR SBSV 261800Z 13009KT 090V190 9999 SCT023 31/23 Q1014=
2025-02-26 19:00:00<>METAR SBSV 261900Z 13011KT 090V210 9999 BKN023 30/22 Q1013=
2025-02-26 20:00:00<>METAR SBSV 262000Z 12011KT 9999 BKN023 29/23 Q1013=
2025-02-26 21:00:00<>METAR SBSV 262100Z 12009KT 100V200 9999 SCT020 29/22 Q1013=
2025-02-26 22:00:00<>METAR SBSV 262200Z 12010KT 9999 BKN023 28/22 Q1014=
2025-02-26 23:00:00<>METAR SBSV 262300Z 12010KT 9999 BKN023 28/22 Q1014=
2025-02-27 00:00:00<>METAR SBSV 270000Z 11011KT 9999 SCT023 28/22 Q1014=
2025-02-27 01:00:00<>METAR SBSV 270100Z 10012KT 9999 SCT022 28/23 Q1015=
2025-02-27 02:00:00<>METAR SBSV 270200Z 11011KT 9999 FEW023 28/22 Q1014=
2025-02-27 03:00:00<>METAR SBSV 270300Z 11010KT 9999 SCT023 28/23 Q1014=
2025-02-27 04:00:00<>METAR SBSV 270400Z 10009KT 9999 SCT022 28/23 Q1013=
2025-02-27 05:00:00<>METAR SBSV 270500Z 10009KT 9999 FEW018 SCT023 BKN080 27/23 Q1013=
2025-02-27 06:00:00<>METAR SBSV 270600Z 11007KT 9999 FEW021 SCT024 28/23 Q1012=
2025-02-27 07:00:00<>METAR SBSV 270700Z 06008KT 9999 FEW021 26/22 Q1012=
2025-02-27 08:00:00<>METAR SBSV 270800Z 09005KT 9999 FEW019 SCT023 26/23 Q1012=
2025-02-27 09:00:00<>METAR SBSV 270900Z 09005KT 9999 FEW018 SCT032 27/22 Q1013=
2025-02-27 10:00:00<>METAR SBSV 271000Z 08005KT 9000 VCSH SCT020 FEW023TCU BKN050 BKN070 26/23 Q1013=
2025-02-27 10:26:00<>SPECI SBSV 271026Z 07016KT 4000 -RA BR BKN015 FEW020TCU BKN043 BKN070 24/22 Q0101=
2025-02-27 11:00:00<>METAR SBSV 271100Z 10005KT 060V160 7000 -RA BKN017 FEW020TCU BKN043 BKN070 25/22 Q1014=
2025-02-27 12:00:00<>METAR SBSV 271200Z 13006KT 090V170 9999 VCSH SCT020 FEW020TCU SCT040 BKN080 28/23 Q1014=
2025-02-27 13:00:00<>METAR SBSV 271300Z VRB03KT 6000 -RA SCT020 FEW020TCU BKN030 BKN070 26/23 Q1014=
2025-02-27 14:00:00<>METAR SBSV 271400Z VRB03KT 9000 VCSH SCT020 FEW020TCU BKN030 BKN070 27/23 Q1014=
2025-02-27 15:00:00<>METAR SBSV 271500Z 10007KT 060V120 9000 VCSH SCT020 FEW020TCU SCT030 BKN070 28/23 Q1013=
2025-02-27 16:00:00<>METAR SBSV 271600Z 15008KT 110V180 8000 VCSH SCT020 FEW020TCU SCT030 BKN070 28/22 Q1013=
2025-02-27 17:00:00<>METAR SBSV 271700Z 11011KT 080V160 9000 VCSH FEW021TCU SCT021 BKN070 29/23 Q1012=
2025-02-27 18:00:00<>METAR SBSV 271800Z 10011KT 9999 VCSH SCT021 FEW025TCU BKN070 29/23 Q1012=
2025-02-27 19:00:00<>METAR SBSV 271900Z 11005KT 090V190 9999 SCT021 FEW025TCU BKN070 27/23 Q1012=
2025-02-27 20:00:00<>METAR SBSV 272000Z 10008KT 9999 SCT021 FEW025TCU BKN070 28/23 Q1012=
2025-02-27 21:00:00<>METAR SBSV 272100Z 10007KT 9999 SCT023 BKN070 28/23 Q1012=
2025-02-27 22:00:00<>METAR SBSV 272200Z 13012KT 090V150 9999 SCT018 BKN070 27/23 Q1013=
2025-02-27 23:00:00<>METAR SBSV 272300Z 07010KT 9999 SCT018 BKN070 26/22 Q1013=
2025-02-28 00:00:00<>METAR SBSV 280000Z VRB02KT 9999 SCT017 BKN100 25/22 Q1013=
2025-02-28 01:00:00<>METAR SBSV 280100Z 04006KT 010V080 9999 SCT017 BKN100 25/23 Q1014=
2025-02-28 02:00:00<>METAR SBSV 280200Z 10006KT 060V160 9999 SCT023 BKN100 26/24 Q1014=
2025-02-28 03:00:00<>METAR SBSV 280300Z 09007KT 9999 FEW023 27/23 Q1013=
2025-02-28 04:00:00<>METAR SBSV 280400Z VRB03KT CAVOK 25/22 Q1012=
2025-02-28 05:00:00<>METAR SBSV 280500Z 00000KT 9999 SCT023 BKN100 25/23 Q1012=
2025-02-28 06:00:00<>METAR SBSV 280600Z 27003KT 9999 SCT023 BKN100 25/23 Q1012=
2025-02-28 07:00:00<>METAR SBSV 280700Z 28004KT 9999 SCT023 24/23 Q1012=
2025-02-28 08:00:00<>METAR SBSV 280800Z 31005KT 280V010 9999 SCT023 BKN100 24/23 Q1012=
2025-02-28 08:44:00<>SPECI SBSV 280844Z 26007KT 190V300 0800 R28/P2000 R10/P2000 SHRA BKN007 BKN020 24/23 Q1012=
2025-02-28 09:00:00<>METAR SBSV 280900Z VRB04KT 9000 VCSH BKN008 BKN020 FEW023TCU 24/23 Q1012 RESHRA=
2025-02-28 09:18:00<>SPECI SBSV 280918Z VRB05KT 9000 VCSH SCT008 BKN015 BKN020 FEW023TCU 24/23 Q1013=
2025-02-28 10:00:00<>METAR SBSV 281000Z 04006KT 360V100 9000 VCSH FEW015 BKN021 FEW023TCU BKN050 25/23 Q1013=
2025-02-28 11:00:00<>METAR SBSV 281100Z 09011KT 9999 VCSH SCT025 SCT050 29/23 Q1014=
2025-02-28 12:00:00<>METAR SBSV 281200Z 05006KT 9999 SCT025 SCT050 26/22 Q1014=
2025-02-28 13:00:00<>METAR SBSV 281300Z 09008KT 9999 SCT025 SCT050 29/22 Q1014=
2025-02-28 14:00:00<>METAR SBSV 281400Z 03007KT 9999 SCT025 BKN070 27/22 Q1014=
2025-02-28 15:00:00<>METAR SBSV 281500Z 11010KT 060V150 9999 SCT025 BKN070 30/23 Q1014=
2025-02-28 16:00:00<>METAR SBSV 281600Z 10014KT 9999 SCT025 SCT070 31/22 Q1013=
2025-02-28 17:00:00<>METAR SBSV 281700Z 10013KT 9999 SCT025 SCT070 31/22 Q1012=
2025-02-28 18:00:00<>METAR SBSV 281800Z 09012KT 9999 SCT025 31/23 Q1012=
2025-02-28 19:00:00<>METAR SBSV 281900Z 11011KT 9999 SCT025 30/22 Q1012=
2025-02-28 20:00:00<>METAR SBSV 282000Z 10011KT 9999 VCSH SCT023 FEW025TCU SCT070 29/22 Q1012=
2025-02-28 21:00:00<>METAR SBSV 282100Z 12007KT 9999 VCSH SCT023 FEW025TCU SCT070 28/23 Q1012=
2025-02-28 22:00:00<>METAR SBSV 282200Z 11010KT 9999 SCT023 28/21 Q1012=
2025-02-28 23:00:00<>METAR SBSV 282300Z 11010KT 090V160 9999 SCT025 28/21 Q1013=
2025-03-01 00:00:00<>METAR SBSV 010000Z 10010KT 9999 SCT025 28/21 Q1014=
2025-03-01 01:00:00<>METAR SBSV 010100Z 11011KT 9999 SCT025 26/23 Q1014=
2025-03-01 02:00:00<>METAR SBSV 010200Z 12010KT 9999 SCT025 28/22 Q1014=
2025-03-01 03:00:00<>METAR SBSV 010300Z 11007KT 9999 SCT025 27/22 Q1014=
2025-03-01 04:00:00<>METAR SBSV 010400Z 11007KT 9999 SCT025 27/22 Q1013=
2025-03-01 05:00:00<>METAR SBSV 010500Z 11007KT 9999 SCT025 27/22 Q1012=
2025-03-01 06:00:00<>METAR SBSV 010600Z 07011KT 9999 SCT025 26/21 Q1012=
2025-03-01 07:00:00<>METAR SBSV 010700Z 03006KT 9999 SCT025 24/22 Q1012=
2025-03-01 08:00:00<>METAR SBSV 010800Z 32002KT 9999 SCT025 24/22 Q1012=
2025-03-01 09:00:00<>METAR SBSV 010900Z 06011KT 010V090 9999 4000N SHRA SCT016 FEW023TCU BKN050 24/22 Q1013=
2025-03-01 10:00:00<>METAR SBSV 011000Z 29004KT 9000 VCSH SCT023 FEW025TCU BKN090 24/22 Q1013 RESHRA=
2025-03-01 11:00:00<>METAR SBSV 011100Z 35003KT 9000 VCSH SCT017 BKN023 FEW025TCU BKN100 25/23 Q1014=
2025-03-01 12:00:00<>METAR SBSV 011200Z 11006KT 070V160 9999 SCT022 BKN100 28/23 Q1014=
2025-03-01 13:00:00<>METAR SBSV 011300Z 11012KT 9999 BKN023 30/23 Q1014=
2025-03-01 14:00:00<>METAR SBSV 011400Z 11011KT 9999 BKN023 30/23 Q1014=
2025-03-01 15:00:00<>METAR SBSV 011500Z 12012KT 8000 VCSH BKN022 FEW025TCU 31/23 Q1014=
2025-03-01 16:00:00<>METAR SBSV 011600Z 10012KT 060V120 8000 VCSH BKN022 FEW025TCU BKN100 29/24 Q1013=
2025-03-01 17:00:00<>METAR SBSV 011700Z 10009KT 9000 VCSH BKN022 FEW025TCU BKN100 27/23 Q1013=
2025-03-01 18:00:00<>METAR SBSV 011800Z 12014KT 9999 VCSH SCT015 FEW025TCU BKN100 29/23 Q1013=
2025-03-01 19:00:00<>METAR SBSV 011900Z 08010KT 9999 VCSH FEW015 FEW025TCU SCT100 28/22 Q1012=
2025-03-01 20:00:00<>METAR SBSV 012000Z 08012KT 9999 FEW024 BKN100 28/22 Q1013=
2025-03-01 21:00:00<>METAR SBSV 012100Z 08008KT 9999 FEW024 BKN100 27/23 Q1013=
2025-03-01 22:00:00<>METAR SBSV 012200Z 09006KT 070V150 9999 FEW021 SCT100 27/23 Q1013=
2025-03-01 23:00:00<>METAR SBSV 012300Z 05004KT 010V120 9999 FEW023 SCT030 26/23 Q1013=
2025-03-02 00:00:00<>METAR SBSV 020000Z 11012KT 9999 FEW024 BKN030 27/23 Q1014=
2025-03-02 01:00:00<>METAR SBSV 020100Z 12006KT 080V160 9999 FEW024 BKN030 26/23 Q1015=
2025-03-02 02:00:00<>METAR SBSV 020200Z 10010KT 9999 FEW024 BKN030 28/22 Q1014=
2025-03-02 03:00:00<>METAR SBSV 020300Z 11010KT 9999 FEW024 SCT030 27/22 Q1014=
2025-03-02 04:00:00<>METAR SBSV 020400Z 11010KT 9999 SCT025 SCT030 27/22 Q1013=
2025-03-02 05:00:00<>METAR SBSV 020500Z 10009KT 9999 SCT025 SCT030 27/22 Q1013=
2025-03-02 06:00:00<>METAR SBSV 020600Z 09010KT 9999 SCT025 27/22 Q1012=
2025-03-02 07:00:00<>METAR SBSV 020700Z 11006KT 9999 SCT025 26/22 Q1012=
2025-03-02 08:00:00<>METAR SBSV 020800Z 10011KT 9999 SCT025 27/22 Q1013=
2025-03-02 09:00:00<>METAR SBSV 020900Z 09009KT 9999 SCT025 27/22 Q1013=
2025-03-02 10:00:00<>METAR SBSV 021000Z 10010KT 090V170 9999 SCT023 28/23 Q1013=
2025-03-02 11:00:00<>METAR SBSV 021100Z 10013KT 9999 SCT023 29/23 Q1014=
2025-03-02 12:00:00<>METAR SBSV 021200Z 11012KT 9999 SCT023 30/23 Q1015=
2025-03-02 13:00:00<>METAR SBSV 021300Z 11011KT 9999 SCT023 30/23 Q1015=
2025-03-02 14:00:00<>METAR SBSV 021400Z 11011KT 070V140 9999 SCT023 31/23 Q1015=
2025-03-02 15:00:00<>METAR SBSV 021500Z 12010KT 9999 SCT023 31/20 Q1014=
2025-03-02 16:00:00<>METAR SBSV 021600Z 11011KT 080V180 9999 SCT023 31/23 Q1014=
2025-03-02 17:00:00<>METAR SBSV 021700Z 11012KT 080V140 9999 SCT025 31/23 Q1013=
2025-03-02 18:00:00<>METAR SBSV 021800Z 11012KT 9999 SCT024 31/22 Q1013=
2025-03-02 19:00:00<>METAR SBSV 021900Z 11011KT 080V150 9999 SCT025 30/22 Q1012=
2025-03-02 20:00:00<>METAR SBSV 022000Z 10013KT 9999 SCT022 29/23 Q1013=
2025-03-02 21:00:00<>METAR SBSV 022100Z 11011KT 9999 SCT023 28/22 Q1013=
2025-03-02 22:00:00<>METAR SBSV 022200Z 11012KT 9999 SCT023 SCT050 28/23 Q1013=
2025-03-02 23:00:00<>METAR SBSV 022300Z 11014G24KT 9000 VCSH SCT011 BKN020 BKN050 26/23 Q1014=
2025-03-03 00:00:00<>METAR SBSV 030000Z 10010KT 9999 VCSH FEW014 BKN023 BKN060 27/22 Q1015=
2025-03-03 01:00:00<>METAR SBSV 030100Z 11007KT 9999 FEW021 BKN060 27/22 Q1015=
2025-03-03 02:00:00<>METAR SBSV 030200Z 12007KT 9999 FEW021 SCT100 27/21 Q1015=
2025-03-03 03:00:00<>METAR SBSV 030300Z 11009KT 9999 FEW021 SCT070 28/21 Q1014=
2025-03-03 04:00:00<>METAR SBSV 030400Z 15009KT 9999 FEW020 SCT071 26/22 Q1014=
2025-03-03 05:00:00<>METAR SBSV 030500Z 14006KT 9999 FEW020 BKN060 27/22 Q1013=
2025-03-03 06:00:00<>METAR SBSV 030600Z 11007KT 9999 FEW020 BKN080 27/22 Q1013=
2025-03-03 07:00:00<>METAR SBSV 030700Z 13006KT 090V150 9999 FEW025 BKN080 27/22 Q1013=
2025-03-03 08:00:00<>METAR SBSV 030800Z 12005KT 9999 FEW023 BKN088 27/22 Q1013=
2025-03-03 09:00:00<>METAR SBSV 030900Z 12005KT 9999 VCSH FEW021 FEW023TCU BKN088 27/22 Q1013=
2025-03-03 10:00:00<>METAR SBSV 031000Z 12006KT 090V160 9999 VCSH BKN020 FEW023TCU BKN080 27/22 Q1014=
2025-03-03 11:00:00<>METAR SBSV 031100Z 08006KT 040V100 9999 VCSH BKN020 FEW023TCU BKN070 28/23 Q1014=
2025-03-03 12:00:00<>METAR SBSV 031200Z 04004KT 300V080 9999 VCSH BKN021 FEW024TCU 28/22 Q1015=
2025-03-03 13:00:00<>METAR SBSV 031300Z 10010KT 070V130 9999 VCSH BKN021 FEW024TCU 29/21 Q1015=
2025-03-03 14:00:00<>METAR SBSV 031400Z 13012KT 9999 BKN020 30/22 Q1014=
2025-03-03 15:00:00<>METAR SBSV 031500Z 12011KT 090V160 9999 BKN022 30/22 Q1014=
2025-03-03 16:00:00<>METAR SBSV 031600Z 12011KT 9999 BKN022 30/22 Q1014=
2025-03-03 17:00:00<>METAR SBSV 031700Z 12012G23KT 090V160 9000 -SHRA BKN022 FEW025TCU 28/23 Q1013=
2025-03-03 17:20:00<>SPECI SBSV 031720Z 12011KT 9999 BKN025 FEW027TCU 30/22 Q1013=
2025-03-03 18:00:00<>METAR SBSV 031800Z 12012KT 9999 BKN025 FEW027TCU 30/22 Q1012=
2025-03-03 19:00:00<>METAR SBSV 031900Z 10011KT 9999 SCT025 30/23 Q1012=
2025-03-03 20:00:00<>METAR SBSV 032000Z 12010KT 9999 SCT025 29/22 Q1013=
2025-03-03 21:00:00<>METAR SBSV 032100Z 12010KT 9999 SCT023 28/21 Q1013=
2025-03-03 22:00:00<>METAR SBSV 032200Z 12010KT 9999 SCT025 28/21 Q1013=
2025-03-03 23:00:00<>METAR SBSV 032300Z 12009KT 9999 FEW025 SCT070 28/22 Q1014=
2025-03-04 00:00:00<>METAR SBSV 040000Z 12009KT 9999 FEW025 SCT070 28/22 Q1014=
2025-03-04 01:00:00<>METAR SBSV 040100Z 12009KT 090V160 9999 FEW016 SCT023 28/21 Q1014=
2025-03-04 01:22:00<>SPECI SBSV 040122Z 10016G26KT 9000 VCSH SCT016 BKN024 26/22 Q1014=
2025-03-04 02:00:00<>METAR SBSV 040200Z 06008KT 7000 -SHRA SCT014 BKN023 24/22 Q1014=
2025-03-04 03:00:00<>METAR SBSV 040300Z 02002KT 9999 VCSH SCT022 24/22 Q1014=
2025-03-04 04:00:00<>METAR SBSV 040400Z VRB09KT 9999 BKN023 24/22 Q1013=
2025-03-04 05:00:00<>METAR SBSV 040500Z 11008KT 9999 SCT021 BKN100 27/23 Q1012=
2025-03-04 06:00:00<>METAR SBSV 040600Z 05007KT 020V100 9999 SCT020 SCT100 25/22 Q1012=
2025-03-04 07:00:00<>METAR SBSV 040700Z 11011KT 9999 BKN023 27/22 Q1012=
2025-03-04 08:00:00<>METAR SBSV 040800Z 12012KT 9999 BKN023 27/22 Q1012=
2025-03-04 09:00:00<>METAR SBSV 040900Z 12010KT 100V170 9999 VCSH SCT023 BKN100 26/21 Q1013=
2025-03-04 09:08:00<>SPECI SBSV 040908Z 10013G23KT 8000 VCSH SCT022 FEW025TCU BKN100 26/22 Q1013=
2025-03-04 10:00:00<>METAR SBSV 041000Z 08009KT 9999 SCT022 FEW025TCU BKN100 26/21 Q1013=
2025-03-04 11:00:00<>METAR SBSV 041100Z 09007KT 060V130 9999 SCT022 BKN100 28/22 Q1014=
2025-03-04 12:00:00<>METAR SBSV 041200Z 12008KT 080V140 9999 SCT022 BKN100 29/22 Q1014=
2025-03-04 13:00:00<>METAR SBSV 041300Z 11008KT 080V150 9999 SCT022 29/22 Q1014=
2025-03-04 14:00:00<>METAR SBSV 041400Z 15008KT 100V190 9999 SCT022 FEW025TCU 29/22 Q1014=
2025-03-04 15:00:00<>METAR SBSV 041500Z 12011KT 080V150 9999 SCT022 FEW025TCU 30/22 Q1013=
2025-03-04 16:00:00<>METAR SBSV 041600Z 11010KT 080V140 9999 VCSH SCT022 FEW025TCU 31/22 Q1012=
2025-03-04 17:00:00<>METAR SBSV 041700Z 14014KT 9999 VCSH SCT022 FEW025TCU BKN080 30/21 Q1012=
2025-03-04 18:00:00<>METAR SBSV 041800Z 14014KT 9999 SCT023 FEW025TCU BKN070 29/22 Q1012=
2025-03-04 19:00:00<>METAR SBSV 041900Z 12011KT 080V160 9999 SHRA BKN023 FEW025TCU BKN060 28/22 Q1012=
2025-03-04 20:00:00<>METAR SBSV 042000Z 11007KT 080V180 9999 SCT020 BKN060 28/23 Q1012 RESHRA=
2025-03-04 21:00:00<>METAR SBSV 042100Z 13009KT 9999 VCSH SCT020 FEW023TCU BKN060 28/23 Q1012=
2025-03-04 22:00:00<>METAR SBSV 042200Z 11008KT 090V150 9999 SCT023 BKN060 28/22 Q1012=
2025-03-04 23:00:00<>METAR SBSV 042300Z 12011KT 9999 FEW023 SCT070 28/22 Q1013=
2025-03-05 00:00:00<>METAR SBSV 050000Z 11011KT 9999 SCT023 28/22 Q1013=
2025-03-05 01:00:00<>METAR SBSV 050100Z 10011KT 9999 SCT023 27/22 Q1013=
2025-03-05 02:00:00<>METAR SBSV 050200Z 10011KT 9999 SCT023 28/21 Q1013=
2025-03-05 03:00:00<>METAR SBSV 050300Z 09010KT 9999 SCT023 28/21 Q1013=
2025-03-05 04:00:00<>METAR SBSV 050400Z 10009KT 9999 SCT023 28/21 Q1012=
2025-03-05 05:00:00<>METAR SBSV 050500Z 10008KT 9999 SCT023 27/22 Q1012=
2025-03-05 06:00:00<>METAR SBSV 050600Z 10008KT 9999 SCT023 27/22 Q1012=
2025-03-05 07:00:00<>METAR SBSV 050700Z 12007KT 9999 SCT023 27/22 Q1012=
2025-03-05 08:00:00<>METAR SBSV 050800Z 11008KT 9999 SCT023 26/22 Q1012=
2025-03-05 09:00:00<>METAR SBSV 050900Z 10008KT 9999 SCT023 26/22 Q1012=
2025-03-05 10:00:00<>METAR SBSV 051000Z 10010KT 9999 VCSH SCT023 FEW025TCU 28/22 Q1013=
2025-03-05 11:00:00<>METAR SBSV 051100Z 13006KT 090V170 9999 VCSH SCT024 FEW025TCU BKN054 28/22 Q1014=
2025-03-05 12:00:00<>METAR SBSV 051200Z 10012KT 9999 SCT023 29/22 Q1014=
2025-03-05 13:00:00<>METAR SBSV 051300Z 10012KT 9999 FEW024 30/22 Q1014=
2025-03-05 14:00:00<>METAR SBSV 051400Z 11011KT 080V140 9999 FEW024 31/23 Q1014=
2025-03-05 15:00:00<>METAR SBSV 051500Z 11012KT 9999 FEW026 31/23 Q1014=
2025-03-05 16:00:00<>METAR SBSV 051600Z 12011KT 080V150 9999 FEW026 30/22 Q1013=
2025-03-05 17:00:00<>METAR SBSV 051700Z 11011KT 9999 SCT026 30/22 Q1013=
2025-03-05 18:00:00<>METAR SBSV 051800Z 12011KT 080V150 9999 SCT026 30/22 Q1012=
2025-03-05 19:00:00<>METAR SBSV 051900Z 11010KT 070V140 9999 SCT026 30/22 Q1012=
2025-03-05 20:00:00<>METAR SBSV 052000Z 11009KT 9999 SCT026 29/22 Q1013=
2025-03-05 21:00:00<>METAR SBSV 052100Z 12008KT 9999 FEW023 29/22 Q1013=
2025-03-05 22:00:00<>METAR SBSV 052200Z 14009KT 9999 FEW023 SCT070 27/22 Q1013=
2025-03-05 23:00:00<>METAR SBSV 052300Z 08013KT 9999 SCT023 SCT070 27/21 Q1014=
2025-03-06 00:00:00<>METAR SBSV 060000Z 12010KT 9999 VCSH SCT030 SCT050 28/22 Q1014=
2025-03-06 01:00:00<>METAR SBSV 060100Z 10010KT 9999 SCT024 SCT055 28/22 Q1014=
2025-03-06 02:00:00<>METAR SBSV 060200Z 11011KT 9999 VCSH FEW019 SCT024 28/22 Q1014=
2025-03-06 03:00:00<>METAR SBSV 060300Z 10011KT 9999 SCT022 BKN080 28/22 Q1014=
2025-03-06 04:00:00<>METAR SBSV 060400Z 11010KT 9999 SCT025 27/21 Q1013=
2025-03-06 05:00:00<>METAR SBSV 060500Z 11009KT 9999 SCT025 28/21 Q1013=
2025-03-06 06:00:00<>METAR SBSV 060600Z 12009KT 9999 SCT023 28/21 Q1012=
2025-03-06 07:00:00<>METAR SBSV 060700Z 12010KT 9999 SCT024 27/21 Q1012=
2025-03-06 08:00:00<>METAR SBSV 060800Z 12013KT 9999 SCT023 BKN070 27/20 Q1013=
2025-03-06 09:00:00<>METAR SBSV 060900Z 13010KT 9999 VCSH SCT023 BKN080 27/21 Q1013=
2025-03-06 10:00:00<>METAR SBSV 061000Z 12010KT 9999 VCSH SCT023 FEW025TCU BKN080 28/22 Q1014=
2025-03-06 11:00:00<>METAR SBSV 061100Z 08013KT 9999 BKN023 28/22 Q1015=
2025-03-06 12:00:00<>METAR SBSV 061200Z 11008KT 070V140 9999 VCSH BKN023 29/22 Q1015=
2025-03-06 13:00:00<>METAR SBSV 061300Z 11014KT 9999 VCSH SCT022 FEW025TCU SCT060 29/22 Q1015=
2025-03-06 14:00:00<>METAR SBSV 061400Z 11013KT 090V150 9999 VCSH SCT022 FEW025TCU SCT060 31/22 Q1015=
2025-03-06 15:00:00<>METAR SBSV 061500Z 13011KT 100V160 9999 BKN023 31/23 Q1015=
2025-03-06 16:00:00<>METAR SBSV 061600Z 14013KT 9999 BKN023 30/22 Q1014=
2025-03-06 17:00:00<>METAR SBSV 061700Z 12010KT 090V150 9999 FEW024 BKN060 30/21 Q1014=
2025-03-06 18:00:00<>METAR SBSV 061800Z 13010KT 070V180 9999 FEW025 BKN070 30/22 Q1014=
2025-03-06 19:00:00<>METAR SBSV 061900Z 12010KT 9999 FEW025 BKN080 30/21 Q1014=
2025-03-06 20:00:00<>METAR SBSV 062000Z 13010KT 100V160 9999 FEW026 SCT070 29/22 Q1014=
2025-03-06 21:00:00<>METAR SBSV 062100Z 13008KT 9999 FEW026 29/21 Q1014=
2025-03-06 22:00:00<>METAR SBSV 062200Z 13007KT 100V180 9999 FEW026 SCT070 28/23 Q1015=
2025-03-06 23:00:00<>METAR SBSV 062300Z 16009KT 9999 FEW023 SCT080 27/21 Q1015=
2025-03-07 00:00:00<>METAR SBSV 070000Z 17006KT 9999 FEW023 BKN070 27/22 Q1016=
2025-03-07 01:00:00<>METAR SBSV 070100Z 13008KT 9999 SCT023 BKN070 27/23 Q1016=
2025-03-07 02:00:00<>METAR SBSV 070200Z 12008KT 9999 SCT023 BKN070 28/22 Q1016=
2025-03-07 03:00:00<>METAR SBSV 070300Z 12006KT 060V160 9999 FEW023 BKN070 27/21 Q1015=
2025-03-07 04:00:00<>METAR SBSV 070400Z 12007KT 090V170 9999 SCT023 BKN070 27/22 Q1015=
2025-03-07 05:00:00<>METAR SBSV 070500Z 10011KT 9999 SCT023 BKN070 26/20 Q1014=
2025-03-07 06:00:00<>METAR SBSV 070600Z 10011KT 9999 SCT023 BKN070 26/22 Q1014=
2025-03-07 07:00:00<>METAR SBSV 070700Z 10005KT 9999 SCT023 BKN070 25/21 Q1014=
2025-03-07 08:00:00<>METAR SBSV 070800Z 11011KT 9999 SCT023 BKN070 27/21 Q1014=
2025-03-07 09:00:00<>METAR SBSV 070900Z 11008KT 9999 SCT023 BKN070 26/22 Q1014=
2025-03-07 10:00:00<>METAR SBSV 071000Z 14007KT 9999 SCT023 BKN070 28/22 Q1015=
2025-03-07 10:30:00<>SPECI SBSV 071030Z 12013KT 9000 2000NE RA SCT023 BKN070 25/21 Q1015=
2025-03-07 11:00:00<>METAR SBSV 071100Z 12005KT 090V150 9999 VCSH SCT023 27/23 Q1016 RERA=
2025-03-07 12:00:00<>METAR SBSV 071200Z 10008KT 9999 VCSH BKN021 28/23 Q1016=
2025-03-07 13:00:00<>METAR SBSV 071300Z 10010KT 9999 BKN021 29/21 Q1016=
2025-03-07 14:00:00<>METAR SBSV 071400Z 12012KT 9999 VCSH BKN023 FEW025TCU 31/23 Q1016=
2025-03-07 15:00:00<>METAR SBSV 071500Z 11013KT 9999 BKN023 SCT070 31/23 Q1015=
2025-03-07 16:00:00<>METAR SBSV 071600Z 10012KT 9999 SCT023 SCT050 31/23 Q1014=
2025-03-07 17:00:00<>METAR SBSV 071700Z 12010KT 070V150 9999 VCSH SCT025 BKN070 30/22 Q1014=
2025-03-07 18:00:00<>METAR SBSV 071800Z 13012KT 100V160 9999 VCSH FEW019 SCT025 BKN100 30/22 Q1014=
2025-03-07 19:00:00<>METAR SBSV 071900Z 13010KT 100V160 9999 SCT025 SCT060 30/22 Q1014=
2025-03-07 20:00:00<>METAR SBSV 072000Z 14010KT 110V170 9999 VCSH SCT024 FEW025TCU SCT060 29/22 Q1014=
2025-03-07 21:00:00<>METAR SBSV 072100Z 12012KT 9000 VCSH SCT023 FEW025TCU BKN090 28/23 Q1014=
2025-03-07 22:00:00<>METAR SBSV 072200Z 12010KT 9999 FEW022 SCT060 28/22 Q1015=
2025-03-07 23:00:00<>METAR SBSV 072300Z 14009KT 9000 VCSH BKN023 FEW025TCU BKN060 28/22 Q1015=
2025-03-08 00:00:00<>METAR SBSV 080000Z 12011KT 9999 VCSH SCT023 FEW025TCU BKN070 28/22 Q1015=
2025-03-08 00:39:00<>SPECI SBSV 080039Z 11018G28KT 9000 VCSH BKN020 FEW025TCU BKN055 26/22 Q1016=
2025-03-08 01:00:00<>METAR SBSV 080100Z 09015G25KT 9000 VCSH BKN020 FEW025TCU BKN055 24/22 Q1016=
2025-03-08 02:00:00<>METAR SBSV 080200Z 11007KT 090V150 9999 VCSH SCT022 FEW025TCU BKN080 27/23 Q1016=
2025-03-08 03:00:00<>METAR SBSV 080300Z 10008KT 9999 FEW022 27/23 Q1015=
2025-03-08 04:00:00<>METAR SBSV 080400Z 10009KT 9999 FEW022 27/21 Q1014=
2025-03-08 05:00:00<>METAR SBSV 080500Z 12008KT 9999 FEW023 27/22 Q1013=
2025-03-08 06:00:00<>METAR SBSV 080600Z 13007KT 9999 FEW023 27/21 Q1013=
2025-03-08 07:00:00<>METAR SBSV 080700Z 12006KT 9999 FEW025 27/21 Q1013=
2025-03-08 08:00:00<>METAR SBSV 080800Z 11006KT 9999 SCT026 BKN060 27/20 Q1013=
2025-03-08 09:00:00<>METAR SBSV 080900Z 13007KT 090V150 9999 SCT026 SCT060 27/21 Q1014=
2025-03-08 10:00:00<>METAR SBSV 081000Z 11008KT 9999 SCT025 SCT060 28/21 Q1014=
2025-03-08 11:00:00<>METAR SBSV 081100Z 12008KT 9999 BKN025 29/21 Q1015=
2025-03-08 12:00:00<>METAR SBSV 081200Z 12007KT 070V150 9999 BKN025 30/22 Q1015=
2025-03-08 13:00:00<>METAR SBSV 081300Z 13008KT 090V160 9999 BKN025 30/21 Q1015=
2025-03-08 14:00:00<>METAR SBSV 081400Z 12009KT 080V160 9999 BKN025 30/21 Q1015=
2025-03-08 15:00:00<>METAR SBSV 081500Z 11009KT 070V150 9999 BKN025 30/21 Q1014=
2025-03-08 16:00:00<>METAR SBSV 081600Z 14009KT 110V180 9999 BKN025 30/22 Q1014=
2025-03-08 17:00:00<>METAR SBSV 081700Z 11011KT 9999 VCSH BKN023 FEW025TCU 30/22 Q1013=
2025-03-08 18:00:00<>METAR SBSV 081800Z 13014G24KT 9999 VCSH BKN023 FEW025TCU SCT070 28/21 Q1013=
2025-03-08 19:00:00<>METAR SBSV 081900Z 14008KT 110V170 9999 BKN023 FEW025TCU SCT070 28/21 Q1013=
2025-03-08 20:00:00<>METAR SBSV 082000Z 13007KT 100V160 9999 SCT023 SCT070 28/21 Q1013=
2025-03-08 21:00:00<>METAR SBSV 082100Z 14006KT 9999 FEW023 SCT100 28/22 Q1014=
2025-03-08 22:00:00<>METAR SBSV 082200Z 14007KT 110V180 9999 FEW023 SCT100 28/22 Q1014=
2025-03-08 23:00:00<>METAR SBSV 082300Z 12008KT 9999 FEW025 SCT100 28/21 Q1015=
2025-03-09 00:00:00<>METAR SBSV 090000Z 13007KT 110V190 9999 FEW025 28/21 Q1015=
2025-03-09 01:00:00<>METAR SBSV 090100Z 13008KT 100V160 9999 FEW019 SCT025 28/22 Q1015=
2025-03-09 02:00:00<>METAR SBSV 090200Z 11007KT 9999 FEW017 SCT025 27/22 Q1015=
2025-03-09 03:00:00<>METAR SBSV 090300Z 09012KT 6000 -SHRA FEW015 BKN022 25/22 Q1015=
2025-03-09 04:00:00<>METAR SBSV 090400Z 10009KT 9999 VCSH BKN024 26/22 Q1014=
2025-03-09 05:00:00<>METAR SBSV 090500Z 11007KT 9999 SCT023 BKN070 26/22 Q1013=
2025-03-09 06:00:00<>METAR SBSV 090600Z 12007KT 9999 SCT024 BKN080 26/21 Q1013=
2025-03-09 07:00:00<>METAR SBSV 090700Z 11007KT 9999 SCT025 27/21 Q1013=
2025-03-09 08:00:00<>METAR SBSV 090800Z 11007KT 9999 SCT025 SCT100 26/21 Q1013=
2025-03-09 09:00:00<>METAR SBSV 090900Z 12007KT 9999 VCSH SCT025 SCT060 27/21 Q1013=
2025-03-09 10:00:00<>METAR SBSV 091000Z 16003KT 120V180 9999 SCT025 SCT060 26/22 Q1014=
2025-03-09 11:00:00<>METAR SBSV 091100Z 18004KT 140V240 9999 SCT025 SCT060 28/21 Q1014=
2025-03-09 12:00:00<>METAR SBSV 091200Z 13008KT 100V160 9999 SCT025 SCT060 29/21 Q1015=
2025-03-09 13:00:00<>METAR SBSV 091300Z 10009KT 9999 SCT025 30/22 Q1015=
2025-03-09 14:00:00<>METAR SBSV 091400Z 12009KT 9999 SCT025 31/23 Q1015=
2025-03-09 15:00:00<>METAR SBSV 091500Z 12008KT 060V170 9999 SCT025 30/22 Q1014=
2025-03-09 16:00:00<>METAR SBSV 091600Z 10009KT 9999 SCT023 FEW025TCU 30/22 Q1013=
2025-03-09 17:00:00<>METAR SBSV 091700Z 11011KT 9999 SCT023 30/22 Q1013=
2025-03-09 18:00:00<>METAR SBSV 091800Z 12010KT 090V190 9999 SCT023 30/22 Q1012=
2025-03-09 19:00:00<>METAR SBSV 091900Z 12010KT 9999 SCT023 29/21 Q1012=
2025-03-09 20:00:00<>METAR SBSV 092000Z 11010KT 9999 SCT023 29/22 Q1012=
2025-03-09 21:00:00<>METAR SBSV 092100Z 11008KT 9999 SCT024 28/21 Q1012=
2025-03-09 22:00:00<>METAR SBSV 092200Z 11008KT 9999 SCT024 28/21 Q1013=
2025-03-09 23:00:00<>METAR SBSV 092300Z 11009KT 9999 SCT025 28/21 Q1013=
2025-03-10 00:00:00<>METAR SBSV 100000Z 09009KT 9999 SCT025 28/22 Q1014=
2025-03-10 01:00:00<>METAR SBSV 100100Z 11007KT 9999 SCT026 28/21 Q1015=
2025-03-10 02:00:00<>METAR SBSV 100200Z 10007KT 9999 FEW026 28/22 Q1014=
2025-03-10 03:00:00<>METAR SBSV 100300Z 11006KT 9999 SCT026 27/21 Q1014=
2025-03-10 04:00:00<>METAR SBSV 100400Z 10006KT 9999 FEW026 28/22 Q1013=
2025-03-10 05:00:00<>METAR SBSV 100500Z 10007KT 9999 FEW026 27/21 Q1013=
2025-03-10 06:00:00<>METAR SBSV 100600Z 09005KT 9999 FEW024 27/22 Q1013=
2025-03-10 07:00:00<>METAR SBSV 100700Z 09006KT 9999 FEW024 27/22 Q1013=
2025-03-10 08:00:00<>METAR SBSV 100800Z 09005KT 9999 FEW025 27/22 Q1013=
2025-03-10 09:00:00<>METAR SBSV 100900Z VRB02KT 9999 SCT025 SCT030 26/22 Q1013=
2025-03-10 10:00:00<>METAR SBSV 101000Z VRB02KT 9999 SCT025 SCT050 28/22 Q1014=
2025-03-10 11:00:00<>METAR SBSV 101100Z 08007KT 9999 SCT025 SCT050 30/22 Q1015=
2025-03-10 12:00:00<>METAR SBSV 101200Z 09007KT 9999 SCT025 SCT050 29/23 Q1015=
2025-03-10 13:00:00<>METAR SBSV 101300Z 11007KT 070V150 9999 SCT023 30/23 Q1015=
2025-03-10 14:00:00<>METAR SBSV 101400Z 11009KT 070V150 9999 SCT025 31/23 Q1014=
2025-03-10 15:00:00<>METAR SBSV 101500Z 11010KT 9999 SCT025 31/23 Q1014=
2025-03-10 16:00:00<>METAR SBSV 101600Z 12010KT 090V160 9999 SCT025 SCT070 31/23 Q1013=
2025-03-10 17:00:00<>METAR SBSV 101700Z 12011KT 090V150 9999 SCT025 SCT080 30/23 Q1012=
2025-03-10 18:00:00<>METAR SBSV 101800Z 12010KT 090V170 9999 SCT025 SCT080 30/23 Q1012=
2025-03-10 19:00:00<>METAR SBSV 101900Z 11011KT 9999 SCT025 30/22 Q1012=
2025-03-10 20:00:00<>METAR SBSV 102000Z 08011KT 9999 SCT023 FEW025TCU 29/24 Q1012=
2025-03-10 21:00:00<>METAR SBSV 102100Z 08011KT 9999 SCT023 FEW025TCU 28/23 Q1012=
2025-03-10 22:00:00<>METAR SBSV 102200Z 06009KT 9999 SCT023 FEW025TCU 27/23 Q1013=
2025-03-10 23:00:00<>METAR SBSV 102300Z 06010KT 9999 FEW023 28/23 Q1013=
2025-03-11 00:00:00<>METAR SBSV 110000Z 07010KT 9999 FEW023 28/23 Q1014=
2025-03-11 01:00:00<>METAR SBSV 110100Z 07011KT 9999 SCT021 28/23 Q1014=
2025-03-11 02:00:00<>METAR SBSV 110200Z 07011KT 9999 VCSH FEW014 BKN020 28/23 Q1014=
2025-03-11 03:00:00<>METAR SBSV 110300Z 07012KT 9999 FEW016 SCT021 28/23 Q1013=
2025-03-11 04:00:00<>METAR SBSV 110400Z 07011KT 9999 FEW015 BKN022 28/23 Q1013=
2025-03-11 05:00:00<>METAR SBSV 110500Z 07010KT 9999 SCT022 27/23 Q1013=
2025-03-11 06:00:00<>METAR SBSV 110600Z 08009KT 9999 SCT019 BKN050 28/23 Q1013=
2025-03-11 07:00:00<>METAR SBSV 110700Z 07008KT 9999 BKN021 BKN055 28/22 Q1013=
2025-03-11 08:00:00<>METAR SBSV 110800Z 07008KT 9999 SCT021 BKN055 28/22 Q1014=
2025-03-11 09:00:00<>METAR SBSV 110900Z 07009KT 9999 BKN022 BKN060 28/22 Q1014=
2025-03-11 10:00:00<>METAR SBSV 111000Z 07010KT 9999 SCT023 BKN060 28/22 Q1015=
2025-03-11 11:00:00<>METAR SBSV 111100Z 07011KT 9999 SCT023 29/23 Q1016=
2025-03-11 12:00:00<>METAR SBSV 111200Z 07010KT 040V100 9999 SCT023 30/22 Q1016=
2025-03-11 13:00:00<>METAR SBSV 111300Z 08009KT 040V110 9999 SCT023 30/23 Q1017=
2025-03-11 14:00:00<>METAR SBSV 111400Z 09012KT 060V140 9999 SCT023 31/23 Q1016=
2025-03-11 15:00:00<>METAR SBSV 111500Z 10011KT 070V130 9999 BKN025 31/23 Q1016=
2025-03-11 16:00:00<>METAR SBSV 111600Z 09012KT 060V130 9999 BKN025 31/23 Q1015=
2025-03-11 17:00:00<>METAR SBSV 111700Z 09012KT 060V120 9999 BKN025 30/22 Q1014=
2025-03-11 18:00:00<>METAR SBSV 111800Z 09011KT 9999 FEW022 30/23 Q1014=
2025-03-11 19:00:00<>METAR SBSV 111900Z 09011KT 9999 FEW023 30/22 Q1014=
2025-03-11 20:00:00<>METAR SBSV 112000Z 10011KT 9999 FEW024 29/23 Q1014=
2025-03-11 21:00:00<>METAR SBSV 112100Z 09009KT 070V130 9999 FEW025 29/22 Q1015=
2025-03-11 22:00:00<>METAR SBSV 112200Z 09010KT 9999 FEW026 28/23 Q1015=
2025-03-11 23:00:00<>METAR SBSV 112300Z 09008KT 9999 SCT026 28/23 Q1015=
2025-03-12 00:00:00<>METAR SBSV 120000Z 09008KT 9999 SCT026 28/22 Q1015=
2025-03-12 01:00:00<>METAR SBSV 120100Z 08009KT 9999 FEW024 27/22 Q1016=
2025-03-12 02:00:00<>METAR SBSV 120200Z 08008KT 9999 SCT023 28/23 Q1015=
2025-03-12 03:00:00<>METAR SBSV 120300Z 08008KT 9999 SCT023 27/22 Q1015=
2025-03-12 04:00:00<>METAR SBSV 120400Z 09005KT 9999 SCT023 28/22 Q1015=
2025-03-12 05:00:00<>METAR SBSV 120500Z 10006KT 9999 SCT023 28/23 Q1015=
2025-03-12 06:00:00<>METAR SBSV 120600Z 10007KT 080V160 9999 SCT023 28/23 Q1014=
2025-03-12 07:00:00<>METAR SBSV 120700Z 10007KT 9999 SCT023 27/23 Q1014=
2025-03-12 08:00:00<>METAR SBSV 120800Z 09009KT 9999 SCT023 28/23 Q1014=
2025-03-12 09:00:00<>METAR SBSV 120900Z 11009KT 9999 SCT023 28/22 Q1015=
2025-03-12 10:00:00<>METAR SBSV 121000Z 10009KT 9999 SCT023 29/23 Q1016=
2025-03-12 11:00:00<>METAR SBSV 121100Z 10010KT 9999 SCT023 29/22 Q1017=
2025-03-12 12:00:00<>METAR SBSV 121200Z 10009KT 9999 SCT023 30/23 Q1017=
2025-03-12 13:00:00<>METAR SBSV 121300Z 10008KT 060V140 9999 SCT023 31/22 Q1017=
2025-03-12 14:00:00<>METAR SBSV 121400Z VRB08KT 9999 SCT023 31/22 Q1017=
2025-03-12 15:00:00<>METAR SBSV 121500Z 10010KT 9999 SCT023 30/22 Q1016=
2025-03-12 16:00:00<>METAR SBSV 121600Z 13012KT 9999 VCSH SCT023 FEW025TCU BKN050 29/23 Q1016=
2025-03-12 17:00:00<>METAR SBSV 121700Z 13008KT 090V160 9999 SCT023 FEW025TCU BKN050 29/22 Q1015=
2025-03-12 18:00:00<>METAR SBSV 121800Z 17007KT 120V200 9999 SCT023 BKN070 29/21 Q1014=
2025-03-12 19:00:00<>METAR SBSV 121900Z 17009KT 120V220 9999 SCT024 BKN070 29/22 Q1014=
2025-03-12 20:00:00<>METAR SBSV 122000Z 16008KT 9999 SCT025 SCT080 29/22 Q1014=
2025-03-12 21:00:00<>METAR SBSV 122100Z 12008KT 090V200 9999 SCT025 28/22 Q1014=
2025-03-12 22:00:00<>METAR SBSV 122200Z 10006KT 070V150 9999 SCT022 28/22 Q1014=
2025-03-12 23:00:00<>METAR SBSV 122300Z 12009KT 9999 SCT022 28/23 Q1015=
2025-03-13 00:00:00<>METAR SBSV 130000Z 12008KT 9999 BKN023 28/22 Q1015=
2025-03-13 01:00:00<>METAR SBSV 130100Z 11006KT 090V150 9999 VCSH SCT024 28/22 Q1016=
2025-03-13 02:00:00<>METAR SBSV 130200Z 12007KT 9999 SCT024 28/22 Q1015=
2025-03-13 03:00:00<>METAR SBSV 130300Z 11007KT 9999 SCT024 28/22 Q1014=
2025-03-13 04:00:00<>METAR SBSV 130400Z 06007KT 9999 BKN024 BKN060 26/21 Q1014=
2025-03-13 05:00:00<>METAR SBSV 130500Z 14004KT 9999 SCT026 SCT060 27/22 Q1013=
2025-03-13 06:00:00<>METAR SBSV 130600Z 12006KT 9999 FEW023 27/22 Q1013=
2025-03-13 07:00:00<>METAR SBSV 130700Z 12006KT 090V150 9999 SCT023 SCT060 27/22 Q1013=
2025-03-13 08:00:00<>METAR SBSV 130800Z 13007KT 9999 FEW026 27/22 Q1013=
2025-03-13 09:00:00<>METAR SBSV 130900Z 12007KT 9999 VCSH FEW023 FEW025TCU 27/21 Q1014=
2025-03-13 10:00:00<>METAR SBSV 131000Z 12008KT 090V150 9999 SCT023 FEW025TCU 28/21 Q1014=
2025-03-13 11:00:00<>METAR SBSV 131100Z 12009KT 080V160 9999 SCT023 29/22 Q1015=
2025-03-13 12:00:00<>METAR SBSV 131200Z 13008KT 100V160 9999 SCT023 30/21 Q1015=
2025-03-13 13:00:00<>METAR SBSV 131300Z 14009KT 100V180 9999 SCT023 30/22 Q1015=
2025-03-13 14:00:00<>METAR SBSV 131400Z 14009KT 100V180 9999 SCT023 30/22 Q1014=
2025-03-13 15:00:00<>METAR SBSV 131500Z 15009KT 090V190 9999 BKN024 30/21 Q1014=
2025-03-13 16:00:00<>METAR SBSV 131600Z 14010KT 080V210 9999 BKN024 31/22 Q1013=
2025-03-13 17:00:00<>METAR SBSV 131700Z 13010KT 090V160 9999 BKN024 31/22 Q1013=
2025-03-13 18:00:00<>METAR SBSV 131800Z 13010KT 100V180 9999 BKN025 31/22 Q1012=
2025-03-13 18:35:00<>SPECI SBSV 131835Z 07011KT 7000 SHRA BKN025 SCT070 26/24 Q1012=
2025-03-13 19:00:00<>METAR SBSV 131900Z 08012KT 9999 VCSH BKN025 SCT070 27/23 Q1012 RESHRA=
2025-03-13 20:00:00<>METAR SBSV 132000Z 09011KT 9999 SCT025 BKN070 27/22 Q1013=
2025-03-13 21:00:00<>METAR SBSV 132100Z 11008KT 9999 FEW025 BKN050 28/21 Q1013=
2025-03-13 22:00:00<>METAR SBSV 132200Z 10006KT 9999 FEW025 BKN050 27/22 Q1013=
2025-03-13 23:00:00<>METAR SBSV 132300Z 11008KT 9999 FEW025 BKN050 27/22 Q1014=
2025-03-14 00:00:00<>METAR SBSV 140000Z 10007KT 9999 FEW025 BKN070 28/22 Q1014=
2025-03-14 01:00:00<>METAR SBSV 140100Z 09009KT 9999 FEW025 BKN070 27/22 Q1014=
2025-03-14 02:00:00<>METAR SBSV 140200Z 09007KT 9999 FEW025 BKN070 27/21 Q1014=
2025-03-14 03:00:00<>METAR SBSV 140300Z 09008KT 9999 FEW025 BKN070 27/22 Q1013=
2025-03-14 04:00:00<>METAR SBSV 140400Z 10007KT 9999 FEW025 BKN070 27/22 Q1013=
2025-03-14 05:00:00<>METAR SBSV 140500Z 09006KT 9999 FEW025 SCT070 27/22 Q1012=
2025-03-14 06:00:00<>METAR SBSV 140600Z 08004KT 9999 FEW025 SCT070 26/22 Q1012=
2025-03-14 07:00:00<>METAR SBSV 140700Z 06006KT 9999 SCT023 27/22 Q1012=
2025-03-14 08:00:00<>METAR SBSV 140800Z 00000KT 9999 SCT020 25/22 Q1012=
2025-03-14 09:00:00<>METAR SBSV 140900Z VRB02KT 9999 SCT020 24/22 Q1012=
2025-03-14 10:00:00<>METAR SBSV 141000Z 00000KT 9999 SCT023 26/22 Q1013=
2025-03-14 11:00:00<>METAR SBSV 141100Z 07006KT 9999 SCT023 29/23 Q1013=
2025-03-14 12:00:00<>METAR SBSV 141200Z 10008KT 9999 SCT023 29/22 Q1014=
2025-03-14 13:00:00<>METAR SBSV 141300Z 10009KT 050V120 9999 SCT025 30/23 Q1014=
2025-03-14 14:00:00<>METAR SBSV 141400Z 11010KT 9999 SCT025 31/23 Q1013=
2025-03-14 15:00:00<>METAR SBSV 141500Z 11011KT 9999 SCT025 31/23 Q1012=
2025-03-14 16:00:00<>METAR SBSV 141600Z 11011KT 070V150 9999 SCT023 31/23 Q1011=
2025-03-14 17:00:00<>METAR SBSV 141700Z 12010KT 9999 SCT023 31/22 Q1011=
2025-03-14 18:00:00<>METAR SBSV 141800Z 11011KT 9999 SCT023 31/23 Q1010=
2025-03-14 19:00:00<>METAR SBSV 141900Z 11011KT 9999 SCT023 30/22 Q1010=
2025-03-14 20:00:00<>METAR SBSV 142000Z 10010KT 9999 SCT023 29/22 Q1010=
2025-03-14 21:00:00<>METAR SBSV 142100Z 09010KT 9999 SCT021 28/23 Q1011=
2025-03-14 22:00:00<>METAR SBSV 142200Z 09010KT 9999 SCT021 28/22 Q1011=
2025-03-14 23:00:00<>METAR SBSV 142300Z 10010KT 9999 FEW021 28/22 Q1012=
2025-03-15 00:00:00<>METAR SBSV 150000Z 09009KT 9999 FEW021 28/22 Q1013=
2025-03-15 01:00:00<>METAR SBSV 150100Z 09010KT 9999 FEW023 28/22 Q1013=
2025-03-15 02:00:00<>METAR SBSV 150200Z 09009KT 9999 FEW023 28/22 Q1013=
2025-03-15 03:00:00<>METAR SBSV 150300Z 09008KT 9999 FEW023 27/22 Q1013=
2025-03-15 04:00:00<>METAR COR SBSV 150400Z 09008KT 9999 SCT023 28/22 Q1012=
2025-03-15 05:00:00<>METAR SBSV 150500Z 08007KT 9999 SCT023 27/22 Q1012=
2025-03-15 06:00:00<>METAR SBSV 150600Z 09006KT 9999 SCT023 27/22 Q1012=
2025-03-15 07:00:00<>METAR SBSV 150700Z 00000KT 9999 SCT023 25/22 Q1012=
2025-03-15 08:00:00<>METAR SBSV 150800Z 30003KT 9999 SCT023 25/22 Q1012=
2025-03-15 09:00:00<>METAR SBSV 150900Z 00000KT 9999 SCT023 25/22 Q1012=
2025-03-15 10:00:00<>METAR SBSV 151000Z VRB02KT 9999 SCT023 27/23 Q1013=
2025-03-15 11:00:00<>METAR SBSV 151100Z VRB04KT 9999 SCT023 30/22 Q1013=
2025-03-15 12:00:00<>METAR SBSV 151200Z 09006KT 060V140 9999 SCT023 30/22 Q1014=
2025-03-15 13:00:00<>METAR SBSV 151300Z 10008KT 9999 SCT023 30/23 Q1014=
2025-03-15 14:00:00<>METAR SBSV 151400Z 10010KT 9999 SCT023 30/23 Q1013=
2025-03-15 15:00:00<>METAR SBSV 151500Z 10010KT 9999 SCT023 31/22 Q1012=
2025-03-15 16:00:00<>METAR SBSV 151600Z 11010KT 9999 SCT023 31/22 Q1011=
2025-03-15 17:00:00<>METAR SBSV 151700Z 11010KT 080V170 9999 FEW023 31/21 Q1011=
2025-03-15 18:00:00<>METAR SBSV 151800Z 10010KT 070V140 9999 FEW024 30/22 Q1011=
2025-03-15 19:00:00<>METAR SBSV 151900Z 10010KT 070V130 9999 FEW025 30/23 Q1011=
2025-03-15 20:00:00<>METAR SBSV 152000Z 11009KT 070V150 9999 FEW025 30/22 Q1011=
2025-03-15 21:00:00<>METAR SBSV 152100Z 10008KT 9999 FEW025 29/22 Q1011=
2025-03-15 22:00:00<>METAR SBSV 152200Z 10009KT 9999 FEW023 28/22 Q1011=
2025-03-15 23:00:00<>METAR SBSV 152300Z 09010KT 9999 SCT024 28/22 Q1012=
2025-03-16 00:00:00<>METAR SBSV 160000Z 09010KT 9999 FEW026 28/22 Q1013=
2025-03-16 01:00:00<>METAR SBSV 160100Z 09011KT 9999 FEW026 28/22 Q1014=
2025-03-16 02:00:00<>METAR SBSV 160200Z 09009KT 9999 FEW026 28/23 Q1014=
2025-03-16 03:00:00<>METAR SBSV 160300Z 08009KT 9999 SCT026 27/22 Q1014=
2025-03-16 04:00:00<>METAR SBSV 160400Z 06008KT 9999 SCT026 28/22 Q1013=
2025-03-16 05:00:00<>METAR SBSV 160500Z 05007KT 9999 FEW026 27/22 Q1013=
2025-03-16 06:00:00<>METAR SBSV 160600Z VRB02KT 9999 FEW026 26/22 Q1013=
2025-03-16 07:00:00<>METAR SBSV 160700Z VRB02KT 9999 FEW026 25/22 Q1013=
2025-03-16 08:00:00<>METAR SBSV 160800Z 26002KT 9999 FEW026 25/22 Q1013=
2025-03-16 09:00:00<>METAR SBSV 160900Z VRB02KT 9999 VCSH SCT015 FEW025TCU 25/23 Q1014=
2025-03-16 10:00:00<>METAR SBSV 161000Z 16008KT 130V190 9999 4000W VCSH SCT008 BKN020 FEW025TCU 25/23 Q1015=
2025-03-16 11:00:00<>METAR SBSV 161100Z VRB02KT 9999 VCSH SCT020 FEW025TCU BKN070 26/23 Q1015=
2025-03-16 12:00:00<>METAR SBSV 161200Z 16008KT 9999 SCT020 BKN070 28/23 Q1015=
2025-03-16 13:00:00<>METAR SBSV 161300Z 16003KT 060V220 9999 SCT023 BKN080 30/23 Q1015=
2025-03-16 14:00:00<>METAR SBSV 161400Z 14007KT 070V160 9999 SCT023 SCT100 30/23 Q1015=
2025-03-16 15:00:00<>METAR SBSV 161500Z 13008KT 090V180 9999 SCT023 31/23 Q1014=
2025-03-16 16:00:00<>METAR SBSV 161600Z 15010KT 100V170 9999 SCT023 30/23 Q1013=
2025-03-16 17:00:00<>METAR SBSV 161700Z 16010KT 9999 SCT023 31/24 Q1013=
2025-03-16 18:00:00<>METAR SBSV 161800Z 14010KT 9999 SCT023 30/24 Q1012=
2025-03-16 19:00:00<>METAR SBSV 161900Z 14009KT 110V170 9999 SCT023 30/23 Q1013=
2025-03-16 20:00:00<>METAR SBSV 162000Z 14009KT 9999 SCT023 29/23 Q1012=
2025-03-16 21:00:00<>METAR SBSV 162100Z 13008KT 9999 SCT023 28/23 Q1013=
2025-03-16 22:00:00<>METAR SBSV 162200Z 11009KT 9999 SCT023 29/23 Q1013=
2025-03-16 23:00:00<>METAR SBSV 162300Z 09009KT 9999 FEW023 SCT080 28/22 Q1014=
2025-03-17 00:00:00<>METAR SBSV 170000Z 09011KT 9999 FEW021 SCT080 28/23 Q1015=
2025-03-17 01:00:00<>METAR SBSV 170100Z 08009KT 9999 FEW021 SCT080 27/24 Q1015=
2025-03-17 02:00:00<>METAR SBSV 170200Z 08008KT 9999 FEW021 SCT080 28/23 Q1015=
2025-03-17 03:00:00<>METAR SBSV 170300Z 08008KT 9999 SCT023 27/23 Q1015=
2025-03-17 04:00:00<>METAR SBSV 170400Z 09009KT 9999 SCT021 28/23 Q1014=
2025-03-17 05:00:00<>METAR SBSV 170500Z 08009KT 9999 SCT021 27/23 Q1014=
2025-03-17 06:00:00<>METAR SBSV 170600Z 08007KT 9999 SCT021 27/23 Q1013=
2025-03-17 07:00:00<>METAR SBSV 170700Z 08006KT 9999 SCT021 27/23 Q1014=
2025-03-17 08:00:00<>METAR SBSV 170800Z 08007KT 9999 SCT021 SCT040 27/23 Q1014=
2025-03-17 09:00:00<>METAR SBSV 170900Z 36003KT 9999 SCT023 26/23 Q1015=
2025-03-17 10:00:00<>METAR SBSV 171000Z 31002KT 9999 SCT023 28/23 Q1015=
2025-03-17 11:00:00<>METAR SBSV 171100Z 10004KT 9999 SCT023 30/23 Q1016=
2025-03-17 12:00:00<>METAR SBSV 171200Z 08008KT 050V110 9999 BKN025 29/23 Q1016=
2025-03-17 13:00:00<>METAR SBSV 171300Z 10008KT 9999 BKN025 31/23 Q1016=
2025-03-17 14:00:00<>METAR SBSV 171400Z 11009KT 060V140 9999 BKN025 31/23 Q1016=
2025-03-17 15:00:00<>METAR SBSV 171500Z 12009KT 9999 SCT023 30/24 Q1015=
2025-03-17 16:00:00<>METAR SBSV 171600Z 13010KT 9999 SCT025 31/23 Q1014=
2025-03-17 17:00:00<>METAR SBSV 171700Z 14009KT 9999 SCT025 31/22 Q1013=
2025-03-17 18:00:00<>METAR SBSV 171800Z 13010KT 100V170 9999 SCT023 31/23 Q1013=
2025-03-17 19:00:00<>METAR SBSV 171900Z 14009KT 090V200 9999 FEW023 31/22 Q1013=
2025-03-17 20:00:00<>METAR SBSV 172000Z 12010KT 9999 SCT023 30/23 Q1013=
2025-03-17 21:00:00<>METAR SBSV 172100Z 12009KT 9999 SCT023 29/23 Q1013=
2025-03-17 22:00:00<>METAR SBSV 172200Z 12008KT 090V150 9999 FEW023 28/23 Q1013=
2025-03-17 23:00:00<>METAR SBSV 172300Z 10008KT 9999 FEW023 28/23 Q1014=
2025-03-18 00:00:00<>METAR SBSV 180000Z 10009KT 9999 FEW021 28/23 Q1014=
2025-03-18 01:00:00<>METAR SBSV 180100Z 09010KT 9999 FEW021 SCT100 28/23 Q1014=
2025-03-18 02:00:00<>METAR SBSV 180200Z 09010KT 9999 FEW021 SCT100 28/23 Q1014=
2025-03-18 03:00:00<>METAR SBSV 180300Z 09010KT 9999 FEW023 SCT100 28/23 Q1014=
2025-03-18 04:00:00<>METAR SBSV 180400Z 09007KT 9999 FEW025 SCT100 28/22 Q1014=
2025-03-18 05:00:00<>METAR SBSV 180500Z 09007KT 9999 FEW025 BKN080 28/22 Q1013=
2025-03-18 06:00:00<>METAR SBSV 180600Z 09007KT 9999 FEW023 BKN080 28/22 Q1013=
2025-03-18 07:00:00<>METAR SBSV 180700Z 10007KT 9999 FEW023 BKN080 28/23 Q1013=
2025-03-18 08:00:00<>METAR SBSV 180800Z 07006KT 9999 FEW023 26/22 Q1013=
2025-03-18 09:00:00<>METAR SBSV 180900Z 06004KT 9999 VCSH FEW023 FEW025TCU 26/22 Q1013=
2025-03-18 10:00:00<>METAR SBSV 181000Z 03007KT 360V060 9999 VCSH SCT023 FEW025TCU 27/23 Q1014=
2025-03-18 11:00:00<>METAR SBSV 181100Z 02003KT 350V060 9999 VCSH SCT023 FEW025TCU BKN050 28/23 Q1015=
2025-03-18 12:00:00<>METAR SBSV 181200Z 03009KT 9000 VCSH SCT023 FEW025TCU BKN050 26/22 Q1015=
2025-03-18 13:00:00<>METAR SBSV 181300Z 04009KT 350V070 9999 SCT023 FEW025TCU BKN050 29/23 Q1015=
2025-03-18 14:00:00<>METAR SBSV 181400Z 08011KT 9999 SCT023 FEW025TCU BKN050 30/23 Q1014=
2025-03-18 15:00:00<>METAR SBSV 181500Z 07013KT 9999 SCT023 31/22 Q1013=
2025-03-18 16:00:00<>METAR SBSV 181600Z 09010KT 9999 SCT023 31/22 Q1012=
2025-03-18 17:00:00<>METAR SBSV 181700Z 09011KT 9999 SCT023 30/23 Q1012=
2025-03-18 18:00:00<>METAR SBSV 181800Z 10011KT 9999 SCT023 30/22 Q1011=
2025-03-18 19:00:00<>METAR SBSV 181900Z 08011KT 9999 FEW023 FEW025TCU 30/23 Q1011=
2025-03-18 20:00:00<>METAR SBSV 182000Z 09009KT 9999 FEW021 SCT070 29/23 Q1012=
2025-03-18 21:00:00<>METAR SBSV 182100Z 09008KT 9999 FEW020 SCT070 28/23 Q1012=
2025-03-18 22:00:00<>METAR SBSV 182200Z 10006KT 9999 FEW021 SCT070 28/23 Q1012=
2025-03-18 23:00:00<>METAR SBSV 182300Z 09009KT 9999 FEW023 28/22 Q1012=
2025-03-19 00:00:00<>METAR SBSV 190000Z 08010KT 9999 SCT023 28/22 Q1012=
2025-03-19 01:00:00<>METAR SBSV 190100Z 08009KT 9999 FEW023 27/22 Q1013=
2025-03-19 02:00:00<>METAR SBSV 190200Z 08008KT 9999 FEW023 28/22 Q1013=
2025-03-19 03:00:00<>METAR SBSV 190300Z 06007KT 9999 FEW023 27/22 Q1012=
2025-03-19 04:00:00<>METAR SBSV 190400Z 08007KT 9999 SCT023 28/23 Q1012=
2025-03-19 05:00:00<>METAR SBSV 190500Z 09009KT 9999 SCT023 BKN043 27/23 Q1012=
2025-03-19 06:00:00<>METAR SBSV 190600Z 05005KT 9999 SCT023 SCT043 27/22 Q1011=
2025-03-19 07:00:00<>METAR SBSV 190700Z 35002KT 9999 SCT023 SCT043 26/22 Q1011=
2025-03-19 08:00:00<>METAR SBSV 190800Z 28002KT 9999 SCT023 25/22 Q1012=
2025-03-19 09:00:00<>METAR SBSV 190900Z 00000KT 9999 SCT023 25/23 Q1012=
2025-03-19 10:00:00<>METAR SBSV 191000Z VRB02KT 9999 FEW023 27/23 Q1013=
2025-03-19 11:00:00<>METAR SBSV 191100Z 34003KT 230V030 9999 FEW023 SCT080 28/22 Q1014=
2025-03-19 12:00:00<>METAR SBSV 191200Z 06004KT 360V100 9999 BKN023 FEW025TCU 29/22 Q1014=
2025-03-19 13:00:00<>METAR SBSV 191300Z 09010KT 070V130 9999 VCSH BKN023 FEW025TCU 31/23 Q1014=
2025-03-19 14:00:00<>METAR SBSV 191400Z 07011KT 050V110 9999 VCSH BKN023 FEW025TCU 30/23 Q1014=
2025-03-19 15:00:00<>METAR SBSV 191500Z 07012KT 9999 VCSH BKN023 FEW025TCU 30/23 Q1013=
2025-03-19 16:00:00<>METAR SBSV 191600Z 08013KT 9999 SCT023 30/23 Q1012=
2025-03-19 17:00:00<>METAR SBSV 191700Z 08012KT 9999 SCT023 30/23 Q1011=
2025-03-19 18:00:00<>METAR SBSV 191800Z 09013KT 9999 SCT023 31/23 Q1011=
2025-03-19 19:00:00<>METAR SBSV 191900Z 09013KT 9999 SCT023 30/23 Q1011=
2025-03-19 20:00:00<>METAR SBSV 192000Z 08013KT 9999 SCT023 29/23 Q1011=
2025-03-19 21:00:00<>METAR SBSV 192100Z 07013KT 9999 SCT023 28/23 Q1011=
2025-03-19 22:00:00<>METAR SBSV 192200Z 07011KT 9999 SCT023 28/23 Q1011=
2025-03-19 23:00:00<>METAR SBSV 192300Z 06010KT 9999 SCT021 28/23 Q1012=
2025-03-20 00:00:00<>METAR SBSV 200000Z 05011KT 9999 SCT021 28/23 Q1012=
2025-03-20 01:00:00<>METAR SBSV 200100Z 05009KT 9999 SCT021 28/23 Q1013=
2025-03-20 02:00:00<>METAR SBSV 200200Z 05009KT 9999 SCT021 28/23 Q1013=
2025-03-20 03:00:00<>METAR SBSV 200300Z 06009KT 9999 FEW023 28/22 Q1013=
2025-03-20 04:00:00<>METAR SBSV 200400Z 06009KT 9999 FEW025 28/22 Q1012=
2025-03-20 05:00:00<>METAR SBSV 200500Z 08011KT 9999 FEW025 28/23 Q1012=
2025-03-20 06:00:00<>METAR SBSV 200600Z 06010KT 9999 SCT025 27/23 Q1012=
2025-03-20 07:00:00<>METAR SBSV 200700Z 36003KT 9999 SCT021 26/23 Q1012=
2025-03-20 08:00:00<>METAR SBSV 200800Z 00000KT 9999 SCT021 25/23 Q1013=
2025-03-20 09:00:00<>METAR SBSV 200900Z 36003KT 330V030 9999 SCT025 25/23 Q1013=
2025-03-20 10:00:00<>METAR SBSV 201000Z 01004KT 330V030 9999 FEW025 27/22 Q1014=
2025-03-20 11:00:00<>METAR SBSV 201100Z 02006KT 340V050 9999 FEW025 29/23 Q1014=
2025-03-20 12:00:00<>METAR SBSV 201200Z 07011KT 9999 FEW033 30/21 Q1015=
2025-03-20 13:00:00<>METAR SBSV 201300Z 07011KT 040V100 9999 FEW026 31/22 Q1015=
2025-03-20 14:00:00<>METAR SBSV 201400Z 08012KT 050V110 9999 FEW026 31/22 Q1014=
2025-03-20 15:00:00<>METAR SBSV 201500Z 10012KT 070V130 9999 FEW026 32/23 Q1014=
2025-03-20 16:00:00<>METAR SBSV 201600Z 09013KT 9999 FEW025 32/23 Q1013=
2025-03-20 17:00:00<>METAR SBSV 201700Z 09012KT 060V120 9999 FEW025 31/23 Q1012=
2025-03-20 18:00:00<>METAR SBSV 201800Z 09011KT 9999 FEW025 30/23 Q1012=
2025-03-20 19:00:00<>METAR SBSV 201900Z 09010KT 9999 FEW025 30/23 Q1012=
2025-03-20 20:00:00<>METAR SBSV 202000Z 09011KT 9999 FEW025 29/23 Q1012=
2025-03-20 21:00:00<>METAR SBSV 202100Z 09010KT CAVOK 29/23 Q1012=
2025-03-20 22:00:00<>METAR SBSV 202200Z 08008KT CAVOK 28/23 Q1013=
2025-03-20 23:00:00<>METAR SBSV 202300Z 09008KT CAVOK 28/23 Q1014=
2025-03-21 00:00:00<>METAR SBSV 210000Z 09012KT CAVOK 28/23 Q1014=
2025-03-21 01:00:00<>METAR SBSV 210100Z 09011KT CAVOK 28/23 Q1015=
2025-03-21 02:00:00<>METAR SBSV 210200Z 09010KT CAVOK 28/23 Q1015=
2025-03-21 03:00:00<>METAR SBSV 210300Z 10010KT CAVOK 28/23 Q1014=
2025-03-21 04:00:00<>METAR SBSV 210400Z 10007KT CAVOK 27/23 Q1014=
2025-03-21 05:00:00<>METAR SBSV 210500Z 09009KT 9999 FEW022 27/22 Q1013=
2025-03-21 06:00:00<>METAR SBSV 210600Z 09008KT 9999 SCT023 27/22 Q1013=
2025-03-21 07:00:00<>METAR SBSV 210700Z 10007KT 9999 SCT025 27/22 Q1013=
2025-03-21 08:00:00<>METAR SBSV 210800Z 09007KT 070V150 9999 SCT026 27/21 Q1013=
2025-03-21 09:00:00<>METAR SBSV 210900Z 08007KT 9999 FEW026 27/21 Q1014=
2025-03-21 10:00:00<>METAR SBSV 211000Z 08008KT 9999 FEW023 29/21 Q1015=
2025-03-21 11:00:00<>METAR COR SBSV 211100Z 10010KT 9999 FEW023 29/21 Q1015=
2025-03-21 12:00:00<>METAR SBSV 211200Z 09009KT 060V120 9999 SCT023 29/21 Q1016=
2025-03-21 13:00:00<>METAR SBSV 211300Z 09009KT 060V130 9999 SCT023 30/21 Q1016=
2025-03-21 14:00:00<>METAR SBSV 211400Z 10009KT 070V150 9999 SCT023 30/21 Q1015=
2025-03-21 15:00:00<>METAR SBSV 211500Z 11010KT 070V130 9999 SCT023 31/22 Q1015=
2025-03-21 16:00:00<>METAR SBSV 211600Z 12010KT 080V170 9999 SCT023 30/22 Q1014=
2025-03-21 17:00:00<>METAR SBSV 211700Z 13010KT 090V170 9999 SCT023 31/23 Q1013=
2025-03-21 18:00:00<>METAR SBSV 211800Z 14010KT 070V220 9999 SCT023 31/22 Q1013=
2025-03-21 19:00:00<>METAR SBSV 211900Z 12009KT 090V170 9999 SCT023 30/21 Q1013=
2025-03-21 20:00:00<>METAR SBSV 212000Z 12008KT 090V150 9999 SCT023 29/21 Q1013=
2025-03-21 21:00:00<>METAR SBSV 212100Z 13007KT 9999 SCT023 28/22 Q1013=
2025-03-21 22:00:00<>METAR SBSV 212200Z 11007KT 9999 SCT023 28/21 Q1014=
2025-03-21 23:00:00<>METAR SBSV 212300Z 12006KT 9999 SCT023 28/22 Q1014=
2025-03-21 23:36:00<>SPECI SBSV 212336Z 10010KT 3000 SHRA FEW017 BKN020 FEW023TCU 26/24 Q1015=
2025-03-22 00:00:00<>METAR SBSV 220000Z 15006KT 100V190 9999 VCSH FEW017 BKN020 FEW023TCU 27/24 Q1015 RESHRA=
2025-03-22 01:00:00<>METAR SBSV 220100Z 10006KT 9999 BKN020 FEW023TCU 28/24 Q1016=
2025-03-22 02:00:00<>METAR SBSV 220200Z 09005KT 9999 SCT020 SCT100 27/23 Q1016=
2025-03-22 03:00:00<>METAR SBSV 220300Z 14004KT 9999 FEW020 SCT100 27/23 Q1015=
2025-03-22 04:00:00<>METAR SBSV 220400Z 16005KT 9999 SCT021 SCT100 28/24 Q1014=
2025-03-22 05:00:00<>METAR SBSV 220500Z 15008KT 9999 SCT021 SCT100 28/23 Q1014=
2025-03-22 06:00:00<>METAR SBSV 220600Z 15007KT 9999 SCT021 BKN043 28/23 Q1014=
2025-03-22 07:00:00<>METAR SBSV 220700Z 16006KT 9999 SCT021 SCT050 28/23 Q1014=
2025-03-22 08:00:00<>METAR COR SBSV 220800Z 11005KT 9000 BKN023 FEW025TCU BKN043 27/24 Q1014=
2025-03-22 09:00:00<>METAR SBSV 220900Z 11005KT 9000 VCSH BKN023 FEW025TCU BKN043 27/24 Q1014=
2025-03-22 10:00:00<>METAR SBSV 221000Z 09010KT 9000 3000N VCSH SCT009 BKN015 FEW020TCU 26/24 Q1015=
2025-03-22 11:00:00<>METAR SBSV 221100Z 04006KT 9000 -SHRA SCT009 BKN019 FEW020TCU 26/25 Q1015=
2025-03-22 12:00:00<>METAR SBSV 221200Z 10006KT 9999 VCSH BKN020 FEW023TCU 27/24 Q1015=
2025-03-22 13:00:00<>METAR SBSV 221300Z 07009KT 9999 SCT023 BKN060 28/23 Q1015=
2025-03-22 14:00:00<>METAR SBSV 221400Z 11010KT 080V140 9999 SCT023 SCT060 30/24 Q1015=
2025-03-22 15:00:00<>METAR SBSV 221500Z 13009KT 080V170 9999 VCSH SCT023 FEW025TCU 30/24 Q1014=
2025-03-22 16:00:00<>METAR SBSV 221600Z 10011KT 9999 VCSH BKN023 FEW025TCU 30/24 Q1014=
2025-03-22 17:00:00<>METAR SBSV 221700Z 12009KT 070V200 9999 BKN023 FEW025TCU 30/24 Q1013=
2025-03-22 18:00:00<>METAR SBSV 221800Z 12010KT 9999 VCSH BKN023 FEW025TCU 30/23 Q1012=
2025-03-22 19:00:00<>METAR SBSV 221900Z 12008KT 090V160 9999 VCSH BKN023 FEW025TCU SCT050 30/23 Q1012=
2025-03-22 20:00:00<>METAR SBSV 222000Z 12008KT 090V160 9999 SCT021 SCT050 29/23 Q1012=
2025-03-22 21:00:00<>METAR SBSV 222100Z 12008KT 9999 FEW020 SCT050 28/23 Q1013=
2025-03-22 22:00:00<>METAR SBSV 222200Z 11007KT 9999 FEW020 SCT050 28/23 Q1013=
2025-03-22 23:00:00<>METAR SBSV 222300Z 11007KT 9999 FEW020 SCT050 28/23 Q1014=
2025-03-23 00:00:00<>METAR SBSV 230000Z 09008KT 9999 SCT021 SCT100 28/23 Q1014=
2025-03-23 01:00:00<>METAR SBSV 230100Z 08007KT 9999 SCT017 27/24 Q1014=
2025-03-23 02:00:00<>METAR SBSV 230200Z 06006KT 9999 FEW013 BKN015 27/24 Q1014=
2025-03-23 03:00:00<>METAR SBSV 230300Z 05005KT 9999 FEW016 SCT019 27/24 Q1014=
2025-03-23 04:00:00<>METAR SBSV 230400Z VRB04KT 9999 -RA SCT015 BKN023 26/25 Q1013=
2025-03-23 05:00:00<>METAR SBSV 230500Z 00000KT 9999 FEW019 BKN100 25/25 Q1013=
2025-03-23 06:00:00<>METAR SBSV 230600Z 04004KT 010V080 9999 FEW015 BKN100 25/25 Q1013=
2025-03-23 07:00:00<>METAR SBSV 230700Z VRB02KT 9999 FEW019 BKN060 25/24 Q1013=
2025-03-23 08:00:00<>METAR SBSV 230800Z VRB02KT 9999 FEW019 BKN100 25/24 Q1013=
2025-03-23 09:00:00<>METAR SBSV 230900Z 00000KT 9999 VCSH FEW023 FEW025TCU BKN100 25/25 Q1013=
2025-03-23 10:00:00<>METAR SBSV 231000Z VRB02KT 9999 VCSH SCT023 FEW025TCU SCT100 26/25 Q1014=
2025-03-23 11:00:00<>METAR SBSV 231100Z 32002KT 9999 SCT023 SCT100 27/25 Q1014=
2025-03-23 12:00:00<>METAR SBSV 231200Z 11005KT 070V150 9999 SCT023 SCT100 29/23 Q1015=
2025-03-23 13:00:00<>METAR SBSV 231300Z 10008KT 9999 VCSH SCT023 SCT100 29/24 Q1015=
2025-03-23 14:00:00<>METAR SBSV 231400Z 10007KT 070V130 9999 VCSH SCT023 BKN060 30/23 Q1015=
2025-03-23 15:00:00<>METAR SBSV 231500Z 07006KT 020V100 9999 VCSH SCT023 BKN060 28/24 Q1014=
2025-03-23 16:00:00<>METAR SBSV 231600Z 11008KT 9999 SCT023 BKN060 30/22 Q1013=
2025-03-23 17:00:00<>METAR SBSV 231700Z 11008KT 9999 SCT023 BKN060 30/23 Q1012=
2025-03-23 18:00:00<>METAR SBSV 231800Z 10009KT 9999 SCT023 FEW025TCU SCT070 29/23 Q1012=
2025-03-23 19:00:00<>METAR SBSV 231900Z 09008KT 060V130 9999 SCT023 FEW025TCU SCT070 29/23 Q1012=
2025-03-23 20:00:00<>METAR SBSV 232000Z 08009KT 9999 SCT023 SCT070 28/23 Q1012=
2025-03-23 21:00:00<>METAR SBSV 232100Z 08009KT 9999 FEW023 SCT070 28/23 Q1012=
2025-03-23 22:00:00<>METAR SBSV 232200Z 09009KT 9999 SCT016 SCT070 28/24 Q1012=
2025-03-23 23:00:00<>METAR SBSV 232300Z 09009KT 9999 SCT016 SCT070 28/24 Q1012=
2025-03-24 00:00:00<>METAR SBSV 240000Z 09010KT 9999 SCT020 SCT070 28/23 Q1013=
2025-03-24 01:00:00<>METAR SBSV 240100Z 08009KT 9999 SCT019 28/23 Q1013=
2025-03-24 02:00:00<>METAR SBSV 240200Z 07008KT 9999 SCT019 27/23 Q1013=
2025-03-24 03:00:00<>METAR SBSV 240300Z 06007KT 9999 SCT019 27/23 Q1013=
2025-03-24 04:00:00<>METAR SBSV 240400Z 07007KT 9999 SCT019 27/23 Q1012=
2025-03-24 05:00:00<>METAR SBSV 240500Z 09009KT 9999 SCT023 28/22 Q1012=
2025-03-24 06:00:00<>METAR SBSV 240600Z 08009KT 9999 FEW023 27/22 Q1012=
2025-03-24 07:00:00<>METAR SBSV 240700Z 06006KT 9999 FEW023 27/22 Q1012=
2025-03-24 08:00:00<>METAR SBSV 240800Z 05006KT 9999 FEW023 27/22 Q1013=
2025-03-24 09:00:00<>METAR SBSV 240900Z 07009KT 9999 VCSH FEW023 FEW025TCU 27/22 Q1013=
2025-03-24 10:00:00<>METAR SBSV 241000Z 07010KT 9999 FEW023 29/22 Q1014=
2025-03-24 11:00:00<>METAR SBSV 241100Z 06009KT 9999 SCT023 29/22 Q1014=
2025-03-24 12:00:00<>METAR SBSV 241200Z 07011KT 9999 SCT023 30/22 Q1014=
2025-03-24 13:00:00<>METAR SBSV 241300Z 07010KT 9999 SCT023 31/23 Q1014=
2025-03-24 14:00:00<>METAR SBSV 241400Z 08012KT 9999 SCT023 30/23 Q1014=
2025-03-24 15:00:00<>METAR SBSV 241500Z 08011KT 9999 SCT023 31/23 Q1013=
2025-03-24 16:00:00<>METAR SBSV 241600Z 08012KT 9999 SCT023 31/23 Q1012=
2025-03-24 17:00:00<>METAR SBSV 241700Z 08012KT 9999 SCT023 31/23 Q1012=
2025-03-24 18:00:00<>METAR SBSV 241800Z 10013KT 9999 SCT023 31/23 Q1012=
2025-03-24 19:00:00<>METAR SBSV 241900Z 10012KT 9999 SCT023 30/23 Q1012=
2025-03-24 20:00:00<>METAR SBSV 242000Z 09013KT 9999 SCT023 29/23 Q1012=
2025-03-24 21:00:00<>METAR SBSV 242100Z 08012KT 9999 SCT023 28/23 Q1012=
2025-03-24 22:00:00<>METAR SBSV 242200Z 08013KT 9999 SCT023 27/23 Q1012=
2025-03-24 23:00:00<>METAR SBSV 242300Z 08011KT 9999 SCT021 27/22 Q1013=
2025-03-25 00:00:00<>METAR SBSV 250000Z 08011KT 9999 SCT020 28/23 Q1013=
2025-03-25 01:00:00<>METAR SBSV 250100Z 07012KT 9999 SCT020 27/23 Q1014=
2025-03-25 02:00:00<>METAR SBSV 250200Z 07008KT 050V120 9999 SCT020 27/23 Q1014=
2025-03-25 03:00:00<>METAR SBSV 250300Z 06008KT 9999 SCT020 28/22 Q1014=
2025-03-25 04:00:00<>METAR SBSV 250400Z 06008KT 9999 SCT023 28/22 Q1013=
2025-03-25 05:00:00<>METAR SBSV 250500Z 36003KT 340V050 9999 SCT023 27/23 Q1013=
2025-03-25 06:00:00<>METAR SBSV 250600Z 36003KT 9999 SCT023 26/23 Q1013=
2025-03-25 07:00:00<>METAR SBSV 250700Z 36004KT 9999 SCT023 26/23 Q1013=
2025-03-25 08:00:00<>METAR SBSV 250800Z 36004KT 9999 SCT023 26/23 Q1013=
2025-03-25 09:00:00<>METAR SBSV 250900Z 02003KT 9999 SCT023 25/23 Q1014=
2025-03-25 10:00:00<>METAR SBSV 251000Z VRB02KT 9999 FEW022 SCT030 26/24 Q1015=
2025-03-25 11:00:00<>METAR SBSV 251100Z 04005KT 350V090 9999 FEW020 SCT042 29/24 Q1015=
2025-03-25 12:00:00<>METAR SBSV 251200Z 01006KT 340V050 9999 -SHRA SCT023 SCT031 28/24 Q1015=
2025-03-25 13:00:00<>METAR SBSV 251300Z 03008KT 360V060 9999 VCSH FEW017 FEW023TCU SCT030 29/24 Q1016=
2025-03-25 14:00:00<>METAR SBSV 251400Z 05009KT 9999 -SHRA SCT022 FEW024TCU SCT030 30/22 Q1015=
2025-03-25 15:00:00<>METAR SBSV 251500Z 08012KT 050V110 9999 FEW022 31/23 Q1014=
2025-03-25 16:00:00<>METAR SBSV 251600Z 08013KT 9999 FEW022 31/23 Q1013=
2025-03-25 17:00:00<>METAR SBSV 251700Z 08011KT 9999 FEW025 31/24 Q1012=
2025-03-25 18:00:00<>METAR SBSV 251800Z 08014KT 9999 FEW023 30/24 Q1012=
2025-03-25 19:00:00<>METAR SBSV 251900Z 07013KT 9999 FEW023 30/23 Q1011=
2025-03-25 20:00:00<>METAR SBSV 252000Z 08013KT 9999 FEW020 29/23 Q1011=
2025-03-25 21:00:00<>METAR SBSV 252100Z 07012KT 9999 FEW020 28/23 Q1012=
2025-03-25 22:00:00<>METAR SBSV 252200Z 07011KT 9999 FEW020 28/23 Q1012=
2025-03-25 23:00:00<>METAR SBSV 252300Z 07012KT 9999 SCT023 28/23 Q1013=
2025-03-26 00:00:00<>METAR SBSV 260000Z 07012KT 9999 SCT023 28/22 Q1014=
2025-03-26 01:00:00<>METAR SBSV 260100Z 07011KT 9999 FEW023 28/21 Q1013=
2025-03-26 02:00:00<>METAR SBSV 260200Z 07011KT 9999 SCT020 28/21 Q1013=
2025-03-26 03:00:00<>METAR SBSV 260300Z 07011KT 9999 FEW023 27/22 Q1013=
2025-03-26 04:00:00<>METAR SBSV 260400Z 06009KT 9999 SCT023 27/22 Q1013=
2025-03-26 05:00:00<>METAR SBSV 260500Z 06009KT 9999 SCT023 27/22 Q1012=
2025-03-26 06:00:00<>METAR SBSV 260600Z 05007KT 9999 SCT025 27/22 Q1012=
2025-03-26 07:00:00<>METAR SBSV 260700Z 34003KT 9999 SCT025 25/22 Q1013=
2025-03-26 08:00:00<>METAR SBSV 260800Z 35003KT 9999 SCT025 25/22 Q1013=
2025-03-26 09:00:00<>METAR SBSV 260900Z 34002KT 9999 FEW023 24/22 Q1013=
2025-03-26 10:00:00<>METAR SBSV 261000Z VRB01KT 9999 FEW023 26/22 Q1014=
2025-03-26 11:00:00<>METAR SBSV 261100Z 02003KT 320V070 9999 FEW023 29/23 Q1014=
2025-03-26 12:00:00<>METAR SBSV 261200Z 36004KT 300V040 9999 SCT025 30/22 Q1015=
2025-03-26 13:00:00<>METAR SBSV 261300Z 08009KT 050V120 9999 SCT025 31/22 Q1015=
2025-03-26 14:00:00<>METAR SBSV 261400Z 09009KT 070V130 9999 SCT025 31/23 Q1014=
2025-03-26 15:00:00<>METAR SBSV 261500Z 09010KT 060V120 9999 SCT025 31/23 Q1013=
2025-03-26 16:00:00<>METAR SBSV 261600Z 10011KT 9999 SCT025 32/24 Q1012=
2025-03-26 17:00:00<>METAR SBSV 261700Z 11010KT 9999 FEW030 30/23 Q1011=
2025-03-26 18:00:00<>METAR SBSV 261800Z 11009KT 070V170 9999 FEW030 30/24 Q1011=
2025-03-26 19:00:00<>METAR SBSV 261900Z 12008KT 9999 FEW025 30/23 Q1011=
2025-03-26 20:00:00<>METAR SBSV 262000Z 11009KT 080V140 9999 FEW021 29/23 Q1011=
2025-03-26 21:00:00<>METAR SBSV 262100Z 10008KT 9999 FEW023 29/22 Q1011=
2025-03-26 22:00:00<>METAR SBSV 262200Z 09009KT 9999 FEW021 28/23 Q1012=
2025-03-26 23:00:00<>METAR SBSV 262300Z 09009KT 9999 SCT021 28/23 Q1012=
2025-03-27 00:00:00<>METAR SBSV 270000Z 08009KT 9999 SCT023 28/23 Q1013=
2025-03-27 01:00:00<>METAR SBSV 270100Z 08010KT 9999 SCT021 28/23 Q1013=
2025-03-27 02:00:00<>METAR SBSV 270200Z 07010KT 9999 SCT021 28/23 Q1013=
2025-03-27 03:00:00<>METAR SBSV 270300Z 07010KT 9999 SCT021 27/23 Q1013=
2025-03-27 04:00:00<>METAR SBSV 270400Z 06008KT 9999 FEW021 27/23 Q1012=
2025-03-27 05:00:00<>METAR SBSV 270500Z 07010KT 9999 SCT022 27/22 Q1012=
2025-03-27 06:00:00<>METAR SBSV 270600Z 06009KT 9999 SCT023 27/22 Q1011=
2025-03-27 07:00:00<>METAR SBSV 270700Z 06007KT 9999 SCT023 27/22 Q1011=
2025-03-27 08:00:00<>METAR SBSV 270800Z 06005KT 9999 FEW023 26/22 Q1012=
2025-03-27 09:00:00<>METAR SBSV 270900Z 30003KT 270V010 9999 SCT023 25/22 Q1013=
2025-03-27 10:00:00<>METAR SBSV 271000Z 02004KT 340V050 9999 SCT023 28/22 Q1013=
2025-03-27 11:00:00<>METAR SBSV 271100Z 07007KT 030V110 9999 SCT023 29/22 Q1014=
2025-03-27 12:00:00<>METAR SBSV 271200Z 07008KT 040V100 9999 SCT025 30/22 Q1014=
2025-03-27 13:00:00<>METAR SBSV 271300Z 08011KT 040V110 9999 SCT025 30/22 Q1014=
2025-03-27 14:00:00<>METAR SBSV 271400Z 08008KT 050V110 9999 SCT023 FEW025TCU 30/22 Q1014=
2025-03-27 15:00:00<>METAR SBSV 271500Z 10009KT 060V140 9999 SCT023 31/22 Q1013=
2025-03-27 16:00:00<>METAR SBSV 271600Z 10011KT 070V140 9999 SCT023 30/22 Q1012=
2025-03-27 17:00:00<>METAR SBSV 271700Z 10011KT 9999 SCT023 30/22 Q1011=
2025-03-27 18:00:00<>METAR SBSV 271800Z 10011KT 9999 FEW030 30/21 Q1010=
2025-03-27 19:00:00<>METAR SBSV 271900Z 10011KT 9999 FEW030 30/22 Q1010=
2025-03-27 20:00:00<>METAR SBSV 272000Z 09011KT 9999 FEW030 29/23 Q1010=
2025-03-27 21:00:00<>METAR SBSV 272100Z 09009KT 9999 FEW030 28/22 Q1010=
2025-03-27 22:00:00<>METAR SBSV 272200Z 08011KT 9999 FEW025 28/22 Q1011=
2025-03-27 23:00:00<>METAR SBSV 272300Z 08010KT 9999 SCT025 28/22 Q1011=
2025-03-28 00:00:00<>METAR SBSV 280000Z 09011KT 9999 SCT025 28/22 Q1012=
2025-03-28 01:00:00<>METAR SBSV 280100Z 09010KT 9999 FEW025 28/22 Q1012=
2025-03-28 02:00:00<>METAR SBSV 280200Z 09008KT 9999 FEW025 28/21 Q1013=
2025-03-28 03:00:00<>METAR SBSV 280300Z 09008KT 9999 FEW025 27/21 Q1012=
2025-03-28 04:00:00<>METAR SBSV 280400Z 08007KT 9999 SCT025 27/21 Q1012=
2025-03-28 05:00:00<>METAR SBSV 280500Z 08007KT 9999 SCT025 26/21 Q1011=
2025-03-28 06:00:00<>METAR SBSV 280600Z 09006KT 9999 FEW023 27/21 Q1011=
2025-03-28 07:00:00<>METAR SBSV 280700Z 10005KT 9999 FEW023 27/21 Q1011=
2025-03-28 08:00:00<>METAR SBSV 280800Z 09007KT 9999 FEW023 27/21 Q1010=
2025-03-28 09:00:00<>METAR SBSV 280900Z 09005KT 9999 SCT022 27/21 Q1011=
2025-03-28 10:00:00<>METAR SBSV 281000Z 09006KT 9999 SCT023 28/21 Q1012=
2025-03-28 11:00:00<>METAR SBSV 281100Z 10007KT 070V130 9999 SCT024 29/22 Q1013=
2025-03-28 12:00:00<>METAR SBSV 281200Z 09007KT 060V120 9999 SCT031 30/21 Q1013=
2025-03-28 13:00:00<>METAR SBSV 281300Z 09007KT 060V130 9999 FEW033 30/22 Q1013=
2025-03-28 14:00:00<>METAR SBSV 281400Z 10007KT 060V150 9999 FEW033 30/22 Q1013=
2025-03-28 15:00:00<>METAR SBSV 281500Z 11010KT 070V150 9999 FEW033 30/22 Q1012=
2025-03-28 16:00:00<>METAR SBSV 281600Z 10009KT 080V160 9999 FEW025 30/22 Q1011=
2025-03-28 17:00:00<>METAR SBSV 281700Z 10009KT 060V130 9999 FEW025 31/22 Q1010=
2025-03-28 18:00:00<>METAR SBSV 281800Z 11010KT 070V200 9999 FEW025 30/21 Q1010=
2025-03-28 19:00:00<>METAR SBSV 281900Z 11010KT 9999 FEW025 29/21 Q1010=
2025-03-28 20:00:00<>METAR SBSV 282000Z 12008KT 9999 FEW025 29/22 Q1010=
2025-03-28 21:00:00<>METAR SBSV 282100Z 10008KT 9999 FEW025 28/22 Q1010=
2025-03-28 22:00:00<>METAR SBSV 282200Z 10009KT 9999 FEW025 28/22 Q1011=
2025-03-28 23:00:00<>METAR SBSV 282300Z 10009KT 9999 FEW025 28/21 Q1012=
2025-03-29 00:00:00<>METAR SBSV 290000Z 10008KT 080V160 9999 SCT025 28/22 Q1012=
2025-03-29 01:00:00<>METAR SBSV 290100Z 10008KT 9999 SCT025 28/22 Q1012=
2025-03-29 02:00:00<>METAR SBSV 290200Z 08007KT 9999 FEW025 27/21 Q1012=
2025-03-29 03:00:00<>METAR SBSV 290300Z 07005KT 050V110 9999 FEW025 27/21 Q1012=
2025-03-29 04:00:00<>METAR SBSV 290400Z 08005KT 9999 FEW025 26/21 Q1012=
2025-03-29 05:00:00<>METAR SBSV 290500Z 10004KT 9999 FEW025 27/22 Q1012=
2025-03-29 06:00:00<>METAR SBSV 290600Z 09005KT 070V150 9999 FEW025 27/21 Q1011=
2025-03-29 07:00:00<>METAR SBSV 290700Z 09004KT 060V120 9999 FEW025 27/21 Q1011=
2025-03-29 08:00:00<>METAR SBSV 290800Z 27004KT 9999 SCT025 25/21 Q1011=
2025-03-29 09:00:00<>METAR SBSV 290900Z VRB01KT 9999 SCT023 FEW025TCU 26/22 Q1011=
2025-03-29 10:00:00<>METAR SBSV 291000Z 28002KT 9999 SCT023 27/22 Q1012=
2025-03-29 11:00:00<>METAR SBSV 291100Z 10006KT 070V140 9999 SCT023 29/22 Q1013=
2025-03-29 12:00:00<>METAR SBSV 291200Z 09007KT 010V130 9999 SCT023 30/22 Q1013=
2025-03-29 13:00:00<>METAR SBSV 291300Z 10009KT 060V150 9999 SCT024 30/22 Q1013=
2025-03-29 14:00:00<>METAR SBSV 291400Z 10010KT 070V130 9999 SCT024 31/23 Q1013=
2025-03-29 15:00:00<>METAR SBSV 291500Z 11010KT 080V150 9999 SCT025 31/23 Q1012=
2025-03-29 16:00:00<>METAR SBSV 291600Z 10012KT 080V140 9999 SCT023 FEW025TCU 30/22 Q1011=
2025-03-29 17:00:00<>METAR SBSV 291700Z 11010KT 9999 VCSH SCT023 FEW025TCU 30/22 Q1010=
2025-03-29 18:00:00<>METAR SBSV 291800Z 11011KT 9999 SCT023 SCT050 30/22 Q1010=
2025-03-29 19:00:00<>METAR SBSV 291900Z 10011KT 9999 FEW023 SCT050 29/22 Q1010=
2025-03-29 20:00:00<>METAR SBSV 292000Z 11010KT 9999 FEW023 SCT050 29/22 Q1010=
2025-03-29 21:00:00<>METAR SBSV 292100Z 10010KT 9999 FEW023 SCT050 28/22 Q1010=
2025-03-29 22:00:00<>METAR SBSV 292200Z 10009KT 9999 FEW023 SCT050 28/22 Q1011=
2025-03-29 23:00:00<>METAR SBSV 292300Z 09010KT 9999 SCT021 28/23 Q1011=
2025-03-30 00:00:00<>METAR SBSV 300000Z 09011KT 9999 SCT023 28/23 Q1012=
2025-03-30 01:00:00<>METAR SBSV 300100Z 08010KT 9999 SCT023 28/22 Q1012=
2025-03-30 02:00:00<>METAR SBSV 300200Z 08009KT 9999 SCT023 28/22 Q1012=
2025-03-30 02:30:00<>SPECI SBSV 300230Z 09011KT 6000 RA BKN023 FEW025TCU 26/23 Q1012=
2025-03-30 03:00:00<>METAR SBSV 300300Z 08007KT 9999 SCT023 SCT060 27/23 Q1012 RERA=
2025-03-30 04:00:00<>METAR SBSV 300400Z 08007KT 9999 SCT023 SCT060 27/23 Q1012=
2025-03-30 05:00:00<>METAR SBSV 300500Z 10006KT 9999 SCT023 SCT060 27/23 Q1011=
2025-03-30 06:00:00<>METAR SBSV 300600Z 06008KT 9000 VCSH SCT023 SCT070 27/22 Q1011=
2025-03-30 07:00:00<>METAR SBSV 300700Z VRB02KT 8000 VCSH BKN021 FEW025TCU BKN060 25/22 Q1011=
2025-03-30 08:00:00<>METAR SBSV 300800Z 08010KT 7000 -RA BKN021 FEW025TCU BKN060 24/23 Q1012=
2025-03-30 08:30:00<>SPECI SBSV 300830Z 08006KT 3000 RA BR BKN017 FEW023TCU BKN040 24/23 Q1013=
2025-03-30 09:00:00<>METAR SBSV 300900Z 00000KT 3000 RA BR BKN017 FEW023TCU BKN040 23/23 Q1013=
2025-03-30 09:20:00<>SPECI SBSV 300920Z 26004KT 8000 VCSH SCT021 FEW023TCU SCT033 BKN070 24/23 Q1012 RERA=
2025-03-30 10:00:00<>METAR SBSV 301000Z 26003KT 220V280 9999 VCSH SCT020 FEW023TCU BKN100 25/23 Q1013 RERA=
2025-03-30 11:00:00<>METAR SBSV 301100Z VRB02KT 9999 FEW020 28/23 Q1013=
2025-03-30 12:00:00<>METAR SBSV 301200Z 10005KT 070V150 9999 FEW023 29/23 Q1014=
2025-03-30 13:00:00<>METAR SBSV 301300Z 11006KT 040V140 9999 FEW025 29/23 Q1014=
2025-03-30 14:00:00<>METAR SBSV 301400Z 10008KT 060V160 9999 FEW025 SCT030 29/23 Q1013=
2025-03-30 15:00:00<>METAR SBSV 301500Z 09009KT 9999 FEW025 30/23 Q1012=
2025-03-30 16:00:00<>METAR SBSV 301600Z 09011KT 9999 FEW026 30/23 Q1011=
2025-03-30 17:00:00<>METAR SBSV 301700Z 08010KT 060V120 9999 FEW026 31/22 Q1011=
2025-03-30 18:00:00<>METAR SBSV 301800Z 09012KT 9999 FEW026 30/22 Q1010=
2025-03-30 19:00:00<>METAR SBSV 301900Z 09012KT 9999 FEW023 30/22 Q1010=
2025-03-30 20:00:00<>METAR SBSV 302000Z 10010KT 9999 FEW025 29/22 Q1011=
2025-03-30 21:00:00<>METAR SBSV 302100Z 10009KT 9999 FEW025 28/22 Q1011=
2025-03-30 22:00:00<>METAR SBSV 302200Z 10010KT 9999 FEW025 28/22 Q1011=
2025-03-30 23:00:00<>METAR SBSV 302300Z 10011KT 9999 FEW025 28/22 Q1012=
2025-03-31 00:00:00<>METAR SBSV 310000Z 10009KT 9999 SCT025 28/22 Q1013=
2025-03-31 01:00:00<>METAR SBSV 310100Z 11008KT 9999 SCT023 28/23 Q1013=
2025-03-31 02:00:00<>METAR SBSV 310200Z 04006KT 9999 SCT023 BKN060 26/23 Q1013=
2025-03-31 03:00:00<>METAR SBSV 310300Z 10009KT 9999 SCT023 27/23 Q1012=
2025-03-31 04:00:00<>METAR SBSV 310400Z 10008KT 9999 SCT023 SCT060 27/23 Q1012=
2025-03-31 05:00:00<>METAR SBSV 310500Z 11005KT 9999 SCT021 27/23 Q1012=
2025-03-31 06:00:00<>METAR SBSV 310600Z 10007KT 9999 SCT021 27/23 Q1011=
2025-03-31 07:00:00<>METAR SBSV 310700Z 10004KT 9999 FEW020 27/22 Q1012=
2025-03-31 08:00:00<>METAR SBSV 310800Z 10004KT 080V210 9999 FEW020 27/23 Q1012=
2025-03-31 09:00:00<>METAR SBSV 310900Z VRB02KT 9999 SCT021 25/23 Q1013=
2025-03-31 10:00:00<>METAR SBSV 311000Z 00000KT 9999 SCT021 28/24 Q1013=
2025-03-31 11:00:00<>METAR SBSV 311100Z 15006KT 120V190 9999 SCT021 29/23 Q1014=
2025-03-31 12:00:00<>METAR SBSV 311200Z 16007KT 120V220 9999 SCT023 30/23 Q1015=
2025-03-31 13:00:00<>METAR SBSV 311300Z 17007KT 120V210 9999 SCT023 30/24 Q1015=
2025-03-31 14:00:00<>METAR SBSV 311400Z 17008KT 110V210 9999 SCT023 30/23 Q1014=
2025-03-31 15:00:00<>METAR SBSV 311500Z 13012KT 110V170 9999 VCSH SCT023 FEW025TCU BKN050 28/23 Q1014=
2025-03-31 16:00:00<>METAR SBSV 311600Z 14009KT 100V170 9999 SCT023 BKN050 29/23 Q1013=
2025-03-31 17:00:00<>METAR SBSV 311700Z 12008KT 090V160 9999 SCT023 BKN050 30/23 Q1013=
2025-03-31 18:00:00<>METAR SBSV 311800Z 10015KT 9000 -SHRA SCT011 BKN015 BKN060 27/24 Q1013=
2025-03-31 19:00:00<>METAR SBSV 311900Z 11009KT 090V160 9999 VCSH FEW011 BKN033 BKN060 27/24 Q1013=
2025-03-31 19:11:00<>SPECI SBSV 311911Z 07013KT 7000 2000E -RA BKN009 FEW020TCU BKN033 BKN060 26/25 Q1013=
2025-03-31 19:41:00<>SPECI SBSV 311941Z 06007KT 9999 VCSH FEW009 FEW020TCU BKN033 BKN060 25/24 Q1013=
2025-03-31 20:00:00<>METAR SBSV 312000Z 06006KT 9999 VCSH FEW009 FEW020TCU BKN050 25/24 Q1013=
2025-03-31 21:00:00<>METAR SBSV 312100Z VRB01KT 9999 FEW018 BKN080 26/22 Q1013=
2025-03-31 22:00:00<>METAR SBSV 312200Z 12005KT 080V180 9999 FEW018 BKN080 27/23 Q1014=
2025-03-31 23:00:00<>METAR SBSV 312300Z 11006KT 9999 FEW021 SCT080 27/24 Q1014=
2025-04-01 00:00:00<>METAR SBSV 010000Z 09007KT 9999 FEW023 SCT080 27/24 Q1015=
2025-04-01 01:00:00<>METAR SBSV 010100Z 09011KT 9999 FEW023 BKN100 28/22 Q1015=
2025-04-01 02:00:00<>METAR SBSV 010200Z 09011KT 9999 FEW023 BKN100 28/22 Q1015=
2025-04-01 03:00:00<>METAR SBSV 010300Z 09010KT 9999 FEW023 SCT100 28/22 Q1015=
2025-04-01 04:00:00<>METAR SBSV 010400Z 09008KT 9999 SCT023 28/23 Q1014=
2025-04-01 05:00:00<>METAR SBSV 010500Z 10009KT 9999 SCT023 28/23 Q1013=
2025-04-01 06:00:00<>METAR SBSV 010600Z 06006KT 9999 SCT023 27/22 Q1013=
2025-04-01 07:00:00<>METAR SBSV 010700Z 09007KT 9999 FEW023 27/22 Q1013=
2025-04-01 08:00:00<>METAR SBSV 010800Z 13013KT 7000 -RA BKN023 BKN050 25/23 Q1013=
2025-04-01 09:00:00<>METAR SBSV 010900Z 11003KT 080V180 9999 VCSH SCT023 BKN050 27/22 Q1014=
2025-04-01 10:00:00<>METAR SBSV 011000Z 11007KT 9999 SCT023 SCT050 28/22 Q1014=
2025-04-01 11:00:00<>METAR SBSV 011100Z 10009KT 9999 SCT023 29/23 Q1015=
2025-04-01 12:00:00<>METAR SBSV 011200Z 11010KT 9999 SCT023 30/22 Q1015=
2025-04-01 13:00:00<>METAR SBSV 011300Z 10012KT 9999 SCT023 31/22 Q1015=
2025-04-01 14:00:00<>METAR SBSV 011400Z 11010KT 070V160 9999 SCT023 30/22 Q1015=
2025-04-01 15:00:00<>METAR SBSV 011500Z 09009KT 060V140 9999 SCT023 31/23 Q1014=
2025-04-01 16:00:00<>METAR SBSV 011600Z 12009KT 9999 SCT023 31/22 Q1013=
2025-04-01 17:00:00<>METAR SBSV 011700Z 12008KT 090V150 9999 SCT020 30/22 Q1013=
2025-04-01 18:00:00<>METAR SBSV 011800Z VRB07KT 9999 SCT020 30/22 Q1012=
2025-04-01 19:00:00<>METAR SBSV 011900Z 13008KT 9999 SCT023 29/22 Q1012=
2025-04-01 20:00:00<>METAR SBSV 012000Z 12008KT 100V160 9999 SCT023 29/22 Q1012=
2025-04-01 21:00:00<>METAR SBSV 012100Z 14008KT 9999 SCT023 29/22 Q1012=
2025-04-01 22:00:00<>METAR SBSV 012200Z 14007KT 110V170 9999 FEW023 28/22 Q1013=
2025-04-01 23:00:00<>METAR SBSV 012300Z 14007KT 100V180 9999 SCT023 28/22 Q1013=
2025-04-02 00:00:00<>METAR SBSV 020000Z 15007KT 110V170 9999 SCT025 28/22 Q1014=
2025-04-02 01:00:00<>METAR SBSV 020100Z 06004KT 9999 SCT022 BKN070 25/24 Q1014=
2025-04-02 02:00:00<>METAR SBSV 020200Z 13008KT 100V160 9999 FEW022 BKN040 27/23 Q1014=
2025-04-02 03:00:00<>METAR SBSV 020300Z 12010KT 090V150 9999 VCSH FEW015 BKN030 26/24 Q1014=
2025-04-02 04:00:00<>METAR SBSV 020400Z 11006KT 9999 FEW020 BKN060 27/23 Q1013=
2025-04-02 05:00:00<>METAR SBSV 020500Z 10008KT 9999 FEW022 27/23 Q1012=
2025-04-02 06:00:00<>METAR SBSV 020600Z 10008KT 9999 FEW023 SCT050 27/23 Q1012=
2025-04-02 07:00:00<>METAR SBSV 020700Z 10008KT 080V140 9999 FEW021 SCT040 27/23 Q1012=
2025-04-02 08:00:00<>METAR SBSV 020800Z 10006KT 060V130 9999 FEW021 27/23 Q1012=
2025-04-02 09:00:00<>METAR SBSV 020900Z 10006KT 9999 VCSH BKN021 FEW025TCU 27/23 Q1013=
2025-04-02 10:00:00<>METAR SBSV 021000Z 11016KT 5000 -SHRA BR SCT013 BKN019 FEW025TCU OVC070 25/23 Q1013=
2025-04-02 11:00:00<>METAR SBSV 021100Z 12006KT 100V170 9000 VCSH FEW014 BKN020 FEW025TCU BKN080 27/23 Q1014=
2025-04-02 12:00:00<>METAR SBSV 021200Z 10012KT 9999 VCSH SCT017 FEW025TCU BKN055 29/24 Q1014=
2025-04-02 13:00:00<>METAR SBSV 021300Z 09014KT 9999 VCSH BKN021 FEW025TCU BKN060 28/23 Q1014=
2025-04-02 14:00:00<>METAR SBSV 021400Z 07011KT 9999 VCSH SCT023 FEW025TCU BKN070 29/22 Q1014=
2025-04-02 15:00:00<>METAR SBSV 021500Z 07008KT 050V110 9999 BKN023 FEW025TCU BKN070 29/23 Q1013=
2025-04-02 16:00:00<>METAR SBSV 021600Z 10007KT 060V140 9999 SCT023 BKN055 30/22 Q1012=
2025-04-02 17:00:00<>METAR SBSV 021700Z 08006KT 030V150 9999 SCT023 BKN060 30/24 Q1012=
2025-04-02 18:00:00<>METAR SBSV 021800Z 10006KT 070V130 9999 SCT023 FEW025TCU BKN060 28/23 Q1011=
2025-04-02 19:00:00<>METAR SBSV 021900Z 10007KT 9999 SCT023 SCT060 29/24 Q1011=
2025-04-02 20:00:00<>METAR SBSV 022000Z 09009KT 9999 SCT023 SCT060 27/24 Q1012=
2025-04-02 21:00:00<>METAR SBSV 022100Z 11008KT 080V140 9999 SCT023 SCT060 28/23 Q1012=
2025-04-02 22:00:00<>METAR SBSV 022200Z 11007KT 080V140 9999 SCT023 SCT060 28/22 Q1012=
2025-04-02 23:00:00<>METAR SBSV 022300Z 11006KT 9999 SCT023 28/22 Q1012=
2025-04-03 00:00:00<>METAR SBSV 030000Z 11005KT 9999 FEW025 28/22 Q1013=
2025-04-03 01:00:00<>METAR SBSV 030100Z 11006KT 9999 FEW025 28/22 Q1013=
2025-04-03 02:00:00<>METAR SBSV 030200Z 11007KT 9999 FEW025 28/22 Q1013=
2025-04-03 03:00:00<>METAR SBSV 030300Z 11005KT 080V140 9999 FEW025 27/22 Q1013=
2025-04-03 04:00:00<>METAR SBSV 030400Z 10006KT 9999 FEW025 27/22 Q1012=
2025-04-03 05:00:00<>METAR SBSV 030500Z 09005KT 9999 FEW025 27/22 Q1012=
2025-04-03 06:00:00<>METAR SBSV 030600Z VRB07KT 9999 SCT023 27/22 Q1012=
2025-04-03 07:00:00<>METAR SBSV 030700Z 10006KT 080V160 9999 SCT021 27/22 Q1012=
2025-04-03 08:00:00<>METAR SBSV 030800Z 11005KT 9999 SCT021 27/22 Q1012=
2025-04-03 09:00:00<>METAR SBSV 030900Z 10006KT 9999 SCT021 FEW023TCU 27/22 Q1013=
2025-04-03 10:00:00<>METAR SBSV 031000Z 10006KT 9999 SCT023 FEW023TCU 28/22 Q1013=
2025-04-03 11:00:00<>METAR SBSV 031100Z 10007KT 9999 SCT025 29/23 Q1013=
2025-04-03 12:00:00<>METAR SBSV 031200Z 10008KT 070V150 9999 FEW026 30/22 Q1014=
2025-04-03 13:00:00<>METAR SBSV 031300Z 10008KT 060V140 9999 FEW026 30/22 Q1014=
2025-04-03 14:00:00<>METAR SBSV 031400Z 11007KT 070V160 9999 FEW026 31/21 Q1013=
2025-04-03 15:00:00<>METAR SBSV 031500Z 10007KT 9999 FEW027 30/22 Q1013=
2025-04-03 16:00:00<>METAR SBSV 031600Z 12009KT 090V160 9999 FEW027 31/22 Q1012=
2025-04-03 17:00:00<>METAR SBSV 031700Z 12009KT 080V160 9999 FEW027 30/22 Q1011=
2025-04-03 18:00:00<>METAR SBSV 031800Z 12010KT 090V180 9999 SCT025 30/22 Q1011=
2025-04-03 19:00:00<>METAR SBSV 031900Z 12009KT 090V160 9999 FEW025 30/22 Q1011=
2025-04-03 20:00:00<>METAR SBSV 032000Z 13008KT 100V160 9999 FEW024 29/22 Q1012=
2025-04-03 21:00:00<>METAR SBSV 032100Z 12008KT 100V160 9999 FEW025 SCT070 28/22 Q1012=
2025-04-03 22:00:00<>METAR SBSV 032200Z 12009KT 9999 FEW022 BKN070 28/22 Q1012=
2025-04-03 23:00:00<>METAR SBSV 032300Z 11008KT 9999 FEW023 BKN070 28/22 Q1012=
2025-04-04 00:00:00<>METAR SBSV 040000Z 12010KT 9999 BKN020 BKN080 28/23 Q1013=
2025-04-04 01:00:00<>METAR SBSV 040100Z 12008KT 9999 BKN020 BKN080 28/23 Q1013=
2025-04-04 02:00:00<>METAR SBSV 040200Z 10009KT 9999 BKN023 28/23 Q1013=
2025-04-04 03:00:00<>METAR SBSV 040300Z 10008KT 9999 SCT023 28/22 Q1013=
2025-04-04 04:00:00<>METAR SBSV 040400Z 09007KT 9999 SCT023 28/22 Q1013=
2025-04-04 05:00:00<>METAR SBSV 040500Z 09007KT 9999 SCT023 27/22 Q1012=
2025-04-04 06:00:00<>METAR SBSV 040600Z 10007KT 9999 FEW023 27/22 Q1012=
2025-04-04 07:00:00<>METAR SBSV 040700Z 10007KT 9999 FEW023 27/22 Q1012=
2025-04-04 08:00:00<>METAR SBSV 040800Z 11006KT 9999 FEW023 27/23 Q1012=
2025-04-04 09:00:00<>METAR SBSV 040900Z 10006KT 080V150 9999 SCT023 27/23 Q1013=
2025-04-04 10:00:00<>METAR SBSV 041000Z 08011KT 8000 VCSH SCT023 FEW025TCU BKN060 27/23 Q1013=
2025-04-04 11:00:00<>METAR SBSV 041100Z 07007KT 9999 SCT023 FEW025TCU 30/23 Q1014=
2025-04-04 12:00:00<>METAR SBSV 041200Z 07008KT 030V120 9999 SCT023 FEW025TCU 30/22 Q1015=
2025-04-04 13:00:00<>METAR SBSV 041300Z 06008KT 040V140 9999 SCT023 30/23 Q1014=
2025-04-04 14:00:00<>METAR SBSV 041400Z 08010KT 9999 SCT023 30/23 Q1014=
2025-04-04 15:00:00<>METAR SBSV 041500Z 09011KT 9999 SCT023 31/23 Q1013=
2025-04-04 16:00:00<>METAR SBSV 041600Z 10012KT 9999 SCT023 31/23 Q1013=
2025-04-04 17:00:00<>METAR SBSV 041700Z 09012KT 9999 SCT023 30/23 Q1012=
2025-04-04 18:00:00<>METAR SBSV 041800Z 09011KT 060V150 9999 FEW022 31/23 Q1012=
2025-04-04 19:00:00<>METAR SBSV 041900Z 10010KT 9999 FEW025 30/23 Q1012=
2025-04-04 20:00:00<>METAR SBSV 042000Z 09010KT 9999 SCT025 29/23 Q1013=
2025-04-04 21:00:00<>METAR SBSV 042100Z 09009KT 9999 FEW026 28/22 Q1013=
2025-04-04 22:00:00<>METAR SBSV 042200Z 09009KT 9999 FEW024 28/23 Q1013=
2025-04-04 23:00:00<>METAR SBSV 042300Z 08010KT 9999 FEW024 28/23 Q1014=
2025-04-05 00:00:00<>METAR SBSV 050000Z 08011KT 9999 FEW024 28/22 Q1015=
2025-04-05 01:00:00<>METAR SBSV 050100Z 08012KT 9999 FEW017 SCT024 28/23 Q1015=
2025-04-05 02:00:00<>METAR SBSV 050200Z 07011KT 9999 SCT022 28/23 Q1015=
2025-04-05 03:00:00<>METAR SBSV 050300Z 07009KT 9999 SCT020 27/23 Q1015=
2025-04-05 04:00:00<>METAR SBSV 050400Z 06010KT 9999 SCT022 27/23 Q1014=
2025-04-05 05:00:00<>METAR SBSV 050500Z 06007KT 9999 SCT023 27/23 Q1014=
2025-04-05 06:00:00<>METAR SBSV 050600Z 08006KT 9999 SCT021 27/22 Q1014=
2025-04-05 07:00:00<>METAR SBSV 050700Z 07006KT 9999 FEW021 26/22 Q1014=
2025-04-05 08:00:00<>METAR SBSV 050800Z 01006KT 9999 FEW017 SCT023 26/23 Q1014=
2025-04-05 09:00:00<>METAR SBSV 050900Z 33003KT 9999 FEW017 SCT024 26/23 Q1015=
2025-04-05 10:00:00<>METAR SBSV 051000Z VRB02KT 9999 SCT023 FEW025TCU 27/23 Q1016=
2025-04-05 11:00:00<>METAR SBSV 051100Z 08006KT 040V130 9999 VCSH BKN023 FEW025TCU 29/23 Q1016=
2025-04-05 11:11:00<>SPECI SBSV 051111Z 05010G22KT 9000 SHRA SCT019 BKN023 FEW025TCU 25/23 Q1017=
2025-04-05 11:26:00<>SPECI SBSV 051126Z 06008KT 9000 VCSH SCT019 BKN023 FEW025TCU 26/25 Q1017 RESHRA=
2025-04-05 12:00:00<>METAR SBSV 051200Z 05006G16KT 360V100 9999 VCSH BKN022 FEW025TCU 28/25 Q1017 RESHRA=
2025-04-05 13:00:00<>METAR SBSV 051300Z 07010KT 9999 BKN023 30/23 Q1017=
2025-04-05 14:00:00<>METAR SBSV 051400Z 09012KT 9999 SCT023 29/23 Q1016=
2025-04-05 15:00:00<>METAR SBSV 051500Z 08012KT 060V120 9999 VCSH SCT023 FEW025TCU 30/23 Q1015=
2025-04-05 16:00:00<>METAR SBSV 051600Z 08011KT 060V120 9999 SCT023 30/23 Q1015=
2025-04-05 17:00:00<>METAR SBSV 051700Z 10011KT 9999 SCT023 31/23 Q1014=
2025-04-05 18:00:00<>METAR SBSV 051800Z 09013KT 9999 SCT023 30/23 Q1014=
2025-04-05 19:00:00<>METAR SBSV 051900Z 09012KT 9999 SCT023 29/22 Q1014=
2025-04-05 20:00:00<>METAR SBSV 052000Z 09010KT 9999 FEW023 29/22 Q1014=
2025-04-05 21:00:00<>METAR SBSV 052100Z 09009KT 9999 FEW023 28/22 Q1014=
2025-04-05 22:00:00<>METAR SBSV 052200Z 09010KT 9999 FEW023 28/23 Q1015=
2025-04-05 23:00:00<>METAR SBSV 052300Z 09010KT 9999 SCT023 28/23 Q1015=
2025-04-06 00:00:00<>METAR SBSV 060000Z 09011KT 9999 FEW023 28/23 Q1015=
2025-04-06 01:00:00<>METAR SBSV 060100Z 08012KT 9999 SCT020 28/23 Q1015=
2025-04-06 02:00:00<>METAR SBSV 060200Z 08011KT 9999 FEW022 28/23 Q1016=
2025-04-06 03:00:00<>METAR SBSV 060300Z 09012KT 9999 SCT025 28/22 Q1015=
2025-04-06 04:00:00<>METAR SBSV 060400Z 09013KT 9999 SCT025 SCT051 28/22 Q1015=
2025-04-06 05:00:00<>METAR SBSV 060500Z 09010KT 9999 FEW026 28/22 Q1015=
2025-04-06 06:00:00<>METAR SBSV 060600Z 11008KT 9999 SCT023 28/22 Q1014=
2025-04-06 07:00:00<>METAR SBSV 060700Z 14005KT 110V170 9999 SCT025 BKN040 27/23 Q1014=
2025-04-06 08:00:00<>METAR SBSV 060800Z 09008KT 9999 FEW020 27/23 Q1014=
2025-04-06 09:00:00<>METAR SBSV 060900Z 08006KT 9999 VCSH FEW020 FEW023TCU BKN060 26/23 Q1015=
2025-04-06 10:00:00<>METAR SBSV 061000Z 10007KT 9999 SCT020 28/23 Q1015=
2025-04-06 11:00:00<>METAR SBSV 061100Z 11009KT 9999 BKN020 30/22 Q1016=
2025-04-06 12:00:00<>METAR SBSV 061200Z 09011KT 070V130 9999 BKN023 30/22 Q1016=
2025-04-06 13:00:00<>METAR SBSV 061300Z 11010KT 080V140 9999 BKN023 30/22 Q1016=
2025-04-06 14:00:00<>METAR SBSV 061400Z 10012KT 9999 BKN023 30/23 Q1016=
2025-04-06 15:00:00<>METAR SBSV 061500Z 11011KT 080V140 9999 BKN023 31/22 Q1015=
2025-04-06 16:00:00<>METAR SBSV 061600Z 11010KT 070V140 9999 BKN023 30/22 Q1014=
2025-04-06 17:00:00<>METAR SBSV 061700Z 10011KT 9999 BKN023 30/22 Q1013=
2025-04-06 18:00:00<>METAR SBSV 061800Z 11009KT 080V150 9999 SCT023 30/22 Q1013=
2025-04-06 19:00:00<>METAR SBSV 061900Z 11010KT 9999 SCT023 30/22 Q1013=
2025-04-06 20:00:00<>METAR SBSV 062000Z 11009KT 080V140 9999 SCT023 29/20 Q1013=
2025-04-06 21:00:00<>METAR SBSV 062100Z 12008KT 9999 SCT023 28/21 Q1013=
2025-04-06 22:00:00<>METAR SBSV 062200Z 12008KT 9999 SCT023 28/22 Q1014=
2025-04-06 23:00:00<>METAR SBSV 062300Z 11008KT 9999 SCT023 28/21 Q1014=
2025-04-07 00:00:00<>METAR SBSV 070000Z 11008KT 9999 SCT023 28/21 Q1015=
2025-04-07 01:00:00<>METAR SBSV 070100Z 12009KT 9999 FEW025 28/21 Q1015=
2025-04-07 02:00:00<>METAR SBSV 070200Z 11009KT 9999 FEW019 BKN025 28/22 Q1015=
2025-04-07 03:00:00<>METAR SBSV 070300Z 09007KT 9999 BKN022 BKN055 28/22 Q1014=
2025-04-07 04:00:00<>METAR SBSV 070400Z 10008KT 9999 SCT025 28/21 Q1013=
2025-04-07 05:00:00<>METAR SBSV 070500Z 11009KT 9999 SCT025 SCT070 28/22 Q1013=
2025-04-07 06:00:00<>METAR SBSV 070600Z 10009KT 9999 SCT023 SCT070 28/21 Q1013=
2025-04-07 07:00:00<>METAR SBSV 070700Z 09010KT 9999 SCT023 27/21 Q1012=
2025-04-07 08:00:00<>METAR SBSV 070800Z 09009KT 9999 SCT025 SCT070 27/21 Q1012=
2025-04-07 09:00:00<>METAR SBSV 070900Z 09009KT 9999 FEW025 27/21 Q1012=
2025-04-07 10:00:00<>METAR SBSV 071000Z 09008KT 9999 SCT025 28/21 Q1013=
2025-04-07 11:00:00<>METAR SBSV 071100Z 10009KT 070V130 9999 BKN025 29/21 Q1014=
2025-04-07 12:00:00<>METAR SBSV 071200Z 10007KT 070V140 9999 BKN025 30/22 Q1014=
2025-04-07 13:00:00<>METAR SBSV 071300Z 10008KT 070V140 9999 BKN025 30/22 Q1014=
2025-04-07 14:00:00<>METAR SBSV 071400Z 10008KT 070V160 9999 BKN025 30/21 Q1014=
2025-04-07 15:00:00<>METAR SBSV 071500Z 11008KT 060V170 9999 SCT025 30/22 Q1013=
2025-04-07 16:00:00<>METAR SBSV 071600Z 13009KT 090V170 9999 SCT025 30/21 Q1012=
2025-04-07 17:00:00<>METAR SBSV 071700Z 11010KT 080V170 9999 BKN025 30/22 Q1012=
2025-04-07 18:00:00<>METAR SBSV 071800Z 14009KT 110V180 9999 SCT025 30/21 Q1011=
2025-04-07 19:00:00<>METAR SBSV 071900Z 13009KT 9999 SCT025 29/21 Q1011=
2025-04-07 20:00:00<>METAR SBSV 072000Z 14009KT 9999 SCT025 29/22 Q1012=
2025-04-07 21:00:00<>METAR SBSV 072100Z 14006KT 110V190 9999 FEW025 28/21 Q1012=
2025-04-07 22:00:00<>METAR SBSV 072200Z 13006KT 080V190 9999 FEW025 SCT060 28/22 Q1013=
2025-04-07 23:00:00<>METAR SBSV 072300Z 13007KT 9999 FEW025 28/21 Q1014=
2025-04-08 00:00:00<>METAR SBSV 080000Z 11007KT 9999 FEW025 28/23 Q1014=
2025-04-08 01:00:00<>METAR SBSV 080100Z 15005KT 9999 FEW025 28/22 Q1014=
2025-04-08 02:00:00<>METAR SBSV 080200Z 10004KT 9999 FEW025 27/23 Q1014=
2025-04-08 03:00:00<>METAR SBSV 080300Z 13006KT 100V160 9999 FEW025 28/22 Q1014=
2025-04-08 04:00:00<>METAR SBSV 080400Z VRB01KT 9999 FEW020 FEW025TCU 25/22 Q1013=
2025-04-08 05:00:00<>METAR SBSV 080500Z 13006KT 9999 FEW020 FEW025TCU 27/22 Q1012=
2025-04-08 06:00:00<>METAR SBSV 080600Z 15004KT 120V200 9999 SCT020 27/23 Q1012=
2025-04-08 07:00:00<>METAR SBSV 080700Z 14007KT 9999 SCT020 27/22 Q1012=
2025-04-08 08:00:00<>METAR SBSV 080800Z 13007KT 9999 SCT020 26/22 Q1013=
2025-04-08 09:00:00<>METAR SBSV 080900Z 02003KT 350V050 9999 SCT020 FEW025TCU 25/21 Q1014=
2025-04-08 10:00:00<>METAR SBSV 081000Z VRB02KT 9999 VCSH BKN020 FEW025TCU 27/22 Q1014=
2025-04-08 11:00:00<>METAR SBSV 081100Z 10004KT 9999 SCT020 FEW025TCU 29/23 Q1015=
2025-04-08 12:00:00<>METAR SBSV 081200Z 13006KT 080V170 9999 VCSH BKN023 FEW025TCU SCT060 29/22 Q1016=
2025-04-08 13:00:00<>METAR SBSV 081300Z 13007KT 090V190 9999 VCSH BKN023 FEW025TCU SCT060 30/23 Q1016=
2025-04-08 14:00:00<>METAR SBSV 081400Z 19008KT 160V230 9999 VCSH SCT023 FEW025TCU BKN080 29/24 Q1015=
2025-04-08 15:00:00<>METAR SBSV 081500Z 16007KT 120V190 9999 VCSH SCT023 FEW025TCU BKN080 28/23 Q1014=
2025-04-08 16:00:00<>METAR SBSV 081600Z 19008KT 160V230 9999 VCSH SCT023 FEW025TCU SCT070 28/23 Q1014=
2025-04-08 17:00:00<>METAR SBSV 081700Z 19009KT 140V230 9999 VCSH SCT023 FEW025TCU SCT070 29/23 Q1013=
2025-04-08 18:00:00<>METAR SBSV 081800Z 16010KT 090V190 8000 VCSH SCT023 FEW025TCU BKN070 29/23 Q1013=
2025-04-08 19:00:00<>METAR SBSV 081900Z 16006KT 9999 SCT023 BKN070 28/24 Q1013=
2025-04-08 20:00:00<>METAR SBSV 082000Z 16007KT 9999 SCT023 SCT070 28/23 Q1013=
2025-04-08 21:00:00<>METAR SBSV 082100Z 14005KT 9999 SCT023 SCT070 27/23 Q1013=
2025-04-08 22:00:00<>METAR SBSV 082200Z 15006KT 9999 SCT023 27/23 Q1014=
2025-04-08 23:00:00<>METAR SBSV 082300Z 14005KT 9999 FEW023 27/23 Q1014=
2025-04-09 00:00:00<>METAR SBSV 090000Z 13006KT 9999 FEW023 27/23 Q1015=
2025-04-09 01:00:00<>METAR SBSV 090100Z 12007KT 100V160 9999 SCT023 28/22 Q1015=
2025-04-09 02:00:00<>METAR SBSV 090200Z 13005KT 9999 FEW017 SCT024 27/22 Q1015=
2025-04-09 03:00:00<>METAR SBSV 090300Z 12006KT 090V150 9999 FEW017 SCT025 27/22 Q1014=
2025-04-09 04:00:00<>METAR SBSV 090400Z 12007KT 100V180 9999 SCT025 28/22 Q1014=
2025-04-09 05:00:00<>METAR SBSV 090500Z 11006KT 9999 FEW025 27/22 Q1014=
2025-04-09 06:00:00<>METAR SBSV 090600Z 13005KT 9999 FEW025 27/22 Q1013=
2025-04-09 07:00:00<>METAR SBSV 090700Z 12005KT 9999 FEW022 27/22 Q1013=
2025-04-09 08:00:00<>METAR SBSV 090800Z 29004KT 9999 VCSH BKN023 FEW025TCU 25/22 Q1013=
2025-04-09 09:00:00<>METAR SBSV 090900Z 11004KT 9999 SCT023 25/23 Q1014=
2025-04-09 10:00:00<>METAR SBSV 091000Z 29003KT 9999 SCT023 27/23 Q1015=
2025-04-09 11:00:00<>METAR SBSV 091100Z 13005KT 080V160 9999 VCSH SCT023 FEW025TCU 29/23 Q1015=
2025-04-09 12:00:00<>METAR SBSV 091200Z 11006KT 060V140 9999 VCSH SCT023 FEW025TCU 29/22 Q1016=
2025-04-09 13:00:00<>METAR SBSV 091300Z 11007KT 080V160 9999 VCSH SCT023 FEW025TCU 30/22 Q1016=
2025-04-09 14:00:00<>METAR SBSV 091400Z 16007KT 080V190 9999 SCT023 30/23 Q1015=
2025-04-09 15:00:00<>METAR SBSV 091500Z 17008KT 120V220 9999 SCT023 30/24 Q1014=
2025-04-09 16:00:00<>METAR SBSV 091600Z 17007KT 120V210 9999 SCT023 30/23 Q1013=
2025-04-09 17:00:00<>METAR SBSV 091700Z 15008KT 090V190 9999 SCT023 30/23 Q1013=
2025-04-09 18:00:00<>METAR SBSV 091800Z 16007KT 9999 SCT023 29/22 Q1013=
2025-04-09 19:00:00<>METAR SBSV 091900Z 12008KT 9999 SCT023 30/22 Q1013=
2025-04-09 20:00:00<>METAR SBSV 092000Z 11008KT 090V150 9999 SCT023 29/22 Q1013=
2025-04-09 21:00:00<>METAR SBSV 092100Z 12006KT 090V180 9999 FEW025 28/22 Q1013=
2025-04-09 22:00:00<>METAR SBSV 092200Z 10006KT 080V150 9999 FEW025 28/21 Q1013=
2025-04-09 23:00:00<>METAR SBSV 092300Z 10007KT 9999 FEW025 28/22 Q1014=
2025-04-10 00:00:00<>METAR SBSV 100000Z 09008KT 9999 FEW025 28/22 Q1014=
2025-04-10 01:00:00<>METAR SBSV 100100Z 09007KT 010V150 9999 FEW021 28/22 Q1014=
2025-04-10 02:00:00<>METAR SBSV 100200Z 10006KT CAVOK 28/22 Q1014=
2025-04-10 03:00:00<>METAR SBSV 100300Z 10005KT 9999 FEW021 28/23 Q1014=
2025-04-10 04:00:00<>METAR SBSV 100400Z 09004KT 9999 FEW021 27/22 Q1013=
2025-04-10 05:00:00<>METAR SBSV 100500Z 09003KT 9999 FEW021 26/22 Q1012=
2025-04-10 06:00:00<>METAR SBSV 100600Z VRB02KT 9999 FEW023 25/22 Q1012=
2025-04-10 07:00:00<>METAR SBSV 100700Z 27002KT 9999 FEW023 24/22 Q1012=
2025-04-10 08:00:00<>METAR SBSV 100800Z 00000KT 9999 FEW023 24/22 Q1012=
2025-04-10 09:00:00<>METAR SBSV 100900Z VRB01KT 9999 FEW023 24/23 Q1013=
2025-04-10 10:00:00<>METAR SBSV 101000Z 34003KT 9999 FEW022 27/23 Q1013=
2025-04-10 11:00:00<>METAR SBSV 101100Z 09005KT 030V170 9999 SCT023 29/23 Q1014=
2025-04-10 12:00:00<>METAR SBSV 101200Z 08006KT 040V140 9999 SCT024 29/22 Q1014=
2025-04-10 13:00:00<>METAR SBSV 101300Z 10008KT 9999 SCT024 30/21 Q1014=
2025-04-10 14:00:00<>METAR SBSV 101400Z 13008KT 9999 SCT025 30/21 Q1013=
2025-04-10 15:00:00<>METAR SBSV 101500Z 12008KT 9999 SCT025 BKN100 30/22 Q1012=
2025-04-10 16:00:00<>METAR SBSV 101600Z 13008KT 9999 SCT025 BKN080 29/23 Q1012=
2025-04-10 17:00:00<>METAR SBSV 101700Z 12008KT 9999 SCT022 SCT060 30/23 Q1011=
2025-04-10 18:00:00<>METAR SBSV 101800Z 10009KT 070V170 9999 SCT022 30/23 Q1010=
2025-04-10 19:00:00<>METAR SBSV 101900Z 10009KT 9999 FEW026 29/23 Q1010=
2025-04-10 20:00:00<>METAR SBSV 102000Z 09009KT CAVOK 29/23 Q1010=
2025-04-10 21:00:00<>METAR SBSV 102100Z 08008KT CAVOK 28/23 Q1010=
2025-04-10 22:00:00<>METAR SBSV 102200Z 08009KT CAVOK 28/22 Q1010=
2025-04-10 23:00:00<>METAR SBSV 102300Z 08008KT CAVOK 28/23 Q1011=
2025-04-11 00:00:00<>METAR SBSV 110000Z 08008KT CAVOK 27/23 Q1011=
2025-04-11 01:00:00<>METAR SBSV 110100Z 07010KT 9999 FEW020 27/23 Q1011=
2025-04-11 02:00:00<>METAR SBSV 110200Z 06005KT 9999 FEW020 27/22 Q1011=
2025-04-11 03:00:00<>METAR SBSV 110300Z 05004KT 9999 FEW020 27/22 Q1011=
2025-04-11 04:00:00<>METAR SBSV 110400Z 01003KT 9999 FEW020 27/22 Q1010=
2025-04-11 05:00:00<>METAR SBSV 110500Z VRB02KT 9999 FEW020 26/22 Q1010=
2025-04-11 06:00:00<>METAR SBSV 110600Z 34002KT 9999 FEW020 25/22 Q1009=
2025-04-11 07:00:00<>METAR SBSV 110700Z 29002KT 9999 FEW020 25/22 Q1009=
2025-04-11 08:00:00<>METAR SBSV 110800Z 29003KT 9999 SCT021 SCT100 25/22 Q1010=
2025-04-11 09:00:00<>METAR SBSV 110900Z 32003KT 9999 SCT021 BKN100 25/22 Q1010=
2025-04-11 10:00:00<>METAR SBSV 111000Z 30004KT 9999 SCT021 SCT050 BKN100 26/23 Q1011=
2025-04-11 11:00:00<>METAR SBSV 111100Z 34007KT 9999 SCT023 SCT100 29/24 Q1011=
2025-04-11 12:00:00<>METAR SBSV 111200Z 34005KT 9999 SCT023 SCT100 30/22 Q1012=
2025-04-11 13:00:00<>METAR SBSV 111300Z 35005KT 9999 SCT023 SCT100 31/23 Q1011=
2025-04-11 14:00:00<>METAR SBSV 111400Z 34007KT 9999 SCT023 SCT100 32/23 Q1010=
2025-04-11 15:00:00<>METAR SBSV 111500Z 16011KT 9999 SCT023 SCT100 32/23 Q1009=
2025-04-11 16:00:00<>METAR SBSV 111600Z 16010KT 9999 SCT030 BKN100 31/24 Q1009=
2025-04-11 17:00:00<>METAR SBSV 111700Z 14008KT 080V180 9999 SCT030 BKN100 30/24 Q1008=
2025-04-11 18:00:00<>METAR SBSV 111800Z 14008KT 100V170 9999 SCT020 FEW023TCU BKN060 29/23 Q1008=
2025-04-11 19:00:00<>METAR SBSV 111900Z 13007KT 9999 SCT020 FEW023TCU BKN060 29/23 Q1008=
2025-04-11 20:00:00<>METAR SBSV 112000Z 15009KT 9999 FEW020 BKN060 29/23 Q1008=
2025-04-11 21:00:00<>METAR SBSV 112100Z 15008KT 9999 FEW020 BKN060 29/23 Q1009=
2025-04-11 22:00:00<>METAR SBSV 112200Z 13005KT 100V160 9999 FEW018 BKN060 29/23 Q1009=
2025-04-11 23:00:00<>METAR SBSV 112300Z 14006KT 9999 FEW018 BKN060 29/24 Q1010=
2025-04-12 00:00:00<>METAR SBSV 120000Z 14003KT 9999 FEW018 BKN060 29/24 Q1011=
2025-04-12 01:00:00<>METAR SBSV 120100Z 15003KT CAVOK 29/24 Q1011=
2025-04-12 02:00:00<>METAR SBSV 120200Z 13005KT 100V160 9999 FEW020 29/24 Q1011=
2025-04-12 03:00:00<>METAR SBSV 120300Z 12005KT 100V180 9999 FEW020 29/24 Q1011=
2025-04-12 04:00:00<>METAR SBSV 120400Z 15007KT 9999 SCT020 29/24 Q1011=
2025-04-12 05:00:00<>METAR SBSV 120500Z 15007KT 130V200 9999 SCT020 FEW025TCU 29/24 Q1010=
2025-04-12 06:00:00<>METAR SBSV 120600Z 17008KT 9999 SCT020 FEW025TCU 28/23 Q1010=
2025-04-12 07:00:00<>METAR SBSV 120700Z 17008KT 9999 SCT020 28/23 Q1010=
2025-04-12 08:00:00<>METAR SBSV 120800Z 16010KT 9999 SCT020 28/22 Q1010=
2025-04-12 09:00:00<>METAR SBSV 120900Z 15009KT 130V190 9999 SCT020 FEW025TCU 29/22 Q1011=
2025-04-12 10:00:00<>METAR SBSV 121000Z 14008KT 110V170 9999 SCT022 BKN070 29/23 Q1012=
2025-04-12 11:00:00<>METAR SBSV 121100Z 12008KT 090V150 9000 VCSH BKN023 FEW025TCU BKN090 29/23 Q1013=
2025-04-12 11:46:00<>SPECI SBSV 121146Z 19010KT 140V230 5000 -RA BR BKN010 FEW025TCU OVC100 27/24 Q1013=
2025-04-12 12:00:00<>METAR SBSV 121200Z 20011KT 170V230 5000 RA BR BKN010 BKN020 FEW025TCU OVC100 26/24 Q1014=
2025-04-12 12:27:00<>SPECI SBSV 121227Z 20010KT 120V180 6000 -RA BKN011 BKN022 FEW025TCU BKN100 27/24 Q1014 RERA=
2025-04-12 13:00:00<>METAR COR SBSV 121300Z 21007KT 180V240 8000 VCSH FEW009 BKN016 FEW024TCU BKN100 27/24 Q1014 RERA=
2025-04-12 14:00:00<>METAR SBSV 121400Z 22006KT 180V250 9999 BKN023 FEW025TCU BKN060 28/23 Q1013=
2025-04-12 15:00:00<>METAR SBSV 121500Z 18010KT 150V210 8000 VCSH FEW012 BKN015 FEW025TCU OVC060 27/23 Q1013=
2025-04-12 15:26:00<>SPECI SBSV 121526Z 16007KT 5000 RA BR BKN011 BKN020 FEW025TCU OVC070 26/24 Q1013=
2025-04-12 16:00:00<>METAR SBSV 121600Z 06006KT 5000 -RA BR BKN010 BKN022 FEW025TCU OVC055 25/24 Q1013 RERA=
2025-04-12 17:00:00<>METAR SBSV 121700Z 34005KT 310V030 6000 -RA BKN009 BKN020 FEW025TCU OVC050 25/24 Q1012=
2025-04-12 17:35:00<>SPECI SBSV 121735Z 28005KT 9999 SCT020 FEW025TCU BKN050 26/23 Q1012=
2025-04-12 18:00:00<>METAR SBSV 121800Z 29003KT 9999 SCT020 FEW025TCU BKN050 26/23 Q1011=
2025-04-12 19:00:00<>METAR SBSV 121900Z 26003KT 9999 SCT020 BKN050 27/22 Q1011=
2025-04-12 20:00:00<>METAR SBSV 122000Z 21011KT 9999 FEW020 BKN080 27/22 Q1009=
2025-04-12 21:00:00<>METAR SBSV 122100Z 22004KT 170V260 9999 FEW020 BKN100 27/22 Q1011=
2025-04-12 22:00:00<>METAR SBSV 122200Z 22003KT 9999 FEW020 BKN100 27/22 Q1011=
2025-04-12 23:00:00<>METAR SBSV 122300Z 16004KT 9999 FEW008 SCT100 27/23 Q1012=
2025-04-13 00:00:00<>METAR SBSV 130000Z 16006KT 9999 SCT017 SCT100 27/24 Q1013=
2025-04-13 01:00:00<>METAR SBSV 130100Z 16005KT 9999 BKN017 27/24 Q1013=
2025-04-13 02:00:00<>METAR SBSV 130200Z 16006KT 9999 BKN019 28/23 Q1013=
2025-04-13 03:00:00<>METAR SBSV 130300Z 18004KT 150V220 9999 BKN019 28/22 Q1013=
2025-04-13 04:00:00<>METAR SBSV 130400Z 17005KT 150V220 9999 BKN019 28/26 Q1012=
2025-04-13 05:00:00<>METAR SBSV 130500Z 18003KT 160V220 9999 BKN021 27/23 Q1012=
2025-04-13 06:00:00<>METAR SBSV 130600Z 17010KT 130V200 8000 BKN019 26/21 Q1012=
2025-04-13 07:00:00<>METAR SBSV 130700Z VRB04KT 9000 BKN019 26/23 Q1011=
2025-04-13 08:00:00<>METAR SBSV 130800Z 16007KT 9000 BKN019 27/23 Q1012=
2025-04-13 09:00:00<>METAR SBSV 130900Z 18004KT 150V220 9999 SCT020 FEW023TCU 27/23 Q1012=
2025-04-13 10:00:00<>METAR SBSV 131000Z 16006KT 9999 SCT020 FEW023TCU 28/24 Q1013=
2025-04-13 11:00:00<>METAR SBSV 131100Z 17007KT 9999 SCT020 29/23 Q1014=
2025-04-13 12:00:00<>METAR SBSV 131200Z 16010KT 120V180 9999 SCT020 30/23 Q1015=
2025-04-13 13:00:00<>METAR SBSV 131300Z 15010KT 110V170 9999 SCT020 FEW025TCU 30/23 Q1015=
2025-04-13 14:00:00<>METAR SBSV 131400Z 14007KT 100V190 9999 VCSH SCT020 FEW025TCU 31/24 Q1014=
2025-04-13 15:00:00<>METAR SBSV 131500Z 14010KT 110V170 9999 VCSH SCT020 FEW025TCU 31/23 Q1014=
2025-04-13 16:00:00<>METAR SBSV 131600Z VRB06KT 2500 R28/1300U R10/P2000U -SHRA FEW015 BKN023 FEW025TCU 25/22 Q1014=
2025-04-13 16:06:00<>SPECI SBSV 131606Z 26007KT 200V330 1500 R10/0900D R28/1800D SHRA FEW009 BKN015 FEW025TCU 26/25 Q1014=
2025-04-13 16:30:00<>SPECI SBSV 131630Z 23004KT 200V270 9000 VCSH FEW013 BKN023 FEW025TCU 26/24 Q1013 RESHRA=
2025-04-13 17:00:00<>METAR SBSV 131700Z 22009KT 190V250 9000 VCSH FEW013 BKN023 FEW025TCU 27/25 Q1013=
2025-04-13 17:09:00<>SPECI SBSV 131709Z 19007KT 6000 2500E SHRA FEW010 BKN015 FEW025TCU OVC060 27/24 Q1013=
2025-04-13 18:00:00<>METAR SBSV 131800Z 21008KT 7000 -RA BKN019 FEW025TCU BKN080 26/23 Q1013 RESHRA=
2025-04-13 19:00:00<>METAR SBSV 131900Z 19008KT 6000 2000E -SHRA FEW010 BKN023 FEW025TCU BKN080 27/23 Q1013=
2025-04-13 20:00:00<>METAR SBSV 132000Z 36003KT 9999 SCT024 SCT090 26/22 Q1013=
2025-04-13 21:00:00<>METAR SBSV 132100Z 34002KT 9999 FEW020 SCT080 25/23 Q1012=
2025-04-13 22:00:00<>METAR SBSV 132200Z 28002KT 9999 FEW022 25/23 Q1013=
2025-04-13 23:00:00<>METAR SBSV 132300Z 15002KT 9999 FEW022 25/24 Q1013=
2025-04-14 00:00:00<>METAR SBSV 140000Z 14005KT 9999 FEW023 27/23 Q1013=
2025-04-14 01:00:00<>METAR SBSV 140100Z 13004KT 9999 FEW023 27/23 Q1013=
2025-04-14 02:00:00<>METAR SBSV 140200Z 14003KT 110V220 9999 FEW023 27/23 Q1013=
2025-04-14 03:00:00<>METAR SBSV 140300Z 06001KT 9999 FEW023 26/23 Q1013=
2025-04-14 04:00:00<>METAR SBSV 140400Z VRB02KT 9999 FEW023 25/24 Q1013=
2025-04-14 05:00:00<>METAR SBSV 140500Z VRB01KT 9999 FEW023 24/24 Q1012=
2025-04-14 06:00:00<>METAR SBSV 140600Z 00000KT 9999 FEW023 24/24 Q1012=
2025-04-14 07:00:00<>METAR SBSV 140700Z 00000KT 9999 FEW023 24/24 Q1012=
2025-04-14 08:00:00<>METAR SBSV 140800Z 27002KT 9999 SCT020 23/23 Q1012=
2025-04-14 09:00:00<>METAR SBSV 140900Z VRB01KT 9999 VCSH SCT020 FEW025TCU 24/24 Q1013=
2025-04-14 10:00:00<>METAR SBSV 141000Z 00000KT 9999 SCT021 FEW025TCU 27/25 Q1014=
2025-04-14 11:00:00<>METAR SBSV 141100Z 28002KT 9999 SCT021 27/24 Q1014=
2025-04-14 12:00:00<>METAR SBSV 141200Z 13005KT 9999 SCT021 29/23 Q1015=
2025-04-14 13:00:00<>METAR SBSV 141300Z 15006KT 9999 SCT021 30/23 Q1015=
2025-04-14 14:00:00<>METAR SBSV 141400Z 14005KT 9999 SCT023 30/22 Q1014=
2025-04-14 15:00:00<>METAR SBSV 141500Z 13007KT 9999 SCT023 30/23 Q1013=
2025-04-14 16:00:00<>METAR SBSV 141600Z 15008KT 110V190 9999 SCT023 30/22 Q1012=
2025-04-14 17:00:00<>METAR SBSV 141700Z 16009KT 120V200 9999 SCT023 30/23 Q1012=
2025-04-14 18:00:00<>METAR SBSV 141800Z 15008KT 110V210 9999 FEW024 30/22 Q1011=
2025-04-14 19:00:00<>METAR SBSV 141900Z 12008KT 110V200 9999 FEW023 30/23 Q1011=
2025-04-14 20:00:00<>METAR SBSV 142000Z 12007KT 9999 FEW023 29/23 Q1011=
2025-04-14 21:00:00<>METAR SBSV 142100Z 11007KT 9999 FEW022 28/23 Q1011=
2025-04-14 22:00:00<>METAR SBSV 142200Z 11008KT 9999 FEW022 28/23 Q1012=
2025-04-14 23:00:00<>METAR SBSV 142300Z 10007KT 9999 FEW022 28/23 Q1013=
2025-04-15 00:00:00<>METAR SBSV 150000Z 09008KT 9999 FEW023 28/23 Q1013=
2025-04-15 01:00:00<>METAR SBSV 150100Z 08008KT 9999 FEW023 28/23 Q1013=
2025-04-15 02:00:00<>METAR SBSV 150200Z 08008KT CAVOK 27/23 Q1013=
2025-04-15 03:00:00<>METAR SBSV 150300Z 08008KT CAVOK 27/23 Q1013=
2025-04-15 04:00:00<>METAR SBSV 150400Z 06007KT 9999 FEW020 26/23 Q1012=
2025-04-15 05:00:00<>METAR SBSV 150500Z 27003KT CAVOK 25/23 Q1011=
2025-04-15 06:00:00<>METAR SBSV 150600Z 27002KT CAVOK 24/24 Q1011=
2025-04-15 07:00:00<>METAR SBSV 150700Z 30004KT 9999 SCT022 24/23 Q1012=
2025-04-15 08:00:00<>METAR SBSV 150800Z 30003KT 9999 SCT023 24/23 Q1012=
2025-04-15 09:00:00<>METAR SBSV 150900Z 34005KT 9999 SCT023 24/23 Q1013=
2025-04-15 10:00:00<>METAR SBSV 151000Z VRB02KT 9999 FEW020 26/23 Q1014=
2025-04-15 11:00:00<>METAR SBSV 151100Z 31002KT 9999 FEW020 28/23 Q1014=
2025-04-15 12:00:00<>METAR SBSV 151200Z 04003KT 360V090 9999 BKN023 29/23 Q1014=
2025-04-15 13:00:00<>METAR SBSV 151300Z 08006KT 040V120 9999 BKN023 30/24 Q1014=
2025-04-15 14:00:00<>METAR SBSV 151400Z 10009KT 9999 BKN023 30/24 Q1013=
2025-04-15 15:00:00<>METAR SBSV 151500Z 13009KT 100V170 9999 BKN023 30/23 Q1013=
2025-04-15 16:00:00<>METAR SBSV 151600Z 15008KT 090V190 9999 SCT023 30/23 Q1012=
2025-04-15 17:00:00<>METAR SBSV 151700Z 14007KT 090V210 9999 SCT025 30/23 Q1011=
2025-04-15 18:00:00<>METAR SBSV 151800Z 14009KT 9999 SCT025 31/24 Q1011=
2025-04-15 19:00:00<>METAR SBSV 151900Z 12007KT 9999 SCT025 30/23 Q1011=
2025-04-15 20:00:00<>METAR COR SBSV 152000Z 10008KT 9999 FEW025 29/24 Q1011=
2025-04-15 21:00:00<>METAR SBSV 152100Z 11006KT 9999 FEW021 29/23 Q1011=
2025-04-15 22:00:00<>METAR SBSV 152200Z 11006KT 9999 FEW021 29/24 Q1012=
2025-04-15 23:00:00<>METAR SBSV 152300Z 10007KT 9999 FEW021 29/24 Q1012=
2025-04-16 00:00:00<>METAR SBSV 160000Z 09007KT 9999 SCT021 28/23 Q1013=
2025-04-16 01:00:00<>METAR SBSV 160100Z 10008KT 9999 SCT021 29/24 Q1013=
2025-04-16 02:00:00<>METAR SBSV 160200Z 10007KT 9999 SCT021 28/23 Q1013=
2025-04-16 03:00:00<>METAR SBSV 160300Z 12005KT 100V170 9999 FEW021 28/23 Q1013=
2025-04-16 04:00:00<>METAR SBSV 160400Z 12005KT 080V150 9999 FEW021 28/23 Q1013=
2025-04-16 05:00:00<>METAR SBSV 160500Z 12005KT 9999 FEW021 28/23 Q1012=
2025-04-16 06:00:00<>METAR SBSV 160600Z 11005KT 090V150 9999 FEW021 28/23 Q1012=
2025-04-16 07:00:00<>METAR SBSV 160700Z 10005KT 9999 SCT021 28/23 Q1012=
2025-04-16 08:00:00<>METAR SBSV 160800Z 10002KT 9999 SCT021 27/23 Q1012=
2025-04-16 09:00:00<>METAR SBSV 160900Z VRB02KT 9999 SCT021 26/23 Q1013=
2025-04-16 10:00:00<>METAR SBSV 161000Z VRB02KT 9999 SCT021 28/24 Q1013=
2025-04-16 11:00:00<>METAR SBSV 161100Z 12004KT 080V170 9999 SCT023 30/23 Q1014=
2025-04-16 12:00:00<>METAR SBSV 161200Z 12007KT 090V150 9999 SCT023 FEW025TCU 30/23 Q1014=
2025-04-16 13:00:00<>METAR SBSV 161300Z 11005KT 070V140 9999 SCT023 FEW025TCU 30/23 Q1014=
2025-04-16 14:00:00<>METAR SBSV 161400Z 12009KT 090V150 9999 SCT023 FEW025TCU 30/24 Q1013=
2025-04-16 15:00:00<>METAR SBSV 161500Z 12009KT 070V160 9999 SCT023 FEW025TCU 31/24 Q1013=
2025-04-16 16:00:00<>METAR SBSV 161600Z 15009KT 9999 SCT023 FEW025TCU 30/24 Q1012=
2025-04-16 17:00:00<>METAR SBSV 161700Z 15008KT 100V180 9999 SCT023 FEW025TCU 30/24 Q1012=
2025-04-16 18:00:00<>METAR SBSV 161800Z 15010KT 9999 SCT022 30/24 Q1011=
2025-04-16 19:00:00<>METAR SBSV 161900Z 15010KT 9999 SCT023 30/23 Q1011=
2025-04-16 20:00:00<>METAR SBSV 162000Z 14008KT 9999 SCT021 29/23 Q1011=
2025-04-16 21:00:00<>METAR SBSV 162100Z 12008KT 9999 SCT020 29/24 Q1011=
2025-04-16 22:00:00<>METAR SBSV 162200Z 11008KT 9999 SCT020 29/24 Q1012=
2025-04-16 23:00:00<>METAR SBSV 162300Z 11010KT 9999 SCT020 29/24 Q1012=
2025-04-17 00:00:00<>METAR SBSV 170000Z 11010KT 9999 BKN020 29/24 Q1013=
2025-04-17 01:00:00<>METAR SBSV 170100Z 12006KT 060V190 9999 SCT020 29/24 Q1013=
2025-04-17 02:00:00<>METAR SBSV 170200Z 12007KT 9999 SCT020 28/24 Q1013=
2025-04-17 03:00:00<>METAR SBSV 170300Z VRB06KT 9999 SCT020 29/24 Q1013=
2025-04-17 04:00:00<>METAR SBSV 170400Z 09006KT 9999 SCT020 28/24 Q1012=
2025-04-17 05:00:00<>METAR SBSV 170500Z 09007KT 9999 SCT020 28/24 Q1012=
2025-04-17 06:00:00<>METAR SBSV 170600Z 09006KT 9999 SCT020 28/24 Q1012=
2025-04-17 07:00:00<>METAR SBSV 170700Z 07004KT 9999 SCT020 27/24 Q1012=
2025-04-17 08:00:00<>METAR SBSV 170800Z 35004KT 9999 BKN020 SCT060 26/24 Q1013=
2025-04-17 09:00:00<>METAR SBSV 170900Z VRB02KT 9999 SCT021 SCT060 26/25 Q1013=
2025-04-17 10:00:00<>METAR SBSV 171000Z 34004KT 310V010 9999 VCSH SCT021 FEW023TCU SCT060 27/24 Q1014=
2025-04-17 11:00:00<>METAR SBSV 171100Z 36006KT 320V030 9999 SCT021 FEW023TCU 29/24 Q1015=
2025-04-17 12:00:00<>METAR SBSV 171200Z 34005KT 300V360 9999 BKN023 29/24 Q1015=
2025-04-17 13:00:00<>METAR SBSV 171300Z 09006KT 060V130 9999 BKN023 FEW025TCU 30/24 Q1015=
2025-04-17 14:00:00<>METAR SBSV 171400Z 08009KT 9999 BKN023 32/24 Q1014=
2025-04-17 15:00:00<>METAR SBSV 171500Z 09010KT 060V130 9999 SCT025 32/23 Q1014=
2025-04-17 16:00:00<>METAR SBSV 171600Z 09011KT 9999 SCT025 31/24 Q1013=
2025-04-17 17:00:00<>METAR SBSV 171700Z 09011KT 9999 SCT025 30/24 Q1012=
2025-04-17 18:00:00<>METAR SBSV 171800Z 08010KT 9999 FEW025 31/24 Q1011=
2025-04-17 19:00:00<>METAR SBSV 171900Z 08010KT 9999 FEW025 30/24 Q1011=
2025-04-17 20:00:00<>METAR SBSV 172000Z 09010KT 9999 FEW025 29/24 Q1012=
2025-04-17 21:00:00<>METAR SBSV 172100Z 08009KT 9999 FEW020 28/24 Q1012=
2025-04-17 22:00:00<>METAR SBSV 172200Z 08008KT 9999 FEW018 28/24 Q1012=
2025-04-17 23:00:00<>METAR SBSV 172300Z 07010KT 9999 SCT019 28/24 Q1013=
2025-04-18 00:00:00<>METAR SBSV 180000Z 07011KT 9999 SCT019 28/24 Q1013=
2025-04-18 01:00:00<>METAR SBSV 180100Z 06010KT 9999 SCT019 28/24 Q1014=
2025-04-18 02:00:00<>METAR SBSV 180200Z 06009KT 9999 FEW019 28/21 Q1013=
2025-04-18 03:00:00<>METAR SBSV 180300Z 05007KT 9999 FEW019 28/22 Q1013=
2025-04-18 04:00:00<>METAR SBSV 180400Z 04005KT 350V070 9999 FEW021 27/23 Q1013=
2025-04-18 05:00:00<>METAR SBSV 180500Z 35004KT 9999 FEW021 26/23 Q1013=
2025-04-18 06:00:00<>METAR SBSV 180600Z VRB02KT 9999 FEW021 26/23 Q1012=
2025-04-18 07:00:00<>METAR SBSV 180700Z 27002KT 9999 FEW021 25/23 Q1012=
2025-04-18 08:00:00<>METAR SBSV 180800Z 26003KT 230V340 9999 FEW021 25/23 Q1012=
2025-04-18 09:00:00<>METAR SBSV 180900Z 28003KT 9999 FEW021 SCT050 25/23 Q1013=
2025-04-18 10:00:00<>METAR SBSV 181000Z 30005KT 9999 SCT022 SCT060 26/23 Q1013=
2025-04-18 11:00:00<>METAR SBSV 181100Z 35006KT 330V030 9999 FEW023 SCT060 29/24 Q1013=
2025-04-18 12:00:00<>METAR SBSV 181200Z 02005KT 340V040 9999 VCSH SCT019 FEW025TCU BKN055 29/24 Q1014=
2025-04-18 12:11:00<>SPECI SBSV 181211Z 03008KT 360V070 6000 SHRA BKN019 FEW025TCU BKN050 29/24 Q1014=
2025-04-18 12:38:00<>SPECI SBSV 181238Z 08004KT 9000 VCSH SCT020 FEW025TCU BKN055 29/25 Q1014 RESHRA=
2025-04-18 13:00:00<>METAR SBSV 181300Z 06005KT 020V100 9000 VCSH SCT020 FEW025TCU BKN060 29/24 Q1014 RESHRA=
2025-04-18 14:00:00<>METAR SBSV 181400Z 09008KT 060V140 9999 SCT022 BKN070 31/23 Q1013=
2025-04-18 15:00:00<>METAR SBSV 181500Z 10007KT 030V150 9999 SCT023 SCT100 31/23 Q1012=
2025-04-18 16:00:00<>METAR SBSV 181600Z 13008KT 090V160 9999 SCT024 31/23 Q1012=
2025-04-18 17:00:00<>METAR SBSV 181700Z 11008KT 050V140 9999 SCT024 30/24 Q1011=
2025-04-18 18:00:00<>METAR SBSV 181800Z 09011KT 9999 SCT024 30/24 Q1010=
2025-04-18 19:00:00<>METAR SBSV 181900Z 10010KT 9999 SCT024 30/24 Q1010=
2025-04-18 20:00:00<>METAR SBSV 182000Z 09011KT 9999 SCT024 29/24 Q1011=
2025-04-18 21:00:00<>METAR SBSV 182100Z 09009KT 9999 SCT023 29/23 Q1011=
2025-04-18 22:00:00<>METAR SBSV 182200Z 09008KT 9999 SCT018 29/24 Q1012=
2025-04-18 23:00:00<>METAR SBSV 182300Z 08009KT 9999 SCT020 28/24 Q1013=
2025-04-19 00:00:00<>METAR SBSV 190000Z 08008KT 9999 SCT020 28/24 Q1013=
2025-04-19 01:00:00<>METAR SBSV 190100Z 08007KT 6000 -RA SCT017 SCT020 BKN060 28/24 Q1014=
2025-04-19 01:05:00<>SPECI SBSV 190105Z 10011KT 5000 RA SCT017 BKN020 BKN060 26/24 Q1014=
2025-04-19 01:22:00<>SPECI SBSV 190122Z 03005KT 8000 VCSH BKN017 FEW020TCU BKN060 27/25 Q1014 RERA=
2025-04-19 02:00:00<>METAR SBSV 190200Z 04006KT 360V100 9999 VCSH SCT017 FEW020TCU BKN060 27/25 Q1014 RERA=
2025-04-19 03:00:00<>METAR SBSV 190300Z 00000KT 9999 SCT017 FEW020TCU BKN050 26/25 Q1014=
2025-04-19 04:00:00<>METAR SBSV 190400Z 01003KT 330V100 9999 SCT017 FEW020TCU SCT030 BKN060 26/25 Q1013=
2025-04-19 05:00:00<>METAR SBSV 190500Z 02003KT 9999 SCT017 FEW020TCU SCT030 BKN060 26/24 Q1012=
2025-04-19 06:00:00<>METAR SBSV 190600Z 01003KT 330V050 9999 SCT017 FEW020TCU SCT030 BKN060 26/25 Q1012=
2025-04-19 07:00:00<>METAR SBSV 190700Z 36003KT 9999 SCT017 FEW020TCU SCT030 BKN060 26/24 Q1012=
2025-04-19 08:00:00<>METAR SBSV 190800Z 35003KT 9999 SCT020 SCT040 BKN070 25/24 Q1012=
2025-04-19 09:00:00<>METAR SBSV 190900Z 31003KT 9999 FEW023 SCT080 25/24 Q1013=
2025-04-19 10:00:00<>METAR SBSV 191000Z 35005KT 320V020 9999 FEW023 SCT080 27/24 Q1013=
2025-04-19 11:00:00<>METAR SBSV 191100Z 01007KT 9999 FEW022 28/23 Q1013=
2025-04-19 12:00:00<>METAR SBSV 191200Z 03006KT 330V070 9999 SCT020 30/23 Q1014=
2025-04-19 13:00:00<>METAR SBSV 191300Z 06010KT 350V110 9999 SCT025 30/23 Q1013=
2025-04-19 14:00:00<>METAR SBSV 191400Z 08010KT 9999 SCT025 SCT050 30/23 Q1013=
2025-04-19 15:00:00<>METAR SBSV 191500Z 10011KT 9999 SCT025 31/23 Q1012=
2025-04-19 16:00:00<>METAR SBSV 191600Z 09012KT 9999 FEW025 30/24 Q1011=
2025-04-19 17:00:00<>METAR SBSV 191700Z 09010KT 9999 FEW025 30/23 Q1010=
2025-04-19 18:00:00<>METAR SBSV 191800Z 08011KT 9999 FEW025 30/23 Q1010=
2025-04-19 19:00:00<>METAR SBSV 191900Z 08011KT 9999 FEW021 30/23 Q1010=
2025-04-19 20:00:00<>METAR SBSV 192000Z 07011KT CAVOK 29/23 Q1010=
2025-04-19 21:00:00<>METAR SBSV 192100Z 07011KT CAVOK 28/23 Q1010=
2025-04-19 22:00:00<>METAR SBSV 192200Z 07010KT 9999 FEW023 SCT060 28/23 Q1010=
2025-04-19 23:00:00<>METAR SBSV 192300Z 07010KT CAVOK 28/22 Q1011=
2025-04-20 00:00:00<>METAR SBSV 200000Z 06010KT 9999 FEW023 28/22 Q1012=
2025-04-20 01:00:00<>METAR SBSV 200100Z 06008KT 9999 FEW023 28/22 Q1012=
2025-04-20 02:00:00<>METAR SBSV 200200Z 04007KT 9999 FEW024 27/22 Q1012=
2025-04-20 03:00:00<>METAR SBSV 200300Z 01005KT 350V070 9999 FEW025 26/22 Q1011=
2025-04-20 04:00:00<>METAR SBSV 200400Z 34004KT 9999 FEW023 FEW025TCU 25/22 Q1011=
2025-04-20 05:00:00<>METAR SBSV 200500Z 31004KT 9999 FEW023 FEW025TCU 25/22 Q1010=
2025-04-20 06:00:00<>METAR SBSV 200600Z 33005KT 9999 VCSH FEW022 FEW025TCU SCT080 24/22 Q1010=
2025-04-20 07:00:00<>METAR SBSV 200700Z 01006KT CAVOK 25/22 Q1009=
2025-04-20 08:00:00<>METAR SBSV 200800Z 35005KT 9999 FEW025 24/23 Q1010=
2025-04-20 09:00:00<>METAR SBSV 200900Z 29004KT 250V330 9999 FEW022 24/23 Q1011=
2025-04-20 10:00:00<>METAR SBSV 201000Z 28004KT 9000 SCT022 FEW025TCU 26/23 Q1012=
2025-04-20 11:00:00<>METAR SBSV 201100Z 35005KT 330V030 9999 FEW022 SCT100 28/24 Q1012=
2025-04-20 12:00:00<>METAR SBSV 201200Z 03006KT 330V060 9999 SCT020 29/24 Q1012=
2025-04-20 13:00:00<>METAR SBSV 201300Z 03007KT 360V070 9999 SCT023 31/23 Q1011=
2025-04-20 14:00:00<>METAR SBSV 201400Z 08013KT 9999 SCT025 31/23 Q1011=
2025-04-20 15:00:00<>METAR SBSV 201500Z 09012KT 9999 SCT025 31/24 Q1010=
2025-04-20 16:00:00<>METAR SBSV 201600Z 09013KT 9999 SCT023 FEW025TCU 31/24 Q1009=
2025-04-20 17:00:00<>METAR SBSV 201700Z 08013KT 9999 SCT023 31/24 Q1009=
2025-04-20 18:00:00<>METAR SBSV 201800Z 08012KT 9999 SCT023 30/23 Q1008=
2025-04-20 19:00:00<>METAR SBSV 201900Z 08011KT 9999 SCT023 30/24 Q1008=
2025-04-20 20:00:00<>METAR SBSV 202000Z 06012KT 9999 SCT023 29/23 Q1008=
2025-04-20 21:00:00<>METAR SBSV 202100Z 07011KT 9999 SCT021 28/23 Q1008=
2025-04-20 22:00:00<>METAR SBSV 202200Z 06011KT 9999 SCT021 28/23 Q1009=
2025-04-20 23:00:00<>METAR SBSV 202300Z 06010KT 9999 SCT021 28/23 Q1010=
2025-04-21 00:00:00<>METAR SBSV 210000Z 06011KT 9999 SCT021 28/23 Q1009=
2025-04-21 01:00:00<>METAR COR SBSV 210100Z 36002KT 9999 FEW023 SCT080 36/23 Q1009=
2025-04-21 02:00:00<>METAR SBSV 210200Z 04007KT 9999 SCT021 28/23 Q1010=
2025-04-21 03:00:00<>METAR SBSV 210300Z 01004G14KT 9999 SCT021 27/23 Q1010=
2025-04-21 04:00:00<>METAR SBSV 210400Z 36003KT 9999 SCT021 26/23 Q1009=
2025-04-21 05:00:00<>METAR SBSV 210500Z 36003KT 320V080 9999 FEW021 26/23 Q1009=
2025-04-21 06:00:00<>METAR SBSV 210600Z 36003KT 340V050 9999 FEW021 26/23 Q1008=
2025-04-21 07:00:00<>METAR SBSV 210700Z 34003KT 9999 FEW021 25/23 Q1009=
2025-04-21 08:00:00<>METAR SBSV 210800Z VRB02KT 9999 FEW021 25/23 Q1009=
2025-04-21 09:00:00<>METAR SBSV 210900Z 28003KT 260V330 9999 FEW023 25/23 Q1010=
2025-04-21 10:00:00<>METAR SBSV 211000Z 33004KT 9999 FEW023 27/23 Q1010=
2025-04-21 11:00:00<>METAR SBSV 211100Z 36006KT 320V030 9999 FEW023 28/23 Q1010=
2025-04-21 12:00:00<>METAR SBSV 211200Z 01006KT 9999 FEW023 29/23 Q1011=
2025-04-21 13:00:00<>METAR SBSV 211300Z 04005KT 360V080 9999 SCT030 30/23 Q1011=
2025-04-21 14:00:00<>METAR SBSV 211400Z 08008KT 9999 SCT030 31/24 Q1010=
2025-04-21 15:00:00<>METAR SBSV 211500Z 10012KT 9999 SCT030 31/23 Q1009=
2025-04-21 16:00:00<>METAR SBSV 211600Z 10010KT 9999 SCT030 31/23 Q1008=
2025-04-21 17:00:00<>METAR SBSV 211700Z 11010KT 9999 FEW025 FEW026TCU 31/24 Q1008=
2025-04-21 18:00:00<>METAR SBSV 211800Z 12009KT 070V160 9999 FEW023 31/24 Q1008=
2025-04-21 19:00:00<>METAR SBSV 211900Z 12009KT 100V160 9999 FEW020 SCT100 30/23 Q1008=
2025-04-21 20:00:00<>METAR SBSV 212000Z 15008KT 9999 FEW018 SCT026 29/24 Q1009=
2025-04-21 21:00:00<>METAR SBSV 212100Z 17011KT 9999 FEW015 SCT026 28/24 Q1009=
2025-04-21 22:00:00<>METAR SBSV 212200Z 17008KT 9999 FEW020 BKN080 28/24 Q1009=
2025-04-21 23:00:00<>METAR SBSV 212300Z 16008KT 9999 FEW019 SCT060 28/24 Q1010=
2025-04-22 00:00:00<>METAR SBSV 220000Z 16009KT 9999 SCT017 28/24 Q1010=
2025-04-22 01:00:00<>METAR SBSV 220100Z 16008KT 130V210 9999 SCT020 28/23 Q1011=
2025-04-22 02:00:00<>METAR SBSV 220200Z 14006KT 9999 SCT020 28/24 Q1011=
2025-04-22 03:00:00<>METAR SBSV 220300Z 13005KT 9999 SCT020 28/24 Q1011=
2025-04-22 04:00:00<>METAR SBSV 220400Z 11006KT 9999 SCT018 28/24 Q1010=
2025-04-22 05:00:00<>METAR SBSV 220500Z 12005KT 9999 SCT018 SCT050 BKN070 28/24 Q1010=
2025-04-22 06:00:00<>METAR SBSV 220600Z 09004KT 9999 SCT018 SCT070 27/24 Q1010=
2025-04-22 07:00:00<>METAR SBSV 220700Z 09004KT 9000 -RA SCT018 BKN080 26/24 Q1010=
2025-04-22 08:00:00<>METAR SBSV 220800Z 25003KT 9999 SCT018 SCT070 25/25 Q1011=
2025-04-22 09:00:00<>METAR SBSV 220900Z 29003KT 270V360 9000 VCSH SCT018 FEW020TCU SCT060 25/25 Q1011=
2025-04-22 10:00:00<>METAR SBSV 221000Z 25005KT 210V270 4000 1500W RA SCT011 SCT020 FEW023TCU 26/25 Q1011=
2025-04-22 10:35:00<>SPECI SBSV 221035Z 03004KT 350V080 1000 +RA SCT008 BKN023 FEW025TCU 25/25 Q1012 RERA=
2025-04-22 11:00:00<>METAR SBSV 221100Z VRB02KT 8000 VCSH SCT023 FEW025TCU SCT050 26/26 Q1012 RERA=
2025-04-22 12:00:00<>METAR SBSV 221200Z VRB02KT 9999 VCSH SCT023 FEW025TCU SCT050 28/24 Q1013=
2025-04-22 13:00:00<>METAR SBSV 221300Z 24006KT 9999 SCT017 FEW023TCU SCT050 29/25 Q1012=
2025-04-22 14:00:00<>METAR SBSV 221400Z 19009KT 160V220 9999 SCT020 FEW023TCU SCT050 30/24 Q1012=
2025-04-22 15:00:00<>METAR SBSV 221500Z 18008KT 150V210 9999 SCT020 FEW023TCU SCT050 30/24 Q1011=
2025-04-22 16:00:00<>METAR SBSV 221600Z 18009KT 160V220 9999 SCT020 FEW023TCU SCT050 30/24 Q1011=
2025-04-22 17:00:00<>METAR SBSV 221700Z 15012KT 9999 VCSH SCT018 FEW023TCU SCT050 30/24 Q1010=
2025-04-22 18:00:00<>METAR COR SBSV 221800Z 13011KT 9999 VCSH SCT017 FEW023TCU BKN060 30/24 Q1010=
2025-04-22 19:00:00<>METAR SBSV 221900Z 13010KT 9999 SCT023 BKN060 28/23 Q1010=
2025-04-22 20:00:00<>METAR SBSV 222000Z 12008KT 9999 SCT020 SCT070 28/24 Q1010=
2025-04-22 21:00:00<>METAR SBSV 222100Z 12007KT 090V150 9999 SCT021 SCT070 28/24 Q1011=
2025-04-22 22:00:00<>METAR SBSV 222200Z 13010KT 9999 BKN021 28/23 Q1011=
2025-04-22 23:00:00<>METAR SBSV 222300Z 13014KT 9999 BKN022 27/23 Q1012=
2025-04-23 00:00:00<>METAR SBSV 230000Z 13012KT 100V170 9999 SCT020 BKN055 28/23 Q1012=
2025-04-23 01:00:00<>METAR SBSV 230100Z 15013KT 5000 SHRA SCT009 BKN020 FEW023TCU 26/23 Q1013=
2025-04-23 01:05:00<>SPECI SBSV 230105Z 13011KT 2000 +SHRA SCT005 BKN020 FEW023TCU 25/24 Q1013 RESHRA=
2025-04-23 01:33:00<>SPECI SBSV 230133Z 15009KT 5000 SHRA SCT013 BKN020 FEW023TCU 25/25 Q1013 RESHRA=
2025-04-23 02:00:00<>METAR SBSV 230200Z 16004KT 120V200 5000 -RA SCT013 BKN020 FEW023TCU 25/25 Q1013 RESHRA=
2025-04-23 03:00:00<>METAR SBSV 230300Z 12009KT 9000 SCT021 BKN060 27/24 Q1012=
2025-04-23 04:00:00<>METAR SBSV 230400Z 10009KT 9999 SCT021 BKN060 27/22 Q1012=
2025-04-23 05:00:00<>METAR SBSV 230500Z 12005KT 090V180 9999 SCT021 BKN080 27/23 Q1011=
2025-04-23 06:00:00<>METAR SBSV 230600Z 14008KT 110V170 9999 SCT020 28/23 Q1011=
2025-04-23 07:00:00<>METAR SBSV 230700Z 11010KT 9999 FEW017 27/23 Q1011=
2025-04-23 08:00:00<>METAR SBSV 230800Z 06010KT 9999 FEW009 BKN017 26/25 Q1011=
2025-04-23 09:00:00<>METAR SBSV 230900Z 09010KT 5000 -RA SCT009 BKN015 25/25 Q1012=
2025-04-23 09:37:00<>SPECI SBSV 230937Z 06008KT 4000 -RA BR SCT004 BKN009 OVC050 25/24 Q1013=
2025-04-23 10:00:00<>METAR SBSV 231000Z 07010KT 4000 -RA BR FEW004 BKN010 OVC032 24/24 Q1013=
2025-04-23 10:18:00<>SPECI SBSV 231018Z 05006KT 5000 -RA BR SCT010 BKN015 OVC030 25/24 Q1014=
2025-04-23 11:00:00<>METAR SBSV 231100Z 02006KT 350V050 9999 VCSH FEW008 BKN015 OVC050 25/25 Q1014=
2025-04-23 12:00:00<>METAR SBSV 231200Z VRB01KT 9000 -RA SCT015 OVC040 26/24 Q1015=
2025-04-23 13:00:00<>METAR SBSV 231300Z VRB02KT 9999 FEW009 SCT016 OVC050 27/25 Q1015=
2025-04-23 14:00:00<>METAR SBSV 231400Z 29004KT 250V320 9999 VCSH FEW018 SCT022 BKN037 28/24 Q1014=
2025-04-23 15:00:00<>METAR SBSV 231500Z 13010KT 100V170 9999 -SHRA FEW008 BKN015 FEW023TCU BKN044 27/23 Q1014=
2025-04-23 16:00:00<>METAR SBSV 231600Z 11005KT 070V150 9999 FEW015 FEW023TCU BKN050 28/23 Q1013=
2025-04-23 17:00:00<>METAR SBSV 231700Z 13009KT 9999 FEW015 FEW023TCU BKN060 28/22 Q1012=
2025-04-23 18:00:00<>METAR SBSV 231800Z 14010KT 9999 FEW015 FEW023TCU BKN070 27/23 Q1012=
2025-04-23 19:00:00<>METAR SBSV 231900Z 15010KT 9999 SCT011 BKN080 28/23 Q1012=
2025-04-23 20:00:00<>METAR SBSV 232000Z 14009KT 9999 SCT015 BKN070 27/23 Q1013=
2025-04-23 21:00:00<>METAR SBSV 232100Z 12008KT 9999 SCT015 BKN070 27/23 Q1012=
2025-04-23 22:00:00<>METAR SBSV 232200Z 12010KT 9999 SCT033 SCT070 28/22 Q1013=
2025-04-23 23:00:00<>METAR SBSV 232300Z 12009KT 9999 SCT023 SCT070 28/22 Q1013=
2025-04-24 00:00:00<>METAR SBSV 240000Z 11015KT 9999 FEW011 SCT023 26/23 Q1014=
2025-04-24 01:00:00<>METAR SBSV 240100Z 14005KT 100V200 9999 FEW014 SCT016 BKN040 26/23 Q1014=
2025-04-24 02:00:00<>METAR SBSV 240200Z 17008KT 9999 -RA FEW018 SCT021 BKN030 25/24 Q1014=
2025-04-24 03:00:00<>METAR SBSV 240300Z 11011KT 080V150 9999 FEW013 SCT024 BKN030 26/23 Q1013=
2025-04-24 04:00:00<>METAR SBSV 240400Z 10010KT 9999 FEW007 BKN016 BKN040 25/24 Q1013=
2025-04-24 05:00:00<>METAR SBSV 240500Z 11006KT 5000 -RA BR FEW010 BKN020 OVC060 24/23 Q1013=
2025-04-24 05:10:00<>SPECI SBSV 240510Z 18006KT 6000 -RA BKN010 BKN020 OVC060 24/23 Q1013=
2025-04-24 06:00:00<>METAR SBSV 240600Z 31004KT 7000 -RA BKN022 BKN040 23/23 Q1012=
2025-04-24 07:00:00<>METAR SBSV 240700Z 28003KT 9999 SCT022 BKN040 24/23 Q1012=
2025-04-24 08:00:00<>METAR SBSV 240800Z 08009KT 040V130 9999 FEW022 BKN050 26/21 Q1012=
2025-04-24 09:00:00<>METAR SBSV 240900Z 13013KT 100V160 9999 FEW030 BKN040 OVC060 26/19 Q1013=
2025-04-24 10:00:00<>METAR SBSV 241000Z 15006KT 110V190 8000 VCSH SCT023 FEW025TCU BKN033 OVC050 27/19 Q1013=
2025-04-24 11:00:00<>METAR SBSV 241100Z 08009KT 5000 -RA BR SCT008 BKN015 FEW020TCU OVC040 24/23 Q1014=
2025-04-24 12:00:00<>METAR SBSV 241200Z 03003KT 340V060 8000 VCSH BKN020 FEW021TCU OVC060 25/24 Q1015=
2025-04-24 13:00:00<>METAR COR SBSV 241300Z 36004KT 330V060 9999 SCT021 FEW023TCU BKN070 26/22 Q1014=
2025-04-24 14:00:00<>METAR SBSV 241400Z 09009KT 9999 SCT021 FEW023TCU BKN070 29/22 Q1013=
2025-04-24 15:00:00<>METAR SBSV 241500Z 09008KT 9999 SCT021 SCT070 29/24 Q1013=
2025-04-24 16:00:00<>METAR SBSV 241600Z 09009KT 9000 VCSH SCT021 FEW023TCU 29/23 Q1012=
2025-04-24 17:00:00<>METAR SBSV 241700Z 16011KT 9000 VCSH BKN018 FEW020TCU BKN040 26/23 Q1011=
2025-04-24 18:00:00<>METAR SBSV 241800Z 13013KT 9999 VCSH BKN018 FEW020TCU BKN040 27/23 Q1011=
2025-04-24 19:00:00<>METAR COR SBSV 241900Z 17005KT 9999 VCSH SCT020 FEW020TCU BKN040 27/21 Q1011=
2025-04-24 20:00:00<>METAR SBSV 242000Z 11005KT 9999 FEW020 BKN050 28/22 Q1011=
2025-04-24 21:00:00<>METAR SBSV 242100Z 12003KT 9999 FEW023 BKN050 28/23 Q1011=
2025-04-24 22:00:00<>METAR COR SBSV 242200Z 08006KT 9999 FEW023 BKN060 27/21 Q1012=
2025-04-24 23:00:00<>METAR SBSV 242300Z 11008KT 9999 FEW025 SCT060 28/22 Q1012=
2025-04-25 00:00:00<>METAR SBSV 250000Z 12009KT 9999 FEW025 SCT070 28/22 Q1012=
2025-04-25 01:00:00<>METAR SBSV 250100Z 10010KT 9999 SCT022 BKN055 28/23 Q1012=
2025-04-25 02:00:00<>METAR SBSV 250200Z 10010KT 9999 SCT022 BKN070 28/22 Q1012=
2025-04-25 03:00:00<>METAR SBSV 250300Z 10008KT 9999 SCT023 27/23 Q1012=
2025-04-25 04:00:00<>METAR SBSV 250400Z 10007KT 9999 SCT023 27/22 Q1011=
2025-04-25 05:00:00<>METAR SBSV 250500Z 08006KT 9999 SCT022 SCT050 27/22 Q1010=
2025-04-25 06:00:00<>METAR SBSV 250600Z 33005KT 9999 SCT022 SCT050 25/23 Q1010=
2025-04-25 07:00:00<>METAR SBSV 250700Z 33004KT 9999 SCT020 SCT055 24/23 Q1010=
2025-04-25 08:00:00<>METAR SBSV 250800Z 30004KT 250V030 9999 VCSH SCT022 FEW025TCU BKN055 24/24 Q1011=
2025-04-25 09:00:00<>METAR SBSV 250900Z 28005KT 9999 VCSH SCT022 FEW025TCU BKN060 25/24 Q1011=
2025-04-25 10:00:00<>METAR SBSV 251000Z 29004KT 240V010 9999 VCSH SCT023 FEW025TCU 27/24 Q1012=
2025-04-25 11:00:00<>METAR SBSV 251100Z 27007KT 9999 SCT070 FEW075TCU 27/23 Q1013=
2025-04-25 12:00:00<>METAR SBSV 251200Z 22007KT 9999 SCT013 FEW025TCU SCT070 28/24 Q1013=
2025-04-25 13:00:00<>METAR SBSV 251300Z 18008KT 9999 SCT023 FEW025TCU SCT070 29/23 Q1014=
2025-04-25 14:00:00<>METAR SBSV 251400Z 18008KT 9999 SCT018 SCT070 29/24 Q1013=
2025-04-25 15:00:00<>METAR SBSV 251500Z 14007KT 9999 SCT018 SCT070 30/24 Q1011=
2025-04-25 16:00:00<>METAR SBSV 251600Z 20006KT 160V240 9999 SCT018 SCT070 29/23 Q1010=
2025-04-25 17:00:00<>METAR SBSV 251700Z VRB05KT 9999 SCT018 SCT070 29/24 Q1009=
2025-04-25 18:00:00<>METAR SBSV 251800Z 16006KT 090V200 9999 SCT018 29/23 Q1009=
2025-04-25 19:00:00<>METAR SBSV 251900Z 13005KT 070V180 9999 SCT018 29/24 Q1009=
2025-04-25 20:00:00<>METAR SBSV 252000Z 11006KT 9999 SCT018 28/22 Q1009=
2025-04-25 21:00:00<>METAR SBSV 252100Z 12005KT 080V150 9999 SCT018 28/23 Q1009=
2025-04-25 22:00:00<>METAR SBSV 252200Z 12005KT 090V180 9999 SCT018 28/23 Q1010=
2025-04-25 23:00:00<>METAR SBSV 252300Z 09006KT 9999 FEW021 28/22 Q1011=
2025-04-26 00:00:00<>METAR SBSV 260000Z 08006KT 9999 FEW021 27/22 Q1011=
2025-04-26 01:00:00<>METAR SBSV 260100Z 12003KT 090V150 9999 FEW021 28/22 Q1011=
2025-04-26 02:00:00<>METAR SBSV 260200Z 11004KT 9999 FEW023 28/22 Q1011=
2025-04-26 03:00:00<>METAR SBSV 260300Z 06005KT 9999 FEW023 26/23 Q1011=
2025-04-26 04:00:00<>METAR SBSV 260400Z 02003KT 340V060 9999 FEW020 26/23 Q1010=
2025-04-26 05:00:00<>METAR SBSV 260500Z 29002KT 9999 FEW019 25/23 Q1010=
2025-04-26 06:00:00<>METAR SBSV 260600Z 02002KT 9999 FEW019 25/24 Q1010=
2025-04-26 07:00:00<>METAR SBSV 260700Z 01003KT 9999 FEW021 25/24 Q1010=
2025-04-26 08:00:00<>METAR SBSV 260800Z 27002KT CAVOK 25/24 Q1010=
2025-04-26 09:00:00<>METAR SBSV 260900Z VRB02KT CAVOK 24/24 Q1011=
2025-04-26 10:00:00<>METAR SBSV 261000Z 29003KT 9999 FEW020 26/24 Q1011=
2025-04-26 11:00:00<>METAR SBSV 261100Z 34004KT 290V040 9999 FEW020 28/24 Q1012=
2025-04-26 12:00:00<>METAR SBSV 261200Z 04004KT 300V100 9999 SCT023 30/23 Q1012=
2025-04-26 13:00:00<>METAR SBSV 261300Z VRB03KT 9999 SCT023 30/23 Q1012=
2025-04-26 14:00:00<>METAR SBSV 261400Z 10007KT 9999 SCT023 30/23 Q1011=
2025-04-26 15:00:00<>METAR SBSV 261500Z 09008KT 9999 SCT023 31/23 Q1010=
2025-04-26 16:00:00<>METAR SBSV 261600Z 09010KT 9999 SCT025 31/24 Q1009=
2025-04-26 17:00:00<>METAR SBSV 261700Z 11010KT 9999 FEW025 30/24 Q1008=
2025-04-26 18:00:00<>METAR SBSV 261800Z 09010KT 060V160 9999 FEW025 30/24 Q1008=
2025-04-26 19:00:00<>METAR SBSV 261900Z 10009KT 9999 SCT025 29/24 Q1008=
2025-04-26 20:00:00<>METAR SBSV 262000Z 10008KT 9999 SCT025 29/24 Q1009=
2025-04-26 21:00:00<>METAR SBSV 262100Z 09007KT 9999 SCT020 28/24 Q1009=
2025-04-26 22:00:00<>METAR SBSV 262200Z 08007KT 9999 SCT020 28/24 Q1010=
2025-04-26 23:00:00<>METAR SBSV 262300Z 08008KT 9999 SCT020 28/24 Q1011=
2025-04-27 00:00:00<>METAR SBSV 270000Z 08008KT 9999 FEW021 28/23 Q1011=
2025-04-27 01:00:00<>METAR SBSV 270100Z 08009KT 9999 FEW022 27/23 Q1011=
2025-04-27 02:00:00<>METAR SBSV 270200Z 08010KT 9999 FEW022 28/23 Q1011=
2025-04-27 03:00:00<>METAR SBSV 270300Z 07009KT 9999 SCT020 27/23 Q1011=
2025-04-27 04:00:00<>METAR SBSV 270400Z 06009KT 9999 SCT021 27/23 Q1010=
2025-04-27 05:00:00<>METAR SBSV 270500Z 07008KT 9999 SCT022 28/23 Q1010=
2025-04-27 06:00:00<>METAR SBSV 270600Z 07008KT 9999 SCT020 27/23 Q1010=
2025-04-27 07:00:00<>METAR SBSV 270700Z 36005KT 9999 SCT023 26/23 Q1010=
2025-04-27 08:00:00<>METAR SBSV 270800Z 35004KT 9999 SCT020 25/23 Q1010=
2025-04-27 09:00:00<>METAR SBSV 270900Z 29004KT 9999 FEW022 FEW025TCU 25/24 Q1011=
2025-04-27 10:00:00<>METAR SBSV 271000Z 27003KT 9000 SCT022 26/24 Q1012=
2025-04-27 11:00:00<>METAR SBSV 271100Z VRB02KT 9999 FEW022 29/23 Q1012=
2025-04-27 12:00:00<>METAR SBSV 271200Z 08007KT 9999 SCT023 30/23 Q1013=
2025-04-27 13:00:00<>METAR SBSV 271300Z 08009KT 060V120 9999 BKN023 30/23 Q1013=
2025-04-27 14:00:00<>METAR SBSV 271400Z 10009KT 060V130 9999 SCT025 30/23 Q1012=
2025-04-27 15:00:00<>METAR SBSV 271500Z 09009KT 9999 SCT025 30/23 Q1011=
2025-04-27 16:00:00<>METAR SBSV 271600Z 10010KT 9999 SCT025 30/24 Q1010=
2025-04-27 17:00:00<>METAR SBSV 271700Z 11011KT 9999 FEW025 30/24 Q1010=
2025-04-27 18:00:00<>METAR SBSV 271800Z 10008KT 070V150 9999 FEW023 31/24 Q1009=
2025-04-27 19:00:00<>METAR SBSV 271900Z 09009KT 060V120 9999 FEW023 30/23 Q1009=
2025-04-27 20:00:00<>METAR SBSV 272000Z 10009KT CAVOK 29/23 Q1009=
2025-04-27 21:00:00<>METAR SBSV 272100Z 10009KT CAVOK 29/23 Q1010=
2025-04-27 22:00:00<>METAR SBSV 272200Z 09008KT 9999 FEW021 28/23 Q1010=
2025-04-27 23:00:00<>METAR SBSV 272300Z 09010KT 9999 FEW022 28/23 Q1011=
2025-04-28 00:00:00<>METAR SBSV 280000Z 07009KT 9999 FEW022 28/23 Q1011=
2025-04-28 01:00:00<>METAR SBSV 280100Z 06008KT 9999 FEW022 28/23 Q1012=
2025-04-28 02:00:00<>METAR SBSV 280200Z 06006KT 9999 FEW022 28/23 Q1012=
2025-04-28 03:00:00<>METAR SBSV 280300Z 04003KT 9999 FEW022 27/23 Q1012=
2025-04-28 04:00:00<>METAR SBSV 280400Z VRB02KT 9999 SCT019 27/23 Q1011=
2025-04-28 05:00:00<>METAR SBSV 280500Z 00000KT 9999 SCT019 25/24 Q1011=
2025-04-28 06:00:00<>METAR SBSV 280600Z 33002KT 9999 SCT019 26/24 Q1011=
2025-04-28 07:00:00<>METAR SBSV 280700Z VRB02KT 9999 FEW019 25/23 Q1011=
2025-04-28 08:00:00<>METAR SBSV 280800Z 28003KT 9999 FEW019 25/24 Q1011=
2025-04-28 09:00:00<>METAR SBSV 280900Z VRB02KT 9999 FEW021 25/24 Q1011=
2025-04-28 10:00:00<>METAR SBSV 281000Z 01004KT 9999 FEW021 26/24 Q1012=
2025-04-28 11:00:00<>METAR SBSV 281100Z 01006KT 9999 FEW023 28/23 Q1012=
2025-04-28 12:00:00<>METAR SBSV 281200Z 07007KT 030V110 9999 FEW023 30/24 Q1013=
2025-04-28 13:00:00<>METAR SBSV 281300Z 07011KT 9999 FEW023 30/24 Q1013=
2025-04-28 14:00:00<>METAR SBSV 281400Z 08013KT 9999 FEW023 30/24 Q1012=
2025-04-28 15:00:00<>METAR SBSV 281500Z 08012KT 9999 SCT023 31/24 Q1011=
2025-04-28 16:00:00<>METAR SBSV 281600Z 08012KT 9999 SCT023 31/24 Q1010=
2025-04-28 17:00:00<>METAR SBSV 281700Z 09013KT 9999 SCT025 30/24 Q1010=
2025-04-28 18:00:00<>METAR SBSV 281800Z 08013KT 9999 SCT025 30/24 Q1009=
2025-04-28 19:00:00<>METAR SBSV 281900Z 07012KT 9999 FEW023 29/24 Q1009=
2025-04-28 20:00:00<>METAR SBSV 282000Z 06011KT 9999 FEW022 29/24 Q1009=
2025-04-28 21:00:00<>METAR SBSV 282100Z 07010KT 9999 FEW022 28/23 Q1009=
2025-04-28 22:00:00<>METAR SBSV 282200Z 07012KT CAVOK 28/23 Q1009=
2025-04-28 23:00:00<>METAR SBSV 282300Z 06010KT 9999 FEW019 28/24 Q1010=
2025-04-29 00:00:00<>METAR SBSV 290000Z 06011KT CAVOK 28/23 Q1011=
2025-04-29 01:00:00<>METAR SBSV 290100Z 05009KT CAVOK 28/23 Q1011=
2025-04-29 02:00:00<>METAR SBSV 290200Z 05008KT 9999 FEW019 28/23 Q1011=
2025-04-29 03:00:00<>METAR SBSV 290300Z 05008KT 9999 FEW020 27/23 Q1011=
2025-04-29 04:00:00<>METAR COR SBSV 290400Z 36003KT 9999 FEW020 26/23 Q1010=
2025-04-29 05:00:00<>METAR SBSV 290500Z 01003KT 9999 FEW022 25/23 Q1010=
2025-04-29 06:00:00<>METAR SBSV 290600Z 36004KT 9999 FEW022 25/23 Q1010=
2025-04-29 07:00:00<>METAR COR SBSV 290700Z 34004KT 300V030 9999 FEW022 26/23 Q1011=
2025-04-29 08:00:00<>METAR SBSV 290800Z 36003KT 340V050 CAVOK 25/23 Q1010=
2025-04-29 09:00:00<>METAR SBSV 290900Z 34003KT 9999 FEW022 25/22 Q1010=
2025-04-29 10:00:00<>METAR SBSV 291000Z 33004KT 280V030 9999 FEW022 26/23 Q1010=
2025-04-29 11:00:00<>METAR SBSV 291100Z 01006KT 9999 FEW022 28/24 Q1011=
2025-04-29 12:00:00<>METAR SBSV 291200Z 36008KT 9999 SCT021 29/23 Q1011=
2025-04-29 13:00:00<>METAR SBSV 291300Z 01004KT 9999 SCT021 30/23 Q1012=
2025-04-29 14:00:00<>METAR SBSV 291400Z 09011KT 9999 SCT021 30/24 Q1011=
2025-04-29 15:00:00<>METAR SBSV 291500Z 08012KT 9999 SCT021 31/24 Q1010=
2025-04-29 16:00:00<>METAR SBSV 291600Z 08013KT 9999 SCT021 31/24 Q1009=
2025-04-29 17:00:00<>METAR SBSV 291700Z 08014KT 9999 FEW023 30/24 Q1008=
2025-04-29 18:00:00<>METAR SBSV 291800Z 07012KT 9999 FEW023 30/24 Q1008=
2025-04-29 19:00:00<>METAR SBSV 291900Z 06012KT 9999 FEW023 30/24 Q1008=
2025-04-29 20:00:00<>METAR SBSV 292000Z 07011KT 9999 FEW023 29/24 Q1008=
2025-04-29 21:00:00<>METAR SBSV 292100Z 08011KT 9999 FEW021 28/23 Q1009=
2025-04-29 21:15:00<>SPECI SBSV 292115Z 07010KT 9999 VCTS FEW021 FEW025CB 28/23 Q1009=
2025-04-29 22:00:00<>METAR SBSV 292200Z 07011KT 9999 VCTS FEW021 FEW025CB 28/24 Q1009=
2025-04-29 23:00:00<>METAR SBSV 292300Z 07011KT 9999 VCTS FEW021 FEW025CB 28/24 Q1010=
2025-04-30 00:00:00<>METAR SBSV 300000Z 08009KT 9999 VCTS FEW020 FEW025CB 28/24 Q1011=
2025-04-30 01:00:00<>METAR SBSV 300100Z 07011KT 9999 VCTS SCT018 FEW024CB 28/24 Q1011=
2025-04-30 02:00:00<>METAR SBSV 300200Z 07010KT 9999 VCTS SCT019 FEW024CB 28/24 Q1011=
2025-04-30 03:00:00<>METAR SBSV 300300Z 06008KT 9999 FEW019 FEW025TCU 28/24 Q1011=
2025-04-30 04:00:00<>METAR SBSV 300400Z 05009KT 9999 FEW020 FEW025TCU 28/24 Q1010=
2025-04-30 05:00:00<>METAR SBSV 300500Z 01004KT 9999 BKN020 FEW025TCU 27/24 Q1010=
2025-04-30 06:00:00<>METAR SBSV 300600Z 02004KT 330V040 9999 SCT021 FEW025TCU 26/24 Q1009=
2025-04-30 07:00:00<>METAR SBSV 300700Z 36003KT 9999 BKN021 FEW025TCU 26/24 Q1010=
2025-04-30 08:00:00<>METAR SBSV 300800Z 36004KT 9999 VCSH SCT022 FEW025TCU 26/24 Q1010=
2025-04-30 09:00:00<>METAR SBSV 300900Z 33003KT 9999 VCSH SCT019 FEW025TCU BKN045 26/24 Q1011=
2025-04-30 10:00:00<>METAR SBSV 301000Z 03004KT 9999 SCT019 FEW025TCU BKN045 27/25 Q1012=
2025-04-30 11:00:00<>METAR SBSV 301100Z 35003KT 300V050 9999 VCSH SCT019 FEW025TCU BKN045 27/24 Q1013=
2025-04-30 12:00:00<>METAR SBSV 301200Z 04007KT 9999 SCT019 FEW025TCU SCT045 29/24 Q1013=
2025-04-30 13:00:00<>METAR SBSV 301300Z 07012KT 9999 BKN023 30/23 Q1013=
2025-04-30 14:00:00<>METAR SBSV 301400Z 08011KT 9999 SCT023 SCT050 31/24 Q1012=
2025-04-30 15:00:00<>METAR SBSV 301500Z 07010KT 050V130 9999 SCT023 SCT050 30/23 Q1011=
2025-04-30 16:00:00<>METAR SBSV 301600Z 08010KT 9999 SCT023 30/24 Q1011=
2025-04-30 17:00:00<>METAR SBSV 301700Z 09011KT 9999 SCT023 30/24 Q1010=
2025-04-30 18:00:00<>METAR SBSV 301800Z 09011KT 9999 FEW023 30/23 Q1009=
2025-04-30 19:00:00<>METAR SBSV 301900Z 08011KT 9999 FEW021 30/24 Q1009=
2025-04-30 20:00:00<>METAR SBSV 302000Z 09009KT 9999 FEW021 29/23 Q1010=
2025-04-30 21:00:00<>METAR SBSV 302100Z 10007KT 070V160 9999 SCT021 28/23 Q1010=
2025-04-30 22:00:00<>METAR COR SBSV 302200Z 10008KT 9999 SCT021 28/23 Q1011=
2025-04-30 23:00:00<>METAR SBSV 302300Z 11007KT 9999 SCT023 28/23 Q1011=
2025-05-01 00:00:00<>METAR SBSV 010000Z 11006KT 9999 SCT023 28/23 Q1012=
2025-05-01 01:00:00<>METAR SBSV 010100Z 12005KT 9999 SCT023 28/23 Q1012=
2025-05-01 02:00:00<>METAR SBSV 010200Z 12006KT 9999 SCT025 28/22 Q1012=
2025-05-01 03:00:00<>METAR SBSV 010300Z 10007KT 9999 FEW023 28/22 Q1012=
2025-05-01 04:00:00<>METAR SBSV 010400Z 11005KT 9999 FEW025 28/22 Q1012=
2025-05-01 05:00:00<>METAR SBSV 010500Z 13005KT 9999 FEW025 28/22 Q1011=
2025-05-01 06:00:00<>METAR SBSV 010600Z 13005KT 100V170 9999 FEW025 28/22 Q1011=
2025-05-01 07:00:00<>METAR SBSV 010700Z 11005KT 9999 FEW025 27/22 Q1011=
2025-05-01 08:00:00<>METAR SBSV 010800Z 12003KT 090V180 9999 FEW025 27/22 Q1011=
2025-05-01 09:00:00<>METAR SBSV 010900Z 09006KT 9999 FEW025 BKN050 27/22 Q1012=
2025-05-01 10:00:00<>METAR SBSV 011000Z 08005KT 9999 VCSH SCT023 FEW025TCU BKN050 28/23 Q1013=
2025-05-01 11:00:00<>METAR SBSV 011100Z 09005KT 060V120 7000 3000NE SHRA BKN023 FEW025TCU BKN060 27/23 Q1014=
2025-05-01 11:07:00<>SPECI SBSV 011107Z 10010KT 3000 -SHRA BR BKN009 BKN023 FEW025TCU 26/24 Q1014 RESHRA=
2025-05-01 12:00:00<>METAR SBSV 011200Z 20003KT 160V260 5000 RA BR SCT009 BKN023 FEW025TCU 25/23 Q1014 RESHRA=
2025-05-01 12:11:00<>SPECI SBSV 011211Z VRB02KT 5000 BR SCT009 BKN023 FEW025TCU 25/24 Q1014 RERA=
2025-05-01 13:00:00<>METAR SBSV 011300Z VRB02KT 9000 VCSH SCT023 FEW025TCU BKN060 27/24 Q1014 RERA=
2025-05-01 14:00:00<>METAR SBSV 011400Z VRB02KT 9000 SCT023 BKN060 29/24 Q1014=
2025-05-01 15:00:00<>METAR SBSV 011500Z VRB05KT 9999 VCSH SCT023 FEW025TCU BKN070 30/24 Q1013=
2025-05-01 16:00:00<>METAR SBSV 011600Z 14007KT 110V190 9999 VCSH SCT023 FEW025TCU BKN070 29/23 Q1012=
2025-05-01 17:00:00<>METAR SBSV 011700Z 15005KT 120V200 9000 VCSH SCT023 FEW025TCU BKN070 28/22 Q1012=
2025-05-01 18:00:00<>METAR SBSV 011800Z 18009KT 9999 SCT009 FEW025TCU BKN100 27/24 Q1011=
2025-05-01 19:00:00<>METAR SBSV 011900Z 18007KT 9999 FEW009 FEW025TCU BKN100 27/23 Q1012=
2025-05-01 20:00:00<>METAR SBSV 012000Z 17007KT 9999 FEW017 FEW025TCU BKN100 28/23 Q1012=
2025-05-01 21:00:00<>METAR SBSV 012100Z 17007KT 9999 FEW017 FEW025TCU BKN100 27/23 Q1012=
2025-05-01 22:00:00<>METAR SBSV 012200Z 15008KT 9999 FEW015 FEW025TCU BKN100 27/23 Q1013=
2025-05-01 23:00:00<>METAR SBSV 012300Z 16007KT 9999 SCT017 SCT100 28/24 Q1013=
2025-05-02 00:00:00<>METAR SBSV 020000Z 15008KT 9999 SCT019 SCT100 28/23 Q1013=
2025-05-02 00:41:00<>SPECI SBSV 020041Z 14011KT 100V160 9000 SHRA SCT017 BKN060 26/24 Q1014=
2025-05-02 01:00:00<>METAR SBSV 020100Z 12007KT 090V160 9000 -RA SCT017 FEW020TCU BKN060 26/24 Q1014 RESHRA=
2025-05-02 02:00:00<>METAR SBSV 020200Z 14011KT 9000 -RA SCT017 BKN080 26/23 Q1013=
2025-05-02 03:00:00<>METAR SBSV 020300Z 17004KT 110V230 9000 SCT021 BKN070 26/24 Q1013=
2025-05-02 04:00:00<>METAR SBSV 020400Z 15011KT 9000 SCT021 BKN070 26/24 Q1013=
2025-05-02 05:00:00<>METAR SBSV 020500Z 16009G19KT 120V200 5000 +SHRA BKN008 BKN021 FEW023TCU 25/25 Q1012=
2025-05-02 05:19:00<>SPECI SBSV 020519Z 15010KT 120V180 9000 -RA BKN013 BKN021 FEW023TCU 25/25 Q1012 RESHRA=
2025-05-02 06:00:00<>METAR SBSV 020600Z 15013KT 9000 BKN015 BKN021 26/24 Q1012 RESHRA=
2025-05-02 07:00:00<>METAR SBSV 020700Z 16013KT 9000 BKN015 BKN021 27/23 Q1012=
2025-05-02 08:00:00<>METAR COR SBSV 020800Z 16012G23KT 9000 -RA BKN019 BKN021 27/23 Q1012=
2025-05-02 08:27:00<>SPECI SBSV 020827Z 13018G33KT 3000 +SHRA BR SCT005 BKN018 BKN023 25/24 Q1013=
2025-05-02 08:38:00<>SPECI SBSV 020838Z 14018G31KT 1000 R28/0450 R10/1800 +SHRA OVC009 24/24 Q1013=
2025-05-02 09:00:00<>METAR SBSV 020900Z 15023G35KT 0900 R28/0600 R10/P2000 +RA BKN004 OVC009 24/24 Q1013 RESHRA=
2025-05-02 09:16:00<>SPECI SBSV 020916Z 15019G29KT 2000 +RA BKN008 BKN020 24/24 Q1014=
2025-05-02 09:31:00<>SPECI SBSV 020931Z 15015G25KT 5000 RA BR BKN006 OVC015 24/24 Q1014 RERA=
2025-05-02 09:45:00<>SPECI SBSV 020945Z 15017KT 6000 RA BKN007 BKN015 OVC025 25/22 Q1014=
2025-05-02 10:00:00<>METAR SBSV 021000Z 16016KT 6000 RA BKN008 BKN016 OVC030 25/23 Q1014 RERA=
2025-05-02 10:38:00<>SPECI SBSV 021038Z 16019G32KT 1000 R10/1500 R28/1500 +SHRA BR BKN005 OVC014 25/24 Q1015 RERA=
2025-05-02 11:00:00<>METAR SBSV 021100Z 16018KT 2000 +RA BR BKN007 BKN014 OVC022 24/24 Q1015 RESHRA=
2025-05-02 11:08:00<>SPECI SBSV 021108Z 18015KT 4000 -RA BR BKN012 OVC023 24/24 Q1015 RERA=
2025-05-02 11:35:00<>SPECI SBSV 021135Z 14015G25KT 6000 -RA BKN015 OVC023 26/22 Q1015 RERA=
2025-05-02 12:00:00<>METAR SBSV 021200Z 15011G21KT 7000 -RA BKN015 BKN023 OVC055 26/23 Q1015=
2025-05-02 13:00:00<>METAR SBSV 021300Z 15017KT 5000 -SHRA SCT012 BKN023 OVC049 28/22 Q1016=
2025-05-02 13:05:00<>SPECI SBSV 021305Z 10019KT 2000 RA BR BKN010 BKN016 OVC030 26/24 Q1016=
2025-05-02 13:30:00<>SPECI SBSV 021330Z 12013KT 8000 VCSH BKN016 OVC030 26/24 Q1016 RERA=
2025-05-02 14:00:00<>METAR SBSV 021400Z 13013KT 9000 VCSH BKN020 OVC060 27/23 Q1015 RERA=
2025-05-02 15:00:00<>METAR SBSV 021500Z 12011KT 8000 VCSH SCT015 BKN022 OVC060 27/23 Q1015=
2025-05-02 16:00:00<>METAR SBSV 021600Z 12013KT 9999 VCSH FEW015 BKN022 OVC060 29/23 Q1014=
2025-05-02 16:31:00<>SPECI SBSV 021631Z 17017G27KT 1500 R28/0500 R10/0700 +RA BKN010 OVC020 27/23 Q1014=
2025-05-02 17:00:00<>METAR SBSV 021700Z 11012G22KT 1200 R10/0500 R28/0600 +RA BKN007 OVC016 24/24 Q1014=
2025-05-02 17:15:00<>SPECI SBSV 021715Z 11007KT 3000 -RA BR BKN008 BKN015 OVC033 24/24 Q1014 RERA=
2025-05-02 17:38:00<>SPECI SBSV 021738Z 13008KT 5000 -RA BR FEW010 BKN015 FEW017TCU BKN040 25/23 Q1014 RERA=
2025-05-02 18:00:00<>METAR SBSV 021800Z 14007KT 8000 VCSH BKN018 FEW020TCU SCT040 BKN060 26/23 Q1014 RERA=
2025-05-02 19:00:00<>METAR SBSV 021900Z 14009KT 9000 VCSH BKN019 FEW021TCU SCT033 BKN070 27/23 Q1014=
2025-05-02 19:45:00<>SPECI SBSV 021945Z 17014KT 2000 RA BR SCT007 BKN015 FEW020TCU BKN033 26/22 Q1014=
2025-05-02 20:00:00<>METAR COR SBSV 022000Z 16015KT 1500 R28/0800 R10/1900 +RA BKN009 BKN015 FEW020TCU BKN033 25/23 Q1014 RERA=
2025-05-02 20:12:00<>SPECI SBSV 022012Z 18011KT 8000 VCSH BKN017 FEW020TCU BKN033 BKN070 24/24 Q1015 RERA=
2025-05-02 21:00:00<>METAR SBSV 022100Z 16016KT 9000 VCSH SCT012 BKN018 FEW020TCU BKN070 25/24 Q1015 RERA=
2025-05-02 22:00:00<>METAR SBSV 022200Z 17010KT 140V200 9000 VCSH FEW012 BKN018 FEW020TCU BKN060 27/22 Q1015 WS R28=
2025-05-02 23:00:00<>METAR SBSV 022300Z 13014G24KT 100V160 9000 VCSH FEW012 BKN018 FEW020TCU BKN050 26/24 Q1015=
2025-05-03 00:00:00<>METAR SBSV 030000Z 18008KT 6000 -RA FEW012 BKN018 FEW020TCU BKN050 25/21 Q1016=
2025-05-03 01:00:00<>METAR SBSV 030100Z 15014KT 8000 VCSH BKN016 FEW024TCU BKN050 27/23 Q1015=
2025-05-03 01:36:00<>SPECI SBSV 030136Z 14016G26KT 6000 -SHRA BKN015 FEW024TCU OVC045 26/24 Q1015=
2025-05-03 01:42:00<>SPECI SBSV 030142Z 14018G28KT 1000 R28/0700 R10/0800 +RA BKN010 OVC020 26/23 Q1015=
2025-05-03 02:00:00<>METAR SBSV 030200Z 14015G31KT 5000 RA FEW012 BKN015 OVC025 25/24 Q1015 RERA=
2025-05-03 02:12:00<>SPECI SBSV 030212Z 16016KT 6000 -RA FEW012 BKN016 OVC050 27/24 Q1015 RERA=
2025-05-03 03:00:00<>METAR SBSV 030300Z 14017G27KT 6000 -RA BKN015 FEW023TCU OVC050 26/24 Q1015 RERA=
2025-05-03 03:03:00<>SPECI SBSV 030303Z 16014G28KT 2000 +RA BKN013 FEW023TCU OVC025 26/24 Q1015=
2025-05-03 03:23:00<>SPECI SBSV 030323Z 16018KT 5000 -RA BKN015 FEW023TCU OVC024 26/24 Q1015 RERA=
2025-05-03 04:00:00<>METAR SBSV 030400Z 15015G25KT 7000 -RA BKN016 FEW023TCU OVC050 25/23 Q1014 RERA=
2025-05-03 05:00:00<>METAR SBSV 030500Z 16015KT 8000 VCSH BKN019 FEW023TCU OVC050 27/22 Q1014=
2025-05-03 06:00:00<>METAR COR SBSV 030600Z 13018G31KT 2000 +RA BKN009 FEW022TCU OVC024 26/23 Q1014=
2025-05-03 06:27:00<>SPECI SBSV 030627Z 16017KT 5000 -RA BKN010 FEW022TCU OVC024 25/24 Q1014 RERA=
2025-05-03 07:00:00<>METAR COR SBSV 030700Z 17018G28KT 6000 -RA BKN011 OVC020 25/23 Q1014 RERA=
2025-05-03 08:00:00<>METAR SBSV 030800Z 19015KT 8000 VCSH SCT012 BKN016 OVC050 24/22 Q1014=
2025-05-03 09:00:00<>METAR SBSV 030900Z 18015KT 8000 VCSH SCT009 BKN016 OVC050 26/22 Q1014=
2025-05-03 09:04:00<>SPECI SBSV 030904Z 17015G25KT 3000 RA BKN009 BKN016 OVC040 25/22 Q1015=
2025-05-03 10:00:00<>METAR SBSV 031000Z 18013KT 4000 -RA BR BKN009 BKN016 OVC040 24/22 Q1015 RERA=
2025-05-03 10:38:00<>SPECI SBSV 031038Z 14007KT 8000 VCSH SCT010 BKN017 BKN050 25/22 Q1015=
2025-05-03 11:00:00<>METAR SBSV 031100Z 15017KT 7000 -RA SCT009 BKN017 BKN030 25/22 Q1015=
2025-05-03 12:00:00<>METAR SBSV 031200Z 16012KT 3000 -RA BR SCT009 BKN015 BKN030 25/24 Q1016=
2025-05-03 12:08:00<>SPECI SBSV 031208Z 15013KT 3000 -RA BR BKN010 BKN015 BKN030 25/24 Q1016=
2025-05-03 12:32:00<>SPECI SBSV 031232Z 16014KT 8000 VCSH SCT010 BKN015 BKN030 26/23 Q1016=
2025-05-03 13:00:00<>METAR SBSV 031300Z 17017KT 8000 VCSH SCT010 BKN015 BKN030 26/23 Q1016=
2025-05-03 13:12:00<>SPECI SBSV 031312Z 16016KT 3000 -RA BR BKN010 BKN015 BKN030 24/23 Q1016=
2025-05-03 13:45:00<>SPECI SBSV 031345Z 16013KT 8000 VCSH FEW010 BKN015 BKN030 25/23 Q1016=
2025-05-03 14:00:00<>METAR SBSV 031400Z 16012KT 8000 VCSH FEW010 BKN015 BKN030 25/23 Q1016=
2025-05-03 15:00:00<>METAR SBSV 031500Z 16010KT 8000 VCSH BKN015 BKN030 BKN050 25/21 Q1015=
2025-05-03 15:35:00<>SPECI SBSV 031535Z 17013G26KT 2000 -RA BR BKN010 BKN015 BKN030 25/22 Q1015=
2025-05-03 16:00:00<>METAR SBSV 031600Z 17012KT 3000 -RA BR BKN008 BKN015 BKN030 24/23 Q1015=
2025-05-03 17:00:00<>METAR SBSV 031700Z 16018KT 3000 -RA BR BKN006 BKN013 OVC030 25/23 Q1014=
2025-05-03 18:00:00<>METAR SBSV 031800Z 19013KT 160V220 7000 VCSH SCT017 BKN020 OVC060 26/22 Q1014=
2025-05-03 19:00:00<>METAR SBSV 031900Z 16017KT 3000 SHRA SCT017 BKN020 OVC060 27/22 Q1014=
2025-05-03 19:12:00<>SPECI SBSV 031912Z 16016G28KT 1000 R28/0650 R10/1600 SHRA BR BKN009 BKN015 24/23 Q1014=
2025-05-03 20:00:00<>METAR SBSV 032000Z 18014KT 2000 -RA BR BKN008 BKN020 24/23 Q1014 RESHRA=
2025-05-03 20:32:00<>SPECI SBSV 032032Z 20010KT 5000 BR BKN008 BKN020 24/23 Q1014=
2025-05-03 21:00:00<>METAR SBSV 032100Z 19011G21KT 9000 -RA BKN013 BKN023 25/23 Q1014=
2025-05-03 21:07:00<>SPECI SBSV 032107Z 17014KT 2000 +RA BKN013 BKN023 24/24 Q1014=
2025-05-03 21:26:00<>SPECI SBSV 032126Z 18014KT 3000 RA BR BKN006 OVC009 24/24 Q1014 RERA=
2025-05-03 22:00:00<>METAR SBSV 032200Z 17010KT 140V200 5000 -RA BKN011 BKN023 24/22 Q1014 RERA=
2025-05-03 22:20:00<>SPECI SBSV 032220Z 19008KT 3000 RA BR BKN008 BKN023 24/24 Q1015=
2025-05-03 23:00:00<>METAR SBSV 032300Z 20008KT 5000 RA SCT009 BKN011 BKN023 24/24 Q1015=
2025-05-03 23:29:00<>SPECI SBSV 032329Z 17015G25KT 5000 +RA SCT008 BKN011 BKN023 24/24 Q1015 RERA=
2025-05-04 00:00:00<>METAR SBSV 040000Z 17016KT 5000 RA BKN011 BKN023 25/23 Q1015 RERA=
2025-05-04 00:35:00<>SPECI SBSV 040035Z 17010KT 140V200 7000 -RA FEW011 BKN023 BKN040 26/24 Q1015 RERA=
2025-05-04 01:00:00<>METAR SBSV 040100Z 16014G24KT 130V200 4000 RA BKN008 BKN023 BKN040 24/23 Q1015=
2025-05-04 01:43:00<>SPECI SBSV 040143Z 16013KT 140V200 5000 -RA BR BKN007 BKN023 BKN040 25/24 Q1015 RERA=
2025-05-04 02:00:00<>METAR SBSV 040200Z 16015KT 6000 -RA BKN007 BKN023 BKN040 26/24 Q1015 RERA=
2025-05-04 03:00:00<>METAR SBSV 040300Z 17016KT 140V200 4000 RA BKN013 BKN023 BKN040 26/23 Q1014=
2025-05-04 04:00:00<>METAR SBSV 040400Z 17016KT 4000 RA BR BKN008 BKN015 OVC030 24/24 Q1014=
2025-05-04 05:00:00<>METAR SBSV 040500Z 18008KT 150V210 8000 VCSH FEW009 BKN015 BKN060 25/24 Q1014 RERA=
2025-05-04 06:00:00<>METAR SBSV 040600Z 14011KT 100V170 8000 VCSH BKN017 BKN060 26/21 Q1014=
2025-05-04 07:00:00<>METAR SBSV 040700Z 13009KT 9000 SCT020 BKN070 27/21 Q1014=
2025-05-04 08:00:00<>METAR SBSV 040800Z 14007KT 110V170 9999 SCT020 BKN060 27/22 Q1014=
2025-05-04 09:00:00<>METAR SBSV 040900Z 15010KT 120V180 9999 SCT020 BKN060 27/21 Q1014=
2025-05-04 10:00:00<>METAR SBSV 041000Z 16013KT 9000 SCT020 BKN060 27/21 Q1015=
2025-05-04 11:00:00<>METAR SBSV 041100Z 15011KT 9999 SCT023 BKN070 28/21 Q1015=
2025-05-04 12:00:00<>METAR SBSV 041200Z 16011KT 9999 SCT023 BKN070 28/21 Q1016=
2025-05-04 13:00:00<>METAR SBSV 041300Z 16011KT 130V190 9999 SCT023 BKN070 29/22 Q1016=
2025-05-04 14:00:00<>METAR SBSV 041400Z 16012KT 9999 SCT025 BKN070 30/21 Q1015=
2025-05-04 15:00:00<>METAR SBSV 041500Z 17011KT 140V200 9999 BKN025 BKN070 30/21 Q1015=
2025-05-04 16:00:00<>METAR SBSV 041600Z 16012KT 9999 VCSH BKN023 FEW025TCU BKN070 30/22 Q1014=
2025-05-04 17:00:00<>METAR SBSV 041700Z 16013KT 9999 SCT023 BKN070 30/22 Q1013=
2025-05-04 18:00:00<>METAR SBSV 041800Z 13012KT 100V160 9999 VCSH FEW011 SCT023 FEW025TCU BKN060 27/23 Q1013=
2025-05-04 19:00:00<>METAR SBSV 041900Z 16014KT 9999 VCSH SCT024 FEW025TCU BKN050 28/21 Q1013=
2025-05-04 20:00:00<>METAR SBSV 042000Z 16010KT 9999 FEW024 FEW025TCU BKN100 28/22 Q1013=
2025-05-04 21:00:00<>METAR SBSV 042100Z 13008KT 9999 FEW025 BKN060 27/23 Q1013=
2025-05-04 22:00:00<>METAR SBSV 042200Z 14010KT 9999 FEW020 BKN060 27/23 Q1014=
2025-05-04 23:00:00<>METAR SBSV 042300Z 17010KT 9999 FEW018 BKN052 27/21 Q1015=
2025-05-05 00:00:00<>METAR SBSV 050000Z 16013KT 9999 FEW022 BKN070 27/22 Q1015=
2025-05-05 01:00:00<>METAR SBSV 050100Z 15015KT 9999 VCSH SCT016 SCT023 OVC050 28/22 Q1015=
2025-05-05 02:00:00<>METAR SBSV 050200Z 15015KT 9999 VCSH FEW015 SCT022 FEW025TCU OVC050 28/22 Q1015=
2025-05-05 03:00:00<>METAR SBSV 050300Z 17014KT 9999 VCSH FEW014 BKN019 FEW025TCU OVC055 28/23 Q1015=
2025-05-05 04:00:00<>METAR COR SBSV 050400Z 17012G22KT 9999 BKN021 OVC050 27/23 Q1015=
2025-05-05 05:00:00<>METAR SBSV 050500Z 17011KT 9999 BKN019 OVC050 26/22 Q1014=
2025-05-05 06:00:00<>METAR SBSV 050600Z 16012KT 9999 BKN021 OVC045 27/22 Q1014=
2025-05-05 07:00:00<>METAR SBSV 050700Z 18012KT 9999 VCSH BKN021 FEW024TCU OVC055 27/22 Q1014=
2025-05-05 07:20:00<>SPECI SBSV 050720Z 12014KT 5000 SHRA SCT011 BKN017 FEW024TCU OVC051 27/22 Q1014=
2025-05-05 08:00:00<>METAR SBSV 050800Z 16011KT 9000 VCSH BKN019 FEW025TCU OVC060 27/22 Q1014 RESHRA=
2025-05-05 09:00:00<>METAR COR SBSV 050900Z 17009KT 9999 VCSH BKN019 FEW023TCU OVC050 27/22 Q1014=
2025-05-05 09:48:00<>SPECI SBSV 050948Z 15014KT 4000 RA BR BKN013 BKN019 FEW023TCU OVC050 25/24 Q1015=
2025-05-05 10:00:00<>METAR SBSV 051000Z 16012KT 4000 -RA BR BKN013 BKN017 FEW021TCU OVC050 25/24 Q1015 RERA=
2025-05-05 10:15:00<>SPECI COR SBSV 051015Z 20005KT 170V240 1500 R28/0800 R10/0900 +RA BKN010 BKN015 FEW021TCU OVC050 24/23 Q1016=
2025-05-05 10:40:00<>SPECI SBSV 051040Z 19007KT 150V250 8000 VCSH SCT012 BKN015 FEW021TCU OVC050 25/24 Q1016 RERA=
2025-05-05 11:00:00<>METAR SBSV 051100Z 16011KT 8000 VCSH SCT013 BKN017 FEW021TCU BKN060 26/24 Q1016 RERA=
2025-05-05 12:00:00<>METAR SBSV 051200Z 17011KT 9000 VCSH SCT020 FEW021TCU BKN040 BKN060 27/23 Q1016=
2025-05-05 13:00:00<>METAR SBSV 051300Z 19010KT 9999 VCSH SCT020 FEW021TCU BKN050 BKN060 27/23 Q1016=
2025-05-05 13:40:00<>SPECI SBSV 051340Z 18013KT 130V210 3000 SHRA BKN010 BKN018 FEW021TCU BKN030 27/23 Q1016=
2025-05-05 14:00:00<>METAR SBSV 051400Z 14011KT 1500 R28/0800 R10/0900 +RA BKN008 BKN017 FEW021TCU BKN030 25/25 Q1015 RESHRA=
2025-05-05 14:15:00<>SPECI SBSV 051415Z 14008KT 120V190 5000 -RA BKN006 BKN015 FEW020TCU BKN030 25/25 Q1015 RERA=
2025-05-05 15:00:00<>METAR SBSV 051500Z 15010KT 120V190 7000 -RA BKN013 BKN015 FEW020TCU BKN030 26/25 Q1015=
2025-05-05 16:00:00<>METAR SBSV 051600Z 13011KT 100V160 9000 VCSH SCT013 BKN017 FEW020TCU BKN030 27/23 Q1014=
2025-05-05 17:00:00<>METAR SBSV 051700Z 14014KT 9000 VCSH BKN017 FEW020TCU BKN030 27/23 Q1013=
2025-05-05 18:00:00<>METAR SBSV 051800Z 12014KT 9999 VCSH BKN013 FEW023TCU BKN040 26/23 Q1013=
2025-05-05 19:00:00<>METAR COR SBSV 051900Z 13013KT 9999 VCSH SCT009 FEW023TCU BKN070 26/23 Q1014=
2025-05-05 20:00:00<>METAR SBSV 052000Z 11012KT 9999 VCSH FEW009 BKN050 26/22 Q1014=
2025-05-05 21:00:00<>METAR SBSV 052100Z 12009KT 9999 FEW009 BKN050 26/22 Q1014=
2025-05-05 22:00:00<>METAR COR SBSV 052200Z 11009KT 080V140 9999 FEW010 BKN050 26/23 Q1014=
2025-05-05 23:00:00<>METAR SBSV 052300Z 11008KT 9999 FEW010 BKN050 26/23 Q1015=
2025-05-06 00:00:00<>METAR SBSV 060000Z 13006KT 090V160 9999 SCT023 SCT070 27/22 Q1015=
2025-05-06 01:00:00<>METAR SBSV 060100Z 16004KT 9999 BKN019 BKN060 26/24 Q1015=
2025-05-06 02:00:00<>METAR SBSV 060200Z 12006KT 9999 BKN019 BKN060 27/23 Q1015=
2025-05-06 03:00:00<>METAR SBSV 060300Z 13007KT 090V150 9999 BKN020 BKN060 27/23 Q1014=
2025-05-06 04:00:00<>METAR SBSV 060400Z 13006KT 9999 BKN020 BKN060 27/23 Q1013=
2025-05-06 05:00:00<>METAR SBSV 060500Z VRB04KT 9999 FEW008 SCT013 BKN020 24/24 Q1013=
2025-05-06 06:00:00<>METAR SBSV 060600Z 15012KT 9999 SCT013 BKN020 BKN070 26/23 Q1013=
2025-05-06 07:00:00<>METAR SBSV 060700Z 00000KT 9999 BKN020 BKN060 25/23 Q1013=
2025-05-06 08:00:00<>METAR SBSV 060800Z 17014KT 9999 VCTS BKN020 FEW023CB BKN060 25/23 Q1014=
2025-05-06 09:00:00<>METAR SBSV 060900Z 19007KT 150V230 7000 -RA VCTS BKN020 FEW023CB BKN060 24/22 Q1014=
2025-05-06 10:00:00<>METAR SBSV 061000Z 30003KT 7000 -RA VCTS SCT020 FEW023CB BKN060 24/23 Q1015=
2025-05-06 11:00:00<>METAR SBSV 061100Z 16010KT 9999 VCSH SCT023 FEW025TCU BKN080 26/23 Q1015=
2025-05-06 12:00:00<>METAR SBSV 061200Z 14009KT 9999 VCSH SCT023 BKN100 28/23 Q1016=
2025-05-06 12:30:00<>SPECI SBSV 061230Z 17012KT 140V200 7000 3000N RA SCT023 BKN100 27/23 Q1016=
2025-05-06 13:00:00<>METAR SBSV 061300Z 13010KT 7000 3000N RA SCT023 BKN100 25/22 Q1016=
2025-05-06 13:12:00<>SPECI SBSV 061312Z 17008KT 150V210 1200 R28/0500D R10/1400D +RA FEW005 BKN011 FEW025TCU BKN100 25/24 Q1016 RERA=
2025-05-06 14:00:00<>METAR SBSV 061400Z 18009KT 140V220 2000 R10/1300N RA BKN011 FEW025TCU OVC100 25/25 Q1015 RERA=
2025-05-06 14:20:00<>SPECI SBSV 061420Z 20008KT 160V240 4000 -RA FEW005 SCT017 FEW025TCU OVC100 26/24 Q1015 RERA=
2025-05-06 15:00:00<>METAR SBSV 061500Z 20011KT 4500 2000NW -RA FEW009 SCT017 FEW025TCU OVC100 25/25 Q1014 RERA=
2025-05-06 16:00:00<>METAR SBSV 061600Z 17011KT 9999 VCSH SCT017 BKN100 27/23 Q1014=
2025-05-06 17:00:00<>METAR SBSV 061700Z 17010KT 6000 2000SE RA BKN017 FEW025TCU BKN100 27/23 Q1013=
2025-05-06 17:06:00<>SPECI SBSV 061706Z 13009KT 2000 RA BR BKN010 FEW025TCU OVC100 26/24 Q1013=
2025-05-06 17:39:00<>SPECI SBSV 061739Z 18010KT 5000 -RA FEW010 BKN015 FEW025TCU OVC100 28/23 Q1013 RERA=
2025-05-06 18:00:00<>METAR SBSV 061800Z 18011KT 8000 -RA BKN015 FEW025TCU OVC100 28/23 Q1013 RERA=
2025-05-06 19:00:00<>METAR SBSV 061900Z 19010KT 9999 FEW023 FEW025TCU BKN040 28/22 Q1013=
2025-05-06 20:00:00<>METAR SBSV 062000Z 19009KT 9999 BKN024 BKN040 27/22 Q1013=
2025-05-06 21:00:00<>METAR SBSV 062100Z 19009KT 9999 FEW023 SCT040 27/22 Q1013=
2025-05-06 22:00:00<>METAR SBSV 062200Z 18011KT 9999 FEW023 SCT060 27/21 Q1014=
2025-05-06 23:00:00<>METAR SBSV 062300Z 19010KT 9999 FEW024 27/22 Q1015=
2025-05-07 00:00:00<>METAR SBSV 070000Z 19010KT 9999 SCT024 27/22 Q1015=
2025-05-07 01:00:00<>METAR SBSV 070100Z 20008KT 9999 SCT023 BKN028 27/22 Q1015=
2025-05-07 02:00:00<>METAR SBSV 070200Z 18010KT 9999 SCT023 BKN046 27/23 Q1015=
2025-05-07 03:00:00<>METAR SBSV 070300Z 19010KT 9999 SCT021 BKN043 27/22 Q1014=
2025-05-07 04:00:00<>METAR SBSV 070400Z 19011KT 9999 SCT020 BKN030 26/22 Q1014=
2025-05-07 05:00:00<>METAR SBSV 070500Z 20009KT 9999 SCT020 BKN030 27/23 Q1013=
2025-05-07 06:00:00<>METAR SBSV 070600Z 20009KT 7000 -RA SCT018 BKN030 26/23 Q1013=
2025-05-07 07:00:00<>METAR SBSV 070700Z 22010KT 190V250 4000 RA BR SCT010 BKN013 BKN030 25/24 Q1013=
2025-05-07 07:15:00<>SPECI SBSV 070715Z 22012KT 6000 -RA SCT012 BKN015 BKN025 25/24 Q1015 RERA=
2025-05-07 08:00:00<>METAR SBSV 070800Z 22010KT 8000 VCSH SCT012 BKN017 BKN025 25/23 Q1015 RERA=
2025-05-07 09:00:00<>METAR SBSV 070900Z 23010G21KT 180V250 6000 -RA SCT012 BKN015 BKN025 25/23 Q1013=
2025-05-07 10:00:00<>METAR SBSV 071000Z 22010KT 190V250 9999 -RA SCT012 BKN015 BKN025 26/23 Q1014=
2025-05-07 11:00:00<>METAR SBSV 071100Z 23010KT 200V260 9999 BKN015 BKN025 26/23 Q1014=
2025-05-07 12:00:00<>METAR SBSV 071200Z 23012KT 9999 VCSH BKN011 SCT025 BKN080 26/22 Q1015=
2025-05-07 12:30:00<>SPECI SBSV 071230Z 23010KT 200V260 9999 -RA BKN008 SCT025 BKN080 26/23 Q1015=
2025-05-07 13:00:00<>METAR SBSV 071300Z 23011KT 7000 3000W BKN007 SCT025 BKN080 26/23 Q1015=
2025-05-07 13:30:00<>SPECI SBSV 071330Z 24007KT 200V270 7000 3000SW -RA BKN011 SCT025 BKN080 26/24 Q1015=
2025-05-07 14:00:00<>METAR SBSV 071400Z 24006KT 210V270 3000 RA BKN007 SCT020 BKN080 26/24 Q1014=
2025-05-07 15:00:00<>METAR SBSV 071500Z 23007KT 200V290 5000 2000W RA BKN005 SCT020 BKN080 26/25 Q1014=
2025-05-07 15:25:00<>SPECI SBSV 071525Z 19006KT 130V220 1200 R28/1500D R10/2000D +RA BKN005 SCT020 BKN080 25/25 Q1013 RERA=
2025-05-07 16:00:00<>METAR SBSV 071600Z 23006KT 2000 +RA BKN005 SCT020 BKN080 25/25 Q1013=
2025-05-07 17:00:00<>METAR SBSV 071700Z 31003KT 7000 3000S -RA SCT005 SCT020 BKN080 25/25 Q1012 RERA=
2025-05-07 18:00:00<>METAR SBSV 071800Z 02006KT 9999 SCT009 BKN016 BKN060 26/24 Q1012=
2025-05-07 19:00:00<>METAR SBSV 071900Z 02006KT 360V060 9999 VCSH FEW015 BKN021 FEW025TCU BKN070 27/24 Q1012=
2025-05-07 20:00:00<>METAR SBSV 072000Z 09005KT 9999 VCSH BKN023 FEW025TCU BKN080 26/24 Q1013=
2025-05-07 21:00:00<>METAR SBSV 072100Z 05005KT 020V090 9999 SCT024 BKN090 26/24 Q1013=
2025-05-07 22:00:00<>METAR SBSV 072200Z 02002KT 9999 FEW023 BKN100 25/24 Q1014=
2025-05-07 23:00:00<>METAR SBSV 072300Z 08002KT 9999 FEW025 SCT100 25/24 Q1014=
2025-05-08 00:00:00<>METAR SBSV 080000Z 25002KT 9999 FEW025 BKN090 25/24 Q1015=
2025-05-08 01:00:00<>METAR SBSV 080100Z VRB01KT 9999 FEW022 BKN090 25/25 Q1015=
2025-05-08 02:00:00<>METAR SBSV 080200Z 14002KT 9999 SCT023 25/24 Q1015=
2025-05-08 03:00:00<>METAR SBSV 080300Z VRB01KT 9999 BKN016 BKN090 25/25 Q1015=
2025-05-08 04:00:00<>METAR SBSV 080400Z 25002KT 9999 FEW017 25/24 Q1014=
2025-05-08 05:00:00<>METAR SBSV 080500Z 29001KT 9999 FEW017 24/24 Q1014=
2025-05-08 06:00:00<>METAR SBSV 080600Z 09008KT 9999 FEW010 BKN016 24/24 Q1014=
2025-05-08 07:00:00<>METAR SBSV 080700Z VRB01KT 9999 FEW012 BKN030 24/24 Q1014=
2025-05-08 08:00:00<>METAR SBSV 080800Z 25001KT 9999 FEW018 BKN040 24/24 Q1014=
2025-05-08 09:00:00<>METAR SBSV 080900Z VRB01KT 8000 3000E -RA FEW013 BKN015 FEW024TCU BKN100 24/24 Q1015=
2025-05-08 09:30:00<>SPECI SBSV 080930Z 17006KT 140V200 2000 +RA BKN017 FEW024TCU BKN060 24/24 Q1016=
2025-05-08 10:00:00<>METAR SBSV 081000Z 06004KT 020V130 3000 +RA BKN017 FEW024TCU BKN060 24/24 Q1016=
2025-05-08 10:11:00<>SPECI SBSV 081011Z 25003KT 9000 VCSH SCT020 FEW024TCU BKN060 24/24 Q1016 RERA=
2025-05-08 10:30:00<>SPECI COR SBSV 081030Z 13003KT 070V210 3000 RA BKN011 BKN020 FEW024TCU 24/24 Q1017 RERA=
2025-05-08 11:00:00<>METAR SBSV 081100Z 11006KT 3000 RA BKN011 BKN020 FEW024TCU 24/24 Q1017 RERA=
2025-05-08 11:17:00<>SPECI SBSV 081117Z 10003KT 060V130 5000 -RA BR SCT011 BKN020 FEW024TCU 24/24 Q1017 RERA=
2025-05-08 12:00:00<>METAR SBSV 081200Z 27003KT 5000 -RA BR SCT011 BKN020 FEW024TCU 24/24 Q1017 RERA=
2025-05-08 13:00:00<>METAR SBSV 081300Z 29003KT 9000 SCT020 BKN080 25/24 Q1017=
2025-05-08 14:00:00<>METAR SBSV 081400Z 16004KT 120V200 9999 VCSH SCT020 FEW023TCU BKN080 27/24 Q1017=
2025-05-08 14:05:00<>SPECI SBSV 081405Z 08011KT 2000 RA BKN011 BKN020 FEW023TCU 25/24 Q1016=
2025-05-08 15:00:00<>METAR SBSV 081500Z 11007KT 080V170 7000 SCT014 BKN020 FEW023TCU 26/25 Q1016 RERA=
2025-05-08 16:00:00<>METAR SBSV 081600Z 07003KT 030V120 9000 VCSH SCT011 BKN020 FEW023TCU 26/24 Q1015=
2025-05-08 16:12:00<>SPECI SBSV 081612Z 11007KT 060V140 2000 RA BKN009 BKN020 FEW023TCU 25/24 Q1015=
2025-05-08 17:00:00<>METAR SBSV 081700Z 10009KT 9000 SCT011 BKN018 FEW023TCU 26/25 Q1014 RERA=
2025-05-08 18:00:00<>METAR SBSV 081800Z 07006KT 9000 VCSH FEW011 SCT019 FEW021TCU BKN070 26/25 Q1013=
2025-05-08 19:00:00<>METAR SBSV 081900Z 09004KT 9999 VCSH SCT019 FEW021TCU BKN070 26/24 Q1013=
2025-05-08 20:00:00<>METAR SBSV 082000Z 14002KT 9999 SCT019 BKN070 26/24 Q1014=
2025-05-08 21:00:00<>METAR SBSV 082100Z 00000KT 9999 SCT019 BKN070 25/25 Q1014=
2025-05-08 22:00:00<>METAR SBSV 082200Z 09005KT 9999 SCT019 SCT070 26/24 Q1015=
2025-05-08 23:00:00<>METAR SBSV 082300Z 12005KT 9999 SCT020 26/24 Q1015=
2025-05-09 00:00:00<>METAR SBSV 090000Z 11006KT 9999 FEW020 26/23 Q1016=
2025-05-09 01:00:00<>METAR SBSV 090100Z 09014G24KT 9000 VCSH BKN015 FEW025TCU BKN055 25/23 Q1015=
2025-05-09 02:00:00<>METAR SBSV 090200Z 05010KT 5000 -RA FEW008 BKN015 FEW025TCU OVC050 25/24 Q1016=
2025-05-09 03:00:00<>METAR SBSV 090300Z 05004KT 020V110 9999 VCSH BKN017 FEW025TCU OVC050 25/24 Q1015=
2025-05-09 04:00:00<>METAR SBSV 090400Z 06004KT 3000 +SHRA SCT009 BKN015 FEW025TCU OVC040 24/24 Q1015=
2025-05-09 04:11:00<>SPECI SBSV 090411Z VRB03KT 6000 -RA SCT011 BKN015 FEW025TCU OVC050 23/22 Q1014 RESHRA RERA=
2025-05-09 05:00:00<>METAR SBSV 090500Z 27003KT 230V310 8000 VCSH BKN015 FEW025TCU OVC050 24/24 Q1014 RESHRA=
2025-05-09 06:00:00<>METAR SBSV 090600Z 30004KT 270V060 9999 VCSH SCT015 FEW025TCU BKN100 24/24 Q1013=
2025-05-09 07:00:00<>METAR SBSV 090700Z 29004KT 9999 FEW023 BKN100 23/23 Q1014=
2025-05-09 08:00:00<>METAR SBSV 090800Z 25004KT 9999 FEW023 SCT055 23/23 Q1014=
2025-05-09 08:36:00<>SPECI SBSV 090836Z 20004KT 3000 RA BR BKN010 OVC030 24/24 Q1014=
2025-05-09 09:00:00<>METAR SBSV 090900Z 16010KT 070V200 5000 -RA BR SCT011 BKN015 BKN055 24/24 Q1014 RERA=
2025-05-09 10:00:00<>METAR SBSV 091000Z 13004KT 080V160 9999 VCSH FEW011 SCT015 FEW023TCU BKN060 25/24 Q1015=
2025-05-09 11:00:00<>METAR SBSV 091100Z 10006KT 9999 FEW015 FEW023TCU BKN070 27/24 Q1016=
2025-05-09 11:43:00<>SPECI SBSV 091143Z 09011G21KT 2000 SHRA BKN008 BKN015 FEW023TCU BKN050 24/23 Q1017=
2025-05-09 12:00:00<>METAR SBSV 091200Z 07011KT 8000 3000NW -SHRA FEW008 BKN015 FEW023TCU BKN050 24/23 Q1016 RESHRA=
2025-05-09 12:10:00<>SPECI SBSV 091210Z 10011KT 3000 RA BR BKN017 FEW023TCU OVC050 26/23 Q1015=
2025-05-09 13:00:00<>METAR SBSV 091300Z 05009KT 9999 SCT016 SCT050 28/24 Q1016=
2025-05-09 14:00:00<>METAR SBSV 091400Z 08008KT 9999 SCT020 SCT050 29/23 Q1016=
2025-05-09 15:00:00<>METAR SBSV 091500Z 07009KT 040V100 9999 -SHRA FEW020 FEW023TCU BKN050 28/23 Q1015=
2025-05-09 15:15:00<>SPECI SBSV 091515Z 10011KT 3000 RA BKN017 FEW023TCU OVC050 26/23 Q1015=
2025-05-09 16:00:00<>METAR SBSV 091600Z 07009KT 040V110 1500 R28/0100N R10/0750N RA BR BKN006 BKN013 OVC045 25/24 Q1015=
2025-05-09 16:21:00<>SPECI SBSV 091621Z 07003KT 030V100 6000 -RA FEW006 SCT018 BKN070 25/24 Q1014 RERA=
2025-05-09 17:00:00<>METAR SBSV 091700Z 09006KT 060V140 9999 VCSH SCT018 FEW023TCU BKN100 27/24 Q1014=
2025-05-09 18:00:00<>METAR SBSV 091800Z 10008KT 070V130 9999 SCT018 SCT100 28/24 Q1014=
2025-05-09 19:00:00<>METAR SBSV 091900Z 10008KT 9999 FEW018 SCT100 28/24 Q1014=
2025-05-09 20:00:00<>METAR SBSV 092000Z 10006KT 9999 FEW018 SCT070 27/22 Q1014=
2025-05-09 21:00:00<>METAR SBSV 092100Z 12008KT 9999 FEW018 SCT070 26/23 Q1015=
2025-05-09 22:00:00<>METAR SBSV 092200Z 10005KT 9999 FEW018 SCT070 26/23 Q1015=
2025-05-09 23:00:00<>METAR SBSV 092300Z 04005KT 9999 SCT015 SCT070 26/23 Q1016=
2025-05-10 00:00:00<>METAR SBSV 100000Z 30001KT 9999 FEW018 SCT050 25/23 Q1016=
2025-05-10 01:00:00<>METAR SBSV 100100Z 28002KT 9999 FEW020 SCT060 24/24 Q1017=
2025-05-10 02:00:00<>METAR SBSV 100200Z VRB02KT 9999 SCT019 SCT030 24/24 Q1016=
2025-05-10 03:00:00<>METAR SBSV 100300Z 33003KT 9999 SCT019 SCT060 24/24 Q1016=
2025-05-10 03:35:00<>SPECI SBSV 100335Z VRB02KT 5000 RA SCT017 SCT030 BKN050 24/23 Q1016=
2025-05-10 04:00:00<>METAR SBSV 100400Z 16006KT 120V200 4000 +RA BKN008 BKN013 BKN050 24/24 Q1016 RERA=
2025-05-10 04:26:00<>SPECI SBSV 100426Z VRB02KT 7000 -RA SCT009 BKN017 OVC070 24/24 Q1015 RERA=
2025-05-10 05:00:00<>METAR SBSV 100500Z 26002KT 9999 VCSH SCT020 SCT030 BKN060 24/24 Q1015 RERA=
2025-05-10 06:00:00<>METAR SBSV 100600Z 28002KT 9999 SCT020 BKN060 24/24 Q1015=
2025-05-10 07:00:00<>METAR COR SBSV 100700Z 29002KT 9999 SCT020 SCT060 23/23 Q1015=
2025-05-10 08:00:00<>METAR SBSV 100800Z 19002KT 9999 SCT020 BKN050 24/24 Q1015=
2025-05-10 09:00:00<>METAR SBSV 100900Z 00000KT 9999 SCT021 23/23 Q1016=
2025-05-10 10:00:00<>METAR SBSV 101000Z 00000KT 9999 SCT023 24/24 Q1017=
2025-05-10 11:00:00<>METAR SBSV 101100Z VRB02KT 9999 SCT023 26/24 Q1017=
2025-05-10 12:00:00<>METAR SBSV 101200Z 08004KT 020V120 9999 VCSH SCT023 FEW025TCU 29/24 Q1018=
2025-05-10 13:00:00<>METAR SBSV 101300Z 10005KT 060V130 9999 SCT023 29/23 Q1018=
2025-05-10 14:00:00<>METAR SBSV 101400Z 08010KT 9999 SCT023 29/22 Q1018=
2025-05-10 15:00:00<>METAR SBSV 101500Z 10009KT 060V140 9999 SCT023 30/23 Q1017=
2025-05-10 16:00:00<>METAR SBSV 101600Z 09010KT 9999 SCT023 FEW025TCU 29/23 Q1016=
2025-05-10 17:00:00<>METAR SBSV 101700Z 09011KT 9999 VCSH SCT023 FEW025TCU SCT100 29/23 Q1015=
2025-05-10 18:00:00<>METAR SBSV 101800Z 11008KT 070V150 9999 SCT023 SCT100 29/22 Q1015=
2025-05-10 19:00:00<>METAR SBSV 101900Z 09010KT 9999 SCT023 29/22 Q1015=
2025-05-10 20:00:00<>METAR SBSV 102000Z 11008KT 9999 FEW023 28/22 Q1016=
2025-05-10 21:00:00<>METAR SBSV 102100Z 10007KT 9999 FEW023 28/22 Q1016=
2025-05-10 22:00:00<>METAR SBSV 102200Z 11007KT 9999 FEW025 28/22 Q1016=
2025-05-10 23:00:00<>METAR SBSV 102300Z 11007KT 9999 FEW023 28/22 Q1017=
2025-05-11 00:00:00<>METAR SBSV 110000Z 11007KT 9999 FEW023 27/22 Q1017=
2025-05-11 01:00:00<>METAR SBSV 110100Z 11009KT 9999 VCSH SCT021 FEW025TCU BKN100 27/22 Q1017=
2025-05-11 02:00:00<>METAR SBSV 110200Z 11008KT 9999 SCT022 BKN100 27/22 Q1017=
2025-05-11 03:00:00<>METAR SBSV 110300Z 12008KT 9999 BKN022 27/22 Q1017=
2025-05-11 04:00:00<>METAR SBSV 110400Z 12006KT 9999 BKN023 27/22 Q1016=
2025-05-11 05:00:00<>METAR SBSV 110500Z 12007KT 9999 SCT023 27/22 Q1016=
2025-05-11 06:00:00<>METAR SBSV 110600Z 12007KT 9999 SCT023 27/22 Q1015=
2025-05-11 07:00:00<>METAR SBSV 110700Z 12008KT 9999 VCSH BKN022 FEW025TCU 27/22 Q1015=
2025-05-11 08:00:00<>METAR SBSV 110800Z 14006KT 9999 VCSH SCT020 FEW025TCU BKN080 27/22 Q1016=
2025-05-11 09:00:00<>METAR SBSV 110900Z 08004KT 060V210 9999 VCSH SCT019 FEW025TCU BKN060 25/22 Q1016=
2025-05-11 10:00:00<>METAR SBSV 111000Z 12007KT 080V150 9000 VCSH SCT021 FEW025TCU BKN060 27/23 Q1017=
2025-05-11 11:00:00<>METAR SBSV 111100Z 13009KT 9999 SCT021 BKN060 28/22 Q1017=
2025-05-11 12:00:00<>METAR SBSV 111200Z 14010KT 9999 SCT023 BKN060 28/22 Q1018=
2025-05-11 13:00:00<>METAR SBSV 111300Z 13012KT 100V160 9999 BKN024 BKN060 29/22 Q1018=
2025-05-11 14:00:00<>METAR SBSV 111400Z 13012KT 9999 BKN024 BKN060 29/21 Q1018=
2025-05-11 15:00:00<>METAR SBSV 111500Z 14010KT 110V180 9999 SCT025 BKN070 29/21 Q1017=
2025-05-11 16:00:00<>METAR SBSV 111600Z 13012KT 100V160 9999 FEW025 BKN080 30/21 Q1016=
2025-05-11 17:00:00<>METAR SBSV 111700Z 13011KT 100V160 9999 FEW025 BKN080 29/21 Q1016=
2025-05-11 18:00:00<>METAR SBSV 111800Z 14010KT 9999 FEW023 BKN080 29/22 Q1015=
2025-05-11 19:00:00<>METAR SBSV 111900Z 14009KT 9999 FEW023 BKN080 28/22 Q1015=
2025-05-11 20:00:00<>METAR SBSV 112000Z 15009KT 9999 FEW025 SCT080 28/22 Q1016=
2025-05-11 21:00:00<>METAR SBSV 112100Z 15008KT 9999 FEW025 SCT070 28/21 Q1016=
2025-05-11 22:00:00<>METAR SBSV 112200Z 15009KT 9999 SCT025 SCT070 28/22 Q1016=
2025-05-11 23:00:00<>METAR SBSV 112300Z 14010KT 9999 SCT025 SCT070 28/22 Q1017=
2025-05-12 00:00:00<>METAR SBSV 120000Z 06015KT 040V110 9999 SCT021 SCT070 26/22 Q1018=
2025-05-12 01:00:00<>METAR SBSV 120100Z VRB02KT 9999 FEW012 SCT015 BKN040 25/24 Q1018=
2025-05-12 02:00:00<>METAR SBSV 120200Z VRB02KT 9999 SCT018 BKN040 25/23 Q1018=
2025-05-12 03:00:00<>METAR SBSV 120300Z 13006KT 100V160 9999 SCT020 BKN060 26/23 Q1017=
2025-05-12 04:00:00<>METAR SBSV 120400Z 25003KT 9999 SCT020 BKN060 25/23 Q1016=
2025-05-12 05:00:00<>METAR SBSV 120500Z 19006KT 9000 -RA FEW020 BKN050 24/22 Q1016=
2025-05-12 06:00:00<>METAR SBSV 120600Z 33003KT 300V100 9999 VCSH BKN022 BKN050 24/23 Q1015=
2025-05-12 07:00:00<>METAR SBSV 120700Z 14005KT 100V160 9999 BKN020 BKN060 26/23 Q1015=
2025-05-12 08:00:00<>METAR SBSV 120800Z 15008KT 9999 BKN024 BKN060 27/22 Q1016=
2025-05-12 09:00:00<>METAR SBSV 120900Z 14009KT 110V190 9999 VCSH SCT024 OVC100 27/22 Q1016=
2025-05-12 10:00:00<>METAR SBSV 121000Z 15010KT 9999 SCT024 BKN060 27/22 Q1017=
2025-05-12 11:00:00<>METAR SBSV 121100Z 14009KT 9999 SCT024 BKN060 27/22 Q1018=
2025-05-12 12:00:00<>METAR SBSV 121200Z 15010KT 9999 SCT025 BKN070 28/21 Q1018=
2025-05-12 13:00:00<>METAR SBSV 121300Z 15011KT 9999 SCT025 BKN080 29/21 Q1018=
2025-05-12 14:00:00<>METAR SBSV 121400Z 15011KT 9999 SCT025 BKN090 29/22 Q1018=
2025-05-12 15:00:00<>METAR SBSV 121500Z 16011KT 120V190 9999 BKN025 BKN090 29/22 Q1017=
2025-05-12 16:00:00<>METAR SBSV 121600Z 15012KT 9999 BKN025 29/22 Q1016=
2025-05-12 17:00:00<>METAR SBSV 121700Z 16013KT 9999 BKN025 29/22 Q1015=
2025-05-12 18:00:00<>METAR SBSV 121800Z 17010KT 150V210 9999 SCT025 29/22 Q1015=
2025-05-12 19:00:00<>METAR SBSV 121900Z 16011KT 9999 BKN025 28/22 Q1016=
2025-05-12 20:00:00<>METAR SBSV 122000Z 17010KT 9999 SCT025 28/21 Q1016=
2025-05-12 21:00:00<>METAR SBSV 122100Z 17011KT 9999 SCT025 28/21 Q1016=
2025-05-12 22:00:00<>METAR SBSV 122200Z 17008KT 9999 SCT025 BKN060 28/21 Q1016=
2025-05-12 23:00:00<>METAR SBSV 122300Z 19009KT 9999 SCT025 BKN050 25/21 Q1017=
2025-05-13 00:00:00<>METAR SBSV 130000Z VRB02KT 9999 SCT025 BKN070 24/21 Q1017=
2025-05-13 00:33:00<>SPECI SBSV 130033Z 16014G26KT 9999 VCSH BKN020 FEW024TCU OVC050 26/22 Q1017=
2025-05-13 01:00:00<>METAR SBSV 130100Z 17016G26KT 5000 SHRA BR FEW011 BKN020 FEW024TCU OVC050 24/21 Q1017=
2025-05-13 01:21:00<>SPECI SBSV 130121Z 17015KT 9000 VCSH FEW012 BKN023 FEW024TCU BKN055 25/22 Q1017 RESHRA=
2025-05-13 02:00:00<>METAR SBSV 130200Z 14012G22KT 9999 VCSH BKN021 FEW025TCU BKN055 26/21 Q1017 RESHRA=
2025-05-13 02:07:00<>SPECI SBSV 130207Z 14019G31KT 4000 SHRA BR BKN012 FEW025TCU OVC040 24/22 Q1017=
2025-05-13 03:00:00<>METAR SBSV 130300Z 13010KT 110V180 5000 BR VCSH BKN016 FEW025TCU OVC040 24/22 Q1017 RESHRA=
2025-05-13 04:00:00<>METAR SBSV 130400Z 14010KT 9999 SCT020 OVC070 26/22 Q1015=
2025-05-13 04:56:00<>SPECI SBSV 130456Z 16011G21KT 2500 SHRA BR BKN010 FEW023TCU OVC030 25/22 Q1015=
2025-05-13 05:00:00<>METAR SBSV 130500Z 16009KT 8000 VCSH BKN015 FEW025TCU OVC060 26/23 Q1015=
2025-05-13 05:01:00<>SPECI SBSV 130501Z 16015KT 3000 -SHRA BR BKN013 FEW025TCU OVC060 25/23 Q1015 RESHRA=
2025-05-13 05:10:00<>SPECI SBSV 130510Z 16015KT 5000 -RA BR BKN015 FEW025TCU OVC060 25/23 Q1015 RESHRA=
2025-05-13 06:00:00<>METAR SBSV 130600Z 08015KT 8000 VCSH SCT007 BKN015 FEW025TCU OVC060 24/23 Q1014 RESHRA=
2025-05-13 06:16:00<>SPECI SBSV 130616Z 11015KT 3000 SHRA BR BKN007 FEW025TCU OVC040 24/23 Q1014=
2025-05-13 06:36:00<>SPECI SBSV 130636Z 11015KT 5000 RA BR SCT010 BKN015 OVC040 24/23 Q1014 RESHRA=
2025-05-13 07:00:00<>METAR SBSV 130700Z 11006KT 8000 -RA SCT012 BKN015 OVC050 24/23 Q1014 RESHRA RERA=
2025-05-13 07:09:00<>SPECI SBSV 130709Z 10006KT 2000 RA BKN010 OVC040 25/24 Q1014 RESHRA=
2025-05-13 07:34:00<>SPECI SBSV 130734Z 14005KT 5000 -RA BKN013 OVC050 23/23 Q1015 RESHRA RERA=
2025-05-13 07:43:00<>SPECI SBSV 130743Z 06006KT 2000 +RA BKN006 BKN010 OVC020 23/23 Q1015 RESHRA=
2025-05-13 08:00:00<>METAR SBSV 130800Z 05012KT 2000 RA SCT006 BKN010 OVC020 23/23 Q1015 RESHRA RERA=
2025-05-13 08:05:00<>SPECI SBSV 130805Z 05010KT 2000 RA BKN005 OVC015 23/23 Q1015=
2025-05-13 09:00:00<>METAR SBSV 130900Z 01005KT 4000 RA FEW005 BKN010 OVC020 22/22 Q1015=
2025-05-13 09:17:00<>SPECI SBSV 130917Z 07007KT 6000 -RA SCT005 BKN010 OVC030 23/23 Q1016 RERA=
2025-05-13 10:00:00<>METAR SBSV 131000Z 07007KT 5000 -RA SCT010 BKN015 OVC080 23/23 Q1016 RERA=
2025-05-13 11:00:00<>METAR SBSV 131100Z 11005KT 9999 VCSH SCT020 FEW025TCU BKN080 26/24 Q1016=
2025-05-13 12:00:00<>METAR SBSV 131200Z 08008KT 9999 VCSH SCT023 FEW025TCU BKN060 27/23 Q1016=
2025-05-13 13:00:00<>METAR SBSV 131300Z 09016KT 5000 2000N RA FEW013 BKN022 FEW025TCU 24/22 Q1017=
2025-05-13 14:00:00<>METAR SBSV 131400Z 10007KT 070V130 9999 FEW023 FEW025TCU 28/23 Q1016=
2025-05-13 15:00:00<>METAR SBSV 131500Z 11007KT 060V160 9999 FEW024 BKN060 29/23 Q1016=
2025-05-13 16:00:00<>METAR SBSV 131600Z 11008KT 090V160 9999 VCSH FEW024 SCT060 29/23 Q1015=
2025-05-13 17:00:00<>METAR SBSV 131700Z 10007KT 060V130 9999 VCSH FEW023 FEW025TCU SCT040 28/22 Q1014=
2025-05-13 18:00:00<>METAR SBSV 131800Z 13008KT 080V190 9999 SCT023 29/21 Q1014=
2025-05-13 19:00:00<>METAR SBSV 131900Z 13009KT 100V170 9999 SCT025 28/21 Q1014=
2025-05-13 20:00:00<>METAR SBSV 132000Z 14007KT 110V170 9999 SCT025 28/21 Q1014=
2025-05-13 21:00:00<>METAR SBSV 132100Z 14008KT 110V180 9999 SCT025 28/21 Q1014=
2025-05-13 22:00:00<>METAR SBSV 132200Z 14007KT 9999 SCT025 27/21 Q1015=
2025-05-13 23:00:00<>METAR SBSV 132300Z 13007KT 100V160 9999 SCT026 27/21 Q1016=
2025-05-14 00:00:00<>METAR SBSV 140000Z 14009KT 110V170 9999 SCT026 27/21 Q1016=
2025-05-14 01:00:00<>METAR SBSV 140100Z 15012KT 9999 SCT026 BKN060 26/22 Q1016=
2025-05-14 02:00:00<>METAR SBSV 140200Z 16006KT 9999 SCT026 SCT060 26/20 Q1016=
2025-05-14 03:00:00<>METAR SBSV 140300Z 14008KT 9999 SCT026 26/20 Q1015=
2025-05-14 04:00:00<>METAR SBSV 140400Z 14006KT 9999 SCT026 26/21 Q1015=
2025-05-14 05:00:00<>METAR SBSV 140500Z 14006KT 9999 SCT026 SCT030 26/20 Q1014=
2025-05-14 06:00:00<>METAR SBSV 140600Z 14008KT 9999 SCT026 26/20 Q1013=
2025-05-14 07:00:00<>METAR SBSV 140700Z 14007KT 9999 SCT026 26/19 Q1013=
2025-05-14 08:00:00<>METAR SBSV 140800Z 16006KT 9999 SCT026 SCT060 26/20 Q1014=
2025-05-14 09:00:00<>METAR SBSV 140900Z 16008KT 7000 -RA SCT023 BKN060 26/21 Q1014=
2025-05-14 10:00:00<>METAR SBSV 141000Z 16009KT 9999 VCSH SCT025 BKN050 27/21 Q1015=
2025-05-14 11:00:00<>METAR SBSV 141100Z 15010KT 9999 SCT025 28/21 Q1015=
2025-05-14 12:00:00<>METAR SBSV 141200Z 16010KT 9999 SCT025 28/20 Q1016=
2025-05-14 13:00:00<>METAR SBSV 141300Z 18011KT 9999 SCT025 28/22 Q1016=
2025-05-14 14:00:00<>METAR SBSV 141400Z 18010KT 9999 SCT025 28/22 Q1016=
2025-05-14 15:00:00<>METAR SBSV 141500Z 18010KT 160V220 9999 FEW013 SCT023 27/22 Q1015=
2025-05-14 16:00:00<>METAR SBSV 141600Z 19008KT 160V220 9999 FEW013 SCT025 28/23 Q1014=
2025-05-14 16:40:00<>SPECI SBSV 141640Z 20011KT 170V230 3000 +RA SCT015 SCT025 26/23 Q1014=
2025-05-14 17:00:00<>METAR SBSV 141700Z 21007KT 160V250 9000 2000NE +RA SCT011 BKN023 FEW025TCU 25/23 Q1014=
2025-05-14 17:25:00<>SPECI SBSV 141725Z 20011KT 180V240 9999 -RA FEW011 SCT015 FEW025TCU 26/23 Q1014 RERA=
2025-05-14 18:00:00<>METAR SBSV 141800Z 21009KT 9999 VCSH FEW011 SCT015 FEW025TCU 27/23 Q1014=
2025-05-14 19:00:00<>METAR SBSV 141900Z 22008KT 9999 FEW023 FEW025TCU 26/22 Q1014=
2025-05-14 20:00:00<>METAR SBSV 142000Z 23006KT 9999 VCSH FEW023 FEW025TCU 25/22 Q1014=
2025-05-14 21:00:00<>METAR SBSV 142100Z 26005KT 9999 VCSH FEW016 SCT020 FEW025TCU 25/22 Q1014=
2025-05-14 22:00:00<>METAR SBSV 142200Z 21006KT 9999 SCT020 SCT026 26/23 Q1015=
2025-05-14 23:00:00<>METAR SBSV 142300Z 22005KT 9999 FEW023 25/22 Q1015=
2025-05-15 00:00:00<>METAR SBSV 150000Z 16007KT 9999 FEW023 SCT027 27/21 Q1016=
2025-05-15 01:00:00<>METAR SBSV 150100Z 17007KT 9999 SCT026 27/21 Q1016=
2025-05-15 02:00:00<>METAR SBSV 150200Z 17009KT 9999 SCT023 BKN060 27/21 Q1016=
2025-05-15 03:00:00<>METAR SBSV 150300Z 19008KT 9999 SCT023 BKN060 27/21 Q1016=
2025-05-15 04:00:00<>METAR SBSV 150400Z 18007KT 140V200 9999 BKN019 BKN060 25/23 Q1015=
2025-05-15 04:19:00<>SPECI SBSV 150419Z 19008KT 130V220 9999 BKN010 BKN060 25/22 Q1015=
2025-05-15 05:00:00<>METAR SBSV 150500Z 19007KT 160V230 9000 BKN020 BKN060 26/23 Q1015=
2025-05-15 05:23:00<>SPECI SBSV 150523Z 18007KT 160V240 2000 RA FEW007 BKN020 BKN060 24/23 Q1015=
2025-05-15 06:00:00<>METAR SBSV 150600Z 25008KT 180V290 5000 RA SCT010 BKN015 BKN070 23/23 Q1015=
2025-05-15 07:00:00<>METAR SBSV 150700Z 22006KT 5000 BR SCT010 BKN015 BKN070 24/23 Q1014 RERA=
2025-05-15 08:00:00<>METAR SBSV 150800Z 27003KT 9999 SCT011 BKN070 24/23 Q1014=
2025-05-15 09:00:00<>METAR SBSV 150900Z 26003KT 9999 SCT016 BKN070 23/23 Q1015=
2025-05-15 10:00:00<>METAR SBSV 151000Z 27003KT 220V300 9999 SCT023 FEW025TCU SCT070 24/24 Q1015=
2025-05-15 11:00:00<>METAR SBSV 151100Z 23005KT 9999 VCSH SCT023 FEW025TCU SCT100 26/22 Q1016=
2025-05-15 11:15:00<>SPECI SBSV 151115Z VRB05KT 8000 2000NE +RA SCT023 FEW025TCU SCT100 26/23 Q1016=
2025-05-15 12:00:00<>METAR SBSV 151200Z 18011KT 9999 VCSH SCT015 SCT023 27/23 Q1016 RERA=
2025-05-15 13:00:00<>METAR SBSV 151300Z 20008KT 9999 SCT015 SCT023 27/23 Q1017=
2025-05-15 14:00:00<>METAR SBSV 151400Z 17010KT 130V200 9999 VCSH FEW015 SCT020 FEW025TCU 27/23 Q1016=
2025-05-15 15:00:00<>METAR SBSV 151500Z 21008KT 9999 VCSH FEW015 SCT020 FEW025TCU 27/22 Q1016=
2025-05-15 16:00:00<>METAR SBSV 151600Z 15012KT 9999 SCT020 FEW025TCU SCT100 28/22 Q1015=
2025-05-15 17:00:00<>METAR SBSV 151700Z 15008KT 120V190 9999 SCT020 SCT100 28/21 Q1014=
2025-05-15 18:00:00<>METAR SBSV 151800Z 17008KT 130V220 9999 SCT021 BKN080 28/21 Q1014=
2025-05-15 19:00:00<>METAR SBSV 151900Z 19006KT 160V260 9999 BKN020 BKN080 27/22 Q1014=
2025-05-15 20:00:00<>METAR SBSV 152000Z 18005KT 150V210 9999 SCT017 SCT100 27/22 Q1014=
2025-05-15 21:00:00<>METAR SBSV 152100Z 17005KT 140V200 9999 SCT023 SCT100 26/21 Q1015=
2025-05-15 22:00:00<>METAR SBSV 152200Z 19004KT 160V220 9999 SCT017 26/23 Q1015=
2025-05-15 23:00:00<>METAR SBSV 152300Z 18004KT 9999 FEW016 SCT021 26/22 Q1016=
2025-05-16 00:00:00<>METAR SBSV 160000Z 16005KT 9999 VCSH BKN020 FEW024TCU BKN060 26/22 Q1016=
2025-05-16 01:00:00<>METAR SBSV 160100Z 15003KT 9999 FEW022 26/22 Q1016=
2025-05-16 02:00:00<>METAR SBSV 160200Z 16004KT 9999 FEW023 26/22 Q1016=
2025-05-16 03:00:00<>METAR SBSV 160300Z 19003KT 160V280 9999 FEW026 BKN040 26/22 Q1016=
2025-05-16 04:00:00<>METAR SBSV 160400Z 15003KT 9999 FEW026 SCT040 25/22 Q1016=
2025-05-16 05:00:00<>METAR SBSV 160500Z 17003KT 9999 FEW023 25/23 Q1015=
2025-05-16 06:00:00<>METAR SBSV 160600Z 18002KT 9000 -RA FEW017 SCT030 24/23 Q1015=
2025-05-16 07:00:00<>METAR SBSV 160700Z 15004KT 110V180 9999 FEW018 25/23 Q1015=
2025-05-16 08:00:00<>METAR SBSV 160800Z 14007KT 9999 FEW018 25/22 Q1015=
2025-05-16 09:00:00<>METAR SBSV 160900Z 16010KT 9999 4000NW -SHRA FEW015 BKN019 FEW023TCU 24/22 Q1015=
2025-05-16 10:00:00<>METAR SBSV 161000Z 17005KT 9000 -SHRA FEW015 SCT021 FEW023TCU 26/22 Q1016=
2025-05-16 11:00:00<>METAR SBSV 161100Z 15006KT 9999 VCSH SCT021 FEW023TCU SCT100 27/24 Q1016=
2025-05-16 12:00:00<>METAR SBSV 161200Z 11010KT 9999 SCT021 SCT100 28/23 Q1017=
2025-05-16 13:00:00<>METAR SBSV 161300Z 14010KT 9999 BKN020 SCT100 28/23 Q1017=
2025-05-16 14:00:00<>METAR SBSV 161400Z 13011KT 9999 VCSH BKN020 SCT100 29/23 Q1016=
2025-05-16 15:00:00<>METAR SBSV 161500Z 11012KT 9999 VCSH BKN020 FEW025TCU SCT100 29/23 Q1016=
2025-05-16 16:00:00<>METAR SBSV 161600Z 12010KT 9999 SCT021 FEW025TCU 29/23 Q1015=
2025-05-16 16:35:00<>SPECI SBSV 161635Z 14011KT 110V170 9000 4000NW SHRA FEW013 SCT021 FEW025TCU 26/24 Q1015=
2025-05-16 17:00:00<>METAR SBSV 161700Z 13009KT 9999 VCSH FEW013 SCT021 FEW025TCU 27/23 Q1015 RESHRA=
2025-05-16 18:00:00<>METAR SBSV 161800Z 12008KT 100V170 8000 VCSH SCT021 FEW025TCU SCT050 28/23 Q1014=
2025-05-16 19:00:00<>METAR SBSV 161900Z 08008KT 6000 -RA SCT020 FEW023TCU BKN060 26/22 Q1014=
2025-05-16 20:00:00<>METAR SBSV 162000Z 10007KT 8000 VCSH SCT020 FEW023TCU SCT060 26/23 Q1015=
2025-05-16 20:13:00<>SPECI SBSV 162013Z 14007G17KT 6000 SHRA BKN020 FEW023TCU SCT060 25/21 Q1015=
2025-05-16 20:35:00<>SPECI SBSV 162035Z 12005KT 090V200 8000 VCSH BKN020 FEW023TCU SCT060 26/23 Q1015 RESHRA=
2025-05-16 21:00:00<>METAR SBSV 162100Z 14007KT 9000 VCSH SCT020 FEW023TCU SCT060 26/23 Q1015 RESHRA=
2025-05-16 22:00:00<>METAR SBSV 162200Z 14008KT 9000 SCT020 FEW023TCU 26/23 Q1015=
2025-05-16 22:35:00<>SPECI SBSV 162235Z 13016G29KT 090V160 4000 SHRA BKN007 BKN017 FEW021TCU 25/24 Q1015=
2025-05-16 23:00:00<>METAR SBSV 162300Z 12016KT 7000 -RA BKN008 BKN017 FEW021TCU 25/24 Q1016 RESHRA=
2025-05-17 00:00:00<>METAR SBSV 170000Z 09008KT 9000 VCSH FEW010 SCT020 FEW021TCU BKN070 25/23 Q1016=
2025-05-17 01:00:00<>METAR COR SBSV 170100Z 13015KT 090V160 5000 -SHRA BKN015 BKN022 OVC050 26/23 Q1016=
2025-05-17 02:00:00<>METAR SBSV 170200Z 10016KT 9999 VCSH SCT016 BKN023 BKN060 26/22 Q1016=
2025-05-17 03:00:00<>METAR SBSV 170300Z 10015KT 9999 BKN020 BKN100 26/22 Q1016=
2025-05-17 04:00:00<>METAR SBSV 170400Z 10015KT 9999 VCSH BKN019 BKN050 26/22 Q1015=
2025-05-17 04:16:00<>SPECI SBSV 170416Z 13015KT 5000 -SHRA SCT012 BKN021 OVC040 25/22 Q1016=
2025-05-17 04:29:00<>SPECI SBSV 170429Z 12015G28KT 2000 +SHRA BKN011 BKN021 OVC040 24/24 Q1016=
2025-05-17 04:48:00<>SPECI SBSV 170448Z 11012G22KT 2000 SHRA BKN007 BKN020 OVC040 24/24 Q1016 RESHRA=
2025-05-17 05:00:00<>METAR SBSV 170500Z 10017KT 5000 -RA BKN008 BKN020 OVC050 24/24 Q1016 RESHRA=
2025-05-17 05:24:00<>SPECI SBSV 170524Z 10015KT 8000 VCSH FEW011 BKN017 BKN050 25/23 Q1015 RESHRA=
2025-05-17 06:00:00<>METAR SBSV 170600Z 13018KT 100V160 5000 RA FEW012 BKN015 OVC040 24/22 Q1015=
2025-05-17 07:00:00<>METAR SBSV 170700Z 11015KT 9000 -RA BKN016 OVC060 26/22 Q1015 RERA=
2025-05-17 08:00:00<>METAR SBSV 170800Z 11017KT 9999 -RA BKN015 OVC060 27/21 Q1015=
2025-05-17 09:00:00<>METAR SBSV 170900Z 11016KT 9999 VCSH FEW015 BKN023 FEW025TCU BKN060 27/21 Q1016=
2025-05-17 10:00:00<>METAR SBSV 171000Z 11014KT 9999 FEW015 SCT023 BKN060 27/21 Q1016=
2025-05-17 11:00:00<>METAR SBSV 171100Z 12012KT 9999 SCT025 BKN060 27/21 Q1017=
2025-05-17 12:00:00<>METAR SBSV 171200Z 12014KT 9999 SCT025 BKN070 28/21 Q1018=
2025-05-17 13:00:00<>METAR SBSV 171300Z 12015KT 9999 SCT025 BKN070 28/21 Q1018=
2025-05-17 14:00:00<>METAR SBSV 171400Z 11012KT 090V160 9999 SCT023 FEW025TCU BKN080 29/22 Q1018=
2025-05-17 15:00:00<>METAR SBSV 171500Z 14015KT 110V170 9999 SCT023 FEW025TCU BKN080 28/20 Q1017=
2025-05-17 16:00:00<>METAR SBSV 171600Z 15015KT 120V180 9999 VCSH SCT023 FEW025TCU BKN090 26/20 Q1017=
2025-05-17 16:36:00<>SPECI SBSV 171636Z 13007KT 090V170 3000 RA BKN023 FEW025TCU BKN090 24/20 Q1016=
2025-05-17 17:00:00<>METAR SBSV 171700Z 09008KT 3000 RA BKN023 FEW025TCU BKN090 24/22 Q1016=
2025-05-17 17:20:00<>SPECI SBSV 171720Z 15008KT 8000 -RA SCT023 FEW025TCU BKN040 26/19 Q1016 RERA=
2025-05-17 18:00:00<>METAR SBSV 171800Z 18008KT 9999 FEW023 FEW030TCU BKN040 27/20 Q1016=
2025-05-17 19:00:00<>METAR SBSV 171900Z 14009KT 8000 VCSH FEW023 FEW030TCU BKN040 26/18 Q1016=
2025-05-17 19:05:00<>SPECI SBSV 171905Z 12013KT 6000 2000NW RA FEW023 FEW030TCU BKN040 26/21 Q1016=
2025-05-17 20:00:00<>METAR SBSV 172000Z 12012KT 9000 3000NE RA FEW023 FEW030TCU BKN035 26/21 Q1016=
2025-05-17 21:00:00<>METAR SBSV 172100Z 14008KT 9999 VCSH FEW023 BKN035 26/20 Q1016 RERA=
2025-05-17 22:00:00<>METAR SBSV 172200Z 15013KT 9999 FEW023 BKN050 27/20 Q1016=
2025-05-17 23:00:00<>METAR SBSV 172300Z 13012KT 9999 SCT023 BKN050 27/19 Q1016=
2025-05-18 00:00:00<>METAR SBSV 180000Z 14010KT 9999 SCT033 BKN070 27/20 Q1017=
2025-05-18 01:00:00<>METAR SBSV 180100Z 13012KT 100V160 9999 SCT030 BKN070 27/19 Q1017=
2025-05-18 02:00:00<>METAR SBSV 180200Z 12011KT 9999 SCT030 BKN070 27/20 Q1016=
2025-05-18 03:00:00<>METAR SBSV 180300Z 12010KT 090V150 9999 SCT030 SCT070 27/19 Q1016=
2025-05-18 04:00:00<>METAR SBSV 180400Z 12009KT 090V150 9999 BKN030 SCT070 27/20 Q1016=
2025-05-18 05:00:00<>METAR SBSV 180500Z 12011KT 100V160 9999 SCT030 27/20 Q1015=
2025-05-18 06:00:00<>METAR SBSV 180600Z 12009KT 9999 SCT030 26/21 Q1015=
2025-05-18 07:00:00<>METAR SBSV 180700Z 11012KT 9999 SCT027 26/21 Q1015=
2025-05-18 08:00:00<>METAR SBSV 180800Z 11011KT 9999 SCT025 26/21 Q1015=
2025-05-18 09:00:00<>METAR SBSV 180900Z 12013KT 8000 VCSH SCT025 BKN060 26/21 Q1016=
2025-05-18 10:00:00<>METAR SBSV 181000Z 13015KT 9999 VCSH SCT023 FEW025TCU BKN070 26/22 Q1016=
2025-05-18 11:00:00<>METAR SBSV 181100Z 14015KT 9999 VCSH BKN024 FEW025TCU OVC070 25/21 Q1017=
2025-05-18 12:00:00<>METAR SBSV 181200Z 08015KT 8000 VCSH FEW014 BKN020 FEW025TCU BKN055 24/21 Q1018=
2025-05-18 13:00:00<>METAR SBSV 181300Z 13010KT 9000 -RA FEW015 BKN023 BKN050 27/22 Q1018=
2025-05-18 14:00:00<>METAR SBSV 181400Z 12016KT 8000 VCSH SCT020 BKN050 27/22 Q1017=
2025-05-18 15:00:00<>METAR SBSV 181500Z 14010KT 110V170 9999 VCSH SCT022 FEW025TCU BKN080 28/22 Q1017=
2025-05-18 15:24:00<>SPECI SBSV 181524Z 14011G21KT 5000 SHRA SCT011 BKN020 FEW025TCU BKN050 27/21 Q1016=
2025-05-18 15:42:00<>SPECI SBSV 181542Z 10009KT 080V160 8000 VCSH FEW015 BKN020 FEW025TCU BKN050 27/22 Q1016 RESHRA=
2025-05-18 16:00:00<>METAR SBSV 181600Z 14010KT 080V160 8000 VCSH FEW015 BKN019 FEW025TCU BKN050 27/23 Q1016 RESHRA=
2025-05-18 16:13:00<>SPECI SBSV 181613Z 13016G28KT 100V160 5000 SHRA FEW010 BKN017 FEW025TCU BKN050 25/22 Q1016=
2025-05-18 17:00:00<>METAR SBSV 181700Z 15012KT 9000 VCSH BKN020 FEW025TCU BKN050 27/23 Q1015 RESHRA=
2025-05-18 18:00:00<>METAR SBSV 181800Z 13014KT 100V160 9999 VCSH SCT020 FEW025TCU SCT050 27/22 Q1015=
2025-05-18 19:00:00<>METAR SBSV 181900Z 13014KT 9999 VCSH SCT018 FEW023TCU BKN070 26/21 Q1015=
2025-05-18 19:43:00<>SPECI SBSV 181943Z 13020G30KT 100V160 5000 SHRA BR FEW005 FEW020TCU BKN030 23/22 Q1016=
2025-05-18 20:00:00<>METAR SBSV 182000Z 13011KT 9000 -SHRA FEW005 FEW020TCU BKN030 23/22 Q1016 RESHRA=
2025-05-18 21:00:00<>METAR SBSV 182100Z 17006KT 120V200 9999 FEW023TCU BKN027 BKN070 25/22 Q1016=
2025-05-18 22:00:00<>METAR SBSV 182200Z VRB02KT 9999 FEW027 BKN070 25/22 Q1017=
2025-05-18 23:00:00<>METAR SBSV 182300Z 13011KT 100V160 9999 FEW025 BKN060 27/21 Q1017=
2025-05-19 00:00:00<>METAR SBSV 190000Z 13013KT 9999 FEW023 BKN060 27/21 Q1017=
2025-05-19 01:00:00<>METAR SBSV 190100Z 13011KT 9999 SCT026 BKN060 27/21 Q1017=
2025-05-19 02:00:00<>METAR SBSV 190200Z 13012KT 9999 SCT026 BKN060 27/21 Q1017=
2025-05-19 03:00:00<>METAR SBSV 190300Z 13013KT 9999 SCT030 BKN090 27/20 Q1017=
2025-05-19 04:00:00<>METAR SBSV 190400Z 13011KT 9999 SCT030 BKN090 21/20 Q1017=
2025-05-19 05:00:00<>METAR SBSV 190500Z 12011KT 9999 FEW020 BKN070 27/19 Q1016=
2025-05-19 06:00:00<>METAR SBSV 190600Z 12011KT 9999 FEW023 SCT080 26/18 Q1016=
2025-05-19 07:00:00<>METAR SBSV 190700Z 12010KT 9999 FEW023 SCT080 26/18 Q1016=
2025-05-19 08:00:00<>METAR SBSV 190800Z 13008KT 100V180 9999 FEW020 BKN100 26/19 Q1016=
2025-05-19 09:00:00<>METAR SBSV 190900Z 16015KT 9999 VCSH SCT020 FEW023TCU BKN100 25/21 Q1016=
2025-05-19 10:00:00<>METAR SBSV 191000Z 13011KT 9999 VCSH SCT020 FEW023TCU BKN050 26/20 Q1017=
2025-05-19 11:00:00<>METAR SBSV 191100Z 11008KT 080V150 9999 VCSH SCT020 BKN040 26/19 Q1018=
2025-05-19 12:00:00<>METAR SBSV 191200Z 06003KT 9999 SCT020 BKN050 25/20 Q1018=
2025-05-19 13:00:00<>METAR SBSV 191300Z 14006KT 9999 FEW023 BKN070 27/20 Q1018=
2025-05-19 14:00:00<>METAR SBSV 191400Z VRB03KT 9999 FEW023 FEW025TCU BKN070 27/23 Q1017=
2025-05-19 15:00:00<>METAR SBSV 191500Z 16010KT 9999 FEW023 BKN070 28/21 Q1016=
2025-05-19 16:00:00<>METAR SBSV 191600Z 16010KT 120V180 9999 FEW030 SCT100 28/22 Q1016=
2025-05-19 17:00:00<>METAR SBSV 191700Z 17008KT 130V200 9999 VCSH SCT025 SCT100 28/22 Q1015=
2025-05-19 18:00:00<>METAR SBSV 191800Z 13009KT 090V170 9999 SCT023 SCT030 28/21 Q1015=
2025-05-19 19:00:00<>METAR SBSV 191900Z 13009KT 9999 SCT023 28/20 Q1014=
2025-05-19 20:00:00<>METAR SBSV 192000Z 13008KT 9999 SCT023 27/21 Q1015=
2025-05-19 21:00:00<>METAR SBSV 192100Z 12009KT 9999 SCT023 27/20 Q1015=
2025-05-19 22:00:00<>METAR SBSV 192200Z 12008KT 9999 SCT023 27/19 Q1015=
2025-05-19 23:00:00<>METAR SBSV 192300Z 12007KT 9999 SCT023 27/19 Q1016=
2025-05-20 00:00:00<>METAR SBSV 200000Z 11008KT 9999 SCT023 27/20 Q1016=
2025-05-20 01:00:00<>METAR SBSV 200100Z 12008KT 9999 FEW023 27/21 Q1017=
2025-05-20 02:00:00<>METAR SBSV 200200Z 11006KT 090V150 9999 FEW023 26/20 Q1016=
2025-05-20 03:00:00<>METAR SBSV 200300Z 13005KT 100V180 9999 FEW023 SCT060 26/21 Q1016=
2025-05-20 04:00:00<>METAR SBSV 200400Z 08006KT 9999 FEW021 SCT060 25/22 Q1016=
2025-05-20 05:00:00<>METAR SBSV 200500Z 11006KT 9999 FEW021 SCT060 26/21 Q1015=
2025-05-20 06:00:00<>METAR SBSV 200600Z 13007KT 9999 SCT021 26/21 Q1015=
2025-05-20 07:00:00<>METAR SBSV 200700Z 11007KT 9999 SCT023 26/20 Q1015=
2025-05-20 08:00:00<>METAR SBSV 200800Z 11006KT 090V150 9999 SCT023 26/20 Q1015=
2025-05-20 09:00:00<>METAR SBSV 200900Z 11006KT 9999 SCT030 26/20 Q1016=
2025-05-20 10:00:00<>METAR SBSV 201000Z 13004KT 100V170 9999 SCT023 27/21 Q1016=
2025-05-20 11:00:00<>METAR SBSV 201100Z 11007KT 9999 SCT023 27/21 Q1017=
2025-05-20 12:00:00<>METAR SBSV 201200Z 10008KT 9999 SCT025 27/21 Q1019=
2025-05-20 13:00:00<>METAR SBSV 201300Z 14009KT 9999 SCT026 28/20 Q1017=
2025-05-20 14:00:00<>METAR SBSV 201400Z 14008KT 090V200 9999 SCT026 29/20 Q1017=
2025-05-20 15:00:00<>METAR SBSV 201500Z 17010KT 140V210 9999 SCT026 SCT100 29/20 Q1016=
2025-05-20 16:00:00<>METAR SBSV 201600Z 18010KT 140V220 9999 SCT020 SCT100 29/21 Q1015=
2025-05-20 17:00:00<>METAR SBSV 201700Z 20010KT 160V230 9999 SCT020 BKN100 29/20 Q1015=
2025-05-20 18:00:00<>METAR SBSV 201800Z 20012KT 9000 2000N +RA SCT023 FEW025TCU SCT100 28/21 Q1014=
2025-05-20 18:21:00<>SPECI SBSV 201821Z 20007KT 150V220 9000 VCSH BKN023 FEW025TCU BKN070 26/22 Q1014 RERA=
2025-05-20 19:00:00<>METAR SBSV 201900Z 17007KT 9999 VCSH SCT030 BKN070 27/21 Q1015 RERA=
2025-05-20 19:20:00<>SPECI SBSV 201920Z 09011KT 4000 1500NE +RA SCT030 BKN070 25/22 Q1015=
2025-05-20 20:00:00<>METAR SBSV 202000Z 11009KT 2500 +RA FEW005 SCT013 BKN023 24/24 Q1015=
2025-05-20 21:00:00<>METAR SBSV 202100Z 16007KT 2000 +RA SCT013 BKN023 BKN070 24/24 Q1016=
2025-05-20 21:35:00<>SPECI SBSV 202135Z 21007KT 9000 -RA FEW005 SCT017 BKN050 24/24 Q1016 RERA=
2025-05-20 22:00:00<>METAR SBSV 202200Z 18006KT 110V200 2000 +RA FEW005 SCT021 BKN050 24/23 Q1016 RERA=
2025-05-20 22:30:00<>SPECI SBSV 202230Z 11003KT 070V140 4000 RA FEW007 SCT021 BKN050 24/23 Q1016 RERA=
2025-05-20 23:00:00<>METAR SBSV 202300Z 19002KT 9999 -RA FEW007 SCT030 BKN050 23/23 Q1016 RERA=
2025-05-21 00:00:00<>METAR SBSV 210000Z 23005KT 9999 VCSH SCT030 BKN050 24/24 Q1016=
2025-05-21 01:00:00<>METAR SBSV 210100Z 16005KT 070V240 9000 VCSH BKN021 BKN030 BKN050 24/23 Q1017=
2025-05-21 02:00:00<>METAR SBSV 210200Z 21006KT 9999 SCT021 BKN030 BKN070 24/23 Q1016=
2025-05-21 02:04:00<>SPECI SBSV 210204Z VRB04KT 5000 +SHRA BKN021 FEW023TCU BKN030 BKN070 24/23 Q1016=
2025-05-21 02:22:00<>SPECI SBSV 210222Z 03004KT 320V070 8000 VCSH BKN020 FEW022TCU BKN030 BKN070 23/23 Q1016 RESHRA=
2025-05-21 03:00:00<>METAR SBSV 210300Z 24002KT 9000 VCSH SCT021 FEW022TCU SCT030 BKN070 24/23 Q1016 RESHRA=
2025-05-21 04:00:00<>METAR SBSV 210400Z 12009KT 090V150 9999 SCT021 FEW022TCU BKN070 26/21 Q1016=
2025-05-21 05:00:00<>METAR SBSV 210500Z 12008KT 9999 SCT021 BKN070 26/21 Q1015=
2025-05-21 06:00:00<>METAR SBSV 210600Z 12004KT 9999 SCT021 BKN060 25/21 Q1015=
2025-05-21 07:00:00<>METAR SBSV 210700Z 11006KT 9999 SCT021 BKN060 26/21 Q1015=
2025-05-21 08:00:00<>METAR SBSV 210800Z 12007KT 9999 SCT021 BKN060 26/21 Q1015=
2025-05-21 09:00:00<>METAR SBSV 210900Z 12006KT 100V170 9999 BKN021 BKN060 26/21 Q1016=
2025-05-21 10:00:00<>METAR SBSV 211000Z 13007KT 9999 SCT025 BKN040 27/20 Q1016=
2025-05-21 11:00:00<>METAR SBSV 211100Z 12008KT 090V160 9999 FEW025 28/20 Q1017=
2025-05-21 12:00:00<>METAR SBSV 211200Z 13008KT 100V160 9999 FEW020 28/21 Q1017=
2025-05-21 13:00:00<>METAR SBSV 211300Z 16007KT 9999 FEW025 29/20 Q1018=
2025-05-21 14:00:00<>METAR SBSV 211400Z 11008KT 080V170 9999 FEW025 29/20 Q1017=
2025-05-21 15:00:00<>METAR SBSV 211500Z 13008KT 100V190 9999 FEW025 29/20 Q1016=
2025-05-21 16:00:00<>METAR SBSV 211600Z 15009KT 9999 FEW025 29/20 Q1016=
2025-05-21 17:00:00<>METAR SBSV 211700Z 15009KT 110V190 9999 SCT023 28/21 Q1015=
2025-05-21 18:00:00<>METAR SBSV 211800Z 17009KT 130V210 9999 SCT023 28/20 Q1015=
2025-05-21 19:00:00<>METAR SBSV 211900Z 15007KT 9999 FEW023 28/20 Q1015=
2025-05-21 20:00:00<>METAR SBSV 212000Z 14006KT 9999 FEW023 27/20 Q1015=
2025-05-21 21:00:00<>METAR SBSV 212100Z 13008KT 9999 FEW025 27/20 Q1016=
2025-05-21 22:00:00<>METAR SBSV 212200Z 13006KT 100V160 9999 FEW025 26/20 Q1016=
2025-05-21 23:00:00<>METAR SBSV 212300Z 13007KT 9999 FEW030 26/19 Q1016=
2025-05-22 00:00:00<>METAR SBSV 220000Z 14005KT 9999 FEW030 26/19 Q1017=
2025-05-22 01:00:00<>METAR SBSV 220100Z 12006KT 9999 FEW025 26/19 Q1017=
2025-05-22 02:00:00<>METAR SBSV 220200Z 14006KT 9999 FEW025 26/19 Q1017=
2025-05-22 03:00:00<>METAR SBSV 220300Z 13004KT 9999 FEW027 26/20 Q1016=
2025-05-22 04:00:00<>METAR SBSV 220400Z 14005KT 9999 FEW024 26/20 Q1016=
2025-05-22 05:00:00<>METAR SBSV 220500Z 11004KT 9999 FEW025 25/19 Q1016=
2025-05-22 06:00:00<>METAR SBSV 220600Z 29002KT 9999 FEW020 22/20 Q1015=
2025-05-22 07:00:00<>METAR SBSV 220700Z 28002KT 9999 FEW020 21/21 Q1015=
2025-05-22 08:00:00<>METAR SBSV 220800Z 27001KT 9999 FEW020 21/21 Q1013=
2025-05-22 09:00:00<>METAR SBSV 220900Z 29002KT 9999 FEW020 21/21 Q1016=
2025-05-22 10:00:00<>METAR SBSV 221000Z VRB02KT 9999 FEW030 SCT050 24/21 Q1017=
2025-05-22 11:00:00<>METAR SBSV 221100Z 15006KT 120V180 9999 FEW030 SCT050 27/21 Q1017=
2025-05-22 12:00:00<>METAR SBSV 221200Z 16006KT 120V190 9999 SCT030 27/22 Q1018=
2025-05-22 13:00:00<>METAR SBSV 221300Z 14008KT 100V170 9999 SCT023 29/21 Q1018=
2025-05-22 14:00:00<>METAR SBSV 221400Z 12007KT 090V170 9999 SCT025 29/21 Q1017=
2025-05-22 15:00:00<>METAR SBSV 221500Z 14009KT 9999 SCT025 29/20 Q1017=
2025-05-22 16:00:00<>METAR SBSV 221600Z 13008KT 9999 SCT025 29/21 Q1016=
2025-05-22 17:00:00<>METAR SBSV 221700Z 13009KT 9999 SCT025 28/21 Q1015=
2025-05-22 18:00:00<>METAR SBSV 221800Z 15006KT 080V230 9999 BKN023 29/22 Q1015=
2025-05-22 19:00:00<>METAR SBSV 221900Z 15009KT 9999 VCSH BKN023 FEW025TCU 27/22 Q1015=
2025-05-22 20:00:00<>METAR SBSV 222000Z 20006KT 9999 VCSH SCT023 FEW025TCU SCT080 25/22 Q1015=
2025-05-22 21:00:00<>METAR SBSV 222100Z 00000KT 9999 SCT023 BKN080 25/22 Q1016=
2025-05-22 22:00:00<>METAR SBSV 222200Z 16008KT 9999 SCT023 26/22 Q1016=
2025-05-22 23:00:00<>METAR SBSV 222300Z 14006KT 9999 SCT021 26/22 Q1016=
2025-05-23 00:00:00<>METAR SBSV 230000Z 13007KT 9999 SCT021 26/21 Q1017=
2025-05-23 01:00:00<>METAR SBSV 230100Z 16006KT 9999 SCT020 SCT050 26/23 Q1017=
2025-05-23 02:00:00<>METAR SBSV 230200Z 14005KT 9999 SCT020 26/22 Q1016=
2025-05-23 03:00:00<>METAR SBSV 230300Z 14005KT 9999 FEW021 SCT050 26/22 Q1016=
2025-05-23 04:00:00<>METAR SBSV 230400Z 15006KT 9999 FEW021 BKN050 26/21 Q1016=
2025-05-23 05:00:00<>METAR SBSV 230500Z 18009KT 9000 VCSH SCT020 FEW021TCU BKN040 26/22 Q1015=
2025-05-23 06:00:00<>METAR SBSV 230600Z 25003KT 9000 VCSH SCT020 FEW021TCU SCT040 24/22 Q1015=
2025-05-23 06:08:00<>SPECI SBSV 230608Z VRB03KT 6000 RA SCT020 FEW021TCU BKN050 25/23 Q1015=
2025-05-23 06:20:00<>SPECI SBSV 230620Z 15006KT 070V200 8000 VCSH SCT012 BKN019 FEW021TCU BKN050 25/23 Q1015 RERA=
2025-05-23 07:00:00<>METAR SBSV 230700Z 29002KT 9000 VCSH BKN019 FEW021TCU BKN050 24/24 Q1015 RERA=
2025-05-23 08:00:00<>METAR SBSV 230800Z 00000KT 9999 SCT021 SCT040 BKN060 24/24 Q1016=
2025-05-23 09:00:00<>METAR SBSV 230900Z 36004KT 310V040 8000 VCSH BKN018 FEW020TCU SCT040 BKN060 24/24 Q1016=
2025-05-23 10:00:00<>METAR SBSV 231000Z 31004KT 270V360 9999 SCT018 FEW020TCU SCT050 24/24 Q1017=
2025-05-23 11:00:00<>METAR SBSV 231100Z 34005KT 310V010 9999 FEW011 SCT020 27/23 Q1017=
2025-05-23 12:00:00<>METAR SBSV 231200Z 33003KT 270V050 9999 SCT017 SCT100 27/23 Q1018=
2025-05-23 13:00:00<>METAR SBSV 231300Z 28003KT 230V350 9999 SCT017 SCT100 28/23 Q1018=
2025-05-23 14:00:00<>METAR SBSV 231400Z 13006KT 100V160 9999 SCT021 29/23 Q1017=
2025-05-23 15:00:00<>METAR SBSV 231500Z 15008KT 110V190 9999 SCT021 28/23 Q1017=
2025-05-23 16:00:00<>METAR SBSV 231600Z 16009KT 9999 SCT021 27/23 Q1016=
2025-05-23 17:00:00<>METAR SBSV 231700Z 17008KT 120V200 9999 SCT020 28/22 Q1015=
2025-05-23 18:00:00<>METAR SBSV 231800Z 16007KT 100V200 9999 FEW015 SCT022 27/23 Q1015=
2025-05-23 19:00:00<>METAR SBSV 231900Z 14007KT 100V160 9999 SCT023 27/22 Q1015=
2025-05-23 20:00:00<>METAR SBSV 232000Z 10008KT 9999 FEW023 SCT100 27/22 Q1015=
2025-05-23 21:00:00<>METAR SBSV 232100Z 13008KT 9999 FEW020 BKN100 27/23 Q1016=
2025-05-23 22:00:00<>METAR SBSV 232200Z 11009KT 9999 FEW020 BKN100 27/22 Q1016=
2025-05-23 23:00:00<>METAR SBSV 232300Z 13009KT 100V160 9999 FEW020 BKN080 27/22 Q1017=
2025-05-24 00:00:00<>METAR SBSV 240000Z 11008KT 9999 FEW020 BKN100 27/22 Q1017=
2025-05-24 01:00:00<>METAR SBSV 240100Z 11006KT 080V170 9999 FEW025 BKN100 26/23 Q1017=
2025-05-24 02:00:00<>METAR SBSV 240200Z 12005KT 090V150 9999 FEW015 BKN100 27/23 Q1017=
2025-05-24 03:00:00<>METAR SBSV 240300Z 13007KT 9999 FEW018 SCT022 BKN100 27/23 Q1017=
2025-05-24 04:00:00<>METAR SBSV 240400Z 13006KT 100V160 9999 SCT018 SCT030 BKN100 26/23 Q1016=
2025-05-24 05:00:00<>METAR SBSV 240500Z 13007KT 9999 FEW016 BKN018 BKN040 26/23 Q1016=
2025-05-24 06:00:00<>METAR SBSV 240600Z 12007KT 9999 FEW015 BKN016 BKN050 26/23 Q1016=
2025-05-24 07:00:00<>METAR SBSV 240700Z 13005KT 9999 FEW015 BKN050 26/23 Q1016=
2025-05-24 08:00:00<>METAR SBSV 240800Z 14005KT 9999 FEW015 SCT050 26/22 Q1016=
2025-05-24 09:00:00<>METAR SBSV 240900Z 13004KT 9999 VCSH FEW021 FEW023TCU BKN050 26/23 Q1016=
2025-05-24 10:00:00<>METAR SBSV 241000Z 10007KT 9999 VCSH FEW015 SCT021 FEW023TCU 25/23 Q1017=
2025-05-24 11:00:00<>METAR SBSV 241100Z 17006KT 140V200 9999 VCSH SCT015 SCT021 FEW023TCU 26/24 Q1018=
2025-05-24 12:00:00<>METAR SBSV 241200Z 14009KT 9999 VCSH SCT017 BKN023 FEW025TCU 27/23 Q1018=
2025-05-24 13:00:00<>METAR SBSV 241300Z 15010KT 120V180 9999 VCSH SCT017 BKN023 FEW025TCU 28/23 Q1018=
2025-05-24 14:00:00<>METAR SBSV 241400Z 12011KT 100V160 9000 VCSH BKN023 FEW025TCU 26/23 Q1018=
2025-05-24 15:00:00<>METAR SBSV 241500Z 10009KT 9999 VCSH SCT023 FEW025TCU BKN060 27/22 Q1018=
2025-05-24 16:00:00<>METAR SBSV 241600Z 16012KT 9999 VCSH SCT021 FEW023TCU BKN060 28/22 Q1017=
2025-05-24 17:00:00<>METAR SBSV 241700Z 14012KT 9999 VCSH SCT021 FEW025TCU BKN060 28/22 Q1016=
2025-05-24 18:00:00<>METAR SBSV 241800Z 16013KT 9999 VCSH SCT021 FEW025TCU BKN060 28/22 Q1016=
2025-05-24 19:00:00<>METAR SBSV 241900Z 16013KT 9999 SCT023 BKN060 28/21 Q1016=
2025-05-24 20:00:00<>METAR SBSV 242000Z 15011KT 9999 SCT023 SCT070 27/21 Q1017=
2025-05-24 21:00:00<>METAR SBSV 242100Z 15011KT 9999 SCT023 SCT070 27/20 Q1017=
2025-05-24 22:00:00<>METAR SBSV 242200Z 14010KT 9999 SCT023 27/20 Q1018=
2025-05-24 23:00:00<>METAR SBSV 242300Z 14009KT 9999 SCT023 27/21 Q1018=
2025-05-25 00:00:00<>METAR SBSV 250000Z 14009KT 9999 SCT023 27/21 Q1018=
2025-05-25 01:00:00<>METAR SBSV 250100Z 12012KT 9999 SCT023 BKN100 27/21 Q1018=
2025-05-25 02:00:00<>METAR SBSV 250200Z 12011KT 9999 FEW015 SCT023 27/21 Q1018=
2025-05-25 03:00:00<>METAR SBSV 250300Z 13012KT 9999 SCT024 27/21 Q1018=
2025-05-25 04:00:00<>METAR SBSV 250400Z 13011KT 9999 SCT024 BKN080 27/21 Q1018=
2025-05-25 05:00:00<>METAR SBSV 250500Z 14012KT 9999 SCT022 SCT100 27/20 Q1017=
2025-05-25 06:00:00<>METAR SBSV 250600Z 14012KT 9999 SCT022 BKN100 27/20 Q1017=
2025-05-25 07:00:00<>METAR SBSV 250700Z 14011KT 9999 SCT023 26/20 Q1017=
2025-05-25 08:00:00<>METAR SBSV 250800Z 14012KT 9999 SCT024 26/20 Q1017=
2025-05-25 09:00:00<>METAR SBSV 250900Z 15011KT 120V180 9999 SCT019 SCT025 26/20 Q1017=
2025-05-25 10:00:00<>METAR SBSV 251000Z 15009KT 9999 SCT023 SCT100 26/20 Q1018=
2025-05-25 11:00:00<>METAR SBSV 251100Z 16011KT 9999 SCT024 BKN100 27/21 Q1019=
2025-05-25 12:00:00<>METAR SBSV 251200Z 15011KT 9999 SCT025 28/20 Q1019=
2025-05-25 13:00:00<>METAR SBSV 251300Z 16011KT 9999 FEW025 SCT070 28/20 Q1019=
2025-05-25 14:00:00<>METAR SBSV 251400Z 15013KT 9999 FEW025 29/20 Q1019=
2025-05-25 15:00:00<>METAR SBSV 251500Z 14011KT 110V180 9999 FEW025 29/21 Q1018=
2025-05-25 16:00:00<>METAR SBSV 251600Z 15010KT 120V180 9999 FEW025 29/20 Q1018=
2025-05-25 17:00:00<>METAR SBSV 251700Z 15010KT 110V180 9999 VCSH FEW023 FEW025TCU SCT050 28/20 Q1017=
2025-05-25 18:00:00<>METAR SBSV 251800Z 18009KT 9999 VCSH FEW023 FEW025TCU SCT050 26/22 Q1017=
2025-05-25 19:00:00<>METAR SBSV 251900Z 14007KT 9999 FEW023 SCT050 27/20 Q1017=
2025-05-25 20:00:00<>METAR SBSV 252000Z 14006KT 9999 FEW023 SCT050 27/20 Q1017=
2025-05-25 21:00:00<>METAR SBSV 252100Z 15006KT 9999 FEW023 SCT050 26/20 Q1017=
2025-05-25 22:00:00<>METAR SBSV 252200Z 16006KT 9999 SCT023 SCT050 27/20 Q1018=
2025-05-25 23:00:00<>METAR SBSV 252300Z 15006KT 120V190 9999 SCT025 SCT050 26/20 Q1018=
2025-05-26 00:00:00<>METAR SBSV 260000Z 21006KT 9999 SCT023 SCT050 25/22 Q1018=
2025-05-26 01:00:00<>METAR SBSV 260100Z 22005KT 170V240 9999 BKN021 SCT050 25/22 Q1018=
2025-05-26 02:00:00<>METAR SBSV 260200Z 17005KT 9999 SCT021 SCT060 26/21 Q1018=
2025-05-26 03:00:00<>METAR SBSV 260300Z 14007KT 9999 SCT021 26/20 Q1018=
2025-05-26 04:00:00<>METAR SBSV 260400Z 13006KT 9999 SCT023 26/20 Q1017=
2025-05-26 05:00:00<>METAR SBSV 260500Z 13006KT 100V170 9999 SCT023 26/20 Q1016=
2025-05-26 06:00:00<>METAR SBSV 260600Z 12005KT 9999 SCT023 SCT050 26/20 Q1016=
2025-05-26 07:00:00<>METAR SBSV 260700Z 12007KT 090V160 6000 RA SCT023 SCT050 25/21 Q1016=
2025-05-26 07:24:00<>SPECI SBSV 260724Z 18006KT 8000 VCSH SCT021 BKN040 BKN050 24/22 Q1016 RERA=
2025-05-26 08:00:00<>METAR SBSV 260800Z 20005KT 170V240 9999 SCT021 SCT040 BKN050 24/22 Q1017 RERA=
2025-05-26 09:00:00<>METAR SBSV 260900Z 09005KT 050V120 7000 -RA SCT020 BKN040 BKN060 24/22 Q1017=
2025-05-26 10:00:00<>METAR SBSV 261000Z 10008KT 9000 VCSH SCT020 BKN060 26/21 Q1017=
2025-05-26 11:00:00<>METAR SBSV 261100Z 10008KT 9999 VCSH SCT020 FEW025TCU BKN060 27/22 Q1018=
2025-05-26 12:00:00<>METAR SBSV 261200Z 10009KT 9999 VCSH SCT020 FEW025TCU BKN060 28/20 Q1019=
2025-05-26 13:00:00<>METAR SBSV 261300Z 10009KT 070V130 9999 VCSH SCT023 FEW025TCU 28/21 Q1019=
2025-05-26 14:00:00<>METAR SBSV 261400Z 09008KT 060V120 9999 SCT023 28/21 Q1019=
2025-05-26 15:00:00<>METAR SBSV 261500Z 12009KT 090V170 9999 SCT024 28/21 Q1018=
2025-05-26 16:00:00<>METAR SBSV 261600Z 12009KT 090V160 9999 SCT025 28/20 Q1017=
2025-05-26 17:00:00<>METAR SBSV 261700Z 11009KT 070V140 9999 SCT025 28/21 Q1016=
2025-05-26 18:00:00<>METAR SBSV 261800Z 12009KT 9999 SCT025 28/20 Q1016=
2025-05-26 19:00:00<>METAR SBSV 261900Z 12008KT 080V160 9999 FEW025 28/20 Q1016=
2025-05-26 20:00:00<>METAR SBSV 262000Z 11007KT 9999 FEW025 27/20 Q1016=
2025-05-26 21:00:00<>METAR SBSV 262100Z 11007KT 9999 FEW025 26/20 Q1017=
2025-05-26 22:00:00<>METAR SBSV 262200Z 12006KT 9999 FEW025 26/21 Q1017=
2025-05-26 23:00:00<>METAR SBSV 262300Z 12007KT 9999 FEW025 26/20 Q1018=
2025-05-27 00:00:00<>METAR SBSV 270000Z 12008KT 9999 FEW025 26/20 Q1018=
2025-05-27 01:00:00<>METAR SBSV 270100Z 11009KT 9999 FEW025 26/20 Q1018=
2025-05-27 02:00:00<>METAR SBSV 270200Z 11006KT 090V150 9999 SCT026 26/21 Q1018=
2025-05-27 03:00:00<>METAR SBSV 270300Z 12006KT 9999 FEW026 26/20 Q1018=
2025-05-27 04:00:00<>METAR SBSV 270400Z 11007KT 9999 FEW026 26/20 Q1017=
2025-05-27 05:00:00<>METAR SBSV 270500Z 13007KT 080V140 9999 SCT026 26/20 Q1017=
2025-05-27 06:00:00<>METAR SBSV 270600Z 13006KT 9999 SCT026 26/20 Q1017=
2025-05-27 07:00:00<>METAR SBSV 270700Z 14007KT 9999 FEW026 26/20 Q1017=
2025-05-27 08:00:00<>METAR SBSV 270800Z 14005KT 090V190 9999 FEW026 26/20 Q1017=
2025-05-27 09:00:00<>METAR SBSV 270900Z 13008KT 100V170 9999 SCT025 26/20 Q1017=
2025-05-27 10:00:00<>METAR SBSV 271000Z 11007KT 090V150 9999 SCT025 26/20 Q1018=
2025-05-27 11:00:00<>METAR SBSV 271100Z 12009KT 9999 SCT025 27/19 Q1019=
2025-05-27 12:00:00<>METAR SBSV 271200Z 11007KT 080V150 9999 SCT025 28/20 Q1019=
2025-05-27 13:00:00<>METAR SBSV 271300Z 12007KT 080V170 9999 SCT025 28/20 Q1019=
2025-05-27 14:00:00<>METAR SBSV 271400Z 16008KT 9999 SCT025 28/20 Q1019=
2025-05-27 15:00:00<>METAR SBSV 271500Z 15009KT 110V180 9999 SCT025 28/20 Q1018=
2025-05-27 16:00:00<>METAR SBSV 271600Z 15010KT 9999 SCT025 28/20 Q1018=
2025-05-27 17:00:00<>METAR SBSV 271700Z 15010KT 9999 SCT025 28/21 Q1017=
2025-05-27 18:00:00<>METAR SBSV 271800Z 16008KT 120V220 9999 SCT023 28/21 Q1017=
2025-05-27 19:00:00<>METAR SBSV 271900Z 16007KT 9999 SCT023 28/21 Q1016=
2025-05-27 20:00:00<>METAR SBSV 272000Z 15007KT 9999 SCT025 27/21 Q1016=
2025-05-27 21:00:00<>METAR SBSV 272100Z 14007KT 110V210 9999 FEW017 SCT025 27/20 Q1017=
2025-05-27 22:00:00<>METAR SBSV 272200Z 15007KT 9999 FEW012 SCT021 27/20 Q1017=
2025-05-27 23:00:00<>METAR SBSV 272300Z 15007KT 9999 SCT022 27/21 Q1018=
2025-05-28 00:00:00<>METAR SBSV 280000Z 16008KT 9999 SCT023 27/21 Q1018=
2025-05-28 01:00:00<>METAR SBSV 280100Z 16009KT 9999 FEW023 BKN050 27/21 Q1019=
2025-05-28 02:00:00<>METAR SBSV 280200Z 18007KT 9999 FEW024 26/22 Q1019=
2025-05-28 03:00:00<>METAR SBSV 280300Z 14009KT 9999 FEW024 26/21 Q1018=
2025-05-28 04:00:00<>METAR SBSV 280400Z 14008KT 9999 FEW024 26/21 Q1018=
2025-05-28 05:00:00<>METAR SBSV 280500Z 15008KT 9999 FEW022 26/21 Q1017=
2025-05-28 06:00:00<>METAR SBSV 280600Z 15008KT 9999 FEW022 26/20 Q1017=
2025-05-28 07:00:00<>METAR SBSV 280700Z 15007KT 9999 FEW022 26/20 Q1017=
2025-05-28 08:00:00<>METAR SBSV 280800Z 13005KT 9999 FEW025 26/21 Q1017=
2025-05-28 09:00:00<>METAR SBSV 280900Z VRB02KT 9999 FEW023 24/21 Q1017=
2025-05-28 10:00:00<>METAR SBSV 281000Z 23003KT 150V270 9999 FEW021 25/22 Q1017=
2025-05-28 11:00:00<>METAR SBSV 281100Z 19007KT 9999 FEW021 27/21 Q1018=
2025-05-28 12:00:00<>METAR SBSV 281200Z 20007KT 170V250 9999 FEW021 28/21 Q1018=
2025-05-28 13:00:00<>METAR SBSV 281300Z 21006KT 170V270 9999 VCSH SCT023 FEW025TCU SCT050 28/22 Q1019=
2025-05-28 13:20:00<>SPECI SBSV 281320Z 19011KT 2000 +RA SCT013 FEW025TCU SCT050 25/22 Q1019=
2025-05-28 14:00:00<>METAR SBSV 281400Z 21006KT 160V230 7000 3000E -RA FEW008 SCT013 FEW025TCU BKN050 25/24 Q1018 RERA=
2025-05-28 14:30:00<>SPECI SBSV 281430Z 20007KT 160V240 3000 RA FEW005 SCT013 FEW025TCU BKN050 24/24 Q1018=
2025-05-28 14:40:00<>SPECI SBSV 281440Z 22007KT 190V250 2000 +RA SCT005 SCT013 FEW025TCU BKN050 24/24 Q1018 RERA=
2025-05-28 15:00:00<>METAR SBSV 281500Z 23006KT 180V270 2500 +RA SCT005 SCT013 FEW025TCU BKN050 24/24 Q1018=
2025-05-28 16:00:00<>METAR SBSV 281600Z 22007KT 190V250 4000 RA BKN005 SCT013 FEW025TCU BKN050 24/24 Q1018 RERA=
2025-05-28 17:00:00<>METAR SBSV 281700Z 23007KT 200V260 9000 -RA FEW007 SCT021 FEW025TCU BKN050 25/23 Q1017 RERA=
2025-05-28 18:00:00<>METAR SBSV 281800Z 32007KT 9000 VCSH SCT021 FEW025TCU SCT040 BKN050 26/22 Q1017=
2025-05-28 19:00:00<>METAR SBSV 281900Z 20006KT 140V240 9999 SCT021 FEW025TCU SCT033 BKN050 26/22 Q1016=
2025-05-28 20:00:00<>METAR SBSV 282000Z 20007KT 9999 SCT021 BKN050 25/22 Q1017=
2025-05-28 21:00:00<>METAR SBSV 282100Z 20005KT 140V230 9999 SCT021 BKN040 BKN060 25/22 Q1017=
2025-05-28 22:00:00<>METAR SBSV 282200Z 27003KT 230V300 9999 SCT021 BKN040 BKN060 25/22 Q1017=
2025-05-28 23:00:00<>METAR SBSV 282300Z 26002KT 9999 FEW023 SCT040 25/22 Q1018=
2025-05-29 00:00:00<>METAR SBSV 290000Z 26002KT 9999 FEW023 24/24 Q1018=
2025-05-29 01:00:00<>METAR SBSV 290100Z 33002KT 9999 FEW023 24/24 Q1018=
2025-05-29 02:00:00<>METAR SBSV 290200Z 36002KT CAVOK 23/23 Q1018=
2025-05-29 03:00:00<>METAR SBSV 290300Z 36002KT CAVOK 23/23 Q1017=
2025-05-29 04:00:00<>METAR SBSV 290400Z 31002KT 9999 FEW010 23/23 Q1017=
2025-05-29 05:00:00<>METAR SBSV 290500Z 27003KT 9999 FEW006 23/23 Q1017=
2025-05-29 06:00:00<>METAR SBSV 290600Z 29003KT 9999 FEW019 23/23 Q1016=
2025-05-29 07:00:00<>METAR SBSV 290700Z 32003KT 9999 FEW021 SCT060 23/23 Q1016=
2025-05-29 08:00:00<>METAR SBSV 290800Z 00000KT 6000 -RA FEW009 BKN020 OVC055 23/23 Q1017=
2025-05-29 09:00:00<>METAR SBSV 290900Z 00000KT 9000 VCSH BKN023 FEW025TCU BKN090 24/24 Q1017=
2025-05-29 10:00:00<>METAR SBSV 291000Z VRB02KT 9999 -RA FEW003 BKN025 BKN053 24/24 Q1017=
2025-05-29 10:08:00<>SPECI SBSV 291008Z 34005KT 2000 -RA BR BKN007 BKN023 FEW025TCU BKN048 24/24 Q1018=
2025-05-29 10:33:00<>SPECI SBSV 291033Z 26003KT 9999 -RA FEW007 BKN017 FEW023TCU BKN040 25/25 Q1018=
2025-05-29 11:00:00<>METAR SBSV 291100Z VRB02KT 9999 VCSH FEW009 BKN017 FEW023TCU BKN040 25/25 Q1018=
2025-05-29 12:00:00<>METAR SBSV 291200Z 06003KT 020V120 9000 -RA FEW006 BKN020 FEW023TCU BKN040 26/24 Q1019=
2025-05-29 13:00:00<>METAR SBSV 291300Z VRB02KT 9999 4000NE -SHRA FEW009 SCT016 FEW023TCU BKN030 27/24 Q1018=
2025-05-29 14:00:00<>METAR SBSV 291400Z 11004KT 9999 FEW015 SCT018 FEW023TCU 28/24 Q1018=
2025-05-29 15:00:00<>METAR SBSV 291500Z 07006KT 050V120 9999 VCSH SCT022 FEW023TCU SCT040 28/23 Q1017=
2025-05-29 16:00:00<>METAR SBSV 291600Z 10008KT 070V160 9999 SCT024 FEW025TCU BKN060 28/23 Q1016=
2025-05-29 17:00:00<>METAR SBSV 291700Z 12008KT 9999 FEW015 BKN060 28/24 Q1016=
2025-05-29 18:00:00<>METAR SBSV 291800Z 10008KT 050V180 9999 VCSH FEW015 FEW025TCU BKN100 28/23 Q1015=
2025-05-29 19:00:00<>METAR SBSV 291900Z 09011KT 9999 4000E -RA BKN009 FEW025TCU BKN100 26/23 Q1016=
2025-05-29 19:05:00<>SPECI SBSV 291905Z 09015KT 3000 R28/1000D +RA BKN008 FEW025TCU BKN100 25/24 Q1016=
2025-05-29 19:40:00<>SPECI SBSV 291940Z 07012KT 7000 R28/1300U R10/2000U -RA BKN005 FEW025TCU BKN100 25/25 Q1016 RERA=
2025-05-29 20:00:00<>METAR SBSV 292000Z 08014KT 2000 R28/1000D R10/2000D +RA SCT005 FEW025TCU BKN100 24/24 Q1016=
2025-05-29 20:20:00<>SPECI SBSV 292020Z 10010KT 2000 R28/0900D R10/2000D +RA BKN006 FEW025TCU BKN100 24/24 Q1016=
2025-05-29 21:00:00<>METAR SBSV 292100Z 07015KT 5000 -RA BKN010 FEW025TCU BKN100 25/24 Q1016 RERA=
2025-05-29 22:00:00<>METAR SBSV 292200Z 05010KT 7000 -RA BKN010 FEW025TCU BKN100 24/24 Q1016=
2025-05-29 23:00:00<>METAR SBSV 292300Z 05009KT 9999 SCT010 SCT023 BKN100 25/24 Q1017=
2025-05-30 00:00:00<>METAR SBSV 300000Z 36005KT 9999 SCT010 BKN100 25/24 Q1017=
2025-05-30 01:00:00<>METAR SBSV 300100Z 08005KT 9999 FEW012 SCT021 BKN080 24/24 Q1017=
2025-05-30 02:00:00<>METAR SBSV 300200Z 08003KT 9999 SCT021 BKN080 24/24 Q1017=
2025-05-30 03:00:00<>METAR SBSV 300300Z VRB02KT 9999 SCT021 BKN080 24/24 Q1017=
2025-05-30 04:00:00<>METAR SBSV 300400Z VRB02KT 9999 SCT023 BKN080 24/24 Q1016=
2025-05-30 05:00:00<>METAR SBSV 300500Z 00000KT 9999 SCT023 BKN040 BKN080 24/24 Q1016=
2025-05-30 06:00:00<>METAR SBSV 300600Z VRB02KT 9999 SCT021 BKN040 BKN096 24/24 Q1015=
2025-05-30 07:00:00<>METAR SBSV 300700Z 28002KT 9999 SCT021 BKN040 BKN090 24/24 Q1016=
2025-05-30 08:00:00<>METAR SBSV 300800Z VRB02KT 9999 SCT020 BKN030 BKN090 24/24 Q1016=
2025-05-30 09:00:00<>METAR SBSV 300900Z 11006KT 9999 SCT018 BKN030 25/24 Q1016=
2025-05-30 10:00:00<>METAR SBSV 301000Z 13005KT 100V160 9999 VCSH BKN021 FEW023TCU 26/23 Q1017=
2025-05-30 11:00:00<>METAR SBSV 301100Z 35005KT 280V050 3000 -RA BR BKN013 BKN021 24/24 Q1017=
2025-05-30 11:04:00<>SPECI SBSV 301104Z 04003KT 350V100 2000 RA BKN007 BKN015 24/24 Q1018=
2025-05-30 11:27:00<>SPECI SBSV 301127Z 04007KT 5000 -RA BR BKN008 BKN015 24/24 Q1018 RERA=
2025-05-30 12:00:00<>METAR SBSV 301200Z VRB02KT 5000 BR BKN015 BKN021 25/24 Q1018 RERA=
2025-05-30 13:00:00<>METAR SBSV 301300Z 11006KT 9000 SCT017 BKN021 28/24 Q1018=
2025-05-30 14:00:00<>METAR SBSV 301400Z 02005KT 340V050 5000 BR SCT009 BKN019 26/24 Q1018=
2025-05-30 15:00:00<>METAR SBSV 301500Z 06004KT 020V100 5000 BR SCT007 BKN019 26/25 Q1017=
2025-05-30 16:00:00<>METAR SBSV 301600Z VRB03KT 9000 VCSH SCT011 BKN019 FEW023TCU 27/25 Q1016=
2025-05-30 17:00:00<>METAR SBSV 301700Z 09006KT 060V130 9999 VCSH BKN019 FEW023TCU 28/24 Q1015=
2025-05-30 18:00:00<>METAR SBSV 301800Z 10009KT 9999 VCSH FEW016 SCT020 FEW023TCU 28/23 Q1015=
2025-05-30 19:00:00<>METAR SBSV 301900Z 10008KT 9999 VCSH SCT020 SCT025 FEW026TCU 28/23 Q1015=
2025-05-30 20:00:00<>METAR SBSV 302000Z 10008KT 9999 FEW020 FEW025TCU 27/23 Q1015=
2025-05-30 21:00:00<>METAR SBSV 302100Z 09005KT 9999 SCT021 FEW024TCU 26/23 Q1016=
2025-05-30 22:00:00<>METAR SBSV 302200Z 09006KT 9999 FEW021 26/23 Q1016=
2025-05-30 23:00:00<>METAR SBSV 302300Z 09007KT 9999 SCT021 SCT030 26/23 Q1017=
2025-05-31 00:00:00<>METAR SBSV 310000Z 08007KT 9999 SCT019 BKN025 26/23 Q1017=
2025-05-31 01:00:00<>METAR SBSV 310100Z 12009KT 9999 VCSH BKN020 26/23 Q1017=
2025-05-31 02:00:00<>METAR SBSV 310200Z 11008KT 9999 FEW015 BKN021 26/22 Q1017=
2025-05-31 03:00:00<>METAR SBSV 310300Z 11009KT 9999 SCT020 26/22 Q1017=
2025-05-31 04:00:00<>METAR SBSV 310400Z 12009KT 9999 SCT020 SCT050 26/21 Q1016=
2025-05-31 05:00:00<>METAR SBSV 310500Z 11008KT 9999 SCT023 26/21 Q1016=
2025-05-31 06:00:00<>METAR SBSV 310600Z 11008KT 9999 SCT020 26/21 Q1016=
2025-05-31 07:00:00<>METAR SBSV 310700Z 11008KT 9999 SCT023 26/20 Q1016=
2025-05-31 08:00:00<>METAR SBSV 310800Z 11006KT 9999 SCT023 25/20 Q1016=
2025-05-31 09:00:00<>METAR SBSV 310900Z 11005KT 9999 FEW017 25/20 Q1017=
2025-05-31 10:00:00<>METAR SBSV 311000Z 12005KT 9999 FEW017 27/21 Q1017=
2025-05-31 11:00:00<>METAR SBSV 311100Z 13009KT 9999 FEW021 27/20 Q1018=
2025-05-31 12:00:00<>METAR SBSV 311200Z 11006KT 070V150 9999 SCT023 28/21 Q1018=
2025-05-31 13:00:00<>METAR SBSV 311300Z 13007KT 090V190 9999 SCT023 28/21 Q1019=
2025-05-31 14:00:00<>METAR SBSV 311400Z 13007KT 080V190 9999 SCT023 28/21 Q1018=
2025-05-31 15:00:00<>METAR SBSV 311500Z 16007KT 110V200 9999 SCT023 28/21 Q1017=
2025-05-31 16:00:00<>METAR SBSV 311600Z 15008KT 110V200 9999 SCT023 28/21 Q1017=
2025-05-31 17:00:00<>METAR SBSV 311700Z 16007KT 9999 SCT023 28/22 Q1016=
2025-05-31 18:00:00<>METAR SBSV 311800Z 17009KT 130V230 9999 SCT023 28/22 Q1016=
2025-05-31 19:00:00<>METAR SBSV 311900Z 16009KT 9999 SCT023 27/21 Q1016=
2025-05-31 20:00:00<>METAR SBSV 312000Z 17010KT 9999 SCT023 SCT060 26/22 Q1016=
2025-05-31 21:00:00<>METAR SBSV 312100Z 18006KT 150V220 9999 FEW026 26/22 Q1017=
2025-05-31 22:00:00<>METAR SBSV 312200Z 18008KT 9999 FEW021 26/21 Q1017=
2025-05-31 23:00:00<>METAR SBSV 312300Z 18009KT 150V210 9999 FEW008 SCT019 25/22 Q1018=
2025-06-01 00:00:00<>METAR SBSV 010000Z 19009KT 9999 FEW010 SCT021 BKN060 25/22 Q1018=
2025-06-01 01:00:00<>METAR SBSV 010100Z 21007KT 9999 FEW012 BKN070 25/22 Q1018=
2025-06-01 02:00:00<>METAR SBSV 010200Z 21006KT 9999 FEW006 BKN018 24/24 Q1018=
2025-06-01 03:00:00<>METAR SBSV 010300Z 17006KT 9000 -RA BKN010 BKN017 25/24 Q1018=
2025-06-01 04:00:00<>METAR SBSV 010400Z 17008KT 9999 VCSH BKN010 BKN015 25/24 Q1017=
2025-06-01 05:00:00<>METAR SBSV 010500Z 18007KT 130V200 9000 -RA FEW009 BKN010 BKN016 25/24 Q1017=
2025-06-01 05:09:00<>SPECI SBSV 010509Z 17009KT 3000 -RA BR FEW009 BKN010 BKN060 24/24 Q1017=
2025-06-01 06:00:00<>METAR SBSV 010600Z 14008KT 9000 -RA FEW007 BKN010 BKN040 24/24 Q1016=
2025-06-01 06:18:00<>SPECI SBSV 010618Z 13006KT 9000 -RA FEW010 BKN020 BKN040 24/24 Q1016=
2025-06-01 07:00:00<>METAR SBSV 010700Z 12004KT 9999 VCSH FEW007 SCT015 BKN030 24/24 Q1016=
2025-06-01 08:00:00<>METAR SBSV 010800Z 10003KT 9999 SCT006 BKN020 BKN050 24/24 Q1016=
2025-06-01 09:00:00<>METAR SBSV 010900Z VRB01KT 9999 VCSH BKN020 FEW023TCU BKN050 24/24 Q1017=
2025-06-01 10:00:00<>METAR SBSV 011000Z 28003KT 9999 VCSH FEW013 SCT020 FEW023TCU BKN060 25/25 Q1017=
2025-06-01 10:20:00<>SPECI SBSV 011020Z 00000KT 4000 -SHRA BR BKN015 BKN020 FEW023TCU 25/25 Q1018=
2025-06-01 10:30:00<>SPECI SBSV 011030Z VRB11G21KT 2000 SHRA BKN005 BKN015 25/24 Q1018=
2025-06-01 11:00:00<>METAR SBSV 011100Z 02007KT 7000 SCT009 BKN019 24/24 Q1018 RESHRA=
2025-06-01 12:00:00<>METAR SBSV 011200Z 03005KT 9999 VCSH BKN017 FEW020TCU SCT060 27/24 Q1019=
2025-06-01 12:28:00<>SPECI SBSV 011228Z 08011KT 050V120 4000 SHRA BKN011 BKN019 FEW020TCU 26/24 Q1019=
2025-06-01 13:00:00<>METAR SBSV 011300Z 05007KT 9000 FEW011 BKN019 FEW020TCU 26/25 Q1019 RESHRA=
2025-06-01 14:00:00<>METAR SBSV 011400Z 05011KT 9999 SCT020 FEW023TCU BKN080 27/25 Q1018=
2025-06-01 15:00:00<>METAR SBSV 011500Z 07011KT 9999 SCT020 FEW023TCU 28/23 Q1018=
2025-06-01 16:00:00<>METAR SBSV 011600Z 08011KT 9999 SCT020 FEW023TCU 28/23 Q1017=
2025-06-01 17:00:00<>METAR SBSV 011700Z 06010KT 040V100 9999 SCT019 FEW023TCU 28/24 Q1017=
2025-06-01 18:00:00<>METAR SBSV 011800Z 08008KT 060V130 9999 SCT021 FEW023TCU 28/23 Q1016=
2025-06-01 19:00:00<>METAR SBSV 011900Z 10012KT 9999 SCT021 FEW023TCU 28/22 Q1016=
2025-06-01 20:00:00<>METAR SBSV 012000Z 09011KT 9999 SCT021 27/23 Q1017=
2025-06-01 21:00:00<>METAR SBSV 012100Z 10010KT 9999 SCT021 27/22 Q1018=
2025-06-01 22:00:00<>METAR SBSV 012200Z 10009KT 080V150 9999 SCT021 27/23 Q1018=
2025-06-01 23:00:00<>METAR SBSV 012300Z 10008KT 9999 SCT021 27/22 Q1019=
2025-06-02 00:00:00<>METAR SBSV 020000Z 09009KT 9999 SCT021 27/22 Q1019=
2025-06-02 01:00:00<>METAR SBSV 020100Z 11009KT 9999 FEW020 27/22 Q1019=
2025-06-02 01:26:00<>SPECI SBSV 020126Z 11010KT 5000 SHRA FEW015 BKN019 27/22 Q1019=
2025-06-02 01:41:00<>SPECI SBSV 020141Z 11008KT 8000 VCSH FEW015 BKN023 26/22 Q1019 RESHRA=
2025-06-02 02:00:00<>METAR SBSV 020200Z 12010KT 8000 VCSH FEW015 BKN022 26/23 Q1019 RESHRA=
2025-06-02 03:00:00<>METAR SBSV 020300Z 13011KT 9000 VCSH BKN020 26/22 Q1018=
2025-06-02 04:00:00<>METAR SBSV 020400Z 12011KT 9999 BKN023 26/22 Q1018=
2025-06-02 05:00:00<>METAR SBSV 020500Z 12012KT 9999 BKN022 26/21 Q1018=
2025-06-02 06:00:00<>METAR SBSV 020600Z 12010KT 9999 VCSH BKN022 FEW025TCU 26/21 Q1017=
2025-06-02 07:00:00<>METAR SBSV 020700Z 12010KT 9999 SCT023 26/21 Q1017=
2025-06-02 08:00:00<>METAR SBSV 020800Z 13010KT 9999 BKN022 26/21 Q1018=
2025-06-02 09:00:00<>METAR SBSV 020900Z 13010KT 9999 SCT022 26/21 Q1018=
2025-06-02 10:00:00<>METAR SBSV 021000Z 13009KT 9999 SCT023 27/21 Q1019=
2025-06-02 11:00:00<>METAR SBSV 021100Z 14010KT 9999 SCT024 27/21 Q1020=
2025-06-02 12:00:00<>METAR SBSV 021200Z 14010KT 9999 FEW024 28/21 Q1020=
2025-06-02 13:00:00<>METAR SBSV 021300Z 14013KT 9999 FEW024 SCT050 28/20 Q1020=
2025-06-02 14:00:00<>METAR SBSV 021400Z 14012KT 9999 FEW024 29/21 Q1020=
2025-06-02 15:00:00<>METAR SBSV 021500Z 14012KT 110V170 9999 FEW024 29/20 Q1019=
2025-06-02 16:00:00<>METAR SBSV 021600Z 14011KT 110V170 9999 FEW025 29/21 Q1019=
2025-06-02 17:00:00<>METAR SBSV 021700Z 14012KT 9999 FEW030 28/20 Q1018=
2025-06-02 18:00:00<>METAR SBSV 021800Z 15011KT 120V200 9999 SCT025 28/21 Q1018=
2025-06-02 19:00:00<>METAR SBSV 021900Z 14010KT 9999 SCT025 28/21 Q1018=
2025-06-02 20:00:00<>METAR SBSV 022000Z 13009KT 100V160 9999 BKN026 27/21 Q1018=
2025-06-02 21:00:00<>METAR SBSV 022100Z 14009KT 9999 SCT026 BKN060 26/21 Q1018=
2025-06-02 22:00:00<>METAR SBSV 022200Z 12011KT 9999 SCT023 27/21 Q1018=
2025-06-02 23:00:00<>METAR SBSV 022300Z 13010KT 9999 SCT023 SCT060 27/21 Q1019=
2025-06-03 00:00:00<>METAR SBSV 030000Z 11010KT 9999 SCT026 27/20 Q1019=
2025-06-03 01:00:00<>METAR SBSV 030100Z 13009KT 100V200 9999 SCT026 27/20 Q1019=
2025-06-03 02:00:00<>METAR SBSV 030200Z 10015KT 9999 SCT026 BKN050 26/21 Q1018=
2025-06-03 03:00:00<>METAR SBSV 030300Z 11010KT 9999 SCT026 BKN060 26/21 Q1018=
2025-06-03 04:00:00<>METAR SBSV 030400Z 12009KT 9999 SCT026 SCT060 26/21 Q1018=
2025-06-03 05:00:00<>METAR SBSV 030500Z 11007KT 9999 SCT026 BKN060 26/21 Q1018=
2025-06-03 06:00:00<>METAR SBSV 030600Z 11011KT 9999 SCT026 SCT070 26/20 Q1018=
2025-06-03 07:00:00<>METAR SBSV 030700Z 11006KT 8000 SCT026 BKN060 26/21 Q1018=
2025-06-03 08:00:00<>METAR SBSV 030800Z 11007KT 9999 FEW023 SCT060 26/20 Q1018=
2025-06-03 09:00:00<>METAR SBSV 030900Z 13007KT 9000 VCSH FEW023 SCT060 26/21 Q1018=
2025-06-03 10:00:00<>METAR SBSV 031000Z 12009KT 080V140 9999 VCSH FEW020 FEW023TCU BKN050 26/20 Q1019=
2025-06-03 11:00:00<>METAR SBSV 031100Z 08012KT 7000 3000NE -RA FEW018 FEW025TCU OVC040 25/20 Q1019=
2025-06-03 12:00:00<>METAR SBSV 031200Z VRB02KT 9999 VCSH FEW020 FEW025TCU BKN040 25/23 Q1020=
2025-06-03 13:00:00<>METAR SBSV 031300Z 10010KT 4000 -DZ BR FEW005 FEW025TCU OVC030 24/23 Q1020=
2025-06-03 14:00:00<>METAR SBSV 031400Z 15008KT 130V200 7000 3000NE -DZ FEW011 BKN015 FEW023TCU OVC040 26/23 Q1019=
2025-06-03 15:00:00<>METAR SBSV 031500Z 08006KT 050V120 9999 -RA FEW005 BKN020 FEW023TCU OVC045 25/24 Q1019=
2025-06-03 16:00:00<>METAR SBSV 031600Z 07009KT 5000 -RA BR FEW008 BKN015 FEW023TCU OVC070 24/23 Q1018=
2025-06-03 16:42:00<>SPECI SBSV 031642Z 05009KT 3000 -RA BR FEW007 BKN010 FEW023TCU OVC030 24/24 Q1017=
2025-06-03 17:00:00<>METAR SBSV 031700Z 06008KT 3000 RA BR FEW007 BKN010 FEW023TCU OVC030 24/24 Q1017=
2025-06-03 17:15:00<>SPECI SBSV 031715Z 05004KT 030V090 9000 VCSH FEW004 SCT020 FEW025TCU BKN040 25/24 Q1017 RERA=
2025-06-03 18:00:00<>METAR SBSV 031800Z 10010KT 060V140 5000 SHRA BKN009 SCT020 FEW025TCU BKN040 24/22 Q1017 RERA=
2025-06-03 18:20:00<>SPECI SBSV 031820Z 17003KT 120V240 9000 VCSH SCT010 SCT020 FEW025TCU BKN040 25/22 Q1017 RESHRA=
2025-06-03 19:00:00<>METAR SBSV 031900Z 19005KT 100V220 9000 VCSH FEW010 BKN015 BKN040 25/22 Q1017 RESHRA=
2025-06-03 19:20:00<>SPECI SBSV 031920Z 03010KT 7000 3000NE SHRA FEW010 SCT015 BKN040 25/24 Q1017=
2025-06-03 20:00:00<>METAR SBSV 032000Z 03007KT 9000 VCSH FEW009 SCT017 BKN050 24/23 Q1017 RESHRA=
2025-06-03 21:00:00<>METAR SBSV 032100Z 01005KT 9000 VCSH FEW013 SCT021 BKN040 24/23 Q1017=
2025-06-03 21:15:00<>SPECI SBSV 032115Z 03005KT 2500 SHRA SCT006 SCT020 BKN040 24/24 Q1018=
2025-06-03 21:30:00<>SPECI SBSV 032130Z 03004KT 360V070 9000 -RA SCT006 SCT020 BKN040 23/23 Q1018 RESHRA=
2025-06-03 22:00:00<>METAR SBSV 032200Z 01004KT 9999 FEW006 SCT023 BKN050 24/23 Q1018 RESHRA=
2025-06-03 23:00:00<>METAR SBSV 032300Z 35002KT 9999 SCT023 SCT040 23/23 Q1018=
2025-06-04 00:00:00<>METAR SBSV 040000Z VRB03KT 9999 SCT021 SCT050 23/23 Q1018=
2025-06-04 01:00:00<>METAR SBSV 040100Z 08010KT 9999 SCT026 BKN055 26/22 Q1018=
2025-06-04 02:00:00<>METAR SBSV 040200Z 07014KT 040V100 9999 BKN025 BKN055 25/21 Q1018=
2025-06-04 03:00:00<>METAR SBSV 040300Z 10010KT 9999 BKN025 BKN055 26/22 Q1017=
2025-06-04 04:00:00<>METAR SBSV 040400Z 08008KT 9999 BKN025 BKN060 25/22 Q1017=
2025-06-04 05:00:00<>METAR SBSV 040500Z 04003KT 360V070 9999 BKN025 BKN060 24/22 Q1016=
2025-06-04 06:00:00<>METAR SBSV 040600Z 10011KT 9999 BKN023 BKN060 25/22 Q1016=
2025-06-04 07:00:00<>METAR SBSV 040700Z 10013KT 9999 SCT021 BKN060 26/21 Q1016=
2025-06-04 08:00:00<>METAR SBSV 040800Z 09009KT 9999 SCT019 BKN023 25/22 Q1017=
2025-06-04 09:00:00<>METAR SBSV 040900Z 11011KT 9999 SCT023 BKN070 26/21 Q1017=
2025-06-04 10:00:00<>METAR SBSV 041000Z 10010KT 9999 SCT023 BKN070 26/20 Q1017=
2025-06-04 11:00:00<>METAR SBSV 041100Z 10009KT 9999 SCT025 SCT080 27/21 Q1018=
2025-06-04 12:00:00<>METAR SBSV 041200Z 11009KT 9999 SCT023 SCT080 27/21 Q1019=
2025-06-04 13:00:00<>METAR SBSV 041300Z 11010KT 9999 SCT025 28/21 Q1018=
2025-06-04 14:00:00<>METAR SBSV 041400Z 10008KT 9999 BKN021 28/22 Q1018=
2025-06-04 15:00:00<>METAR SBSV 041500Z 11009KT 9999 VCSH SCT023 28/23 Q1017=
2025-06-04 16:00:00<>METAR SBSV 041600Z 10010KT 9999 SCT023 28/22 Q1016=
2025-06-04 17:00:00<>METAR SBSV 041700Z 10009KT 9999 SCT023 28/22 Q1016=
2025-06-04 18:00:00<>METAR SBSV 041800Z 12009KT 100V160 9999 VCSH BKN023 FEW025TCU 27/21 Q1016=
2025-06-04 19:00:00<>METAR SBSV 041900Z 10009KT 9999 BKN022 27/21 Q1015=
2025-06-04 20:00:00<>METAR SBSV 042000Z 10009KT 9999 SCT023 27/21 Q1016=
2025-06-04 21:00:00<>METAR SBSV 042100Z 11009KT 9999 SCT024 26/21 Q1016=
2025-06-04 22:00:00<>METAR SBSV 042200Z 10009KT 9999 SCT023 26/21 Q1017=
2025-06-04 23:00:00<>METAR SBSV 042300Z 11009KT 9999 SCT021 26/21 Q1017=
2025-06-05 00:00:00<>METAR SBSV 050000Z 09008KT 9999 SCT023 26/20 Q1017=
2025-06-05 01:00:00<>METAR SBSV 050100Z 10007KT 080V140 9999 FEW023 26/21 Q1017=
2025-06-05 02:00:00<>METAR SBSV 050200Z 12008KT 9999 FEW023 26/21 Q1017=
2025-06-05 03:00:00<>METAR SBSV 050300Z 13011KT 100V160 9999 FEW020 BKN025 BKN030 25/21 Q1017=
2025-06-05 04:00:00<>METAR SBSV 050400Z 10012KT 9999 FEW023 BKN030 26/21 Q1017=
2025-06-05 05:00:00<>METAR SBSV 050500Z 10009KT 9999 FEW023 26/20 Q1016=
2025-06-05 06:00:00<>METAR SBSV 050600Z 10009KT 9999 FEW023 26/21 Q1016=
2025-06-05 07:00:00<>METAR SBSV 050700Z 11007KT 9999 FEW023 26/21 Q1016=
2025-06-05 08:00:00<>METAR SBSV 050800Z 12007KT 090V160 9999 FEW025 26/21 Q1016=
2025-06-05 09:00:00<>METAR SBSV 050900Z 12005KT 090V160 9999 FEW025 26/21 Q1017=
2025-06-05 10:00:00<>METAR SBSV 051000Z 13006KT 9999 VCSH FEW023 SCT070 26/21 Q1017=
2025-06-05 11:00:00<>METAR SBSV 051100Z 13007KT 9999 VCSH SCT023 SCT070 26/22 Q1018=
2025-06-05 12:00:00<>METAR SBSV 051200Z 13009KT 9999 FEW023 SCT070 27/19 Q1018=
2025-06-05 13:00:00<>METAR SBSV 051300Z 14008KT 9999 SCT023 SCT070 28/23 Q1018=
2025-06-05 14:00:00<>METAR SBSV 051400Z 15009KT 9999 SCT021 SCT050 27/22 Q1017=
2025-06-05 15:00:00<>METAR SBSV 051500Z 17009KT 9999 SCT021 29/22 Q1017=
2025-06-05 16:00:00<>METAR SBSV 051600Z 14008KT 100V180 9999 SCT020 SCT050 28/22 Q1016=
2025-06-05 17:00:00<>METAR SBSV 051700Z 14010KT 9999 SCT020 SCT050 27/21 Q1015=
2025-06-05 18:00:00<>METAR SBSV 051800Z 16010KT 130V200 9999 SCT020 SCT050 27/22 Q1015=
2025-06-05 19:00:00<>METAR SBSV 051900Z 17009KT 9000 VCSH SCT020 FEW024TCU BKN050 26/21 Q1015=
2025-06-05 20:00:00<>METAR SBSV 052000Z 20006KT 9000 VCSH SCT020 FEW024TCU BKN050 25/21 Q1015=
2025-06-05 21:00:00<>METAR SBSV 052100Z 18005KT 160V240 9999 SCT020 25/22 Q1016=
2025-06-05 22:00:00<>METAR SBSV 052200Z 19005KT 9999 SCT020 SCT070 25/22 Q1016=
2025-06-05 23:00:00<>METAR SBSV 052300Z 17006KT 9999 BKN020 SCT070 25/23 Q1017=
2025-06-06 00:00:00<>METAR SBSV 060000Z 30003KT 9999 SCT023 SCT070 24/23 Q1017=
2025-06-06 01:00:00<>METAR SBSV 060100Z 29002KT 9999 VCSH SCT020 FEW025TCU BKN055 24/23 Q1017=
2025-06-06 02:00:00<>METAR SBSV 060200Z 23003KT 9999 SCT018 BKN060 24/23 Q1017=
2025-06-06 02:16:00<>SPECI SBSV 060216Z 16005KT 6000 SHRA FEW012 BKN016 BKN050 24/24 Q1016=
2025-06-06 02:26:00<>SPECI SBSV 060226Z 18006KT 150V210 8000 VCSH FEW015 BKN020 BKN050 24/23 Q1016 RESHRA=
2025-06-06 03:00:00<>METAR SBSV 060300Z VRB05KT 9000 VCSH BKN023 BKN050 24/23 Q1016 RESHRA=
2025-06-06 04:00:00<>METAR SBSV 060400Z 12005KT 100V160 9000 VCSH SCT022 FEW025TCU BKN060 25/22 Q1016=
2025-06-06 05:00:00<>METAR SBSV 060500Z 15007KT 110V180 8000 VCSH FEW013 BKN020 FEW025TCU BKN050 25/23 Q1015=
2025-06-06 05:24:00<>SPECI SBSV 060524Z 12011KT 5000 SHRA FEW010 BKN019 FEW025TCU OVC050 25/23 Q1015=
2025-06-06 06:00:00<>METAR SBSV 060600Z 15008KT 6000 -RA FEW015 BKN020 FEW025TCU OVC050 24/23 Q1015 RESHRA=
2025-06-06 07:00:00<>METAR SBSV 060700Z 14007KT 9999 VCSH BKN022 BKN050 25/24 Q1015=
2025-06-06 08:00:00<>METAR SBSV 060800Z 13007KT 110V170 9999 VCSH BKN023 BKN060 25/23 Q1016=
2025-06-06 08:36:00<>SPECI SBSV 060836Z 09011KT 4000 RA BR BKN008 BKN023 OVC060 24/24 Q1016=
2025-06-06 09:00:00<>METAR SBSV 060900Z 08008KT 4500 -RA BR BKN006 BKN019 OVC050 24/24 Q1016 RERA=
2025-06-06 09:11:00<>SPECI SBSV 060911Z 08007KT 6000 SCT011 BKN015 BKN070 24/24 Q1016 RERA=
2025-06-06 10:00:00<>METAR SBSV 061000Z 11003KT 070V160 9999 VCSH FEW009 SCT017 BKN040 25/24 Q1017=
2025-06-06 11:00:00<>METAR SBSV 061100Z 10006KT 9999 VCSH FEW009 BKN023 BKN040 26/23 Q1018=
2025-06-06 11:15:00<>SPECI SBSV 061115Z 10008KT 060V140 4000 RA SCT010 BKN021 BKN040 26/23 Q1018=
2025-06-06 12:00:00<>METAR SBSV 061200Z 09009KT 4000 RA SCT005 BKN023 BKN040 25/24 Q1018=
2025-06-06 13:00:00<>METAR SBSV 061300Z 08011KT 9000 3000NE RA SCT023 BKN040 25/23 Q1018=
2025-06-06 14:00:00<>METAR SBSV 061400Z 11006KT 9999 FEW023 BKN040 27/23 Q1017 RERA=
2025-06-06 15:00:00<>METAR SBSV 061500Z 10007KT 9999 FEW023 SCT050 28/22 Q1017=
2025-06-06 16:00:00<>METAR SBSV 061600Z 11009KT 9999 SCT023 SCT050 27/22 Q1016=
2025-06-06 17:00:00<>METAR SBSV 061700Z 11007KT 9999 SCT023 SCT050 28/22 Q1015=
2025-06-06 18:00:00<>METAR SBSV 061800Z 12008KT 080V150 9999 SCT017 SCT060 28/23 Q1015=
2025-06-06 19:00:00<>METAR SBSV 061900Z 11008KT 9999 VCSH SCT021 FEW025TCU 27/22 Q1015=
2025-06-06 20:00:00<>METAR SBSV 062000Z 11006KT 9999 SCT021 SCT060 26/22 Q1015=
2025-06-06 21:00:00<>METAR SBSV 062100Z 14005KT 100V200 9999 SCT023 BKN060 26/23 Q1016=
2025-06-06 22:00:00<>METAR SBSV 062200Z 13004KT 110V170 9999 SCT023 BKN060 26/22 Q1016=
2025-06-06 23:00:00<>METAR SBSV 062300Z 08006KT 9999 SCT025 26/22 Q1016=
2025-06-07 00:00:00<>METAR SBSV 070000Z 08005KT 9999 SCT021 25/22 Q1016=
2025-06-07 01:00:00<>METAR SBSV 070100Z 08005KT 9999 SCT021 BKN040 25/22 Q1016=
2025-06-07 02:00:00<>METAR SBSV 070200Z 10006KT 9999 SCT021 BKN040 26/22 Q1017=
2025-06-07 03:00:00<>METAR SBSV 070300Z 09007KT 9999 SCT023 BKN050 26/21 Q1016=
2025-06-07 04:00:00<>METAR SBSV 070400Z 08008KT 9999 SCT021 SCT050 26/21 Q1016=
2025-06-07 05:00:00<>METAR SBSV 070500Z 07005KT 9999 SCT021 24/21 Q1015=
2025-06-07 06:00:00<>METAR SBSV 070600Z VRB02KT 9999 FEW023 23/21 Q1015=
2025-06-07 07:00:00<>METAR SBSV 070700Z 26002KT 9999 SCT023 22/22 Q1015=
2025-06-07 08:00:00<>METAR SBSV 070800Z 00000KT 9999 FEW023 22/22 Q1015=
2025-06-07 09:00:00<>METAR SBSV 070900Z VRB02KT 9999 FEW023 22/22 Q1015=
2025-06-07 10:00:00<>METAR SBSV 071000Z 26002KT 9999 FEW023 23/23 Q1016=
2025-06-07 11:00:00<>METAR SBSV 071100Z 09007KT 9999 FEW023 27/22 Q1016=
2025-06-07 12:00:00<>METAR SBSV 071200Z 09006KT 060V140 9999 SCT023 28/22 Q1017=
2025-06-07 13:00:00<>METAR SBSV 071300Z 10008KT 070V130 9999 SCT023 28/21 Q1017=
2025-06-07 14:00:00<>METAR SBSV 071400Z 08008KT 040V120 9999 SCT023 28/21 Q1017=
2025-06-07 15:00:00<>METAR SBSV 071500Z 11007KT 070V160 9999 BKN023 28/21 Q1016=
2025-06-07 16:00:00<>METAR SBSV 071600Z 11007KT 070V140 9999 BKN023 28/21 Q1016=
2025-06-07 17:00:00<>METAR SBSV 071700Z 13007KT 070V170 9999 SCT024 28/21 Q1015=
2025-06-07 18:00:00<>METAR SBSV 071800Z 11006KT 050V190 9999 SCT025 28/21 Q1015=
2025-06-07 19:00:00<>METAR SBSV 071900Z 11007KT 070V150 9999 FEW024 27/20 Q1015=
2025-06-07 20:00:00<>METAR SBSV 072000Z 13005KT 9999 FEW023 27/20 Q1015=
2025-06-07 21:00:00<>METAR SBSV 072100Z 14005KT 110V180 9999 FEW021 26/20 Q1015=
2025-06-07 22:00:00<>METAR SBSV 072200Z 15005KT 100V190 9999 FEW021 26/20 Q1016=
2025-06-07 23:00:00<>METAR SBSV 072300Z 14005KT CAVOK 26/20 Q1016=
2025-06-08 00:00:00<>METAR SBSV 080000Z 15006KT 9999 FEW020 26/20 Q1017=
2025-06-08 01:00:00<>METAR SBSV 080100Z 14006KT 9999 FEW020 26/20 Q1017=
2025-06-08 02:00:00<>METAR SBSV 080200Z 14006KT 9999 FEW020 26/20 Q1017=
2025-06-08 03:00:00<>METAR SBSV 080300Z 14005KT 9999 FEW023 26/20 Q1017=
2025-06-08 04:00:00<>METAR SBSV 080400Z 15007KT 130V190 9999 FEW023 26/20 Q1016=
2025-06-08 05:00:00<>METAR SBSV 080500Z 18007KT 9999 FEW023 27/21 Q1015=
2025-06-08 06:00:00<>METAR SBSV 080600Z 12004KT 080V150 9999 SCT023 27/20 Q1015=
2025-06-08 07:00:00<>METAR SBSV 080700Z 13006KT 090V160 9999 SCT023 25/20 Q1015=
2025-06-08 08:00:00<>METAR SBSV 080800Z 13005KT 090V160 9999 SCT023 25/20 Q1016=
2025-06-08 09:00:00<>METAR SBSV 080900Z 15004KT 130V200 9999 FEW023 25/20 Q1016=
2025-06-08 10:00:00<>METAR SBSV 081000Z 15005KT 130V190 9999 SCT023 SCT050 26/20 Q1017=
2025-06-08 11:00:00<>METAR SBSV 081100Z 08005KT 9999 -SHRA SCT025 SCT050 25/21 Q1017=
2025-06-08 12:00:00<>METAR SBSV 081200Z 12003KT 060V170 9999 SCT020 27/22 Q1017=
2025-06-08 13:00:00<>METAR SBSV 081300Z 10008KT 080V140 9999 SCT025 28/21 Q1017=
2025-06-08 14:00:00<>METAR SBSV 081400Z 12009KT 090V160 9999 SCT025 28/20 Q1017=
2025-06-08 15:00:00<>METAR SBSV 081500Z 11009KT 9999 SCT025 28/20 Q1016=
2025-06-08 16:00:00<>METAR SBSV 081600Z 12009KT 090V170 9999 SCT025 28/21 Q1015=
2025-06-08 17:00:00<>METAR SBSV 081700Z 12009KT 080V150 9999 SCT023 28/20 Q1015=
2025-06-08 18:00:00<>METAR SBSV 081800Z 12007KT 080V150 9999 SCT023 28/19 Q1014=
2025-06-08 19:00:00<>METAR SBSV 081900Z 13007KT 090V180 9999 SCT025 27/20 Q1014=
2025-06-08 20:00:00<>METAR SBSV 082000Z 15006KT 110V180 9999 SCT026 27/20 Q1014=
2025-06-08 21:00:00<>METAR SBSV 082100Z 14005KT 9999 SCT025 26/20 Q1015=
2025-06-08 22:00:00<>METAR SBSV 082200Z 12006KT 9999 SCT024 26/20 Q1015=
2025-06-08 23:00:00<>METAR SBSV 082300Z 13005KT 9999 FEW023 26/19 Q1016=
2025-06-09 00:00:00<>METAR SBSV 090000Z 12005KT 9999 FEW023 26/20 Q1016=
2025-06-09 01:00:00<>METAR SBSV 090100Z 07003KT CAVOK 24/19 Q1016=
2025-06-09 02:00:00<>METAR SBSV 090200Z VRB02KT CAVOK 22/20 Q1016=
2025-06-09 03:00:00<>METAR SBSV 090300Z VRB02KT 9999 FEW025 22/20 Q1015=
2025-06-09 04:00:00<>METAR SBSV 090400Z VRB02KT 9999 FEW025 22/20 Q1015=
2025-06-09 05:00:00<>METAR SBSV 090500Z VRB02KT 9999 FEW025 21/20 Q1015=
2025-06-09 06:00:00<>METAR SBSV 090600Z VRB02KT 9999 FEW025 21/20 Q1014=
2025-06-09 07:00:00<>METAR SBSV 090700Z 25002KT CAVOK 20/20 Q1014=
2025-06-09 08:00:00<>METAR SBSV 090800Z VRB02KT CAVOK 20/20 Q1015=
2025-06-09 09:00:00<>METAR SBSV 090900Z VRB02KT 9999 FEW023 20/20 Q1015=
2025-06-09 10:00:00<>METAR SBSV 091000Z 26003KT 9999 FEW023 23/21 Q1014=
2025-06-09 11:00:00<>METAR SBSV 091100Z VRB02KT 9999 FEW015 25/21 Q1016=
2025-06-09 12:00:00<>METAR SBSV 091200Z 00000KT 9999 SCT025 27/21 Q1017=
2025-06-09 13:00:00<>METAR SBSV 091300Z 23007KT 180V270 9999 SCT025 27/21 Q1017=
2025-06-09 14:00:00<>METAR SBSV 091400Z 21009KT 9999 SCT025 27/22 Q1017=
2025-06-09 15:00:00<>METAR SBSV 091500Z 19006KT 130V230 9999 SCT025 28/21 Q1015=
2025-06-09 16:00:00<>METAR SBSV 091600Z 20007KT 9999 SCT025 28/21 Q1015=
2025-06-09 17:00:00<>METAR SBSV 091700Z 17008KT 140V240 9999 SCT025 28/22 Q1014=
2025-06-09 18:00:00<>METAR SBSV 091800Z 18006KT 130V230 9999 FEW025 28/22 Q1014=
2025-06-09 19:00:00<>METAR SBSV 091900Z 16007KT 9999 FEW025 27/21 Q1014=
2025-06-09 20:00:00<>METAR SBSV 092000Z 16007KT 9999 FEW025 26/22 Q1014=
2025-06-09 21:00:00<>METAR SBSV 092100Z 16006KT 130V210 9999 BKN020 26/22 Q1014=
2025-06-09 22:00:00<>METAR SBSV 092200Z 13005KT 9999 SCT020 26/22 Q1015=
2025-06-09 23:00:00<>METAR SBSV 092300Z 11004KT 9999 SCT020 26/22 Q1015=
2025-06-10 00:00:00<>METAR SBSV 100000Z 08006KT 9999 FEW018 24/22 Q1015=
2025-06-10 01:00:00<>METAR SBSV 100100Z 09005KT 9999 FEW020 24/22 Q1015=
2025-06-10 02:00:00<>METAR SBSV 100200Z 10004KT 9999 SCT019 25/22 Q1015=
2025-06-10 03:00:00<>METAR SBSV 100300Z 09006KT 9999 SCT013 24/23 Q1015=
2025-06-10 04:00:00<>METAR SBSV 100400Z VRB05KT 9999 FEW013 SCT018 23/23 Q1014=
2025-06-10 05:00:00<>METAR SBSV 100500Z 28003KT 9999 SCT015 23/22 Q1014=
2025-06-10 06:00:00<>METAR SBSV 100600Z 28003KT 9999 FEW013 SCT018 23/23 Q1014=
2025-06-10 07:00:00<>METAR SBSV 100700Z 28003KT 9999 SCT016 22/22 Q1014=
2025-06-10 08:00:00<>METAR SBSV 100800Z 31003KT 9999 FEW014 22/22 Q1014=
2025-06-10 09:00:00<>METAR SBSV 100900Z 28004KT 250V340 7000 3000E SCT015 22/22 Q1015=
2025-06-10 10:00:00<>METAR SBSV 101000Z 28003KT 250V330 9000 SCT015 FEW020TCU 23/23 Q1015=
2025-06-10 11:00:00<>METAR SBSV 101100Z 27003KT 240V300 9999 SCT020 26/23 Q1016=
2025-06-10 12:00:00<>METAR SBSV 101200Z VRB02KT 9999 BKN021 27/23 Q1016=
2025-06-10 13:00:00<>METAR SBSV 101300Z 12006KT 070V150 9000 SCT021 FEW025TCU 28/23 Q1016=
2025-06-10 14:00:00<>METAR SBSV 101400Z 11006KT 060V180 9999 SCT021 FEW025TCU 29/23 Q1016=
2025-06-10 15:00:00<>METAR SBSV 101500Z 17006KT 130V220 9999 SCT019 FEW022TCU 28/23 Q1015=
2025-06-10 16:00:00<>METAR SBSV 101600Z 18008KT 150V240 9999 BKN017 28/23 Q1014=
2025-06-10 17:00:00<>METAR SBSV 101700Z 17006KT 130V260 9999 BKN017 28/23 Q1014=
2025-06-10 18:00:00<>METAR SBSV 101800Z 15007KT 120V190 9999 SCT016 28/23 Q1013=
2025-06-10 19:00:00<>METAR SBSV 101900Z 15006KT 120V180 9999 BKN012 27/23 Q1013=
2025-06-10 20:00:00<>METAR SBSV 102000Z 11005KT 9999 SCT015 27/23 Q1013=
2025-06-10 21:00:00<>METAR SBSV 102100Z 08008KT 9999 SCT015 27/24 Q1014=
2025-06-10 22:00:00<>METAR SBSV 102200Z 06007KT 9999 SCT015 26/23 Q1014=
2025-06-10 23:00:00<>METAR SBSV 102300Z 05004KT 9999 SCT015 26/23 Q1015=
2025-06-11 00:00:00<>METAR SBSV 110000Z 04003KT 350V060 9999 FEW015 25/25 Q1015=
2025-06-11 01:00:00<>METAR SBSV 110100Z 03004KT 350V070 9999 SCT017 BKN028 25/25 Q1015=
2025-06-11 02:00:00<>METAR SBSV 110200Z 34003KT 9999 SCT020 24/24 Q1015=
2025-06-11 03:00:00<>METAR SBSV 110300Z VRB02KT 9999 SCT020 SCT033 25/24 Q1015=
2025-06-11 04:00:00<>METAR SBSV 110400Z 36004KT 9999 SCT021 24/24 Q1014=
2025-06-11 05:00:00<>METAR COR SBSV 110500Z 35004KT 9999 FEW021 24/24 Q1014=
2025-06-11 06:00:00<>METAR SBSV 110600Z 32003KT 300V050 9999 FEW021 24/24 Q1013=
2025-06-11 07:00:00<>METAR SBSV 110700Z 27002KT 9999 FEW021 23/23 Q1014=
2025-06-11 08:00:00<>METAR SBSV 110800Z VRB01KT 9999 FEW021 23/23 Q1014=
2025-06-11 09:00:00<>METAR SBSV 110900Z 00000KT 9999 FEW022 23/23 Q1014=
2025-06-11 10:00:00<>METAR SBSV 111000Z 31001KT 9999 FEW022 24/24 Q1015=
2025-06-11 11:00:00<>METAR SBSV 111100Z 36003KT 9999 FEW023 26/23 Q1016=
2025-06-11 12:00:00<>METAR SBSV 111200Z 36004KT 9999 SCT015 27/24 Q1016=
2025-06-11 13:00:00<>METAR SBSV 111300Z 09005KT 9999 SCT015 28/24 Q1016=
2025-06-11 14:00:00<>METAR SBSV 111400Z 10008KT 9999 SCT017 28/24 Q1016=
2025-06-11 15:00:00<>METAR SBSV 111500Z 10007KT 070V130 9999 FEW021 29/22 Q1015=
2025-06-11 16:00:00<>METAR SBSV 111600Z 10008KT 060V170 9999 SCT021 28/23 Q1014=
2025-06-11 17:00:00<>METAR SBSV 111700Z 10008KT 9999 SCT021 28/23 Q1013=
2025-06-11 18:00:00<>METAR SBSV 111800Z 10007KT 070V140 9999 SCT020 28/23 Q1013=
2025-06-11 19:00:00<>METAR SBSV 111900Z 09008KT 9999 FEW023 28/22 Q1013=
2025-06-11 20:00:00<>METAR SBSV 112000Z 09007KT 9999 FEW023 27/22 Q1013=
2025-06-11 21:00:00<>METAR SBSV 112100Z 09006KT 070V130 9999 FEW023 27/22 Q1014=
2025-06-11 22:00:00<>METAR SBSV 112200Z 10007KT 080V140 9999 FEW021 27/22 Q1014=
2025-06-11 23:00:00<>METAR SBSV 112300Z 11005KT 9999 FEW021 27/22 Q1015=
2025-06-12 00:00:00<>METAR SBSV 120000Z 12005KT 090V190 9999 FEW021 26/22 Q1015=
2025-06-12 01:00:00<>METAR SBSV 120100Z 10006KT 070V170 9999 FEW021 27/22 Q1015=
2025-06-12 02:00:00<>METAR SBSV 120200Z 12007KT 9999 FEW021 26/22 Q1015=
2025-06-12 03:00:00<>METAR SBSV 120300Z 09007KT 9999 FEW021 26/22 Q1015=
2025-06-12 04:00:00<>METAR SBSV 120400Z 14005KT 9999 FEW021 26/22 Q1014=
2025-06-12 05:00:00<>METAR SBSV 120500Z 13005KT 9999 SCT021 26/22 Q1014=
2025-06-12 06:00:00<>METAR SBSV 120600Z 11005KT 060V140 9999 SCT021 26/22 Q1014=
2025-06-12 07:00:00<>METAR SBSV 120700Z 08006KT 9999 FEW021 25/22 Q1014=
2025-06-12 08:00:00<>METAR SBSV 120800Z 10005KT 9999 FEW021 25/22 Q1014=
2025-06-12 09:00:00<>METAR SBSV 120900Z 10006KT 9999 SCT021 25/22 Q1015=
2025-06-12 10:00:00<>METAR SBSV 121000Z 35002KT 9999 SCT020 25/22 Q1015=
2025-06-12 11:00:00<>METAR SBSV 121100Z 10006KT 9999 SCT020 27/22 Q1016=
2025-06-12 12:00:00<>METAR SBSV 121200Z 10007KT 070V140 9999 VCSH SCT021 28/22 Q1017=
2025-06-12 13:00:00<>METAR SBSV 121300Z 12006KT 9999 SCT021 28/22 Q1016=
2025-06-12 14:00:00<>METAR SBSV 121400Z 09007KT 050V140 9999 SCT021 28/22 Q1016=
2025-06-12 15:00:00<>METAR SBSV 121500Z 19007KT 9999 VCSH SCT021 FEW025TCU 27/23 Q1015=
2025-06-12 15:15:00<>SPECI SBSV 121515Z 22010KT 9000 1500W +SHRA SCT021 FEW025TCU 26/22 Q1015=
2025-06-12 15:40:00<>SPECI SBSV 121540Z 23007KT 9999 BKN021 FEW025TCU 26/24 Q1015 RESHRA=
2025-06-12 16:00:00<>METAR SBSV 121600Z 21010KT 9999 VCSH BKN021 FEW025TCU 27/23 Q1015=
2025-06-12 17:00:00<>METAR SBSV 121700Z 16014KT 8000 -RA BKN017 FEW025TCU 25/22 Q1015=
2025-06-12 18:00:00<>METAR SBSV 121800Z 12007KT 9999 3000E -SHRA FEW008 SCT015 BKN018 FEW023TCU 24/23 Q1014=
2025-06-12 19:00:00<>METAR SBSV 121900Z 13006KT 9999 -RA SCT015 FEW023TCU BKN033 25/22 Q1014=
2025-06-12 20:00:00<>METAR SBSV 122000Z 16012KT 9999 -RA SCT011 BKN018 FEW023TCU 25/23 Q1015=
2025-06-12 21:00:00<>METAR SBSV 122100Z 15010KT 9999 SCT013 BKN021 25/22 Q1015=
2025-06-12 22:00:00<>METAR SBSV 122200Z 16015KT 4000 RA BR FEW008 BKN011 OVC040 24/22 Q1016=
2025-06-12 22:35:00<>SPECI SBSV 122235Z 16014KT 9999 VCSH SCT011 BKN015 BKN030 24/22 Q1016 RERA=
2025-06-12 23:00:00<>METAR SBSV 122300Z 16016KT 9999 SCT013 BKN015 BKN030 24/22 Q1016 RERA=
2025-06-13 00:00:00<>METAR SBSV 130000Z 17017KT 5000 -RA BR BKN008 BKN015 OVC030 24/23 Q1017=
2025-06-13 00:12:00<>SPECI SBSV 130012Z 16017KT 9999 -RA FEW008 BKN015 BKN050 24/22 Q1017=
2025-06-13 01:00:00<>METAR SBSV 130100Z 15013KT 9999 SCT010 BKN015 BKN050 24/22 Q1017=
2025-06-13 02:00:00<>METAR SBSV 130200Z 14013KT 9999 BKN015 BKN050 25/21 Q1017=
2025-06-13 03:00:00<>METAR SBSV 130300Z 17015KT 9999 SCT011 BKN015 BKN050 24/22 Q1017=
2025-06-13 04:00:00<>METAR SBSV 130400Z 15014KT 9999 SCT010 BKN015 BKN050 23/22 Q1017=
2025-06-13 05:00:00<>METAR SBSV 130500Z 15015KT 9999 SCT010 BKN015 BKN070 24/21 Q1017=
2025-06-13 06:00:00<>METAR SBSV 130600Z 14012KT 110V170 9999 SCT013 BKN015 BKN060 24/21 Q1017=
2025-06-13 07:00:00<>METAR SBSV 130700Z 13012KT 9999 BKN015 BKN060 24/21 Q1017=
2025-06-13 08:00:00<>METAR SBSV 130800Z 14014KT 100V160 9999 SCT009 BKN019 BKN060 25/20 Q1017=
2025-06-13 09:00:00<>METAR SBSV 130900Z 16012KT 9999 BKN019 BKN060 24/21 Q1018=
2025-06-13 10:00:00<>METAR SBSV 131000Z 13013KT 8000 VCSH BKN013 BKN050 24/21 Q1018=
2025-06-13 10:30:00<>SPECI SBSV 131030Z 16018G28KT 7000 3000NW -RA BKN010 SCT023 BKN050 24/22 Q1019=
2025-06-13 11:00:00<>METAR SBSV 131100Z 16018KT 4000 RA BKN008 SCT023 BKN050 23/21 Q1019=
2025-06-13 12:00:00<>METAR SBSV 131200Z 16018G29KT 9000 BKN010 SCT023 BKN050 23/21 Q1020 RERA=
2025-06-13 12:35:00<>SPECI SBSV 131235Z 15013KT 4000 RA BKN010 SCT035 BKN050 24/21 Q1020 RERA=
2025-06-13 13:00:00<>METAR SBSV 131300Z 15013KT 5000 -RA SCT010 SCT035 BKN050 23/21 Q1020 RERA=
2025-06-13 13:30:00<>SPECI SBSV 131330Z 13011KT 9999 FEW015 BKN050 25/21 Q1020=
2025-06-13 14:00:00<>METAR SBSV 131400Z 15013KT 9999 FEW015 BKN050 26/21 Q1020=
2025-06-13 15:00:00<>METAR SBSV 131500Z 15014KT 9000 VCSH FEW025 BKN040 26/20 Q1019=
2025-06-13 16:00:00<>METAR SBSV 131600Z 15015KT 9999 SCT030 BKN050 27/20 Q1018=
2025-06-13 17:00:00<>METAR SBSV 131700Z 16016G26KT 130V190 4000 RA SCT008 BKN025 OVC050 25/21 Q1018=
2025-06-13 18:00:00<>METAR SBSV 131800Z 15015KT 8000 VCSH BKN023 FEW025TCU BKN050 26/19 Q1020 RERA=
2025-06-13 19:00:00<>METAR SBSV 131900Z 14014KT 8000 VCSH SCT023 FEW025TCU BKN060 25/20 Q1018=
2025-06-13 20:00:00<>METAR SBSV 132000Z 15014KT 8000 VCSH SCT023 FEW025TCU BKN060 26/19 Q1018=
2025-06-13 21:00:00<>METAR SBSV 132100Z 14015KT 9999 SCT023 FEW025TCU BKN060 26/19 Q1019=
2025-06-13 21:20:00<>SPECI SBSV 132120Z 15014G25KT 4500 RA BKN018 FEW023TCU BKN060 24/21 Q1019=
2025-06-13 22:00:00<>METAR SBSV 132200Z 15018G28KT 8000 VCSH BKN018 FEW023TCU OVC050 25/19 Q1019 RERA=
2025-06-13 23:00:00<>METAR SBSV 132300Z 13014KT 9000 VCSH BKN018 FEW023TCU OVC050 25/19 Q1020=
2025-06-14 00:00:00<>METAR SBSV 140000Z 14017KT 9999 SCT021 BKN060 26/19 Q1020=
2025-06-14 00:40:00<>SPECI SBSV 140040Z 13015G28KT 9999 VCSH BKN022 BKN060 25/20 Q1020=
2025-06-14 01:00:00<>METAR SBSV 140100Z 14017KT 9999 VCSH BKN022 BKN060 25/20 Q1020=
2025-06-14 01:29:00<>SPECI SBSV 140129Z 15020G32KT 9999 BKN023 BKN070 25/20 Q1020=
2025-06-14 02:00:00<>METAR COR SBSV 140200Z 15017G27KT 9999 BKN024 BKN070 25/19 Q1020 WS R10=
2025-06-14 03:00:00<>METAR SBSV 140300Z 14015G25KT 9999 VCSH FEW016 BKN023 BKN070 24/20 Q1020=
2025-06-14 04:00:00<>METAR SBSV 140400Z 14015G25KT 9999 FEW019 BKN025 BKN060 25/18 Q1020=
2025-06-14 04:32:00<>SPECI SBSV 140432Z 13012G22KT 5000 SHRA FEW015 BKN020 OVC060 24/19 Q1019=
2025-06-14 05:00:00<>METAR SBSV 140500Z 14017G29KT 9000 -RA FEW015 BKN022 OVC060 24/19 Q1020 RESHRA=
2025-06-14 05:18:00<>SPECI SBSV 140518Z 16017G28KT 4000 -RA BKN015 BKN020 OVC050 23/20 Q1019=
2025-06-14 05:28:00<>SPECI SBSV 140528Z 16016G28KT 6000 -RA BKN020 OVC050 23/20 Q1019=
2025-06-14 06:00:00<>METAR SBSV 140600Z 16015G25KT 9999 -RA BKN024 OVC050 25/18 Q1019=
2025-06-14 07:00:00<>METAR SBSV 140700Z 14017KT 9999 VCSH BKN025 BKN055 25/17 Q1019=
2025-06-14 08:00:00<>METAR SBSV 140800Z 14016G26KT 9999 VCSH BKN025 BKN055 25/18 Q1019=
2025-06-14 09:00:00<>METAR SBSV 140900Z 14015G25KT 9000 VCSH BKN023 FEW025TCU OVC070 25/18 Q1020=
2025-06-14 10:00:00<>METAR SBSV 141000Z 14014KT 9999 BKN023 FEW025TCU OVC070 26/18 Q1021=
2025-06-14 11:00:00<>METAR SBSV 141100Z 13014KT 110V170 8000 VCSH BKN023 FEW025TCU OVC070 25/19 Q1022=
2025-06-14 12:00:00<>METAR SBSV 141200Z 12012G22KT 090V150 9000 VCSH BKN023 FEW025TCU BKN070 26/20 Q1022=
2025-06-14 13:00:00<>METAR SBSV 141300Z 13014KT 9999 SCT023 FEW025TCU BKN070 27/18 Q1022=
2025-06-14 14:00:00<>METAR SBSV 141400Z 14014KT 9999 SCT025 BKN080 27/18 Q1022=
2025-06-14 15:00:00<>METAR SBSV 141500Z 14015KT 9999 SCT025 BKN080 27/18 Q1021=
2025-06-14 16:00:00<>METAR SBSV 141600Z 14014KT 110V170 9999 SCT025 BKN080 27/18 Q1021=
2025-06-14 17:00:00<>METAR SBSV 141700Z 14014KT 9999 SCT025 BKN080 27/18 Q1020=
2025-06-14 18:00:00<>METAR SBSV 141800Z 14012KT 9999 VCSH SCT030 BKN080 26/18 Q1020=
2025-06-14 19:00:00<>METAR SBSV 141900Z 13013KT 9999 BKN035 BKN080 26/17 Q1020=
2025-06-14 20:00:00<>METAR SBSV 142000Z 14014KT 9999 VCSH BKN025 BKN080 25/18 Q1020=
2025-06-14 21:00:00<>METAR SBSV 142100Z 17016KT 9999 BKN025 BKN080 24/18 Q1021=
2025-06-14 22:00:00<>METAR SBSV 142200Z 16017KT 9999 BKN025 BKN080 24/18 Q1021=
2025-06-14 23:00:00<>METAR SBSV 142300Z 14013KT 9999 SCT025 BKN080 26/17 Q1021=
2025-06-15 00:00:00<>METAR SBSV 150000Z 14013KT 9999 SCT035 BKN080 25/17 Q1021=
2025-06-15 01:00:00<>METAR SBSV 150100Z 14013KT 9999 SCT030 BKN050 26/17 Q1022=
2025-06-15 02:00:00<>METAR SBSV 150200Z 15013KT 9999 FEW032 BKN060 26/17 Q1021=
2025-06-15 03:00:00<>METAR SBSV 150300Z 15012KT 9999 FEW032 BKN090 25/17 Q1021=
2025-06-15 04:00:00<>METAR SBSV 150400Z 15012KT 9999 FEW032 BKN090 25/18 Q1020=
2025-06-15 05:00:00<>METAR SBSV 150500Z 15012KT 9999 FEW030 BKN100 25/18 Q1020=
2025-06-15 06:00:00<>METAR SBSV 150600Z 15012KT 9999 FEW030 BKN100 25/20 Q1019=
2025-06-15 07:00:00<>METAR SBSV 150700Z 16013KT 9999 FEW032 BKN090 25/19 Q1019=
2025-06-15 08:00:00<>METAR SBSV 150800Z 18008KT 120V210 9999 FEW033 BKN050 24/20 Q1020=
2025-06-15 09:00:00<>METAR SBSV 150900Z 14011KT 9999 FEW030 BKN060 26/17 Q1020=
2025-06-15 10:00:00<>METAR SBSV 151000Z 14011KT 9999 FEW030 BKN060 26/18 Q1020=
2025-06-15 11:00:00<>METAR SBSV 151100Z 13010KT 9999 SCT030 BKN060 26/19 Q1021=
2025-06-15 12:00:00<>METAR SBSV 151200Z 13010KT 9999 VCSH SCT023 FEW025TCU BKN060 26/19 Q1021=
2025-06-15 13:00:00<>METAR SBSV 151300Z 13012KT 100V160 9999 SCT025 BKN070 27/19 Q1021=
2025-06-15 14:00:00<>METAR SBSV 151400Z 13010KT 100V160 9999 SCT023 FEW025TCU BKN060 27/19 Q1021=
2025-06-15 15:00:00<>METAR SBSV 151500Z 14010KT 100V160 9999 BKN023 BKN060 27/19 Q1020=
2025-06-15 16:00:00<>METAR SBSV 151600Z 13012KT 110V170 9999 SCT023 BKN070 27/18 Q1020=
2025-06-15 17:00:00<>METAR SBSV 151700Z 14010KT 9999 SCT023 BKN070 28/20 Q1019=
2025-06-15 18:00:00<>METAR SBSV 151800Z 15011KT 120V200 9999 SCT023 BKN070 28/19 Q1019=
2025-06-15 19:00:00<>METAR SBSV 151900Z 15010KT 9999 SCT023 SCT070 27/20 Q1018=
2025-06-15 20:00:00<>METAR SBSV 152000Z 16009KT 9999 SCT023 BKN060 26/19 Q1019=
2025-06-15 21:00:00<>METAR SBSV 152100Z 15009KT 9999 SCT023 BKN060 26/19 Q1019=
2025-06-15 22:00:00<>METAR SBSV 152200Z 16008KT 9999 SCT023 BKN060 26/20 Q1019=
2025-06-15 23:00:00<>METAR SBSV 152300Z 15009KT 9999 SCT023 BKN060 26/19 Q1019=
2025-06-16 00:00:00<>METAR SBSV 160000Z 15009KT 9999 SCT023 BKN060 25/20 Q1020=
2025-06-16 01:00:00<>METAR SBSV 160100Z 16011KT 9000 VCSH FEW017 BKN024 BKN050 25/21 Q1020=
2025-06-16 02:00:00<>METAR SBSV 160200Z 12013KT 9999 VCSH SCT016 BKN024 BKN055 25/21 Q1020=
2025-06-16 03:00:00<>METAR SBSV 160300Z 10015KT 9999 SCT016 BKN025 BKN060 25/20 Q1020=
2025-06-16 04:00:00<>METAR SBSV 160400Z 15009KT 9999 BKN023 BKN055 26/19 Q1019=
2025-06-16 05:00:00<>METAR SBSV 160500Z 14009KT 9999 BKN024 BKN060 26/21 Q1019=
2025-06-16 06:00:00<>METAR SBSV 160600Z 13010KT 100V170 9999 BKN025 BKN070 26/21 Q1018=
2025-06-16 07:00:00<>METAR SBSV 160700Z 13010KT 9999 BKN021 BKN070 26/21 Q1018=
2025-06-16 08:00:00<>METAR SBSV 160800Z 13010KT 9999 BKN021 BKN070 26/21 Q1018=
2025-06-16 09:00:00<>METAR SBSV 160900Z 12011KT 6000 -RA BKN021 OVC070 25/21 Q1019=
2025-06-16 10:00:00<>METAR SBSV 161000Z 10005KT 9000 VCSH BKN021 OVC070 24/21 Q1019=
2025-06-16 11:00:00<>METAR SBSV 161100Z 10014KT 9000 VCSH BKN021 BKN060 25/21 Q1020=
2025-06-16 12:00:00<>METAR SBSV 161200Z 10012KT 9999 VCSH BKN023 BKN060 27/21 Q1020=
2025-06-16 13:00:00<>METAR SBSV 161300Z 11011KT 9999 SCT023 BKN060 27/22 Q1020=
2025-06-16 14:00:00<>METAR SBSV 161400Z 11012KT 9999 VCSH SCT021 FEW023TCU BKN060 28/22 Q1020=
2025-06-16 15:00:00<>METAR SBSV 161500Z 10011KT 9000 VCSH BKN021 FEW023TCU BKN070 27/22 Q1019=
2025-06-16 16:00:00<>METAR SBSV 161600Z 12011KT 9999 VCSH BKN021 FEW023TCU BKN060 28/22 Q1019=
2025-06-16 17:00:00<>METAR SBSV 161700Z 11012KT 9000 VCSH BKN021 FEW023TCU BKN060 27/21 Q1018=
2025-06-16 17:30:00<>SPECI SBSV 161730Z 11007KT 4000 1500N +RA BKN021 FEW023TCU BKN060 25/21 Q1018=
2025-06-16 18:00:00<>METAR SBSV 161800Z 26003KT 6000 2000N RA BKN010 BKN021 OVC060 24/22 Q1018 RERA=
2025-06-16 18:40:00<>SPECI SBSV 161840Z 04006KT 350V110 6000 2500NW -RA BKN007 BKN021 OVC060 24/24 Q1019 RERA=
2025-06-16 19:00:00<>METAR SBSV 161900Z 06011G23KT 010V080 2000 +RA BKN007 BKN021 OVC060 23/23 Q1018 RERA=
2025-06-16 20:00:00<>METAR SBSV 162000Z 09009KT 7000 3000W -RA FEW007 BKN021 OVC050 23/22 Q1019 RERA=
2025-06-16 21:00:00<>METAR SBSV 162100Z 08003KT 050V120 6000 SCT017 OVC050 24/22 Q1019=
2025-06-16 21:15:00<>SPECI SBSV 162115Z 04004KT 4500 RA FEW009 BKN017 OVC050 23/22 Q1019=
2025-06-16 22:00:00<>METAR SBSV 162200Z 14008KT 3000 RA SCT007 BKN017 OVC060 22/22 Q1020=
2025-06-16 23:00:00<>METAR SBSV 162300Z 02006KT 7000 -RA SCT015 BKN023 OVC060 23/22 Q1020 RERA=
2025-06-17 00:00:00<>METAR SBSV 170000Z 08011KT 8000 -RA BKN007 SCT023 OVC060 23/23 Q1020=
2025-06-17 00:37:00<>SPECI SBSV 170037Z 07008KT 040V100 9999 BKN020 BKN050 23/23 Q1020=
2025-06-17 01:00:00<>METAR SBSV 170100Z 08008KT 050V120 9999 SCT015 BKN020 23/23 Q1020=
2025-06-17 02:00:00<>METAR SBSV 170200Z 16008KT 9999 SCT023 BKN100 25/22 Q1020=
2025-06-17 02:12:00<>SPECI SBSV 170212Z 17010KT 140V200 4000 SHRA SCT020 FEW023TCU BKN100 25/22 Q1020=
2025-06-17 03:00:00<>METAR SBSV 170300Z 17007KT 140V210 9999 FEW023 BKN060 23/21 Q1020 RESHRA=
2025-06-17 04:00:00<>METAR SBSV 170400Z 18006KT 9999 FEW023 BKN060 24/21 Q1019=
2025-06-17 05:00:00<>METAR SBSV 170500Z 18006KT 9999 FEW023 BKN060 24/21 Q1019=
2025-06-17 05:07:00<>SPECI SBSV 170507Z 17010KT 150V210 3000 SHRA SCT020 FEW023TCU BKN060 24/21 Q1019=
2025-06-17 05:30:00<>SPECI SBSV 170530Z 17007KT 9999 FEW017 BKN050 23/20 Q1019 RESHRA=
2025-06-17 06:00:00<>METAR SBSV 170600Z 17008KT 9999 FEW017 BKN050 24/20 Q1018=
2025-06-17 07:00:00<>METAR SBSV 170700Z 18007KT 9999 FEW017 BKN050 24/20 Q1018=
2025-06-17 08:00:00<>METAR SBSV 170800Z 15010KT 9999 FEW017 BKN050 25/21 Q1018=
2025-06-17 09:00:00<>METAR SBSV 170900Z 13007KT 9999 SCT023 BKN050 25/21 Q1019=
2025-06-17 09:45:00<>SPECI SBSV 170945Z 15014KT 110V180 4000 -RA BKN017 BKN021 BKN060 23/18 Q1019=
2025-06-17 10:00:00<>METAR SBSV 171000Z 15013KT 120V180 5000 -RA SCT017 BKN021 BKN060 23/19 Q1019=
2025-06-17 11:00:00<>METAR SBSV 171100Z 17010KT 9999 SCT017 BKN021 BKN060 26/21 Q1020=
2025-06-17 11:11:00<>SPECI SBSV 171111Z 16013KT 3000 -RA BR BKN017 BKN021 BKN060 24/20 Q1020=
2025-06-17 11:30:00<>SPECI SBSV 171130Z 17006KT 5000 -RA BR BKN017 BKN021 BKN060 24/20 Q1020=
2025-06-17 12:00:00<>METAR SBSV 171200Z 17009KT 8000 VCSH SCT018 BKN022 BKN060 25/21 Q1020=
2025-06-17 13:00:00<>METAR SBSV 171300Z 18007KT 150V230 8000 VCSH SCT018 BKN022 BKN060 26/21 Q1020=
2025-06-17 14:00:00<>METAR SBSV 171400Z 15011KT 9000 VCSH BKN023 BKN070 25/21 Q1020=
2025-06-17 15:00:00<>METAR SBSV 171500Z 15012KT 9999 SCT025 BKN070 27/21 Q1019=
2025-06-17 16:00:00<>METAR SBSV 171600Z 17011KT 9999 VCSH SCT025 FEW027TCU BKN070 26/22 Q1019=
2025-06-17 16:08:00<>SPECI SBSV 171608Z 16012KT 2000 RA BR SCT012 BKN023 FEW025TCU BKN070 24/22 Q1019=
2025-06-17 16:23:00<>SPECI SBSV 171623Z 13009KT 2000 +RA BKN008 BKN020 FEW023TCU BKN070 24/23 Q1019 RERA=
2025-06-17 17:00:00<>METAR SBSV 171700Z 14005KT 100V190 4000 BR BKN012 BKN020 FEW023TCU BKN070 24/24 Q1018 RERA=
2025-06-17 17:30:00<>SPECI SBSV 171730Z 11010KT 8000 VCSH SCT017 FEW023TCU BKN070 25/22 Q1018=
2025-06-17 18:00:00<>METAR SBSV 171800Z 10009KT 9999 VCSH FEW019 FEW023TCU BKN070 26/22 Q1018=
2025-06-17 19:00:00<>METAR SBSV 171900Z 08013KT 060V120 8000 VCSH FEW015 SCT025 BKN070 25/22 Q1018=
2025-06-17 20:00:00<>METAR SBSV 172000Z 09005KT 060V120 4000 RA FEW015 SCT020 BKN070 24/22 Q1018=
2025-06-17 20:35:00<>SPECI SBSV 172035Z 13011KT 8000 -RA FEW015 SCT030 BKN050 25/19 Q1019 RERA=
2025-06-17 21:00:00<>METAR SBSV 172100Z 13011KT 9999 VCSH SCT030 BKN050 26/20 Q1019 RERA=
2025-06-17 22:00:00<>METAR SBSV 172200Z 13011KT 9999 SCT030 BKN050 26/19 Q1019=
2025-06-17 23:00:00<>METAR SBSV 172300Z 12012KT 9999 SCT030 BKN060 26/18 Q1020=
2025-06-18 00:00:00<>METAR SBSV 180000Z 12011KT 090V150 9999 SCT033 BKN080 26/19 Q1020=
2025-06-18 01:00:00<>METAR SBSV 180100Z 11014KT 9999 SCT030 BKN080 26/19 Q1020=
2025-06-18 02:00:00<>METAR SBSV 180200Z 11010KT 090V170 9999 SCT030 BKN080 25/19 Q1020=
2025-06-18 03:00:00<>METAR SBSV 180300Z 12009KT 100V170 9999 SCT030 26/20 Q1020=
2025-06-18 04:00:00<>METAR SBSV 180400Z 12009KT 9999 SCT025 25/20 Q1020=
2025-06-18 05:00:00<>METAR SBSV 180500Z 11010KT 9999 SCT023 25/20 Q1019=
2025-06-18 06:00:00<>METAR SBSV 180600Z 11009KT 9999 SCT023 25/21 Q1019=
2025-06-18 07:00:00<>METAR SBSV 180700Z 10013KT 9999 SCT022 24/20 Q1019=
2025-06-18 08:00:00<>METAR SBSV 180800Z 09009KT 9999 SCT020 BKN060 24/21 Q1019=
2025-06-18 09:00:00<>METAR SBSV 180900Z 09013KT 9000 3000NE SHRA SCT020 FEW023TCU BKN070 25/20 Q1019=
2025-06-18 09:19:00<>SPECI SBSV 180919Z 09009KT 9999 SCT020 FEW023TCU BKN070 24/21 Q1019 RESHRA=
2025-06-18 10:00:00<>METAR SBSV 181000Z 10015KT 9999 VCSH SCT023 FEW025TCU SCT070 25/20 Q1020=
2025-06-18 11:00:00<>METAR SBSV 181100Z 12016KT 9999 SCT023 BKN060 26/21 Q1020=
2025-06-18 12:00:00<>METAR SBSV 181200Z 11015KT 9999 SCT025 27/20 Q1021=
2025-06-18 13:00:00<>METAR SBSV 181300Z 11015KT 9999 SCT026 27/20 Q1021=
2025-06-18 14:00:00<>METAR SBSV 181400Z 11015KT 9999 SCT027 28/21 Q1021=
2025-06-18 15:00:00<>METAR SBSV 181500Z 12014KT 9999 SCT027 28/20 Q1021=
2025-06-18 16:00:00<>METAR SBSV 181600Z 11013KT 070V170 9999 SCT025 28/20 Q1020=
2025-06-18 17:00:00<>METAR SBSV 181700Z 12013KT 9999 SCT025 28/18 Q1019=
2025-06-18 18:00:00<>METAR SBSV 181800Z 13010KT 100V170 9999 FEW025 28/18 Q1019=
2025-06-18 19:00:00<>METAR SBSV 181900Z 12009KT 080V150 9999 SCT025 27/18 Q1019=
2025-06-18 20:00:00<>METAR SBSV 182000Z 13009KT 9999 FEW025 26/18 Q1019=
2025-06-18 21:00:00<>METAR SBSV 182100Z 13008KT 110V180 9999 SCT025 26/17 Q1019=
2025-06-18 22:00:00<>METAR SBSV 182200Z 12007KT 090V160 9999 SCT025 25/16 Q1020=
2025-06-18 23:00:00<>METAR SBSV 182300Z 12008KT 090V190 9999 FEW025 25/17 Q1020=
2025-06-19 00:00:00<>METAR SBSV 190000Z 13005KT 9999 FEW025 25/17 Q1020=
2025-06-19 01:00:00<>METAR SBSV 190100Z 14006KT 9999 FEW025 25/18 Q1020=
2025-06-19 02:00:00<>METAR SBSV 190200Z 13006KT 090V160 9999 FEW030 25/19 Q1020=
2025-06-19 03:00:00<>METAR SBSV 190300Z 11010KT 9999 FEW030 25/17 Q1020=
2025-06-19 04:00:00<>METAR SBSV 190400Z 13006KT 9999 FEW026 25/16 Q1020=
2025-06-19 05:00:00<>METAR SBSV 190500Z 14006KT 9999 FEW026 24/16 Q1019=
2025-06-19 06:00:00<>METAR SBSV 190600Z 17005KT 9999 FEW026 BKN050 25/17 Q1019=
2025-06-19 07:00:00<>METAR SBSV 190700Z 16005KT 9999 FEW025 BKN050 25/18 Q1019=
2025-06-19 08:00:00<>METAR SBSV 190800Z VRB01KT 9999 FEW023 BKN040 22/21 Q1019=
2025-06-19 09:00:00<>METAR SBSV 190900Z VRB03KT 9999 -RA FEW010 BKN015 BKN031 22/21 Q1020=
2025-06-19 10:00:00<>METAR SBSV 191000Z 14010KT 9999 SCT019 BKN031 24/21 Q1020=
2025-06-19 11:00:00<>METAR SBSV 191100Z 18007KT 9999 SCT019 SCT046 24/20 Q1021=
2025-06-19 12:00:00<>METAR SBSV 191200Z 15010KT 9999 SCT021 BKN050 26/20 Q1021=
2025-06-19 13:00:00<>METAR SBSV 191300Z 14010KT 9000 VCSH SCT021 FEW023TCU BKN050 26/20 Q1021=
2025-06-19 14:00:00<>METAR SBSV 191400Z 19005KT 150V240 5000 -RA BR SCT018 BKN021 FEW023TCU BKN050 24/21 Q1021=
2025-06-19 15:00:00<>METAR SBSV 191500Z 15010KT 9999 VCSH SCT021 FEW023TCU BKN050 27/21 Q1020=
2025-06-19 16:00:00<>METAR SBSV 191600Z 14010KT 9999 SCT021 FEW023TCU BKN060 27/21 Q1019=
2025-06-19 17:00:00<>METAR SBSV 191700Z 13011KT 9999 SCT021 BKN070 27/20 Q1019=
2025-06-19 18:00:00<>METAR SBSV 191800Z 15011KT 120V180 9000 VCSH SCT021 FEW023TCU BKN060 27/20 Q1018=
2025-06-19 18:25:00<>SPECI SBSV 191825Z 09016KT 5000 2000NE SHRA BR BKN021 FEW023TCU BKN060 24/22 Q1018=
2025-06-19 19:00:00<>METAR SBSV 191900Z 08009KT 9000 VCSH SCT021 FEW023TCU BKN070 24/21 Q1018 RESHRA=
2025-06-19 20:00:00<>METAR SBSV 192000Z 14009KT 9999 VCSH SCT023 FEW025TCU BKN070 25/21 Q1019=
2025-06-19 21:00:00<>METAR SBSV 192100Z 15010KT 9999 SCT023 BKN060 24/20 Q1019=
2025-06-19 22:00:00<>METAR SBSV 192200Z 12006KT 090V170 9999 SCT023 BKN060 25/19 Q1019=
2025-06-19 23:00:00<>METAR SBSV 192300Z 11012KT 9999 VCSH SCT018 FEW023TCU BKN060 24/21 Q1019=
2025-06-20 00:00:00<>METAR SBSV 200000Z 18004KT 140V250 9999 SCT020 BKN050 24/21 Q1020=
2025-06-20 01:00:00<>METAR SBSV 200100Z 06011KT 010V120 9999 VCSH SCT022 OVC055 23/22 Q1020=
2025-06-20 02:00:00<>METAR SBSV 200200Z 12012KT 9999 VCSH SCT023 OVC060 26/21 Q1019=
2025-06-20 03:00:00<>METAR SBSV 200300Z 11011KT 9999 SCT022 BKN070 26/21 Q1019=
2025-06-20 04:00:00<>METAR SBSV 200400Z 13011KT 9999 SCT022 BKN080 25/21 Q1018=
2025-06-20 05:00:00<>METAR SBSV 200500Z 12012KT 9999 VCSH SCT019 BKN060 26/21 Q1018=
2025-06-20 06:00:00<>METAR SBSV 200600Z 11010KT 5000 -RA FEW012 BKN021 OVC050 24/20 Q1018=
2025-06-20 07:00:00<>METAR SBSV 200700Z 12010KT 9999 VCSH SCT023 BKN070 25/21 Q1018=
2025-06-20 08:00:00<>METAR SBSV 200800Z 11009KT 9999 VCSH SCT023 BKN070 25/21 Q1018=
2025-06-20 09:00:00<>METAR SBSV 200900Z 11008KT 9999 VCSH SCT023 SCT100 25/21 Q1019=
2025-06-20 10:00:00<>METAR SBSV 201000Z 11006KT 9999 SCT023 SCT100 25/21 Q1019=
2025-06-20 11:00:00<>METAR SBSV 201100Z 09007KT 060V130 9999 VCSH SCT023 FEW025TCU BKN050 27/21 Q1020=
2025-06-20 12:00:00<>METAR SBSV 201200Z 13010KT 9999 VCSH SCT023 FEW025TCU BKN050 26/21 Q1020=
2025-06-20 13:00:00<>METAR SBSV 201300Z 10009KT 9999 SCT023 FEW025TCU BKN050 26/21 Q1020=
2025-06-20 14:00:00<>METAR SBSV 201400Z 12009KT 090V160 9999 SCT023 SCT050 27/22 Q1020=
2025-06-20 15:00:00<>METAR SBSV 201500Z 13007KT 090V170 9999 SCT023 SCT050 27/22 Q1019=
2025-06-20 16:00:00<>METAR SBSV 201600Z 12008KT 090V150 9999 SCT023 BKN050 26/21 Q1018=
2025-06-20 17:00:00<>METAR SBSV 201700Z 09009KT 9999 SCT023 BKN050 26/21 Q1017=
2025-06-20 18:00:00<>METAR SBSV 201800Z 12004KT 080V160 9999 SCT023 BKN050 26/21 Q1017=
2025-06-20 19:00:00<>METAR SBSV 201900Z 16007KT 130V190 9999 SCT023 BKN060 26/21 Q1016=
2025-06-20 20:00:00<>METAR SBSV 202000Z 17005KT 140V200 9999 SCT023 BKN060 25/19 Q1017=
2025-06-20 21:00:00<>METAR SBSV 202100Z 16005KT 9999 SCT023 SCT070 25/21 Q1017=
2025-06-20 22:00:00<>METAR SBSV 202200Z 14007KT 9999 SCT020 BKN080 25/22 Q1018=
2025-06-20 23:00:00<>METAR SBSV 202300Z 15006KT 7000 -SHRA BKN020 BKN030 BKN070 25/22 Q1018=
2025-06-21 00:00:00<>METAR SBSV 210000Z 12004KT 9999 SCT022 BKN070 25/21 Q1018=
2025-06-21 01:00:00<>METAR SBSV 210100Z 09006KT 9999 SCT023 25/20 Q1018=
2025-06-21 02:00:00<>METAR SBSV 210200Z 08007KT 9999 BKN023 25/21 Q1018=
2025-06-21 03:00:00<>METAR SBSV 210300Z VRB02KT 9999 SCT023 24/21 Q1017=
2025-06-21 04:00:00<>METAR SBSV 210400Z 00000KT 9999 SCT023 22/22 Q1017=
2025-06-21 05:00:00<>METAR COR SBSV 210500Z 28002KT 9999 SCT023 22/22 Q1016=
2025-06-21 06:00:00<>METAR SBSV 210600Z 28003KT 9999 SCT023 BKN070 22/21 Q1016=
2025-06-21 07:00:00<>METAR SBSV 210700Z 00000KT 9999 -RA SCT023 BKN070 22/22 Q1016=
2025-06-21 08:00:00<>METAR SBSV 210800Z 29004KT 9999 SCT020 22/21 Q1016=
2025-06-21 09:00:00<>METAR SBSV 210900Z VRB02KT 9999 SCT020 22/22 Q1017=
2025-06-21 10:00:00<>METAR SBSV 211000Z 26005KT 9999 FEW026 SCT050 23/23 Q1017=
2025-06-21 11:00:00<>METAR SBSV 211100Z 24007KT 9999 FEW028 24/23 Q1018=
2025-06-21 12:00:00<>METAR SBSV 211200Z 24005KT 210V270 9999 FEW011 SCT013 BKN030 25/22 Q1018=
2025-06-21 13:00:00<>METAR SBSV 211300Z 20006KT 130V220 9999 VCSH FEW015 BKN020 FEW022TCU 25/21 Q1018=
2025-06-21 14:00:00<>METAR SBSV 211400Z 19010KT 150V210 9999 VCSH FEW014 SCT020 FEW022TCU BKN070 25/21 Q1018=
2025-06-21 15:00:00<>METAR SBSV 211500Z 13008KT 9999 VCSH FEW020 FEW022TCU BKN060 26/20 Q1017=
2025-06-21 16:00:00<>METAR SBSV 211600Z 15005KT 9999 FEW020 FEW022TCU BKN080 27/20 Q1016=
2025-06-21 17:00:00<>METAR SBSV 211700Z 14005KT 100V200 9999 FEW020 BKN100 27/20 Q1015=
2025-06-21 18:00:00<>METAR SBSV 211800Z 12002KT 9999 FEW020 BKN100 26/20 Q1015=
2025-06-21 19:00:00<>METAR SBSV 211900Z 16006KT 9999 FEW020 SCT100 26/21 Q1015=
2025-06-21 20:00:00<>METAR SBSV 212000Z 16005KT 9999 FEW020 SCT100 26/21 Q1016=
2025-06-21 21:00:00<>METAR SBSV 212100Z 14004KT 9999 FEW020 SCT100 25/21 Q1016=
2025-06-21 22:00:00<>METAR SBSV 212200Z 13004KT 9999 FEW020 SCT100 25/21 Q1016=
2025-06-21 23:00:00<>METAR SBSV 212300Z 11005KT 9999 FEW020 SCT100 25/21 Q1016=
2025-06-22 00:00:00<>METAR SBSV 220000Z 11004KT 9999 FEW023 SCT100 25/21 Q1016=
2025-06-22 01:00:00<>METAR SBSV 220100Z 00000KT 9999 FEW023 SCT100 24/22 Q1016=
2025-06-22 02:00:00<>METAR SBSV 220200Z VRB02KT 9999 FEW023 SCT100 24/21 Q1017=
2025-06-22 03:00:00<>METAR SBSV 220300Z VRB02KT 9999 SCT023 23/22 Q1016=
2025-06-22 04:00:00<>METAR SBSV 220400Z 00000KT 9999 FEW023 23/22 Q1016=
2025-06-22 05:00:00<>METAR SBSV 220500Z 00000KT 9999 FEW023 22/22 Q1015=
2025-06-22 06:00:00<>METAR SBSV 220600Z VRB02KT CAVOK 21/21 Q1015=
2025-06-22 07:00:00<>METAR SBSV 220700Z 27002KT 9999 FEW023 21/21 Q1015=
2025-06-22 08:00:00<>METAR SBSV 220800Z 28002KT 9999 FEW023 21/21 Q1015=
2025-06-22 09:00:00<>METAR SBSV 220900Z VRB02KT 9999 FEW023 21/21 Q1015=
2025-06-22 10:00:00<>METAR SBSV 221000Z 27002KT 9999 FEW024 22/22 Q1016=
2025-06-22 11:00:00<>METAR SBSV 221100Z VRB02KT 9999 FEW024 25/22 Q1017=
2025-06-22 12:00:00<>METAR SBSV 221200Z VRB02KT 9999 FEW024 27/21 Q1017=
2025-06-22 13:00:00<>METAR SBSV 221300Z 09006KT 060V120 9999 SCT026 27/20 Q1017=
2025-06-22 14:00:00<>METAR SBSV 221400Z 11007KT 080V160 9999 FEW026 28/20 Q1017=
2025-06-22 15:00:00<>METAR SBSV 221500Z 12008KT 070V150 9999 FEW027 27/20 Q1016=
2025-06-22 16:00:00<>METAR SBSV 221600Z 12008KT 080V140 9999 FEW027 28/18 Q1015=
2025-06-22 17:00:00<>METAR SBSV 221700Z 12006KT 090V180 9999 FEW025 28/20 Q1014=
2025-06-22 18:00:00<>METAR SBSV 221800Z 15006KT 110V220 9999 FEW025 27/20 Q1014=
2025-06-22 19:00:00<>METAR SBSV 221900Z 15006KT 130V190 9999 FEW025 26/19 Q1014=
2025-06-22 20:00:00<>METAR SBSV 222000Z 15005KT 9999 FEW025 BKN100 26/20 Q1014=
2025-06-22 21:00:00<>METAR SBSV 222100Z 14005KT 9999 VCSH FEW025TCU BKN100 25/19 Q1015=
2025-06-22 22:00:00<>METAR SBSV 222200Z 13007KT 9999 VCSH FEW023 FEW025TCU BKN100 25/19 Q1015=
2025-06-22 23:00:00<>METAR SBSV 222300Z 13008KT 9999 FEW022 25/19 Q1015=
2025-06-23 00:00:00<>METAR SBSV 230000Z 11008KT 9999 FEW022 25/19 Q1016=
2025-06-23 01:00:00<>METAR SBSV 230100Z 10004KT 9999 FEW023 25/20 Q1016=
2025-06-23 02:00:00<>METAR SBSV 230200Z 10005KT 9999 FEW023 25/20 Q1016=
2025-06-23 03:00:00<>METAR SBSV 230300Z 10004KT 070V130 9999 FEW024 24/19 Q1016=
2025-06-23 04:00:00<>METAR SBSV 230400Z 29002KT 9999 FEW024 SCT033 23/20 Q1016=
2025-06-23 05:00:00<>METAR SBSV 230500Z VRB02KT 9999 FEW026 22/20 Q1015=
2025-06-23 06:00:00<>METAR SBSV 230600Z VRB02KT 9999 FEW026 21/20 Q1015=
2025-06-23 07:00:00<>METAR SBSV 230700Z VRB02KT 9999 FEW026 21/20 Q1015=
2025-06-23 08:00:00<>METAR SBSV 230800Z VRB02KT 9999 SCT027 21/20 Q1015=
2025-06-23 09:00:00<>METAR SBSV 230900Z VRB01KT 9999 SCT026 BKN031 21/21 Q1015=
2025-06-23 10:00:00<>METAR SBSV 231000Z VRB02KT 9999 SCT013 22/21 Q1016=
2025-06-23 11:00:00<>METAR SBSV 231100Z 29002KT 9999 SCT025 24/21 Q1017=
2025-06-23 12:00:00<>METAR SBSV 231200Z 11007KT 9999 SCT025 27/21 Q1017=
2025-06-23 13:00:00<>METAR SBSV 231300Z 10006KT 040V180 9999 VCSH SCT023 FEW025TCU 28/21 Q1017=
2025-06-23 14:00:00<>METAR SBSV 231400Z 12008KT 080V160 9999 SCT023 FEW025TCU 27/21 Q1017=
2025-06-23 15:00:00<>METAR SBSV 231500Z 12007KT 090V150 9999 SCT023 FEW025TCU 28/21 Q1016=
2025-06-23 16:00:00<>METAR SBSV 231600Z 09004KT 060V130 9999 VCSH SCT023 FEW025TCU 26/22 Q1015=
2025-06-23 17:00:00<>METAR SBSV 231700Z 11009KT 9999 SCT023 FEW025TCU 27/21 Q1014=
2025-06-23 18:00:00<>METAR SBSV 231800Z 10009KT 9999 FEW023 27/21 Q1014=
2025-06-23 19:00:00<>METAR SBSV 231900Z 10008KT 9999 FEW023 27/21 Q1014=
2025-06-23 20:00:00<>METAR SBSV 232000Z 11006KT 9999 FEW023 26/21 Q1014=
2025-06-23 21:00:00<>METAR SBSV 232100Z 11005KT 9999 FEW020 26/21 Q1014=
2025-06-23 22:00:00<>METAR SBSV 232200Z 12005KT 9999 FEW020 SCT070 26/21 Q1015=
2025-06-23 23:00:00<>METAR SBSV 232300Z 12005KT 9999 FEW020 SCT070 26/21 Q1015=
2025-06-24 00:00:00<>METAR SBSV 240000Z 12005KT 9999 FEW020 SCT070 26/21 Q1016=
2025-06-24 01:00:00<>METAR SBSV 240100Z 12008KT 9999 FEW017 SCT060 26/22 Q1016=
2025-06-24 02:00:00<>METAR SBSV 240200Z 10010KT 9999 FEW017 SCT027 BKN060 25/22 Q1016=
2025-06-24 03:00:00<>METAR SBSV 240300Z 08006KT 9999 SCT022 BKN060 25/20 Q1016=
2025-06-24 04:00:00<>METAR SBSV 240400Z 11007KT 9000 VCSH FEW011 BKN020 BKN055 24/22 Q1015=
2025-06-24 05:00:00<>METAR SBSV 240500Z 11004KT 9999 VCSH BKN023 OVC050 24/21 Q1015=
2025-06-24 06:00:00<>METAR SBSV 240600Z 28001KT 9999 SCT019 BKN060 24/21 Q1014=
2025-06-24 07:00:00<>METAR SBSV 240700Z 11003KT 9999 FEW019 BKN060 24/21 Q1015=
2025-06-24 08:00:00<>METAR SBSV 240800Z 12004KT 090V170 9999 BKN022 BKN050 25/21 Q1015=
2025-06-24 09:00:00<>METAR SBSV 240900Z 09007KT 9999 VCSH FEW011 BKN023 OVC070 24/22 Q1015=
2025-06-24 10:00:00<>METAR SBSV 241000Z 12006KT 9999 FEW013 BKN050 OVC070 25/22 Q1016=
2025-06-24 11:00:00<>METAR SBSV 241100Z 12005KT 9999 VCSH FEW012 BKN050 OVC062 25/22 Q1017=
2025-06-24 12:00:00<>METAR SBSV 241200Z 15005KT 9999 -RA FEW014 OVC080 25/21 Q1017=
2025-06-24 13:00:00<>METAR SBSV 241300Z 08007KT 7000 3000NE -RA FEW009 BKN025 FEW026TCU OVC050 25/23 Q1017=
2025-06-24 13:25:00<>SPECI SBSV 241325Z 09005KT 060V140 5000 -RA BR BKN006 BKN017 FEW026TCU OVC050 25/24 Q1017=
2025-06-24 14:00:00<>METAR SBSV 241400Z 09006KT 3000 -RA BR BKN006 BKN016 FEW026TCU OVC050 24/24 Q1017=
2025-06-24 15:00:00<>METAR SBSV 241500Z 09006KT 3000 RA BR BKN005 BKN030 OVC050 24/24 Q1017=
2025-06-24 15:25:00<>SPECI SBSV 241525Z 11006KT 5000 -RA BR BKN005 BKN030 OVC050 24/24 Q1016 RERA=
2025-06-24 16:00:00<>METAR SBSV 241600Z 13007KT 9999 VCSH SCT005 BKN015 OVC050 24/24 Q1016 RERA=
2025-06-24 17:00:00<>METAR SBSV 241700Z 14008KT 110V170 9999 FEW009 BKN015 OVC060 24/23 Q1015=
2025-06-24 18:00:00<>METAR SBSV 241800Z 15006KT 110V220 9999 FEW009 BKN100 25/22 Q1015=
2025-06-24 19:00:00<>METAR SBSV 241900Z 10011KT 8000 3500N RA SCT006 SCT015 BKN100 25/24 Q1015=
2025-06-24 19:15:00<>SPECI SBSV 241915Z 09011KT 8000 3500N RA SCT006 BKN010 BKN100 24/24 Q1015=
2025-06-24 20:00:00<>METAR SBSV 242000Z 09013KT 3000 DZRA BKN007 SCT015 BKN100 24/24 Q1015 RERA=
2025-06-24 21:00:00<>METAR SBSV 242100Z 09011KT 8000 VCSH BKN007 SCT015 BKN100 24/24 Q1016 RERA REDZ=
2025-06-24 22:00:00<>METAR SBSV 242200Z 07012KT 9999 VCSH BKN008 SCT018 BKN100 24/24 Q1016=
2025-06-24 23:00:00<>METAR SBSV 242300Z 08011KT 9999 VCSH BKN010 SCT020 BKN100 24/23 Q1017=
2025-06-25 00:00:00<>METAR SBSV 250000Z 07012KT 9999 BKN010 SCT020 BKN100 24/23 Q1018=
2025-06-25 01:00:00<>METAR SBSV 250100Z 06010KT 9999 SCT013 BKN023 BKN100 24/23 Q1018=
2025-06-25 02:00:00<>METAR SBSV 250200Z 05009KT 9999 SCT013 BKN023 BKN100 24/22 Q1017=
2025-06-25 03:00:00<>METAR SBSV 250300Z 05007KT 9999 SCT013 BKN023 BKN100 24/23 Q1017=
2025-06-25 04:00:00<>METAR SBSV 250400Z 05005KT 9999 SCT013 BKN023 BKN100 23/23 Q1016=
2025-06-25 05:00:00<>METAR SBSV 250500Z 36003KT 320V040 9999 SCT013 BKN023 BKN100 23/23 Q1016=
2025-06-25 06:00:00<>METAR SBSV 250600Z 30002KT 9999 FEW020 23/23 Q1015=
2025-06-25 07:00:00<>METAR SBSV 250700Z 27003KT 9999 FEW020 22/22 Q1015=
2025-06-25 08:00:00<>METAR SBSV 250800Z 26003KT 9999 FEW020 22/22 Q1015=
2025-06-25 09:00:00<>METAR SBSV 250900Z 26001KT 9999 SCT020 SCT050 22/22 Q1016=
2025-06-25 10:00:00<>METAR SBSV 251000Z 30002KT 9999 FEW012 BKN025 BKN050 22/22 Q1017=
2025-06-25 11:00:00<>METAR SBSV 251100Z VRB02KT 9999 FEW015 SCT025 BKN050 24/24 Q1017=
2025-06-25 12:00:00<>METAR SBSV 251200Z 20005KT 160V230 9999 FEW013 SCT023 BKN055 25/23 Q1018=
2025-06-25 13:00:00<>METAR SBSV 251300Z 17007KT 140V200 9999 FEW016 BKN025 BKN060 26/22 Q1018=
2025-06-25 14:00:00<>METAR SBSV 251400Z 16009KT 9999 BKN021 BKN060 27/22 Q1018=
2025-06-25 15:00:00<>METAR SBSV 251500Z 16008KT 9999 BKN026 BKN060 27/22 Q1017=
2025-06-25 15:21:00<>SPECI SBSV 251521Z 17011KT 5000 SHRA FEW010 BKN020 FEW025TCU OVC050 26/22 Q1017=
2025-06-25 15:24:00<>SPECI SBSV 251524Z 18010KT 4000 SHRA BKN008 BKN020 FEW025TCU OVC050 26/22 Q1017=
2025-06-25 16:00:00<>METAR SBSV 251600Z 22005KT 190V250 7000 -SHRA BKN015 BKN022 FEW025TCU BKN050 26/23 Q1017 RESHRA=
2025-06-25 17:00:00<>METAR SBSV 251700Z 18007KT 160V250 8000 VCSH BKN023 FEW025TCU BKN070 27/22 Q1016=
2025-06-25 17:05:00<>SPECI SBSV 251705Z 13013KT 8000 3000NW SHRA BKN020 FEW025TCU BKN070 25/22 Q1016=
2025-06-25 18:00:00<>METAR SBSV 251800Z 12005KT 8000 2000NW SHRA SCT008 BKN015 BKN070 25/23 Q1016=
2025-06-25 18:35:00<>SPECI SBSV 251835Z 16009KT 5000 2000E SHRA BKN015 BKN070 25/22 Q1016=
2025-06-25 19:00:00<>METAR SBSV 251900Z 15007KT 6000 2000E SHRA BKN015 BKN070 25/23 Q1016=
2025-06-25 20:00:00<>METAR SBSV 252000Z 11012KT 7000 3000N RADZ BKN007 SCT015 BKN070 24/24 Q1016 RESHRA=
2025-06-25 21:00:00<>METAR SBSV 252100Z 12011KT 090V170 9999 BKN011 BKN070 24/23 Q1017 RERA REDZ=
2025-06-25 21:40:00<>SPECI SBSV 252140Z 13013G23KT 100V160 3000 DZRA BKN007 SCT011 BKN070 24/23 Q1017=
2025-06-25 22:00:00<>METAR SBSV 252200Z 14012KT 4000 DZRA BKN005 SCT011 BKN070 23/23 Q1018=
2025-06-25 22:35:00<>SPECI COR SBSV 252235Z 12009KT 090V150 8000 SCT007 BKN050 23/23 Q1018 RERA REDZ=
2025-06-25 23:00:00<>METAR SBSV 252300Z 11012KT 4000 DZRA SCT005 BKN010 BKN050 24/23 Q1018 RERA REDZ=
2025-06-26 00:00:00<>METAR SBSV 260000Z 15010KT 5000 -RADZ BKN005 SCT012 BKN050 23/23 Q1018 RERA REDZ=
2025-06-26 01:00:00<>METAR SBSV 260100Z 12015KT 9999 SCT012 BKN017 BKN030 24/22 Q1019=
2025-06-26 02:00:00<>METAR SBSV 260200Z 12009KT 090V160 9999 VCSH FEW015 BKN020 BKN040 25/22 Q1019=
2025-06-26 03:00:00<>METAR SBSV 260300Z 15010KT 9999 SCT015 SCT060 24/22 Q1018=
2025-06-26 04:00:00<>METAR SBSV 260400Z 09010KT 9999 VCSH SCT015 BKN020 22/22 Q1018=
2025-06-26 05:00:00<>METAR SBSV 260500Z 13003KT 090V190 9999 FEW015 BKN050 24/22 Q1017=
2025-06-26 06:00:00<>METAR SBSV 260600Z 13008KT 100V160 9999 SCT018 SCT022 BKN060 25/22 Q1017=
2025-06-26 07:00:00<>METAR SBSV 260700Z 12008KT 9999 FEW024 BKN080 25/21 Q1017=
2025-06-26 08:00:00<>METAR SBSV 260800Z 11006KT 9999 FEW014 BKN019 BKN090 24/22 Q1017=
2025-06-26 09:00:00<>METAR SBSV 260900Z 09010KT 9999 VCSH FEW011 SCT015 FEW020TCU BKN060 24/22 Q1018=
2025-06-26 10:00:00<>METAR SBSV 261000Z 10011KT 8000 VCSH SCT021 FEW025TCU BKN060 24/22 Q1018=
2025-06-26 11:00:00<>METAR SBSV 261100Z 12015KT 080V150 4000 SHRA BR BKN015 FEW025TCU OVC030 24/21 Q1019=
2025-06-26 11:10:00<>SPECI COR SBSV 261110Z 11010KT 070V140 5000 BR VCSH BKN015 BKN021 FEW025TCU BKN050 24/23 Q1019 RESHRA=
2025-06-26 12:00:00<>METAR SBSV 261200Z 12015G25KT 4000 -SHRA BR BKN015 BKN020 FEW025TCU OVC030 25/22 Q1019 RESHRA=
2025-06-26 12:11:00<>SPECI SBSV 261211Z 11019KT 7000 -RA FEW015 BKN020 FEW025TCU BKN050 24/22 Q1019 RESHRA=
2025-06-26 13:00:00<>METAR SBSV 261300Z 12008KT 9999 FEW014 SCT022 BKN055 26/21 Q1019=
2025-06-26 14:00:00<>METAR SBSV 261400Z 10014KT 5000 -SHRA BR SCT012 BKN018 BKN060 25/23 Q1019=
2025-06-26 15:00:00<>METAR SBSV 261500Z 11011KT 9999 BKN022 BKN070 27/23 Q1018=
2025-06-26 16:00:00<>METAR SBSV 261600Z 10011KT 9999 SCT023 SCT070 28/22 Q1017=
2025-06-26 17:00:00<>METAR SBSV 261700Z 10012KT 9000 VCSH SCT021 FEW025TCU SCT070 28/21 Q1017=
2025-06-26 18:00:00<>METAR SBSV 261800Z 11011KT 080V150 9999 SCT021 SCT070 27/21 Q1016=
2025-06-26 19:00:00<>METAR SBSV 261900Z 11009KT 9999 SCT023 27/20 Q1017=
2025-06-26 20:00:00<>METAR SBSV 262000Z 12007KT 9999 SCT023 26/20 Q1017=
2025-06-26 21:00:00<>METAR SBSV 262100Z 13006KT 9999 SCT023 26/21 Q1017=
2025-06-26 22:00:00<>METAR SBSV 262200Z 12007KT 9999 SCT023 26/21 Q1017=
2025-06-26 23:00:00<>METAR SBSV 262300Z 12008KT 9999 SCT023 26/21 Q1018=
2025-06-27 00:00:00<>METAR SBSV 270000Z 12009KT 8000 -SHRA SCT021 24/22 Q1018=
2025-06-27 01:00:00<>METAR SBSV 270100Z 12011KT 090V150 9999 VCSH SCT020 BKN055 25/21 Q1018=
2025-06-27 02:00:00<>METAR SBSV 270200Z 13009KT 100V160 9999 SCT020 25/21 Q1018=
2025-06-27 03:00:00<>METAR SBSV 270300Z 14010KT 100V170 9999 BKN019 25/22 Q1018=
2025-06-27 04:00:00<>METAR SBSV 270400Z 12009KT 9999 FEW023 25/21 Q1017=
2025-06-27 05:00:00<>METAR SBSV 270500Z 12008KT 9999 VCSH SCT022 BKN050 25/21 Q1017=
2025-06-27 06:00:00<>METAR SBSV 270600Z 14008KT 110V190 9999 FEW023 BKN060 25/21 Q1017=
2025-06-27 07:00:00<>METAR SBSV 270700Z 11012KT 9999 VCSH BKN020 BKN060 25/21 Q1017=
2025-06-27 08:00:00<>METAR SBSV 270800Z 12015KT 4000 -RA BR BKN014 BKN021 OVC040 25/22 Q1017=
2025-06-27 09:00:00<>METAR SBSV 270900Z 14007KT 100V160 8000 -RA BKN012 BKN021 BKN060 24/22 Q1017=
2025-06-27 09:10:00<>SPECI SBSV 270910Z 11010KT 070V160 8000 VCSH BKN017 BKN021 BKN060 24/22 Q1017=
2025-06-27 10:00:00<>METAR SBSV 271000Z 06008KT 9999 BKN023 BKN060 24/21 Q1018=
2025-06-27 11:00:00<>METAR SBSV 271100Z 03003KT 330V090 9999 VCSH BKN023 FEW025TCU BKN060 24/22 Q1019=
2025-06-27 12:00:00<>METAR SBSV 271200Z 12011KT 090V160 9999 SCT023 BKN060 26/21 Q1019=
2025-06-27 13:00:00<>METAR SBSV 271300Z 15012KT 110V170 9999 VCSH SCT023 BKN060 27/20 Q1019=
2025-06-27 14:00:00<>METAR SBSV 271400Z 13009KT 9999 VCSH SCT023 FEW025TCU BKN060 26/21 Q1019=
2025-06-27 15:00:00<>METAR SBSV 271500Z 12011KT 9999 SCT023 28/21 Q1018=
2025-06-27 16:00:00<>METAR SBSV 271600Z 12011KT 9999 SCT023 28/21 Q1018=
2025-06-27 17:00:00<>METAR SBSV 271700Z 14011KT 9999 VCSH SCT023 FEW025TCU 28/21 Q1018=
2025-06-27 18:00:00<>METAR SBSV 271800Z 15010KT 110V190 9999 VCSH SCT024 FEW025TCU BKN100 28/21 Q1017=
2025-06-27 19:00:00<>METAR SBSV 271900Z 14009KT 9999 VCSH FEW024 FEW025TCU BKN070 27/21 Q1017=
2025-06-27 20:00:00<>METAR SBSV 272000Z 14008KT 9999 FEW025 BKN100 26/21 Q1018=
2025-06-27 21:00:00<>METAR SBSV 272100Z 16009KT 130V200 9999 FEW025 BKN040 25/21 Q1018=
2025-06-27 22:00:00<>METAR SBSV 272200Z 15007KT 130V220 9999 FEW024 SCT030 BKN100 26/21 Q1018=
2025-06-27 23:00:00<>METAR SBSV 272300Z 14006KT 9999 FEW024 SCT100 25/20 Q1018=
2025-06-28 00:00:00<>METAR SBSV 280000Z 14007KT 110V200 9999 FEW025 25/20 Q1019=
2025-06-28 01:00:00<>METAR SBSV 280100Z 14007KT 100V190 9999 FEW025 25/20 Q1019=
2025-06-28 02:00:00<>METAR SBSV 280200Z 16008KT 9999 FEW025 26/20 Q1019=
2025-06-28 03:00:00<>METAR SBSV 280300Z 16007KT 130V200 9999 SCT025 26/21 Q1019=
2025-06-28 04:00:00<>METAR SBSV 280400Z 15008KT 9999 SCT025 25/20 Q1018=
2025-06-28 05:00:00<>METAR SBSV 280500Z 16009KT 9999 SCT025 25/20 Q1018=
2025-06-28 06:00:00<>METAR SBSV 280600Z 17008KT 9999 SCT025 25/21 Q1017=
2025-06-28 06:27:00<>SPECI SBSV 280627Z 14010KT 4000 -SHRA FEW009 BKN023 FEW025TCU 24/22 Q1017=
2025-06-28 07:00:00<>METAR SBSV 280700Z 16006KT 9999 FEW009 BKN023 FEW025TCU 23/23 Q1017=
2025-06-28 08:00:00<>METAR SBSV 280800Z 16006KT 120V210 4000 -RA BKN011 BKN023 FEW025TCU 24/23 Q1017=
2025-06-28 09:00:00<>METAR SBSV 280900Z 11010KT 9000 VCSH BKN016 BKN023 FEW025TCU 24/23 Q1018=
2025-06-28 10:00:00<>METAR SBSV 281000Z 13009KT 110V170 5000 -SHRA BR FEW009 BKN020 FEW025TCU BKN060 24/23 Q1018=
2025-06-28 11:00:00<>METAR SBSV 281100Z 14008KT 110V170 4000 RA BR BKN008 BKN020 OVC040 25/23 Q1019=
2025-06-28 11:10:00<>SPECI SBSV 281110Z 09005KT 8000 VCSH BKN015 BKN022 BKN045 24/23 Q1019 RERA=
2025-06-28 12:00:00<>METAR SBSV 281200Z 07006KT 020V110 6000 -RA FEW008 BKN016 OVC040 25/24 Q1019=
2025-06-28 13:00:00<>METAR SBSV 281300Z 09013KT 9999 SCT019 BKN055 27/23 Q1019=
2025-06-28 13:05:00<>SPECI SBSV 281305Z 08012KT 5000 SHRA BR SCT007 SCT019 BKN055 27/23 Q1019=
2025-06-28 14:00:00<>METAR SBSV 281400Z 08015G26KT 6000 -RA FEW009 BKN019 BKN050 26/23 Q1019 RESHRA=
2025-06-28 14:11:00<>SPECI SBSV 281411Z 09017KT 9999 BKN020 BKN060 26/21 Q1019=
2025-06-28 15:00:00<>METAR SBSV 281500Z 11017KT 7000 -RA BKN019 FEW025TCU OVC040 27/22 Q1019=
2025-06-28 16:00:00<>METAR SBSV 281600Z 10016KT 9999 SCT022 BKN070 28/21 Q1018=
2025-06-28 17:00:00<>METAR SBSV 281700Z 11017KT 9999 SCT023 28/20 Q1018=
2025-06-28 18:00:00<>METAR SBSV 281800Z 11015KT 9999 FEW023 SCT100 27/19 Q1018=
2025-06-28 19:00:00<>METAR SBSV 281900Z 10014KT 9999 FEW023 SCT100 27/19 Q1018=
2025-06-28 20:00:00<>METAR SBSV 282000Z 11012KT 9999 FEW030 SCT100 26/19 Q1018=
2025-06-28 21:00:00<>METAR SBSV 282100Z 11012KT 9999 FEW030 SCT100 26/19 Q1018=
2025-06-28 22:00:00<>METAR SBSV 282200Z 11010KT 9999 FEW030 SCT100 26/17 Q1018=
2025-06-28 23:00:00<>METAR SBSV 282300Z 13009KT 9999 FEW030 26/17 Q1018=
2025-06-29 00:00:00<>METAR SBSV 290000Z 14010KT 9999 FEW023 26/17 Q1019=
2025-06-29 01:00:00<>METAR SBSV 290100Z 13009KT 9999 FEW025 25/18 Q1019=
2025-06-29 02:00:00<>METAR SBSV 290200Z 13010KT 9999 FEW025 25/18 Q1019=
2025-06-29 03:00:00<>METAR SBSV 290300Z 13010KT 9999 FEW025 26/17 Q1019=
2025-06-29 04:00:00<>METAR SBSV 290400Z 13009KT 100V160 CAVOK 26/15 Q1018=
2025-06-29 05:00:00<>METAR SBSV 290500Z 13007KT CAVOK 25/17 Q1018=
2025-06-29 06:00:00<>METAR SBSV 290600Z 12005KT CAVOK 25/16 Q1017=
2025-06-29 07:00:00<>METAR SBSV 290700Z 13009KT 9999 FEW031 SCT060 25/18 Q1017=
2025-06-29 08:00:00<>METAR SBSV 290800Z 14008KT CAVOK 25/16 Q1017=
2025-06-29 09:00:00<>METAR SBSV 290900Z 13008KT 9999 FEW025 BKN065 25/18 Q1017=
2025-06-29 10:00:00<>METAR SBSV 291000Z 10006KT 9999 FEW025 BKN050 25/19 Q1017=
2025-06-29 11:00:00<>METAR SBSV 291100Z 08004KT 050V120 9999 FEW025 SCT050 26/20 Q1018=
2025-06-29 12:00:00<>METAR SBSV 291200Z 13009KT 100V160 9999 SCT025 27/20 Q1019=
2025-06-29 13:00:00<>METAR SBSV 291300Z 14009KT 9999 SCT025 27/20 Q1019=
2025-06-29 14:00:00<>METAR SBSV 291400Z 14008KT 110V180 9999 SCT025 28/20 Q1018=
2025-06-29 15:00:00<>METAR SBSV 291500Z 15009KT 120V190 9999 SCT025 28/20 Q1017=
2025-06-29 16:00:00<>METAR SBSV 291600Z 17009KT 140V200 9999 SCT025 28/20 Q1017=
2025-06-29 17:00:00<>METAR SBSV 291700Z 16009KT 9999 SCT025 28/20 Q1017=
2025-06-29 18:00:00<>METAR SBSV 291800Z 16009KT 9999 SCT025 27/20 Q1017=
2025-06-29 19:00:00<>METAR SBSV 291900Z 17008KT 9999 SCT025 27/21 Q1017=
2025-06-29 20:00:00<>METAR SBSV 292000Z 15009KT 9999 SCT021 26/20 Q1017=
2025-06-29 21:00:00<>METAR SBSV 292100Z 14008KT 9999 SCT021 26/21 Q1018=
2025-06-29 22:00:00<>METAR SBSV 292200Z 16008KT 140V200 9999 SCT020 26/21 Q1018=
2025-06-29 23:00:00<>METAR SBSV 292300Z 17008KT 140V200 9999 SCT020 26/21 Q1018=
2025-06-30 00:00:00<>METAR SBSV 300000Z 16010KT 9999 SCT020 25/21 Q1018=
2025-06-30 01:00:00<>METAR SBSV 300100Z 16009KT 9999 SCT020 25/21 Q1018=
2025-06-30 02:00:00<>METAR SBSV 300200Z 15008KT 9999 SCT020 25/21 Q1018=
2025-06-30 03:00:00<>METAR SBSV 300300Z 16006KT 130V200 9999 SCT020 25/21 Q1018=
2025-06-30 04:00:00<>METAR SBSV 300400Z 11007KT 9999 SCT020 25/20 Q1018=
2025-06-30 05:00:00<>METAR SBSV 300500Z 12008KT 9999 FEW020 25/20 Q1017=
2025-06-30 06:00:00<>METAR SBSV 300600Z 12007KT 9999 FEW020 SCT050 25/20 Q1017=
2025-06-30 07:00:00<>METAR SBSV 300700Z 12008KT 9999 FEW020 SCT050 25/20 Q1017=
2025-06-30 08:00:00<>METAR SBSV 300800Z 11009KT 9999 FEW020 SCT050 25/21 Q1017=
2025-06-30 09:00:00<>METAR SBSV 300900Z 10009KT 9999 SCT020 SCT050 25/21 Q1018=
2025-06-30 10:00:00<>METAR SBSV 301000Z 10008KT 070V130 9999 3000NE -RA BKN023 FEW025TCU BKN040 24/21 Q1018=
2025-06-30 11:00:00<>METAR SBSV 301100Z 12010KT 9999 VCSH SCT023 FEW025TCU BKN040 OVC050 25/20 Q1019=
2025-06-30 12:00:00<>METAR SBSV 301200Z 12010KT 9999 SCT023 FEW025TCU OVC050 26/19 Q1019=
2025-06-30 13:00:00<>METAR SBSV 301300Z 13010KT 100V160 9999 FEW023 BKN060 27/18 Q1020=
2025-06-30 14:00:00<>METAR SBSV 301400Z 13011KT 100V160 9999 FEW023 BKN053 28/18 Q1019=
2025-06-30 15:00:00<>METAR SBSV 301500Z 14011KT 110V170 9999 FEW025 28/17 Q1019=
2025-06-30 16:00:00<>METAR SBSV 301600Z 13010KT 100V160 9999 FEW025 28/17 Q1018=
2025-06-30 17:00:00<>METAR SBSV 301700Z 13009KT 080V160 9999 FEW025 27/17 Q1018=
2025-06-30 18:00:00<>METAR SBSV 301800Z 12008KT 9999 FEW025 27/16 Q1018=
2025-06-30 19:00:00<>METAR SBSV 301900Z 12007KT 9999 FEW025 27/18 Q1018=
2025-06-30 20:00:00<>METAR SBSV 302000Z 13005KT 9999 FEW025 26/19 Q1018=
2025-06-30 21:00:00<>METAR SBSV 302100Z 15006KT 9999 FEW025 26/19 Q1018=
2025-06-30 22:00:00<>METAR SBSV 302200Z 15004KT 9999 FEW025 25/19 Q1018=
2025-06-30 23:00:00<>METAR SBSV 302300Z 13005KT 9999 FEW025 25/19 Q1019=
2025-07-01 00:00:00<>METAR SBSV 010000Z 13005KT 100V160 9999 FEW023 25/20 Q1019=
2025-07-01 01:00:00<>METAR SBSV 010100Z 13005KT 090V170 9999 FEW024 BKN050 25/20 Q1019=
2025-07-01 02:00:00<>METAR SBSV 010200Z 11006KT 9999 SCT025 BKN060 25/21 Q1019=
2025-07-01 03:00:00<>METAR SBSV 010300Z 12009KT 9999 SCT023 BKN060 26/20 Q1018=
2025-07-01 04:00:00<>METAR SBSV 010400Z 12009KT 9999 VCSH BKN023 25/19 Q1018=
2025-07-01 05:00:00<>METAR SBSV 010500Z 16009KT 9999 BKN023 BKN060 25/20 Q1018=
2025-07-01 06:00:00<>METAR SBSV 010600Z 14009KT 9999 SCT025 SCT060 25/19 Q1018=
2025-07-01 07:00:00<>METAR SBSV 010700Z 14009KT 9999 SCT025 25/18 Q1018=
2025-07-01 08:00:00<>METAR SBSV 010800Z 15007KT 9999 FEW025 25/18 Q1018=
2025-07-01 09:00:00<>METAR SBSV 010900Z 16006KT 140V220 9999 FEW022 FEW025TCU SCT070 25/17 Q1018=
2025-07-01 10:00:00<>METAR SBSV 011000Z 17005KT 9999 FEW022 SCT070 26/17 Q1019=
2025-07-01 11:00:00<>METAR SBSV 011100Z 16007KT 9999 FEW022 SCT070 27/18 Q1020=
2025-07-01 12:00:00<>METAR SBSV 011200Z 15009KT 9999 FEW030 SCT070 27/18 Q1020=
2025-07-01 13:00:00<>METAR SBSV 011300Z 15008KT 130V190 9999 SCT030 SCT070 27/19 Q1020=
2025-07-01 14:00:00<>METAR SBSV 011400Z 17007KT 9999 SCT021 FEW023TCU SCT070 26/20 Q1020=
2025-07-01 15:00:00<>METAR SBSV 011500Z 15012KT 9999 VCSH SCT021 FEW023TCU SCT070 28/21 Q1020=
2025-07-01 16:00:00<>METAR SBSV 011600Z 14011KT 9999 SCT021 FEW023TCU SCT070 27/21 Q1019=
2025-07-01 17:00:00<>METAR SBSV 011700Z 12010KT 9999 FEW024 FEW026TCU SCT040 27/20 Q1019=
2025-07-01 18:00:00<>METAR SBSV 011800Z 11009KT 080V180 9999 FEW024 FEW026TCU BKN040 27/20 Q1019=
2025-07-01 19:00:00<>METAR SBSV 011900Z 12005KT 080V190 9999 FEW026TCU BKN040 BKN060 26/20 Q1019=
2025-07-01 20:00:00<>METAR SBSV 012000Z 14009KT 9999 FEW026TCU SCT060 26/18 Q1019=
2025-07-01 21:00:00<>METAR SBSV 012100Z 15008KT 9999 FEW025 SCT050 26/19 Q1019=
2025-07-01 22:00:00<>METAR SBSV 012200Z 13008KT 100V160 9999 FEW025 26/19 Q1019=
2025-07-01 23:00:00<>METAR SBSV 012300Z 14007KT 110V170 9999 FEW025 26/19 Q1020=
2025-07-02 00:00:00<>METAR SBSV 020000Z 15007KT 120V180 9999 FEW025 26/19 Q1020=
2025-07-02 01:00:00<>METAR SBSV 020100Z 10009KT 9999 SCT023 BKN050 25/21 Q1021=
2025-07-02 02:00:00<>METAR SBSV 020200Z 10009KT 9999 SCT021 BKN060 25/20 Q1020=
2025-07-02 03:00:00<>METAR SBSV 020300Z 10010KT 9999 SCT021 BKN060 25/20 Q1020=
2025-07-02 04:00:00<>METAR SBSV 020400Z 12007KT 9999 SCT021 BKN060 25/19 Q1020=
2025-07-02 05:00:00<>METAR SBSV 020500Z 13008KT 9999 FEW023 SCT060 25/19 Q1020=
2025-07-02 06:00:00<>METAR SBSV 020600Z 13007KT 9999 FEW023 SCT060 25/18 Q1019=
2025-07-02 07:00:00<>METAR SBSV 020700Z 14009KT 9999 SCT023 BKN060 25/19 Q1019=
2025-07-02 08:00:00<>METAR SBSV 020800Z 13009KT 9999 SCT023 SCT060 25/19 Q1019=
2025-07-02 09:00:00<>METAR SBSV 020900Z 12008KT 100V170 9999 SCT023 25/18 Q1019=
2025-07-02 10:00:00<>METAR SBSV 021000Z 11008KT 9999 FEW025 26/19 Q1020=
2025-07-02 11:00:00<>METAR SBSV 021100Z 11008KT 9999 FEW025 26/19 Q1021=
2025-07-02 12:00:00<>METAR SBSV 021200Z 12010KT 9999 SCT023 27/20 Q1021=
2025-07-02 13:00:00<>METAR SBSV 021300Z 12010KT 9999 SCT023 SCT050 27/19 Q1021=
2025-07-02 14:00:00<>METAR SBSV 021400Z 15011KT 120V190 9999 BKN030 BKN050 26/19 Q1021=
2025-07-02 15:00:00<>METAR SBSV 021500Z 22006KT 9999 VCSH SCT030 BKN050 25/19 Q1021=
2025-07-02 16:00:00<>METAR SBSV 021600Z 18005KT 120V250 9999 SCT030 BKN050 27/18 Q1020=
2025-07-02 17:00:00<>METAR SBSV 021700Z 16009KT 130V210 9999 SCT030 SCT060 27/19 Q1020=
2025-07-02 17:20:00<>SPECI SBSV 021720Z 14016KT 5000 SHRA FEW015 SCT030 BKN040 27/21 Q1019=
2025-07-02 17:35:00<>SPECI SBSV 021735Z 14011KT 8000 VCSH FEW015 SCT022 FEW025TCU BKN040 25/21 Q1019 RESHRA=
2025-07-02 18:00:00<>METAR SBSV 021800Z 13008KT 9999 VCSH SCT023 FEW025TCU BKN050 25/20 Q1019 RESHRA=
2025-07-02 19:00:00<>METAR SBSV 021900Z 15006KT 9999 FEW025 SCT060 26/19 Q1019=
2025-07-02 20:00:00<>METAR SBSV 022000Z 17006KT 9999 FEW025 BKN070 26/19 Q1019=
2025-07-02 21:00:00<>METAR SBSV 022100Z 16006KT 9999 FEW025 SCT055 25/20 Q1020=
2025-07-02 21:30:00<>SPECI SBSV 022130Z 17015KT 3500 RA BR FEW009 BKN015 FEW025TCU OVC050 24/21 Q1020=
2025-07-02 22:00:00<>METAR COR SBSV 022200Z 14010KT 6000 -RA BKN020 FEW025TCU OVC050 23/21 Q1020 RERA=
2025-07-02 23:00:00<>METAR SBSV 022300Z 08008KT 060V120 9999 VCSH BKN025 BKN070 23/20 Q1021=
2025-07-03 00:00:00<>METAR SBSV 030000Z 25002KT 9999 SCT023 SCT080 22/20 Q1021=
2025-07-03 01:00:00<>METAR SBSV 030100Z VRB02KT 9999 SCT024 BKN030 22/21 Q1021=
2025-07-03 02:00:00<>METAR SBSV 030200Z 12011KT 9999 SCT020 BKN080 24/21 Q1021=
2025-07-03 03:00:00<>METAR SBSV 030300Z 13006KT 100V160 9999 FEW021 25/19 Q1020=
2025-07-03 04:00:00<>METAR SBSV 030400Z 14008KT 9999 FEW022 BKN050 25/19 Q1020=
2025-07-03 05:00:00<>METAR SBSV 030500Z 14007KT 9999 FEW023 BKN070 25/20 Q1019=
2025-07-03 06:00:00<>METAR SBSV 030600Z 10007KT 9999 FEW023 BKN070 23/19 Q1019=
2025-07-03 07:00:00<>METAR SBSV 030700Z 14007KT 9999 FEW023 24/19 Q1019=
2025-07-03 08:00:00<>METAR SBSV 030800Z 15009KT 9999 FEW024 25/19 Q1019=
2025-07-03 09:00:00<>METAR SBSV 030900Z 14009KT 110V190 9999 SCT024 BKN040 25/19 Q1019=
2025-07-03 10:00:00<>METAR SBSV 031000Z 14011KT 9999 VCSH SCT021 FEW023TCU BKN060 25/20 Q1020=
2025-07-03 11:00:00<>METAR SBSV 031100Z 15011KT 9999 VCSH SCT021 FEW023TCU BKN060 26/20 Q1021=
2025-07-03 12:00:00<>METAR SBSV 031200Z 15011KT 9000 VCSH SCT021 FEW023TCU BKN060 26/20 Q1021=
2025-07-03 13:00:00<>METAR SBSV 031300Z 14010KT 110V170 9000 VCSH SCT021 FEW023TCU BKN060 26/18 Q1021=
2025-07-03 14:00:00<>METAR SBSV 031400Z 17009KT 130V200 9999 SCT023 SCT070 26/20 Q1021=
2025-07-03 15:00:00<>METAR SBSV 031500Z 15013KT 9999 SCT023 28/19 Q1020=
2025-07-03 16:00:00<>METAR SBSV 031600Z 15011KT 9999 SCT023 28/20 Q1019=
2025-07-03 17:00:00<>METAR SBSV 031700Z 15011KT 9999 SCT023 27/20 Q1019=
2025-07-03 18:00:00<>METAR SBSV 031800Z 15011KT 9999 SCT023 27/19 Q1018=
2025-07-03 19:00:00<>METAR SBSV 031900Z 14011KT 9999 SCT023 27/19 Q1018=
2025-07-03 20:00:00<>METAR SBSV 032000Z 14010KT 9999 SCT023 26/19 Q1018=
2025-07-03 21:00:00<>METAR SBSV 032100Z 13009KT 9999 SCT023 26/18 Q1019=
2025-07-03 22:00:00<>METAR SBSV 032200Z 15010KT 9999 SCT023 26/18 Q1019=
2025-07-03 23:00:00<>METAR SBSV 032300Z 14011KT 9999 FEW025 26/18 Q1019=
2025-07-04 00:00:00<>METAR SBSV 040000Z 15009KT 120V180 9999 FEW025 26/17 Q1019=
2025-07-04 01:00:00<>METAR SBSV 040100Z 15010KT 9999 FEW023 26/18 Q1019=
2025-07-04 02:00:00<>METAR SBSV 040200Z 16010KT 9999 FEW023 SCT080 26/19 Q1019=
2025-07-04 03:00:00<>METAR SBSV 040300Z 16010KT 140V200 9999 FEW025 SCT080 26/19 Q1019=
2025-07-04 04:00:00<>METAR SBSV 040400Z 14015KT 100V160 4500 -SHRA BR BKN010 FEW025TCU OVC040 23/20 Q1019=
2025-07-04 04:03:00<>SPECI SBSV 040403Z 12018KT 1500 R10/1000 R28/1000 +SHRA BR BKN006 OVC020 23/20 Q1019=
2025-07-04 04:26:00<>SPECI SBSV 040426Z 12015KT 3500 -RA BR BKN010 OVC020 21/20 Q1019 RESHRA=
2025-07-04 04:46:00<>SPECI SBSV 040446Z 10015KT 6000 -RA BKN015 BKN025 OVC050 22/21 Q1019=
2025-07-04 05:00:00<>METAR SBSV 040500Z 10015KT 6000 -RA BKN015 BKN025 OVC050 22/21 Q1019 RESHRA=
2025-07-04 06:00:00<>METAR SBSV 040600Z 13013KT 9000 VCSH SCT016 BKN024 OVC060 23/19 Q1019=
2025-07-04 07:00:00<>METAR SBSV 040700Z 18004KT 9999 FEW020 BKN025 BKN060 23/19 Q1018=
2025-07-04 08:00:00<>METAR SBSV 040800Z 12007KT 9999 BKN022 BKN060 23/20 Q1018=
2025-07-04 09:00:00<>METAR SBSV 040900Z 08014KT 7000 -RA SCT016 BKN023 OVC060 22/20 Q1019=
2025-07-04 10:00:00<>METAR SBSV 041000Z VRB02KT 9999 VCSH FEW020 FEW023TCU BKN035 OVC061 22/20 Q1019=
2025-07-04 11:00:00<>METAR SBSV 041100Z VRB02KT 9999 FEW023 SCT065 24/20 Q1020=
2025-07-04 12:00:00<>METAR SBSV 041200Z 18004KT 140V240 9999 FEW024 SCT040 25/20 Q1021=
2025-07-04 13:00:00<>METAR SBSV 041300Z 22005KT 180V300 9999 FEW024 26/20 Q1020=
2025-07-04 14:00:00<>METAR SBSV 041400Z 20006KT 160V240 9999 VCSH FEW024 FEW025TCU BKN062 25/20 Q1020=
2025-07-04 15:00:00<>METAR SBSV 041500Z 17007KT 9999 FEW024 BKN080 26/20 Q1019=
2025-07-04 16:00:00<>METAR SBSV 041600Z 19008KT 160V220 9999 FEW024 FEW025TCU SCT080 26/20 Q1018=
2025-07-04 17:00:00<>METAR SBSV 041700Z 21008KT 180V250 9999 FEW024 FEW025TCU SCT090 27/20 Q1018=
2025-07-04 18:00:00<>METAR SBSV 041800Z 19006KT 130V230 8000 VCSH SCT024 FEW025TCU BKN090 25/21 Q1017=
2025-07-04 19:00:00<>METAR SBSV 041900Z 20006KT 100V240 9999 SCT024 FEW025TCU SCT090 25/21 Q1017=
2025-07-04 19:30:00<>SPECI SBSV 041930Z 18010KT 160V220 5000 SHRA BKN018 SCT023 FEW025TCU BKN090 25/22 Q1018=
2025-07-04 19:48:00<>SPECI SBSV 041948Z 18009KT 9000 VCSH SCT018 SCT023 FEW025TCU BKN090 25/22 Q1018 RESHRA=
2025-07-04 20:00:00<>METAR SBSV 042000Z 19007KT 9000 VCSH SCT018 SCT023 FEW025TCU BKN090 25/22 Q1018 RESHRA=
2025-07-04 21:00:00<>METAR SBSV 042100Z 18005KT 9999 SCT023 FEW025TCU SCT090 25/22 Q1018=
2025-07-04 22:00:00<>METAR SBSV 042200Z 14005KT 9999 SCT025 25/20 Q1018=
2025-07-04 23:00:00<>METAR SBSV 042300Z 08008KT 030V100 6000 -RA BKN025 SCT090 23/21 Q1018=
2025-07-05 00:00:00<>METAR SBSV 050000Z VRB02KT 9999 SCT025 22/21 Q1019=
2025-07-05 01:00:00<>METAR SBSV 050100Z 16005KT 140V270 9999 SCT025 24/21 Q1019=
2025-07-05 02:00:00<>METAR SBSV 050200Z 17007KT 9999 SCT025 BKN080 23/20 Q1019=
2025-07-05 03:00:00<>METAR SBSV 050300Z 19004KT 150V220 9999 SCT025 BKN080 24/20 Q1019=
2025-07-05 04:00:00<>METAR SBSV 050400Z 17005KT 9999 SCT025 BKN080 23/20 Q1019=
2025-07-05 05:00:00<>METAR SBSV 050500Z 16007KT 9999 SCT025 BKN080 24/21 Q1018=
2025-07-05 06:00:00<>METAR SBSV 050600Z 18007KT 9999 SCT025 BKN080 24/21 Q1018=
2025-07-05 07:00:00<>METAR SBSV 050700Z 16012KT 9999 SCT025 BKN080 25/20 Q1018=
2025-07-05 08:00:00<>METAR SBSV 050800Z 16013KT 9999 SCT025 BKN080 25/21 Q1018=
2025-07-05 09:00:00<>METAR SBSV 050900Z 16010KT 9999 SCT025 BKN080 25/21 Q1019=
2025-07-05 10:00:00<>METAR SBSV 051000Z 17013KT 9999 VCSH FEW018 SCT023 FEW025TCU BKN030 25/20 Q1019=
2025-07-05 11:00:00<>METAR SBSV 051100Z 18011KT 9999 VCSH FEW018 FEW025TCU SCT030 25/20 Q1020=
2025-07-05 12:00:00<>METAR SBSV 051200Z 21010KT 9999 VCSH FEW017 FEW025TCU SCT030 25/21 Q1021=
2025-07-05 13:00:00<>METAR SBSV 051300Z 21009KT 9999 VCSH SCT015 FEW025TCU BKN050 24/22 Q1020=
2025-07-05 14:00:00<>METAR SBSV 051400Z 16014KT 9999 VCSH FEW015 FEW025TCU BKN050 26/20 Q1020=
2025-07-05 15:00:00<>METAR SBSV 051500Z 17012KT 9999 FEW017 FEW025TCU BKN032 27/21 Q1019=
2025-07-05 16:00:00<>METAR SBSV 051600Z 19014KT 9999 VCSH FEW016 FEW023TCU BKN060 26/21 Q1019=
2025-07-05 17:00:00<>METAR SBSV 051700Z 19013KT 9999 VCSH FEW020 FEW023TCU BKN050 26/21 Q1018=
2025-07-05 18:00:00<>METAR SBSV 051800Z 20012KT 150V230 9999 VCSH SCT023 FEW025TCU SCT060 26/20 Q1017=
2025-07-05 19:00:00<>METAR SBSV 051900Z 19010KT 170V230 6000 -SHRA SCT009 BKN022 FEW025TCU BKN040 24/21 Q1018=
2025-07-05 20:00:00<>METAR SBSV 052000Z 17012KT 140V200 9000 VCSH BKN020 FEW025TCU BKN070 26/19 Q1018=
2025-07-05 21:00:00<>METAR SBSV 052100Z 19010KT 140V240 8000 FEW015 BKN023 FEW025TCU BKN040 25/21 Q1018=
2025-07-05 22:00:00<>METAR SBSV 052200Z 18010KT 9999 VCSH FEW012 BKN022 FEW025TCU BKN050 24/21 Q1018=
2025-07-05 22:42:00<>SPECI SBSV 052242Z 19010G20KT 140V220 5000 SHRA BR FEW015 BKN022 FEW025TCU OVC040 24/21 Q1019=
2025-07-05 23:00:00<>METAR SBSV 052300Z 19009G19KT 140V230 3500 -SHRA BR BKN015 BKN020 FEW025TCU OVC040 24/21 Q1019 RESHRA=
2025-07-05 23:11:00<>SPECI SBSV 052311Z 17009KT 6000 -RA SCT014 BKN020 FEW025TCU OVC045 23/22 Q1019=
2025-07-06 00:00:00<>METAR SBSV 060000Z 17011KT 9999 VCSH BKN022 FEW025TCU BKN070 25/20 Q1019=
2025-07-06 01:00:00<>METAR SBSV 060100Z 18011KT 160V240 9999 VCSH SCT020 FEW025TCU BKN040 BKN070 23/21 Q1019=
2025-07-06 02:00:00<>METAR SBSV 060200Z 16010KT 120V190 8000 VCSH SCT008 SCT018 FEW023TCU BKN036 23/21 Q1019=
2025-07-06 02:03:00<>SPECI SBSV 060203Z 15011KT 6000 RA BKN010 SCT018 FEW023TCU BKN040 23/20 Q1019=
2025-07-06 02:27:00<>SPECI SBSV 060227Z 20007KT 8000 -RA SCT010 BKN017 FEW021TCU BKN040 23/22 Q1019 RERA=
2025-07-06 03:00:00<>METAR SBSV 060300Z VRB03KT 5000 RA BKN010 BKN017 FEW021TCU BKN040 23/22 Q1019=
2025-07-06 03:38:00<>SPECI SBSV 060338Z 23005KT 190V260 9000 VCSH SCT010 SCT018 FEW021TCU BKN040 22/22 Q1019 RERA=
2025-07-06 04:00:00<>METAR SBSV 060400Z 22004KT 190V250 9000 VCSH BKN017 FEW020TCU BKN040 23/22 Q1018 RERA=
2025-07-06 05:00:00<>METAR SBSV 060500Z 18007KT 140V230 9000 VCSH SCT017 FEW020TCU BKN040 24/21 Q1018=
2025-07-06 05:23:00<>SPECI SBSV 060523Z 11012KT 4000 RA BKN010 BKN017 FEW020TCU BKN040 23/22 Q1017=
2025-07-06 06:00:00<>METAR SBSV 060600Z 09011KT 8000 VCSH SCT010 BKN017 FEW020TCU BKN040 22/22 Q1017 RERA=
2025-07-06 07:00:00<>METAR SBSV 060700Z 10007KT 9999 BKN019 FEW020TCU BKN040 23/23 Q1017=
2025-07-06 07:15:00<>SPECI SBSV 060715Z 13007KT 090V180 5000 -RA BKN010 BKN018 FEW020TCU BKN040 23/22 Q1017=
2025-07-06 08:00:00<>METAR SBSV 060800Z 12011KT 5000 RA BKN008 BKN018 FEW020TCU BKN040 22/22 Q1018=
2025-07-06 08:45:00<>SPECI SBSV 060845Z 10010KT 8000 VCSH BKN012 BKN018 FEW020TCU BKN040 23/22 Q1018 RERA=
2025-07-06 09:00:00<>METAR SBSV 060900Z 11010KT 090V180 7000 -RA SCT010 BKN017 FEW020TCU BKN040 23/22 Q1018 RERA=
2025-07-06 10:00:00<>METAR SBSV 061000Z 05003KT 020V090 8000 3000NE -RA BKN020 FEW025TCU BKN040 23/22 Q1019=
2025-07-06 11:00:00<>METAR SBSV 061100Z 09005KT 8000 -RA SCT011 BKN020 FEW025TCU BKN050 22/22 Q1019=
2025-07-06 12:00:00<>METAR SBSV 061200Z VRB02KT 9999 VCSH FEW020 SCT030 BKN050 24/21 Q1020=
2025-07-06 13:00:00<>METAR SBSV 061300Z 24009KT 9999 SCT011 SCT030 BKN050 25/22 Q1020=
2025-07-06 13:25:00<>SPECI SBSV 061325Z 25010KT 4000 RA BKN010 SCT025 BKN050 24/23 Q1020=
2025-07-06 14:00:00<>METAR SBSV 061400Z VRB05KT 2000 RA FEW004 BKN010 BKN050 24/22 Q1020=
2025-07-06 15:00:00<>METAR SBSV 061500Z 22006KT 2500 RA FEW006 BKN015 BKN050 23/22 Q1019=
2025-07-06 16:00:00<>METAR SBSV 061600Z VRB02KT 3000 RA SCT008 BKN018 BKN040 23/23 Q1018=
2025-07-06 16:25:00<>SPECI SBSV 061625Z 23003KT 7000 -DZ BKN011 BKN021 OVC050 23/23 Q1018 RERA=
2025-07-06 16:48:00<>SPECI SBSV 061648Z VRB05KT 2000 -RA BR BKN010 BKN021 OVC030 23/22 Q1018 RERA=
2025-07-06 17:00:00<>METAR SBSV 061700Z 12005KT 100V200 2500 -RA BR BKN010 BKN021 OVC030 23/22 Q1018 RERA=
2025-07-06 17:08:00<>SPECI SBSV 061708Z VRB04KT 2000 RA BR BKN010 BKN021 OVC030 23/22 Q1017=
2025-07-06 17:34:00<>SPECI SBSV 061734Z 20005KT 170V240 3500 -RA BR BKN004 BKN011 OVC030 22/22 Q1017 RERA=
2025-07-06 18:00:00<>METAR SBSV 061800Z 18004KT 150V230 3000 -DZ BR BKN005 BKN010 OVC040 23/22 Q1018 RERA=
2025-07-06 18:30:00<>SPECI SBSV 061830Z 21005KT 140V260 9999 SCT006 BKN015 BKN070 23/22 Q1018 RERA=
2025-07-06 19:00:00<>METAR SBSV 061900Z 19004KT 130V230 9999 FEW009 BKN020 BKN090 23/22 Q1018=
2025-07-06 20:00:00<>METAR SBSV 062000Z 18004KT 160V220 9999 FEW013 SCT025 BKN100 23/21 Q1018=
2025-07-06 21:00:00<>METAR SBSV 062100Z 18006KT 9999 FEW015 SCT023 BKN100 24/21 Q1018=
2025-07-06 22:00:00<>METAR SBSV 062200Z 19010KT 170V230 2000 RA BR BKN009 OVC020 23/22 Q1018=
2025-07-06 22:26:00<>SPECI SBSV 062226Z 19007KT 150V220 3000 -RA BR BKN010 OVC023 23/23 Q1019 RERA=
2025-07-06 22:40:00<>SPECI SBSV 062240Z 18007KT 150V220 8000 VCSH SCT012 BKN015 BKN050 23/22 Q1019 RERA=
2025-07-06 23:00:00<>METAR SBSV 062300Z 19007KT 140V210 8000 VCSH BKN015 BKN050 23/22 Q1019 RERA=
2025-07-06 23:38:00<>SPECI SBSV 062338Z 18009KT 5000 -RA BR BKN010 BKN022 OVC040 23/22 Q1019=
2025-07-07 00:00:00<>METAR SBSV 070000Z 18009KT 150V210 4000 RA BR BKN010 BKN020 OVC030 23/22 Q1019=
2025-07-07 00:26:00<>SPECI SBSV 070026Z 16014KT 9999 VCSH SCT008 BKN015 OVC035 23/22 Q1020 RERA=
2025-07-07 01:00:00<>METAR SBSV 070100Z 16013KT 8000 -RA FEW006 SCT008 BKN015 23/22 Q1020=
2025-07-07 02:00:00<>METAR SBSV 070200Z 17012KT 9999 VCSH FEW009 SCT013 BKN015 23/22 Q1020=
2025-07-07 03:00:00<>METAR SBSV 070300Z 15014KT 9999 FEW013 BKN016 BKN040 24/21 Q1020=
2025-07-07 04:00:00<>METAR SBSV 070400Z 15012KT 9999 FEW020 BKN033 24/20 Q1019=
2025-07-07 05:00:00<>METAR SBSV 070500Z 13014KT 5000 -RA FEW005 SCT007 BKN015 22/22 Q1019=
2025-07-07 05:07:00<>SPECI SBSV 070507Z 14014KT 4000 -RA BKN007 BKN015 OVC020 22/22 Q1019=
2025-07-07 06:00:00<>METAR SBSV 070600Z 16015KT 4000 -RA BKN007 BKN010 OVC030 22/22 Q1019=
2025-07-07 07:00:00<>METAR SBSV 070700Z 16013KT 9999 VCSH FEW014 BKN019 OVC030 24/20 Q1019=
2025-07-07 08:00:00<>METAR SBSV 070800Z 16014KT 9999 VCSH FEW024 BKN040 24/18 Q1019=
2025-07-07 09:00:00<>METAR SBSV 070900Z 17011KT 130V220 7000 -RA FEW026 OVC036 24/18 Q1019=
2025-07-07 10:00:00<>METAR SBSV 071000Z 16015KT 9999 VCSH FEW023 FEW025TCU OVC036 25/19 Q1020=
2025-07-07 11:00:00<>METAR SBSV 071100Z 16013KT 9999 SCT023 OVC050 25/19 Q1021=
2025-07-07 12:00:00<>METAR SBSV 071200Z 16012KT 9999 SCT023 OVC050 25/19 Q1021=
2025-07-07 13:00:00<>METAR SBSV 071300Z 16013KT 9999 SCT025 OVC050 25/19 Q1022=
2025-07-07 14:00:00<>METAR SBSV 071400Z 16015KT 9999 SCT025 OVC050 26/18 Q1021=
2025-07-07 15:00:00<>METAR SBSV 071500Z 15015KT 9999 SCT025 OVC050 27/18 Q1021=
2025-07-07 16:00:00<>METAR SBSV 071600Z 16015KT 9999 SCT025 BKN060 27/19 Q1020=
2025-07-07 17:00:00<>METAR SBSV 071700Z 16013KT 9999 SCT025 FEW030TCU BKN060 26/18 Q1019=
2025-07-07 18:00:00<>METAR SBSV 071800Z 15012KT 130V190 9000 VCSH BKN025 FEW030TCU BKN060 26/19 Q1019=
2025-07-07 19:00:00<>METAR SBSV 071900Z 15014KT 9999 BKN025 BKN060 26/18 Q1019=
2025-07-07 20:00:00<>METAR SBSV 072000Z 15014KT 9999 VCSH SCT025 FEW030TCU BKN060 26/19 Q1020=
2025-07-07 21:00:00<>METAR SBSV 072100Z 15014KT 9999 SCT025 BKN060 25/19 Q1020=
2025-07-07 22:00:00<>METAR SBSV 072200Z 15013KT 9999 SCT025 BKN060 25/17 Q1021=
2025-07-07 23:00:00<>METAR SBSV 072300Z 16014KT 9999 SCT023 BKN060 25/18 Q1021=
2025-07-08 00:00:00<>METAR SBSV 080000Z 18013KT 9999 SCT023 BKN060 25/18 Q1021=
2025-07-08 01:00:00<>METAR SBSV 080100Z 17012KT 9999 FEW015 SCT022 BKN050 25/18 Q1022=
2025-07-08 02:00:00<>METAR SBSV 080200Z 16012KT 9999 FEW015 BKN023 BKN055 25/18 Q1021=
2025-07-08 03:00:00<>METAR SBSV 080300Z 19012KT 160V250 9000 VCSH SCT015 BKN021 BKN055 24/19 Q1021=
2025-07-08 04:00:00<>METAR SBSV 080400Z 13015KT 9000 VCSH BKN017 BKN022 OVC050 24/19 Q1021=
2025-07-08 05:00:00<>METAR SBSV 080500Z 13009KT 9999 BKN019 BKN023 OVC050 24/19 Q1020=
2025-07-08 06:00:00<>METAR SBSV 080600Z 18013KT 9999 BKN023 BKN050 24/18 Q1020=
2025-07-08 07:00:00<>METAR SBSV 080700Z 13011KT 9999 BKN023 BKN050 24/19 Q1020=
2025-07-08 08:00:00<>METAR SBSV 080800Z 16012KT 9999 BKN023 BKN060 25/17 Q1020=
2025-07-08 09:00:00<>METAR SBSV 080900Z 15011KT 9999 BKN023 OVC060 25/18 Q1020=
2025-07-08 10:00:00<>METAR SBSV 081000Z 15010KT 9999 BKN023 BKN060 25/17 Q1020=
2025-07-08 11:00:00<>METAR SBSV 081100Z 15011KT 9999 VCSH BKN023 FEW025TCU BKN060 26/17 Q1021=
2025-07-08 12:00:00<>METAR SBSV 081200Z 17010KT 4000 -RA BKN023 FEW025TCU BKN050 23/20 Q1022=
2025-07-08 12:18:00<>SPECI SBSV 081218Z 08004KT 050V120 5000 -RA BR BKN018 FEW023TCU BKN050 24/20 Q1022=
2025-07-08 13:00:00<>METAR SBSV 081300Z 17013KT 5000 -RA BKN018 FEW023TCU BKN050 25/20 Q1022=
2025-07-08 14:00:00<>METAR SBSV 081400Z VRB02KT 8000 VCSH BKN020 FEW023TCU BKN050 24/19 Q1021=
2025-07-08 15:00:00<>METAR SBSV 081500Z 18012KT 9000 VCSH BKN020 FEW023TCU BKN040 BKN060 25/19 Q1021=
2025-07-08 16:00:00<>METAR SBSV 081600Z 16009KT 9999 VCSH BKN020 FEW023TCU BKN040 BKN060 25/18 Q1020=
2025-07-08 17:00:00<>METAR SBSV 081700Z 15005KT 9999 FEW020 FEW023TCU BKN050 25/18 Q1019=
2025-07-08 18:00:00<>METAR SBSV 081800Z 20008KT 9999 FEW020 FEW023TCU BKN040 25/18 Q1019=
2025-07-08 19:00:00<>METAR COR SBSV 081900Z VRB02KT 9999 4000NE VCSH SCT020 FEW023TCU BKN040 23/20 Q1019=
2025-07-08 20:00:00<>METAR SBSV 082000Z 23004KT 130V300 9999 VCSH FEW020 SCT030 BKN050 24/20 Q1019=
2025-07-08 21:00:00<>METAR SBSV 082100Z 17006KT 9999 SCT023 BKN050 25/19 Q1019=
2025-07-08 22:00:00<>METAR SBSV 082200Z 12009KT 9999 SCT023 BKN050 24/18 Q1020=
2025-07-08 23:00:00<>METAR SBSV 082300Z 14007KT 110V170 9999 SCT030 BKN050 24/18 Q1020=
2025-07-09 00:00:00<>METAR SBSV 090000Z 13007KT 9999 FEW023 SCT060 24/18 Q1020=
2025-07-09 01:00:00<>METAR SBSV 090100Z 13006KT 9999 FEW030 SCT080 24/18 Q1021=
2025-07-09 02:00:00<>METAR SBSV 090200Z 14006KT 9999 FEW020 SCT100 24/17 Q1020=
2025-07-09 03:00:00<>METAR SBSV 090300Z 13004KT 080V190 9999 FEW020 SCT100 24/18 Q1020=
2025-07-09 04:00:00<>METAR SBSV 090400Z 13005KT 9999 FEW030 SCT060 24/18 Q1020=
2025-07-09 05:00:00<>METAR SBSV 090500Z 12008KT 9999 FEW030 SCT060 23/18 Q1019=
2025-07-09 06:00:00<>METAR SBSV 090600Z 12007KT 9999 FEW030 SCT070 23/18 Q1019=
2025-07-09 07:00:00<>METAR SBSV 090700Z 16006KT 9999 FEW030 BKN070 24/18 Q1019=
2025-07-09 08:00:00<>METAR SBSV 090800Z 17006KT 140V210 9999 FEW030 BKN080 24/17 Q1019=
2025-07-09 09:00:00<>METAR SBSV 090900Z 18005KT 150V210 9999 FEW030 BKN090 24/17 Q1020=
2025-07-09 10:00:00<>METAR SBSV 091000Z 19004KT 9999 FEW022 SCT080 23/18 Q1020=
2025-07-09 11:00:00<>METAR SBSV 091100Z 16006KT 9999 FEW023 26/18 Q1021=
2025-07-09 12:00:00<>METAR SBSV 091200Z 17007KT 140V200 9999 FEW022 26/18 Q1021=
2025-07-09 13:00:00<>METAR SBSV 091300Z 17007KT 140V230 9999 SCT023 27/18 Q1021=
2025-07-09 14:00:00<>METAR SBSV 091400Z 16008KT 130V210 9999 SCT023 27/18 Q1021=
2025-07-09 15:00:00<>METAR SBSV 091500Z 19010KT 150V230 9999 SCT020 26/20 Q1020=
2025-07-09 16:00:00<>METAR SBSV 091600Z 18010KT 160V220 9999 SCT020 26/20 Q1020=
2025-07-09 17:00:00<>METAR SBSV 091700Z 19010KT 160V230 9999 SCT023 26/20 Q1019=
2025-07-09 18:00:00<>METAR SBSV 091800Z 18008KT 130V220 9999 SCT023 26/19 Q1019=
2025-07-09 19:00:00<>METAR SBSV 091900Z 15008KT 9999 SCT025 26/18 Q1019=
2025-07-09 20:00:00<>METAR SBSV 092000Z 16007KT 140V200 9999 SCT025 26/18 Q1020=
2025-07-09 21:00:00<>METAR SBSV 092100Z 16006KT 090V240 9999 FEW025 25/18 Q1020=
2025-07-09 22:00:00<>METAR SBSV 092200Z 16006KT 9999 FEW025 25/18 Q1021=
2025-07-09 23:00:00<>METAR SBSV 092300Z 15006KT 9999 FEW025 25/18 Q1021=
2025-07-10 00:00:00<>METAR SBSV 100000Z 16008KT 9999 FEW025 25/18 Q1021=
2025-07-10 01:00:00<>METAR SBSV 100100Z 16009KT 9999 FEW025 25/18 Q1022=
2025-07-10 02:00:00<>METAR SBSV 100200Z 15008KT 9999 SCT025 25/18 Q1022=
2025-07-10 03:00:00<>METAR SBSV 100300Z 14007KT 9999 SCT025 25/18 Q1022=
2025-07-10 04:00:00<>METAR SBSV 100400Z 15005KT 9999 SCT025 24/18 Q1021=
2025-07-10 05:00:00<>METAR SBSV 100500Z 13007KT 100V160 9999 SCT025 25/18 Q1021=
2025-07-10 06:00:00<>METAR SBSV 100600Z 13008KT 9999 SCT025 24/18 Q1020=
2025-07-10 07:00:00<>METAR SBSV 100700Z 14006KT 9999 SCT025 24/19 Q1020=
2025-07-10 08:00:00<>METAR SBSV 100800Z 15005KT 9999 FEW025 24/18 Q1020=
2025-07-10 09:00:00<>METAR SBSV 100900Z 14006KT 9999 FEW025 25/18 Q1020=
2025-07-10 10:00:00<>METAR SBSV 101000Z 14007KT 9999 SCT025 25/18 Q1021=
2025-07-10 11:00:00<>METAR SBSV 101100Z 12009KT 090V150 9999 SCT025 26/18 Q1022=
2025-07-10 12:00:00<>METAR SBSV 101200Z 13010KT 110V170 9999 SCT025 26/19 Q1022=
2025-07-10 13:00:00<>METAR SBSV 101300Z 13010KT 100V160 9999 SCT025 27/18 Q1023=
2025-07-10 14:00:00<>METAR SBSV 101400Z 13009KT 100V170 9999 SCT025 28/18 Q1022=
2025-07-10 15:00:00<>METAR SBSV 101500Z 15011KT 9999 SCT025 27/19 Q1022=
2025-07-10 16:00:00<>METAR SBSV 101600Z 15010KT 120V180 9999 VCSH SCT023 FEW025TCU 27/20 Q1021=
2025-07-10 17:00:00<>METAR SBSV 101700Z 16009KT 130V190 9000 VCSH BKN022 FEW025TCU BKN080 27/20 Q1020=
2025-07-10 18:00:00<>METAR SBSV 101800Z 16006KT 120V200 9000 VCSH BKN023 FEW025TCU BKN080 26/20 Q1020=
2025-07-10 19:00:00<>METAR SBSV 101900Z 14010KT 110V170 9999 VCSH BKN023 FEW025TCU BKN080 26/19 Q1020=
2025-07-10 20:00:00<>METAR SBSV 102000Z 11009KT 8000 VCSH SCT015 BKN022 FEW025TCU BKN060 25/19 Q1020=
2025-07-10 21:00:00<>METAR SBSV 102100Z 21009KT 120V230 9999 VCSH BKN023 FEW025TCU BKN060 24/20 Q1021=
2025-07-10 22:00:00<>METAR SBSV 102200Z 12009KT 100V160 9999 SCT025 BKN100 25/19 Q1021=
2025-07-10 23:00:00<>METAR SBSV 102300Z 13008KT 9999 FEW025 SCT090 25/20 Q1021=
2025-07-11 00:00:00<>METAR SBSV 110000Z 14009KT 9999 SCT025 25/19 Q1022=
2025-07-11 01:00:00<>METAR SBSV 110100Z 14007KT 9999 SCT025 25/19 Q1022=
2025-07-11 02:00:00<>METAR SBSV 110200Z 14005KT 9999 SCT025 25/19 Q1021=
2025-07-11 03:00:00<>METAR SBSV 110300Z 12005KT 080V210 9999 SCT025 SCT090 24/20 Q1021=
2025-07-11 04:00:00<>METAR COR SBSV 110400Z 12007KT 9999 SCT025 SCT070 24/21 Q1020=
2025-07-11 05:00:00<>METAR SBSV 110500Z 12006KT 9999 SCT025 BKN070 24/21 Q1020=
2025-07-11 06:00:00<>METAR SBSV 110600Z 11015KT 9999 SCT025 SCT060 24/20 Q1020=
2025-07-11 07:00:00<>METAR SBSV 110700Z 13012KT 9999 SCT025 SCT060 24/20 Q1020=
2025-07-11 08:00:00<>METAR SBSV 110800Z 10008KT 9999 SCT025 BKN060 23/20 Q1020=
2025-07-11 09:00:00<>METAR SBSV 110900Z 13008KT 110V170 9000 VCSH SCT025 FEW027TCU BKN060 24/20 Q1020 RERA=
2025-07-11 10:00:00<>METAR SBSV 111000Z 12012KT 9999 VCSH SCT025 FEW027TCU SCT060 24/19 Q1021=
2025-07-11 11:00:00<>METAR SBSV 111100Z 13010KT 110V170 9999 FEW025 BKN060 25/20 Q1021=
2025-07-11 12:00:00<>METAR SBSV 111200Z 13013KT 9999 SCT017 BKN060 25/20 Q1022=
2025-07-11 13:00:00<>METAR SBSV 111300Z 13008KT 100V160 9999 SCT020 FEW023TCU BKN060 26/19 Q1022=
2025-07-11 14:00:00<>METAR SBSV 111400Z 14010KT 9999 VCSH SCT020 FEW023TCU SCT070 26/20 Q1022=
2025-07-11 14:27:00<>SPECI SBSV 111427Z 09016KT 9000 2000E SHRA SCT020 FEW023TCU SCT070 24/21 Q1022=
2025-07-11 15:00:00<>METAR SBSV 111500Z 19004KT 140V240 9000 VCSH BKN020 FEW023TCU BKN070 23/21 Q1022 RESHRA=
2025-07-11 16:00:00<>METAR SBSV 111600Z 10008KT 070V140 3000 SHRA BKN017 FEW023TCU BKN060 23/20 Q1021=
2025-07-11 16:13:00<>SPECI SBSV 111613Z 16005KT 110V240 7000 VCSH SCT018 FEW021TCU BKN060 23/21 Q1021 RESHRA=
2025-07-11 17:00:00<>METAR SBSV 111700Z 09009KT 060V120 7000 VCSH SCT018 FEW021TCU BKN060 23/22 Q1020 RESHRA=
2025-07-11 18:00:00<>METAR SBSV 111800Z 12006KT 9999 VCSH SCT018 FEW021TCU BKN060 25/19 Q1020=
2025-07-11 19:00:00<>METAR SBSV 111900Z 09007KT 9999 VCSH SCT020 FEW025TCU BKN050 25/20 Q1020=
2025-07-11 20:00:00<>METAR SBSV 112000Z 09010KT 9999 VCSH SCT020 FEW025TCU BKN050 24/20 Q1020=
2025-07-11 21:00:00<>METAR SBSV 112100Z 09003KT 9999 VCSH SCT025 BKN050 24/19 Q1020=
2025-07-11 22:00:00<>METAR SBSV 112200Z 13013KT 9999 SCT025 BKN050 25/19 Q1021=
2025-07-11 23:00:00<>METAR SBSV 112300Z 13009KT 9999 SCT025 BKN050 25/18 Q1021=
2025-07-12 00:00:00<>METAR SBSV 120000Z 12012KT 9999 SCT023 BKN050 25/19 Q1021=
2025-07-12 01:00:00<>METAR SBSV 120100Z 11014G24KT 100V180 5000 -SHRA BKN016 FEW025TCU OVC055 23/18 Q1022=
2025-07-12 02:00:00<>METAR SBSV 120200Z 14012KT 9999 SCT023 BKN080 25/19 Q1021=
2025-07-12 03:00:00<>METAR SBSV 120300Z 14012KT 9999 SCT024 BKN090 25/19 Q1021=
2025-07-12 04:00:00<>METAR SBSV 120400Z 14013KT 9999 SCT025 BKN100 25/18 Q1020=
2025-07-12 05:00:00<>METAR SBSV 120500Z 15011KT 9999 BKN023 BKN080 25/19 Q1020=
2025-07-12 06:00:00<>METAR SBSV 120600Z 14011KT 090V170 9999 SCT025 SCT100 25/18 Q1019=
2025-07-12 07:00:00<>METAR SBSV 120700Z 14010KT 9999 SCT025 SCT100 25/17 Q1019=
2025-07-12 08:00:00<>METAR SBSV 120800Z 14011KT 9000 VCSH SCT022 FEW025TCU BKN060 24/19 Q1019=
2025-07-12 09:00:00<>METAR SBSV 120900Z 19009G19KT 150V220 9000 VCSH BKN022 FEW025TCU BKN060 23/19 Q1020=
2025-07-12 10:00:00<>METAR SBSV 121000Z 15014KT 110V170 9999 VCSH BKN022 FEW025TCU BKN060 23/20 Q1020=
2025-07-12 11:00:00<>METAR SBSV 121100Z 11011KT 080V150 9999 VCSH BKN022 FEW025TCU BKN060 23/20 Q1021=
2025-07-12 12:00:00<>METAR SBSV 121200Z 16016KT 9999 VCSH SCT015 FEW025TCU BKN050 24/20 Q1022=
2025-07-12 13:00:00<>METAR SBSV 121300Z 15011KT 100V180 9999 VCSH SCT015 FEW025TCU BKN050 24/20 Q1022=
2025-07-12 14:00:00<>METAR SBSV 121400Z 16005KT 120V220 9999 SCT015 FEW025TCU OVC050 23/20 Q1022=
2025-07-12 15:00:00<>METAR SBSV 121500Z 11008KT 9999 SCT020 BKN050 26/19 Q1021=
2025-07-12 15:08:00<>SPECI SBSV 121508Z 10018G29KT 9999 3000N SHRA SCT020 FEW025TCU BKN050 24/19 Q1021=
2025-07-12 16:00:00<>METAR SBSV 121600Z 14005KT 100V190 9999 SCT020 BKN050 25/20 Q1020 RESHRA=
2025-07-12 17:00:00<>METAR SBSV 121700Z 13009KT 9999 FEW020 SCT050 26/19 Q1019=
2025-07-12 18:00:00<>METAR SBSV 121800Z 14011KT 9999 FEW020 SCT050 26/19 Q1019=
2025-07-12 19:00:00<>METAR SBSV 121900Z 13010KT 9999 SCT020 SCT050 26/18 Q1019=
2025-07-12 20:00:00<>METAR SBSV 122000Z 14009KT 9999 SCT020 SCT050 25/18 Q1019=
2025-07-12 21:00:00<>METAR SBSV 122100Z 15009KT 9999 SCT030 SCT050 25/18 Q1020=
2025-07-12 22:00:00<>METAR SBSV 122200Z 16012KT 9999 SCT030 SCT050 25/18 Q1020=
2025-07-12 23:00:00<>METAR SBSV 122300Z 15012KT 9999 SCT030 25/18 Q1020=
2025-07-13 00:00:00<>METAR SBSV 130000Z 15013KT 9999 SCT030 25/18 Q1020=
2025-07-13 01:00:00<>METAR SBSV 130100Z 15013KT 9999 SCT030 25/17 Q1020=
2025-07-13 02:00:00<>METAR SBSV 130200Z 16011KT 9999 SCT030 25/17 Q1020=
2025-07-13 03:00:00<>METAR SBSV 130300Z 15012KT 9999 SCT030 25/18 Q1020=
2025-07-13 04:00:00<>METAR SBSV 130400Z 18009KT 9999 SCT030 25/18 Q1020=
2025-07-13 05:00:00<>METAR SBSV 130500Z 15009KT 9999 SCT030 24/18 Q1019=
2025-07-13 06:00:00<>METAR SBSV 130600Z 15009KT 9999 SCT030 25/18 Q1019=
2025-07-13 07:00:00<>METAR SBSV 130700Z 14009KT 110V170 9999 SCT030 24/18 Q1019=
2025-07-13 08:00:00<>METAR SBSV 130800Z 15010KT 9999 SCT030 25/18 Q1019=
2025-07-13 09:00:00<>METAR SBSV 130900Z 15012KT 9999 VCSH SCT020 FEW023TCU 24/19 Q1019=
2025-07-13 10:00:00<>METAR SBSV 131000Z 16012KT 9999 VCSH SCT020 FEW023TCU SCT080 24/20 Q1020=
2025-07-13 11:00:00<>METAR SBSV 131100Z 15009KT 9999 VCSH SCT020 FEW023TCU SCT050 23/19 Q1021=
2025-07-13 12:00:00<>METAR SBSV 131200Z 17013KT 3000 RA SCT021 FEW025TCU SCT050 22/20 Q1022=
2025-07-13 12:20:00<>SPECI COR SBSV 131220Z 23009KT 8000 VCSH BKN020 FEW025TCU SCT050 22/20 Q1022 RERA=
2025-07-13 13:00:00<>METAR SBSV 131300Z 18013KT 9000 -SHRA BKN020 FEW025TCU SCT050 23/21 Q1021 RERA=
2025-07-13 14:00:00<>METAR SBSV 131400Z 17015KT 9999 VCSH BKN020 FEW025TCU SCT050 24/20 Q1021=
2025-07-13 15:00:00<>METAR SBSV 131500Z 16014KT 9999 SCT020 SCT080 26/20 Q1021=
2025-07-13 16:00:00<>METAR SBSV 131600Z 16015KT 9999 SCT020 SCT080 25/19 Q1021=
2025-07-13 17:00:00<>METAR SBSV 131700Z 16015KT 9999 VCSH SCT020 BKN080 26/19 Q1020=
2025-07-13 18:00:00<>METAR SBSV 131800Z 16014KT 9999 SCT020 BKN060 26/18 Q1020=
2025-07-13 19:00:00<>METAR SBSV 131900Z 16015KT 9000 VCSH SCT020 FEW023TCU BKN030 BKN060 25/19 Q1020=
2025-07-13 20:00:00<>METAR SBSV 132000Z 13015KT 9000 VCSH SCT020 FEW023TCU BKN030 BKN060 24/20 Q1020=
2025-07-13 21:00:00<>METAR SBSV 132100Z 15014KT 8000 VCSH SCT020 FEW023TCU BKN040 BKN050 24/19 Q1020=
2025-07-13 22:00:00<>METAR SBSV 132200Z 14012KT 9999 SCT020 BKN040 BKN060 24/19 Q1021=
2025-07-13 23:00:00<>METAR SBSV 132300Z 14013KT 9999 SCT020 SCT040 BKN060 24/19 Q1021=
2025-07-14 00:00:00<>METAR SBSV 140000Z 14013KT 9000 VCSH SCT020 FEW022TCU SCT040 BKN050 24/19 Q1021=
2025-07-14 01:00:00<>METAR SBSV 140100Z 14015KT 9999 FEW012 BKN020 BKN050 24/19 Q1022=
2025-07-14 01:02:00<>SPECI SBSV 140102Z 11015G25KT 6000 -SHRA FEW007 BKN015 OVC050 23/20 Q1022=
2025-07-14 02:00:00<>METAR SBSV 140200Z 12016KT 8000 VCSH BKN015 BKN022 OVC040 23/20 Q1022=
2025-07-14 03:00:00<>METAR SBSV 140300Z 13010KT 110V200 6000 -RA BKN015 BKN022 OVC050 22/21 Q1022=
2025-07-14 04:00:00<>METAR SBSV 140400Z 15008KT 7000 -RA BKN022 BKN060 23/19 Q1021=
2025-07-14 05:00:00<>METAR SBSV 140500Z 17009KT 8000 VCSH SCT010 BKN023 BKN060 22/20 Q1021=
2025-07-14 06:00:00<>METAR SBSV 140600Z 15010KT 9999 BKN020 BKN100 23/19 Q1020=
2025-07-14 07:00:00<>METAR SBSV 140700Z 13008KT 9999 SCT020 BKN080 24/19 Q1021=
2025-07-14 07:29:00<>SPECI SBSV 140729Z 09016KT 5000 -RA BKN008 BKN020 OVC040 22/21 Q1021=
2025-07-14 08:00:00<>METAR SBSV 140800Z 11015KT 3000 -RA BKN007 BKN020 OVC040 22/21 Q1021=
2025-07-14 08:10:00<>SPECI SBSV 140810Z 11011KT 3000 -RA BKN010 BKN020 OVC040 21/21 Q1021=
2025-07-14 09:00:00<>METAR SBSV 140900Z 12013KT 3000 -RA BR BKN008 BKN020 OVC090 22/20 Q1021=
2025-07-14 10:00:00<>METAR SBSV 141000Z 12009KT 7000 BKN015 OVC090 22/19 Q1022=
2025-07-14 11:00:00<>METAR SBSV 141100Z 04003KT 9999 BKN020 OVC060 22/19 Q1022=
2025-07-14 12:00:00<>METAR SBSV 141200Z 08004KT 030V110 9999 VCSH BKN020 FEW023TCU BKN060 24/20 Q1023=
2025-07-14 13:00:00<>METAR SBSV 141300Z 21003KT 160V290 9999 BKN020 BKN060 24/19 Q1023=
2025-07-14 14:00:00<>METAR SBSV 141400Z 06006G20KT 030V100 5000 SHRA BKN020 FEW023TCU BKN060 24/19 Q1023=
2025-07-14 14:06:00<>SPECI SBSV 141406Z 10015KT 3000 SHRA BKN020 FEW023TCU BKN060 22/19 Q1023=
2025-07-14 14:35:00<>SPECI SBSV 141435Z VRB02KT 5000 BR SCT020 FEW023TCU BKN060 23/19 Q1022 RESHRA=
2025-07-14 15:00:00<>METAR SBSV 141500Z 23005KT 9999 SCT020 BKN060 24/18 Q1022 RESHRA=
2025-07-14 16:00:00<>METAR SBSV 141600Z 19006KT 160V220 9000 VCSH SCT023 FEW025TCU BKN090 25/19 Q1021=
2025-07-14 17:00:00<>METAR SBSV 141700Z 21009KT 180V240 9999 VCSH SCT023 FEW025TCU BKN080 24/21 Q1021=
2025-07-14 18:00:00<>METAR SBSV 141800Z 20009KT 140V230 9999 SCT023 FEW025TCU SCT070 24/21 Q1020=
2025-07-14 19:00:00<>METAR SBSV 141900Z 21006KT 9999 SCT023 FEW025TCU SCT070 24/20 Q1020=
2025-07-14 20:00:00<>METAR SBSV 142000Z 22003KT 9999 SCT020 SCT070 24/21 Q1021=
2025-07-14 21:00:00<>METAR SBSV 142100Z 14010KT 9999 VCSH SCT020 SCT100 24/20 Q1021=
2025-07-14 22:00:00<>METAR SBSV 142200Z 16012KT 9999 SCT020 SCT050 24/19 Q1021=
2025-07-14 23:00:00<>METAR SBSV 142300Z 17009KT 9999 SCT020 SCT050 23/19 Q1022=
2025-07-15 00:00:00<>METAR SBSV 150000Z 16011KT 9999 SCT030 SCT050 23/19 Q1022=
2025-07-15 01:00:00<>METAR SBSV 150100Z 19005KT 160V240 9999 SCT030 BKN050 23/18 Q1022=
2025-07-15 02:00:00<>METAR SBSV 150200Z 20005KT 9999 SCT030 BKN060 23/19 Q1022=
2025-07-15 03:00:00<>METAR SBSV 150300Z 08010KT 7000 -RA SCT008 SCT025 BKN060 21/21 Q1022=
2025-07-15 04:00:00<>METAR SBSV 150400Z 32002KT 9999 SCT025 BKN070 21/20 Q1021=
2025-07-15 05:00:00<>METAR SBSV 150500Z VRB03KT 9999 SCT015 SCT025 BKN070 21/20 Q1021=
2025-07-15 06:00:00<>METAR SBSV 150600Z 27003KT 240V310 9999 SCT025 BKN080 21/21 Q1020=
2025-07-15 07:00:00<>METAR SBSV 150700Z 09009KT 6000 -RA SCT012 SCT025 BKN080 20/20 Q1020=
2025-07-15 08:00:00<>METAR SBSV 150800Z 31004KT 9999 SCT025 BKN060 20/20 Q1020=
2025-07-15 09:00:00<>METAR SBSV 150900Z 19005KT 100V260 4000 -RA BR SCT013 SCT023 BKN060 20/20 Q1021=
2025-07-15 10:00:00<>METAR SBSV 151000Z 27006KT 9999 SCT013 SCT023 BKN060 21/21 Q1021=
2025-07-15 11:00:00<>METAR SBSV 151100Z 30005KT 9999 SCT010 SCT023 BKN060 22/21 Q1021=
2025-07-15 11:35:00<>SPECI SBSV 151135Z 24004KT 210V290 3000 -RA SCT008 BKN020 OVC050 22/21 Q1022=
2025-07-15 12:00:00<>METAR SBSV 151200Z VRB02KT 3000 -RA BKN009 OVC050 22/21 Q1022=
2025-07-15 12:20:00<>SPECI SBSV 151220Z 28005KT 9999 SCT015 BKN050 22/21 Q1022=
2025-07-15 13:00:00<>METAR SBSV 151300Z 29006KT 250V320 9999 SCT015 BKN050 22/21 Q1022=
2025-07-15 14:00:00<>METAR SBSV 151400Z 29007KT 260V340 9999 SCT015 BKN050 24/22 Q1021=
2025-07-15 15:00:00<>METAR SBSV 151500Z 21007KT 140V250 9999 SCT015 BKN050 25/20 Q1021=
2025-07-15 16:00:00<>METAR SBSV 151600Z 21011KT 9999 SCT015 25/20 Q1020=
2025-07-15 17:00:00<>METAR SBSV 151700Z 18012KT 9999 VCSH SCT020 FEW023TCU BKN050 24/20 Q1019=
2025-07-15 18:00:00<>METAR COR SBSV 151800Z 12006KT 9999 VCSH SCT020 FEW023TCU BKN050 25/17 Q1019=
2025-07-15 19:00:00<>METAR SBSV 151900Z VRB04KT 9999 VCSH FEW020 BKN050 24/19 Q1018=
2025-07-15 20:00:00<>METAR SBSV 152000Z 23004KT 9999 FEW020 BKN050 24/19 Q1018=
2025-07-15 21:00:00<>METAR SBSV 152100Z 22004KT 9999 FEW030 BKN070 24/19 Q1018=
2025-07-15 22:00:00<>METAR SBSV 152200Z 18007KT 9999 FEW030 SCT070 24/19 Q1019=
2025-07-15 23:00:00<>METAR SBSV 152300Z 19007KT 9999 FEW030 SCT070 24/20 Q1019=
2025-07-16 00:00:00<>METAR SBSV 160000Z 20004KT 9999 FEW030 SCT080 24/20 Q1020=
2025-07-16 01:00:00<>METAR SBSV 160100Z 15007KT 110V170 9999 FEW026 BKN090 25/19 Q1020=
2025-07-16 02:00:00<>METAR SBSV 160200Z 17006KT 9999 SCT024 BKN090 24/20 Q1020=
2025-07-16 03:00:00<>METAR SBSV 160300Z 16007KT 9999 SCT024 BKN090 25/18 Q1019=
2025-07-16 04:00:00<>METAR SBSV 160400Z 15007KT 9999 FEW024 SCT090 25/18 Q1019=
2025-07-16 05:00:00<>METAR SBSV 160500Z 14006KT 9999 FEW024 SCT090 25/19 Q1018=
2025-07-16 06:00:00<>METAR SBSV 160600Z 14007KT 110V180 9999 FEW024 SCT080 25/19 Q1018=
2025-07-16 07:00:00<>METAR SBSV 160700Z 14007KT 110V180 9999 FEW024 SCT080 24/18 Q1018=
2025-07-16 08:00:00<>METAR SBSV 160800Z 15008KT 9999 SCT020 BKN080 24/18 Q1018=
2025-07-16 09:00:00<>METAR SBSV 160900Z 15006KT 130V200 9999 SCT020 SCT080 25/19 Q1018=
2025-07-16 10:00:00<>METAR SBSV 161000Z 13006KT 9999 SCT023 SCT080 25/19 Q1018=
2025-07-16 11:00:00<>METAR SBSV 161100Z 13008KT 110V170 9999 SCT023 SCT080 26/19 Q1019=
2025-07-16 12:00:00<>METAR SBSV 161200Z 13008KT 9999 BKN025 SCT080 26/20 Q1020=
2025-07-16 13:00:00<>METAR SBSV 161300Z 12011KT 9999 VCSH SCT025 SCT080 26/20 Q1020=
2025-07-16 14:00:00<>METAR SBSV 161400Z 11010KT 9999 SCT025 SCT080 26/20 Q1020=
2025-07-16 15:00:00<>METAR SBSV 161500Z 14008KT 9999 FEW025 SCT070 27/19 Q1019=
2025-07-16 16:00:00<>METAR SBSV 161600Z 14010KT 9999 FEW025 SCT070 27/18 Q1018=
2025-07-16 17:00:00<>METAR SBSV 161700Z 13008KT 9999 SCT023 SCT070 26/19 Q1018=
2025-07-16 18:00:00<>METAR SBSV 161800Z 16008KT 120V200 9999 SCT030 27/19 Q1017=
2025-07-16 19:00:00<>METAR SBSV 161900Z 16011KT 9999 SCT027 26/19 Q1017=
2025-07-16 20:00:00<>METAR SBSV 162000Z 15008KT 9999 SCT024 SCT080 25/19 Q1018=
2025-07-16 21:00:00<>METAR SBSV 162100Z 15008KT 9999 FEW023 SCT090 25/19 Q1018=
2025-07-16 22:00:00<>METAR SBSV 162200Z 15007KT 9999 FEW023 BKN090 25/19 Q1018=
2025-07-16 23:00:00<>METAR SBSV 162300Z 16008KT 9999 FEW023 BKN090 25/18 Q1018=
2025-07-17 00:00:00<>METAR SBSV 170000Z 17010KT 9999 SCT025 BKN080 25/19 Q1019=
2025-07-17 01:00:00<>METAR SBSV 170100Z 17010KT 9999 SCT025 BKN080 25/19 Q1019=
2025-07-17 02:00:00<>METAR SBSV 170200Z 17009KT 9999 SCT025 BKN080 25/19 Q1019=
2025-07-17 03:00:00<>METAR SBSV 170300Z 17009KT 9999 SCT025 BKN050 25/20 Q1019=
2025-07-17 04:00:00<>METAR SBSV 170400Z 17010KT 9999 SCT025 BKN050 25/20 Q1018=
2025-07-17 05:00:00<>METAR SBSV 170500Z 17011KT 9999 SCT025 BKN050 25/19 Q1018=
2025-07-17 06:00:00<>METAR SBSV 170600Z 16011KT 9999 SCT025 BKN050 25/18 Q1017=
2025-07-17 07:00:00<>METAR SBSV 170700Z 17010KT 9999 SCT025 BKN050 25/18 Q1017=
2025-07-17 08:00:00<>METAR SBSV 170800Z 18010KT 9999 SCT025 BKN050 25/19 Q1018=
2025-07-17 09:00:00<>METAR SBSV 170900Z 18009KT 150V220 9999 SCT020 SCT050 25/19 Q1018=
2025-07-17 10:00:00<>METAR SBSV 171000Z 16011KT 9999 VCSH SCT025 SCT050 25/18 Q1018=
2025-07-17 11:00:00<>METAR SBSV 171100Z 17010KT 9999 BKN030 SCT050 25/19 Q1019=
2025-07-17 12:00:00<>METAR SBSV 171200Z 18011KT 9999 BKN023 SCT050 26/19 Q1020=
2025-07-17 13:00:00<>METAR SBSV 171300Z 16012KT 9999 BKN023 27/20 Q1020=
2025-07-17 14:00:00<>METAR SBSV 171400Z 16010KT 9999 VCSH BKN023 27/20 Q1019=
2025-07-17 15:00:00<>METAR SBSV 171500Z 16011KT 9999 BKN023 27/20 Q1019=
2025-07-17 16:00:00<>METAR SBSV 171600Z 17010KT 9999 BKN023 SCT050 25/20 Q1018=
2025-07-17 17:00:00<>METAR SBSV 171700Z 16009KT 120V190 9999 VCSH BKN023 FEW025TCU SCT050 26/20 Q1017=
2025-07-17 18:00:00<>METAR SBSV 171800Z 15008KT 120V210 8000 VCSH BKN020 FEW023TCU BKN030 BKN050 26/20 Q1017=
2025-07-17 18:43:00<>SPECI SBSV 171843Z 11006KT 070V150 3000 -RA BR BKN015 FEW020TCU BKN030 BKN050 24/20 Q1017=
2025-07-17 19:00:00<>METAR SBSV 171900Z 11004KT 070V170 8000 VCSH BKN017 FEW020TCU BKN030 BKN050 24/21 Q1017=
2025-07-17 20:00:00<>METAR SBSV 172000Z 12009KT 080V140 7000 -RA BKN018 FEW020TCU BKN040 BKN050 24/21 Q1018=
2025-07-17 21:00:00<>METAR SBSV 172100Z 12011KT 9999 VCSH BKN018 FEW020TCU BKN040 BKN050 24/21 Q1018=
2025-07-17 22:00:00<>METAR SBSV 172200Z 12009KT 100V170 9999 VCSH SCT021 FEW023TCU BKN040 BKN060 23/20 Q1018=
2025-07-17 23:00:00<>METAR SBSV 172300Z 13007KT 9999 SCT021 BKN040 BKN060 24/20 Q1019=
2025-07-18 00:00:00<>METAR SBSV 180000Z 14008KT 9999 SCT023 BKN040 BKN060 24/20 Q1019=
2025-07-18 01:00:00<>METAR SBSV 180100Z 12010KT 9000 VCSH BKN017 BKN025 OVC050 23/20 Q1019=
2025-07-18 02:00:00<>METAR SBSV 180200Z 12006KT 090V160 8000 VCSH BKN015 BKN030 OVC060 23/21 Q1019=
2025-07-18 03:00:00<>METAR SBSV 180300Z 14006KT 090V180 9999 VCSH FEW012 SCT025 BKN050 22/22 Q1019=
2025-07-18 04:00:00<>METAR SBSV 180400Z 15002KT 9999 SCT025 BKN050 23/22 Q1018=
2025-07-18 05:00:00<>METAR SBSV 180500Z 25004KT 190V270 9999 SCT025 BKN050 22/22 Q1018=
2025-07-18 06:00:00<>METAR SBSV 180600Z 18004KT 150V210 9999 SCT014 BKN022 BKN070 23/22 Q1017=
2025-07-18 06:40:00<>SPECI SBSV 180640Z 07012KT 5000 -RA BR BKN005 BKN013 OVC030 22/21 Q1018=
2025-07-18 07:00:00<>METAR SBSV 180700Z 07012KT 5000 -RA BR BKN005 BKN013 OVC030 22/22 Q1018=
2025-07-18 07:13:00<>SPECI SBSV 180713Z 06008KT 9000 VCSH FEW008 BKN015 OVC030 22/22 Q1018=
2025-07-18 08:00:00<>METAR SBSV 180800Z 04005KT 9999 VCSH FEW010 BKN015 OVC050 21/21 Q1018=
2025-07-18 08:45:00<>SPECI SBSV 180845Z 03006KT 6000 -RA BKN009 BKN017 OVC040 22/22 Q1018=
2025-07-18 09:00:00<>METAR SBSV 180900Z 02006KT 6000 -RA BKN009 BKN017 OVC040 22/22 Q1018=
2025-07-18 09:15:00<>SPECI SBSV 180915Z 01005KT 320V040 8000 VCSH FEW012 BKN020 OVC050 21/21 Q1018=
2025-07-18 10:00:00<>METAR SBSV 181000Z 35002KT 9999 BKN020 OVC050 22/22 Q1018=
2025-07-18 11:00:00<>METAR SBSV 181100Z VRB02KT 9999 BKN020 OVC050 23/22 Q1019=
2025-07-18 12:00:00<>METAR SBSV 181200Z 08003KT 010V160 9999 SCT011 BKN050 24/22 Q1019=
2025-07-18 12:12:00<>SPECI SBSV 181212Z 09008KT 8000 1500N R28/1100D R10/P2000N -SHRA FEW004 BKN010 FEW025TCU OVC050 24/22 Q1019=
2025-07-18 13:00:00<>METAR SBSV 181300Z 08004KT 040V130 5000 -RA BR FEW007 FEW025TCU OVC050 23/23 Q1019=
2025-07-18 14:00:00<>METAR SBSV 181400Z 01006KT 340V050 9999 FEW009 BKN050 24/22 Q1019=
2025-07-18 15:00:00<>METAR SBSV 181500Z 07009KT 9999 SCT015 BKN050 25/21 Q1018=
2025-07-18 16:00:00<>METAR SBSV 181600Z 10011KT 9000 VCSH BKN020 BKN050 24/21 Q1018=
2025-07-18 17:00:00<>METAR SBSV 181700Z 08004KT 020V140 9999 BKN020 BKN050 26/21 Q1017=
2025-07-18 18:00:00<>METAR SBSV 181800Z 11006KT 040V170 9999 SCT020 BKN060 26/21 Q1017=
2025-07-18 19:00:00<>METAR SBSV 181900Z 10008KT 9999 SCT020 BKN060 25/21 Q1017=
2025-07-18 20:00:00<>METAR SBSV 182000Z 00000KT 9999 SCT020 BKN060 24/19 Q1018=
2025-07-18 21:00:00<>METAR SBSV 182100Z 16003KT 140V200 9999 SCT020 BKN060 24/21 Q1018=
2025-07-18 22:00:00<>METAR SBSV 182200Z 07001KT 9999 SCT020 BKN060 24/21 Q1018=
2025-07-18 23:00:00<>METAR SBSV 182300Z 15003KT 100V180 9999 SCT020 BKN060 25/21 Q1019=
2025-07-19 00:00:00<>METAR SBSV 190000Z 26003KT 170V320 9999 SCT023 BKN070 24/21 Q1019=
2025-07-19 01:00:00<>METAR SBSV 190100Z VRB02KT 9999 SCT023 BKN070 24/22 Q1019=
2025-07-19 02:00:00<>METAR SBSV 190200Z VRB03KT 9999 SCT023 BKN070 24/21 Q1019=
2025-07-19 03:00:00<>METAR SBSV 190300Z 07005KT 9999 SCT023 BKN070 24/21 Q1019=
2025-07-19 04:00:00<>METAR SBSV 190400Z 10003KT 9999 SCT023 BKN070 24/21 Q1019=
2025-07-19 05:00:00<>METAR SBSV 190500Z 10005KT 9999 SCT023 BKN070 25/20 Q1018=
2025-07-19 06:00:00<>METAR SBSV 190600Z VRB01KT 9999 FEW023 BKN070 23/20 Q1017=
2025-07-19 07:00:00<>METAR SBSV 190700Z 00000KT 9999 FEW023 BKN070 23/21 Q1018=
2025-07-19 08:00:00<>METAR SBSV 190800Z 05002KT 9999 FEW023 SCT070 22/20 Q1018=
2025-07-19 09:00:00<>METAR SBSV 190900Z 26003KT 9999 FEW025 SCT070 22/21 Q1019=
2025-07-19 10:00:00<>METAR SBSV 191000Z VRB02KT 9999 SCT025 SCT040 22/22 Q1019=
2025-07-19 11:00:00<>METAR SBSV 191100Z 12005KT 080V150 9999 SCT025 BKN060 26/21 Q1019=
2025-07-19 12:00:00<>METAR SBSV 191200Z 11006KT 9999 SCT023 BKN060 26/21 Q1020=
2025-07-19 13:00:00<>METAR SBSV 191300Z 13008KT 9999 BKN023 27/20 Q1020=
2025-07-19 14:00:00<>METAR SBSV 191400Z 36005KT 9999 VCSH BKN023 FEW025TCU 24/21 Q1020=
2025-07-19 15:00:00<>METAR SBSV 191500Z 12008KT 9999 SCT023 27/21 Q1019=
2025-07-19 16:00:00<>METAR SBSV 191600Z 11008KT 080V160 9999 SCT023 SCT070 27/20 Q1018=
2025-07-19 17:00:00<>METAR SBSV 191700Z 12008KT 090V160 9999 SCT023 SCT070 27/20 Q1017=
2025-07-19 18:00:00<>METAR SBSV 191800Z 13007KT 9999 SCT023 28/20 Q1017=
2025-07-19 19:00:00<>METAR SBSV 191900Z 13008KT 100V160 9999 FEW023 27/20 Q1017=
2025-07-19 20:00:00<>METAR SBSV 192000Z 13007KT 9999 FEW023 26/19 Q1017=
2025-07-19 21:00:00<>METAR SBSV 192100Z 15005KT 110V200 9999 FEW023 26/20 Q1018=
2025-07-19 22:00:00<>METAR SBSV 192200Z 15005KT 9999 FEW023 25/19 Q1018=
2025-07-19 23:00:00<>METAR SBSV 192300Z 14006KT 9999 FEW023 SCT060 25/19 Q1018=
2025-07-20 00:00:00<>METAR SBSV 200000Z 13006KT 9999 FEW023 25/19 Q1019=
2025-07-20 01:00:00<>METAR SBSV 200100Z 13006KT 100V190 9999 FEW025 BKN080 25/19 Q1019=
2025-07-20 02:00:00<>METAR SBSV 200200Z 14006KT 9999 FEW025 SCT080 25/19 Q1019=
2025-07-20 03:00:00<>METAR SBSV 200300Z 14007KT 9999 SCT025 SCT080 25/19 Q1018=
2025-07-20 04:00:00<>METAR SBSV 200400Z 12006KT 9999 FEW026 25/19 Q1018=
2025-07-20 05:00:00<>METAR SBSV 200500Z 12006KT 9999 SCT026 24/19 Q1018=
2025-07-20 06:00:00<>METAR SBSV 200600Z 13006KT 110V180 9999 BKN026 24/19 Q1017=
2025-07-20 07:00:00<>METAR SBSV 200700Z 12006KT 9999 SCT025 24/19 Q1018=
2025-07-20 08:00:00<>METAR SBSV 200800Z 13006KT 110V180 9999 FEW023 24/19 Q1018=
2025-07-20 09:00:00<>METAR SBSV 200900Z 12006KT 080V170 9999 FEW022 24/19 Q1018=
2025-07-20 10:00:00<>METAR SBSV 201000Z VRB02KT 9999 FEW022 24/20 Q1019=
2025-07-20 11:00:00<>METAR SBSV 201100Z 15006KT 9999 FEW022 26/19 Q1019=
2025-07-20 12:00:00<>METAR SBSV 201200Z 15009KT 9999 SCT023 27/20 Q1020=
2025-07-20 13:00:00<>METAR SBSV 201300Z 16009KT 9999 SCT023 27/19 Q1020=
2025-07-20 14:00:00<>METAR SBSV 201400Z 16009KT 9999 SCT023 27/19 Q1019=
2025-07-20 15:00:00<>METAR SBSV 201500Z 17008KT 9999 SCT023 27/20 Q1019=
2025-07-20 16:00:00<>METAR SBSV 201600Z 16008KT 9999 SCT023 27/20 Q1018=
2025-07-20 17:00:00<>METAR SBSV 201700Z 17009KT 9999 SCT023 27/19 Q1017=
2025-07-20 18:00:00<>METAR SBSV 201800Z 18010KT 140V220 9999 SCT023 27/20 Q1017=
2025-07-20 19:00:00<>METAR SBSV 201900Z 18010KT 9999 SCT023 26/20 Q1017=
2025-07-20 20:00:00<>METAR SBSV 202000Z 16009KT 9999 SCT023 SCT050 26/20 Q1017=
2025-07-20 21:00:00<>METAR SBSV 202100Z 18009KT 9999 SCT023 SCT050 25/20 Q1017=
2025-07-20 22:00:00<>METAR SBSV 202200Z 17011KT 9999 SCT023 SCT050 25/20 Q1018=
2025-07-20 23:00:00<>METAR SBSV 202300Z 14010KT 9999 FEW023 SCT050 25/21 Q1018=
2025-07-21 00:00:00<>METAR SBSV 210000Z 16011KT 9999 FEW020 SCT050 25/20 Q1018=
2025-07-21 01:00:00<>METAR SBSV 210100Z 15008KT 9999 FEW020 SCT060 25/20 Q1019=
2025-07-21 02:00:00<>METAR SBSV 210200Z 13007KT 100V160 9999 FEW020 BKN060 25/20 Q1018=
2025-07-21 03:00:00<>METAR SBSV 210300Z 11009KT 9999 FEW020 BKN060 24/20 Q1018=
2025-07-21 04:00:00<>METAR SBSV 210400Z 12007KT 9999 FEW020 BKN060 25/19 Q1018=
2025-07-21 05:00:00<>METAR SBSV 210500Z 11006KT 090V150 9999 FEW020 BKN060 25/18 Q1017=
2025-07-21 06:00:00<>METAR SBSV 210600Z 12005KT 090V200 9999 FEW020 BKN060 25/17 Q1017=
2025-07-21 07:00:00<>METAR SBSV 210700Z 15004KT 9999 FEW020 SCT060 25/19 Q1017=
2025-07-21 08:00:00<>METAR SBSV 210800Z 15009KT 9999 FEW020 SCT060 23/20 Q1017=
2025-07-21 09:00:00<>METAR SBSV 210900Z 10007KT 070V130 5000 BR SCT008 BKN020 BKN060 22/20 Q1018=
2025-07-21 09:30:00<>SPECI SBSV 210930Z 02003KT 2000 RA BR SCT008 BKN020 BKN060 22/21 Q1018=
2025-07-21 10:00:00<>METAR SBSV 211000Z 13009KT 7000 -RA SCT007 BKN020 BKN060 22/22 Q1018 RERA=
2025-07-21 11:00:00<>METAR COR SBSV 211100Z 10002KT 9999 VCSH SCT021 FEW025TCU BKN060 23/21 Q1019 RERA=
2025-07-21 12:00:00<>METAR SBSV 211200Z 16011KT 9999 VCSH SCT021 FEW025TCU BKN070 24/22 Q1019=
2025-07-21 13:00:00<>METAR SBSV 211300Z 16010KT 9999 VCSH SCT021 FEW025TCU BKN070 25/20 Q1019=
2025-07-21 14:00:00<>METAR SBSV 211400Z 12008KT 9999 VCSH SCT021 FEW025TCU BKN070 26/20 Q1019=
2025-07-21 15:00:00<>METAR SBSV 211500Z 11004KT 9999 VCSH SCT021 FEW025TCU BKN050 26/20 Q1018=
2025-07-21 16:00:00<>METAR SBSV 211600Z 17008KT 9999 VCSH SCT021 FEW025TCU BKN070 26/20 Q1018=
2025-07-21 17:00:00<>METAR SBSV 211700Z 19009KT 9999 VCSH SCT021 FEW025TCU SCT070 26/20 Q1017=
2025-07-21 18:00:00<>METAR SBSV 211800Z 09007KT 9000 VCSH SCT021 FEW025TCU BKN070 25/19 Q1017=
2025-07-21 19:00:00<>METAR SBSV 211900Z 18006KT 150V220 9999 VCSH SCT023 FEW025TCU BKN080 25/20 Q1017=
2025-07-21 20:00:00<>METAR SBSV 212000Z 17006KT 9999 SCT023 BKN080 25/20 Q1017=
2025-07-21 21:00:00<>METAR SBSV 212100Z 17006KT 9999 SCT021 BKN080 25/20 Q1017=
2025-07-21 22:00:00<>METAR SBSV 212200Z 14006KT 9999 SCT021 BKN080 25/19 Q1017=
2025-07-21 23:00:00<>METAR SBSV 212300Z 14011KT 9999 SCT021 BKN080 24/21 Q1018=
2025-07-22 00:00:00<>METAR SBSV 220000Z 15007KT 9999 SCT021 SCT040 BKN080 25/20 Q1018=
2025-07-22 01:00:00<>METAR SBSV 220100Z 14007KT 9999 SCT021 SCT040 BKN080 25/20 Q1018=
2025-07-22 02:00:00<>METAR SBSV 220200Z 14008KT 9999 FEW025 SCT050 25/19 Q1018=
2025-07-22 03:00:00<>METAR SBSV 220300Z 15008KT 9999 FEW025 SCT050 25/19 Q1018=
2025-07-22 04:00:00<>METAR SBSV 220400Z 17007KT 9999 FEW025 SCT050 24/19 Q1017=
2025-07-22 05:00:00<>METAR SBSV 220500Z 15006KT 9999 FEW025 SCT050 24/19 Q1017=
2025-07-22 06:00:00<>METAR SBSV 220600Z 17005KT 9999 FEW025 SCT050 24/20 Q1017=
2025-07-22 07:00:00<>METAR SBSV 220700Z 17005KT 9999 FEW025 SCT050 24/20 Q1017=
2025-07-22 08:00:00<>METAR SBSV 220800Z 17005KT 9999 FEW025 24/20 Q1017=
2025-07-22 09:00:00<>METAR SBSV 220900Z 21003KT 160V260 9999 SCT020 23/20 Q1018=
2025-07-22 10:00:00<>METAR SBSV 221000Z 14005KT 9999 SCT020 24/20 Q1018=
2025-07-22 11:00:00<>METAR SBSV 221100Z 15006KT 9999 SCT023 26/20 Q1019=
2025-07-22 12:00:00<>METAR SBSV 221200Z 14007KT 9999 SCT023 26/20 Q1020=
2025-07-22 13:00:00<>METAR SBSV 221300Z 16007KT 9999 SCT030 25/20 Q1020=
2025-07-22 14:00:00<>METAR SBSV 221400Z 13007KT 100V170 9999 BKN020 26/21 Q1019=
2025-07-22 15:00:00<>METAR SBSV 221500Z 14005KT 080V200 9999 SCT021 27/21 Q1019=
2025-07-22 16:00:00<>METAR SBSV 221600Z 14006KT 080V180 9999 SCT021 27/21 Q1018=
2025-07-22 17:00:00<>METAR SBSV 221700Z 15008KT 9999 SCT021 26/20 Q1017=
2025-07-22 18:00:00<>METAR SBSV 221800Z 15008KT 120V200 9999 SCT023 27/20 Q1017=
2025-07-22 19:00:00<>METAR SBSV 221900Z 15007KT 110V190 9999 SCT023 26/20 Q1017=
2025-07-22 20:00:00<>METAR SBSV 222000Z 15007KT 9999 FEW022 FEW025TCU 26/20 Q1017=
2025-07-22 21:00:00<>METAR SBSV 222100Z 14006KT 9999 FEW022 25/20 Q1018=
2025-07-22 22:00:00<>METAR SBSV 222200Z 15006KT 110V190 9999 FEW020 25/21 Q1018=
2025-07-22 23:00:00<>METAR SBSV 222300Z 14005KT 110V190 9999 SCT020 25/21 Q1019=
2025-07-23 00:00:00<>METAR SBSV 230000Z 11005KT 9999 SCT023 25/21 Q1019=
2025-07-23 01:00:00<>METAR SBSV 230100Z 17005KT 9999 SCT023 24/21 Q1019=
2025-07-23 02:00:00<>METAR SBSV 230200Z 13006KT 9999 SCT023 24/20 Q1019=
2025-07-23 03:00:00<>METAR SBSV 230300Z 11007KT 9999 SCT023 BKN040 25/21 Q1019=
2025-07-23 04:00:00<>METAR SBSV 230400Z 14003KT 9999 SCT023 BKN040 24/21 Q1018=
2025-07-23 05:00:00<>METAR SBSV 230500Z 13007KT 9999 SCT023 BKN040 24/21 Q1018=
2025-07-23 06:00:00<>METAR SBSV 230600Z 15007KT 9999 SCT023 SCT040 24/21 Q1018=
2025-07-23 07:00:00<>METAR SBSV 230700Z 15006KT 9999 SCT023 24/20 Q1018=
2025-07-23 08:00:00<>METAR SBSV 230800Z 14005KT 9999 BKN023 25/21 Q1018=
2025-07-23 09:00:00<>METAR SBSV 230900Z 10009KT 9000 VCSH SCT010 BKN023 FEW025TCU BKN030 23/22 Q1019=
2025-07-23 10:00:00<>METAR SBSV 231000Z 11006KT 9999 SCT011 BKN050 24/22 Q1019=
2025-07-23 11:00:00<>METAR SBSV 231100Z 12007KT 9999 SCT023 BKN050 25/21 Q1020=
2025-07-23 12:00:00<>METAR SBSV 231200Z 12007KT 090V160 9999 SCT023 BKN050 26/21 Q1021=
2025-07-23 13:00:00<>METAR SBSV 231300Z 11010KT 9000 VCSH FEW011 BKN020 FEW023TCU 24/23 Q1021=
2025-07-23 14:00:00<>METAR SBSV 231400Z 10009KT 9999 SCT023 BKN050 25/20 Q1020=
2025-07-23 15:00:00<>METAR SBSV 231500Z 09004KT 050V160 9999 SCT023 BKN050 25/21 Q1019=
2025-07-23 16:00:00<>METAR SBSV 231600Z 09012KT 9999 SCT023 BKN050 26/21 Q1019=
2025-07-23 17:00:00<>METAR SBSV 231700Z 10007KT 060V140 9999 SCT025 BKN050 26/20 Q1018=
2025-07-23 18:00:00<>METAR SBSV 231800Z 14006KT 080V200 9999 SCT025 BKN070 27/20 Q1018=
2025-07-23 19:00:00<>METAR SBSV 231900Z 18006KT 140V210 9999 VCSH SCT023 FEW025TCU BKN070 26/21 Q1018=
2025-07-23 20:00:00<>METAR SBSV 232000Z 16006KT 9999 VCSH SCT023 FEW025TCU SCT070 26/20 Q1018=
2025-07-23 21:00:00<>METAR SBSV 232100Z 08008KT 9999 SCT020 BKN050 24/21 Q1018=
2025-07-23 22:00:00<>METAR SBSV 232200Z 14007KT 110V170 9000 -RA SCT009 SCT020 BKN050 23/22 Q1019=
2025-07-23 23:00:00<>METAR SBSV 232300Z VRB02KT 9000 -RA BKN020 BKN050 23/23 Q1019=
2025-07-24 00:00:00<>METAR SBSV 240000Z 10007KT 9999 BKN020 BKN050 24/22 Q1020=
2025-07-24 01:00:00<>METAR SBSV 240100Z 12008KT 090V160 9000 VCSH BKN020 OVC040 25/21 Q1019=
2025-07-24 02:00:00<>METAR SBSV 240200Z 08006KT 050V150 5000 -SHRA BR SCT011 BKN016 OVC040 24/21 Q1019=
2025-07-24 03:00:00<>METAR SBSV 240300Z 10005KT 090V150 9000 VCSH FEW013 BKN019 OVC050 24/22 Q1019=
2025-07-24 04:00:00<>METAR SBSV 240400Z 09006KT 9999 VCSH SCT011 BKN016 OVC050 24/22 Q1018=
2025-07-24 05:00:00<>METAR SBSV 240500Z 13002KT 9999 VCSH BKN023 OVC060 24/22 Q1018=
2025-07-24 06:00:00<>METAR SBSV 240600Z 09004KT 020V130 9999 FEW015 BKN025 BKN060 24/23 Q1017=
2025-07-24 07:00:00<>METAR SBSV 240700Z 12004KT 9999 FEW016 BKN025 BKN070 24/21 Q1017=
2025-07-24 08:00:00<>METAR SBSV 240800Z 10006KT 080V150 9999 FEW016 SCT025 BKN070 25/21 Q1018=
2025-07-24 09:00:00<>METAR SBSV 240900Z 06002KT 9999 FEW016 SCT025 BKN070 24/22 Q1018=
2025-07-24 10:00:00<>METAR SBSV 241000Z 10007KT 9999 FEW016 SCT025 BKN070 25/21 Q1019=
2025-07-24 11:00:00<>METAR SBSV 241100Z 10007KT 9999 SCT025 BKN070 26/21 Q1019=
2025-07-24 12:00:00<>METAR SBSV 241200Z 09010KT 9999 SCT025 BKN070 26/21 Q1020=
2025-07-24 13:00:00<>METAR SBSV 241300Z 10008KT 9999 SCT023 BKN070 27/22 Q1020=
2025-07-24 14:00:00<>METAR SBSV 241400Z 09010KT 9999 SCT023 BKN070 27/21 Q1020=
2025-07-24 15:00:00<>METAR SBSV 241500Z 09011KT 9999 SCT023 BKN070 27/22 Q1019=
2025-07-24 16:00:00<>METAR SBSV 241600Z 09011KT 9999 SCT023 BKN070 27/22 Q1019=
2025-07-24 17:00:00<>METAR SBSV 241700Z 09012KT 9999 SCT023 BKN070 27/21 Q1018=
2025-07-24 18:00:00<>METAR SBSV 241800Z 09010KT 9999 VCSH SCT023 FEW025TCU BKN070 26/20 Q1017=
2025-07-24 19:00:00<>METAR SBSV 241900Z 12007KT 080V140 9999 VCSH SCT023 FEW025TCU BKN070 27/21 Q1017=
2025-07-24 20:00:00<>METAR SBSV 242000Z 11009KT 9999 SCT023 FEW025TCU SCT070 26/20 Q1017=
2025-07-24 21:00:00<>METAR SBSV 242100Z 11010KT 9999 SCT023 SCT070 25/20 Q1017=
2025-07-24 22:00:00<>METAR SBSV 242200Z 11008KT 9999 FEW020 25/20 Q1018=
2025-07-24 23:00:00<>METAR SBSV 242300Z 11010KT 9999 FEW020 SCT050 25/20 Q1018=
2025-07-25 00:00:00<>METAR SBSV 250000Z 12007KT 9999 FEW020 SCT050 25/19 Q1019=
2025-07-25 01:00:00<>METAR SBSV 250100Z 12008KT 9999 SCT020 SCT060 25/19 Q1019=
2025-07-25 02:00:00<>METAR SBSV 250200Z 11007KT 9999 FEW020 25/20 Q1019=
2025-07-25 03:00:00<>METAR SBSV 250300Z 12009KT 9999 FEW020 BKN060 25/19 Q1019=
2025-07-25 04:00:00<>METAR SBSV 250400Z 13009KT 100V160 9999 SCT020 25/20 Q1018=
2025-07-25 05:00:00<>METAR SBSV 250500Z 13006KT 9999 SCT020 25/20 Q1018=
2025-07-25 06:00:00<>METAR SBSV 250600Z 15009KT 130V190 9999 SCT020 25/19 Q1017=
2025-07-25 07:00:00<>METAR SBSV 250700Z 15009KT 9999 FEW020 25/19 Q1017=
2025-07-25 08:00:00<>METAR SBSV 250800Z 16007KT 9999 FEW020 25/19 Q1018=
2025-07-25 09:00:00<>METAR SBSV 250900Z 16007KT 140V200 9999 SCT023 25/19 Q1018=
2025-07-25 10:00:00<>METAR SBSV 251000Z 16008KT 9999 SCT023 25/19 Q1018=
2025-07-25 11:00:00<>METAR SBSV 251100Z 18008KT 9999 SCT023 26/19 Q1019=
2025-07-25 12:00:00<>METAR SBSV 251200Z 15009KT 9999 SCT023 SCT070 27/20 Q1020=
2025-07-25 13:00:00<>METAR SBSV 251300Z 16011KT 9999 SCT023 FEW025TCU SCT070 27/20 Q1020=
2025-07-25 14:00:00<>METAR SBSV 251400Z 14011KT 9999 BKN023 FEW025TCU SCT070 26/20 Q1019=
2025-07-25 15:00:00<>METAR SBSV 251500Z 14009KT 9999 VCSH BKN023 FEW025TCU SCT070 26/20 Q1019=
2025-07-25 16:00:00<>METAR SBSV 251600Z 12011KT 060V150 4500 RA BKN023 FEW025TCU SCT070 24/19 Q1018=
2025-07-25 16:30:00<>SPECI SBSV 251630Z 18004KT 130V210 9000 -RA SCT023 FEW025TCU BKN070 23/20 Q1018 RERA=
2025-07-25 17:00:00<>METAR SBSV 251700Z 15005KT 9999 VCSH SCT023 FEW025TCU BKN070 25/21 Q1018 RERA=
2025-07-25 18:00:00<>METAR SBSV 251800Z 22006KT 180V260 5000 -RA BR SCT023 FEW025TCU SCT030 BKN070 23/21 Q1017=
2025-07-25 19:00:00<>METAR SBSV 251900Z 18003KT 100V220 8000 VCSH BKN021 FEW023TCU BKN030 BKN070 23/21 Q1017=
2025-07-25 20:00:00<>METAR SBSV 252000Z 16009KT 9000 VCSH BKN021 FEW023TCU BKN050 BKN070 24/21 Q1017=
2025-07-25 21:00:00<>METAR SBSV 252100Z VRB03KT 9000 VCSH BKN017 FEW021TCU BKN030 BKN060 23/21 Q1017=
2025-07-25 22:00:00<>METAR SBSV 252200Z 12007KT 080V150 9000 VCSH SCT019 FEW021TCU BKN030 BKN060 23/20 Q1018=
2025-07-25 22:40:00<>SPECI SBSV 252240Z 10011KT 4000 -RA BR BKN013 BKN017 FEW021TCU BKN040 24/21 Q1018=
2025-07-25 23:00:00<>METAR SBSV 252300Z 10011KT 6000 -RA BKN013 BKN017 FEW021TCU BKN040 23/22 Q1018=
2025-07-25 23:21:00<>SPECI SBSV 252321Z 09011KT 8000 VCSH SCT010 BKN017 FEW021TCU BKN040 23/22 Q1018=
2025-07-26 00:00:00<>METAR COR SBSV 260000Z 09009KT 9000 VCSH SCT020 FEW023TCU SCT050 BKN060 22/21 Q1019=
2025-07-26 01:00:00<>METAR SBSV 260100Z 11008KT 9999 SCT020 FEW023TCU SCT050 BKN060 23/22 Q1018=
2025-07-26 02:00:00<>METAR SBSV 260200Z 11005KT 9999 SCT020 FEW023TCU SCT050 BKN060 24/21 Q1018=
2025-07-26 03:00:00<>METAR SBSV 260300Z 07009KT 040V100 9000 VCSH SCT020 FEW023TCU SCT050 BKN060 22/22 Q1018=
2025-07-26 04:00:00<>METAR SBSV 260400Z 12009KT 9000 VCSH SCT020 FEW023TCU BKN060 22/22 Q1016=
2025-07-26 05:00:00<>METAR SBSV 260500Z 27004KT 9999 SCT020 FEW023TCU BKN060 22/21 Q1017=
2025-07-26 06:00:00<>METAR SBSV 260600Z 18003KT 9999 SCT020 FEW023TCU BKN060 22/22 Q1017=
2025-07-26 07:00:00<>METAR SBSV 260700Z 17003KT 140V210 9999 SCT020 FEW023TCU BKN060 22/22 Q1017=
2025-07-26 08:00:00<>METAR SBSV 260800Z 25003KT 9999 FEW020 BKN050 22/22 Q1017=
2025-07-26 09:00:00<>METAR SBSV 260900Z 00000KT 9999 SCT015 BKN050 22/22 Q1018=
2025-07-26 10:00:00<>METAR SBSV 261000Z VRB02KT 9000 VCSH SCT021 FEW023TCU BKN050 23/22 Q1018=
2025-07-26 11:00:00<>METAR SBSV 261100Z VRB02KT 9000 VCSH BKN021 FEW023TCU BKN050 23/23 Q1019=
2025-07-26 12:00:00<>METAR SBSV 261200Z 30003KT 9000 VCSH SCT021 FEW023TCU BKN050 24/22 Q1020=
2025-07-26 13:00:00<>METAR SBSV 261300Z 07006KT 9000 VCSH BKN023 FEW025TCU BKN050 25/21 Q1020=
2025-07-26 14:00:00<>METAR SBSV 261400Z 10011KT 9999 VCSH BKN023 FEW025TCU BKN060 27/20 Q1019=
2025-07-26 15:00:00<>METAR SBSV 261500Z 09010KT 9999 SCT025 SCT060 27/19 Q1019=
2025-07-26 16:00:00<>METAR SBSV 261600Z 09009KT 060V120 9000 VCSH SCT024 FEW025TCU SCT060 27/20 Q1018=
2025-07-26 17:00:00<>METAR SBSV 261700Z 09010KT 7000 -SHRA BKN022 FEW025TCU BKN055 26/20 Q1017=
2025-07-26 18:00:00<>METAR SBSV 261800Z 08011KT 9999 SCT026 SCT070 26/19 Q1017=
2025-07-26 19:00:00<>METAR SBSV 261900Z 09009KT 050V120 9999 FEW030 SCT070 26/19 Q1017=
2025-07-26 20:00:00<>METAR SBSV 262000Z 08007KT 9999 FEW030 25/19 Q1017=
2025-07-26 21:00:00<>METAR SBSV 262100Z 10007KT 9999 FEW027 25/19 Q1017=
2025-07-26 22:00:00<>METAR SBSV 262200Z 11007KT 9999 SCT027 25/19 Q1018=
2025-07-26 23:00:00<>METAR SBSV 262300Z 10006KT CAVOK 25/17 Q1018=
2025-07-27 00:00:00<>METAR SBSV 270000Z 11007KT 9999 FEW030 SCT100 25/18 Q1019=
2025-07-27 01:00:00<>METAR SBSV 270100Z 11007KT 9999 FEW030 SCT100 25/18 Q1019=
2025-07-27 02:00:00<>METAR SBSV 270200Z 12007KT 9999 FEW030 SCT100 25/18 Q1019=
2025-07-27 03:00:00<>METAR SBSV 270300Z 11007KT 9999 FEW025 SCT030 25/19 Q1019=
2025-07-27 04:00:00<>METAR SBSV 270400Z 11008KT 9999 FEW025 SCT030 24/18 Q1019=
2025-07-27 05:00:00<>METAR SBSV 270500Z 18004KT 9999 SCT025 BKN030 24/19 Q1018=
2025-07-27 06:00:00<>METAR SBSV 270600Z 11008KT 9999 FEW025 SCT030 24/18 Q1018=
2025-07-27 07:00:00<>METAR SBSV 270700Z 11008KT 9999 FEW025 SCT030 24/18 Q1018=
2025-07-27 08:00:00<>METAR SBSV 270800Z 12009KT 9999 FEW025 BKN030 24/18 Q1018=
2025-07-27 09:00:00<>METAR SBSV 270900Z 12007KT 9999 FEW025 24/18 Q1019=
2025-07-27 10:00:00<>METAR SBSV 271000Z 11008KT 080V160 9999 FEW025 SCT030 25/18 Q1019=
2025-07-27 11:00:00<>METAR SBSV 271100Z 10008KT 9999 SCT025 26/18 Q1020=
2025-07-27 12:00:00<>METAR SBSV 271200Z 11009KT 9999 SCT025 26/18 Q1020=
2025-07-27 13:00:00<>METAR SBSV 271300Z 12008KT 080V150 9999 SCT025 27/18 Q1020=
2025-07-27 14:00:00<>METAR SBSV 271400Z 13008KT 070V150 9999 SCT025 27/19 Q1020=
2025-07-27 15:00:00<>METAR SBSV 271500Z 11010KT 070V140 9999 SCT025 28/18 Q1019=
2025-07-27 16:00:00<>METAR SBSV 271600Z 09010KT 070V130 9999 BKN025 27/19 Q1018=
2025-07-27 17:00:00<>METAR SBSV 271700Z 12008KT 080V160 9999 SCT025 27/19 Q1018=
2025-07-27 18:00:00<>METAR SBSV 271800Z 13007KT 9999 SCT025 27/19 Q1017=
2025-07-27 19:00:00<>METAR SBSV 271900Z 13008KT 9999 SCT025 26/19 Q1017=
2025-07-27 20:00:00<>METAR SBSV 272000Z 11007KT 9999 SCT025 26/19 Q1017=
2025-07-27 21:00:00<>METAR SBSV 272100Z 12009KT 9999 SCT025 25/19 Q1018=
2025-07-27 22:00:00<>METAR SBSV 272200Z 11007KT 9999 FEW025 25/19 Q1018=
2025-07-27 23:00:00<>METAR SBSV 272300Z 11008KT 9999 FEW025 25/19 Q1018=
2025-07-28 00:00:00<>METAR SBSV 280000Z 10008KT 9999 FEW025 25/19 Q1019=
2025-07-28 01:00:00<>METAR SBSV 280100Z 11008KT 9999 FEW025 25/19 Q1019=
2025-07-28 02:00:00<>METAR SBSV 280200Z 12007KT 090V150 9999 FEW023 25/19 Q1018=
2025-07-28 03:00:00<>METAR SBSV 280300Z 12007KT 090V190 9999 SCT024 25/19 Q1018=
2025-07-28 04:00:00<>METAR SBSV 280400Z 11009KT 9999 FEW025 24/19 Q1018=
2025-07-28 05:00:00<>METAR SBSV 280500Z 12005KT 9999 FEW025 24/18 Q1018=
2025-07-28 06:00:00<>METAR SBSV 280600Z 11005KT 9999 FEW027 24/18 Q1017=
2025-07-28 07:00:00<>METAR SBSV 280700Z 12007KT 9999 SCT030 24/18 Q1017=
2025-07-28 08:00:00<>METAR SBSV 280800Z 11007KT 9999 FEW030 24/18 Q1018=
2025-07-28 09:00:00<>METAR SBSV 280900Z 12005KT 9999 FEW025 24/17 Q1018=
2025-07-28 10:00:00<>METAR SBSV 281000Z VRB05KT 9999 FEW025 22/19 Q1019=
2025-07-28 11:00:00<>METAR SBSV 281100Z 14006KT 9999 FEW025 25/18 Q1019=
2025-07-28 12:00:00<>METAR SBSV 281200Z 14006KT 080V170 9999 FEW025 26/19 Q1020=
2025-07-28 13:00:00<>METAR SBSV 281300Z 11002KT 9999 SCT025 26/19 Q1020=
2025-07-28 14:00:00<>METAR SBSV 281400Z 16007KT 9999 SCT025 27/19 Q1020=
2025-07-28 15:00:00<>METAR SBSV 281500Z 18007KT 130V250 9999 SCT025 27/19 Q1019=
2025-07-28 16:00:00<>METAR SBSV 281600Z 17007KT 140V220 9999 SCT025 27/19 Q1018=
2025-07-28 17:00:00<>METAR SBSV 281700Z 14008KT 110V200 9999 SCT025 27/19 Q1017=
2025-07-28 18:00:00<>METAR SBSV 281800Z 18007KT 9999 SCT025 27/20 Q1017=
2025-07-28 19:00:00<>METAR SBSV 281900Z 18007KT 9999 SCT025 26/19 Q1017=
2025-07-28 20:00:00<>METAR SBSV 282000Z 16006KT 9999 SCT025 26/20 Q1017=
2025-07-28 21:00:00<>METAR SBSV 282100Z 19005KT 9999 SCT025 25/20 Q1018=
2025-07-28 22:00:00<>METAR SBSV 282200Z 14004KT 9999 SCT025 25/19 Q1018=
2025-07-28 23:00:00<>METAR SBSV 282300Z 12006KT 9999 SCT025 25/19 Q1019=
2025-07-29 00:00:00<>METAR SBSV 290000Z 12005KT 9999 FEW025 25/19 Q1019=
2025-07-29 01:00:00<>METAR SBSV 290100Z 11007KT 050V140 9999 FEW025 25/20 Q1019=
2025-07-29 02:00:00<>METAR SBSV 290200Z 11006KT 9999 FEW025 25/19 Q1018=
2025-07-29 03:00:00<>METAR SBSV 290300Z 10006KT 9999 FEW025 24/19 Q1018=
2025-07-29 04:00:00<>METAR SBSV 290400Z 10004KT 9999 FEW021 24/20 Q1018=
2025-07-29 05:00:00<>METAR SBSV 290500Z 28002KT 9999 FEW021 22/20 Q1020=
2025-07-29 06:00:00<>METAR SBSV 290600Z VRB01KT 9999 FEW021 21/20 Q1017=
2025-07-29 07:00:00<>METAR SBSV 290700Z VRB01KT 9999 FEW021 21/20 Q1017=
2025-07-29 08:00:00<>METAR SBSV 290800Z VRB02KT 9999 FEW021 21/20 Q1016=
2025-07-29 09:00:00<>METAR SBSV 290900Z VRB02KT 9999 SCT021 21/20 Q1017=
2025-07-29 10:00:00<>METAR SBSV 291000Z 28003KT 7000 SCT019 SCT040 22/20 Q1017=
2025-07-29 11:00:00<>METAR SBSV 291100Z 29003KT 9999 SCT022 24/21 Q1018=
2025-07-29 12:00:00<>METAR COR SBSV 291200Z 09009KT 9999 FEW023 BKN040 27/20 Q1017=
2025-07-29 13:00:00<>METAR SBSV 291300Z 11007KT 060V150 9999 FEW016 BKN025 27/20 Q1018=
2025-07-29 14:00:00<>METAR SBSV 291400Z 09008KT 060V120 9999 FEW015 BKN025 27/21 Q1018=
2025-07-29 15:00:00<>METAR SBSV 291500Z 09009KT 9999 FEW023 BKN040 27/20 Q1017=
2025-07-29 16:00:00<>METAR SBSV 291600Z 10009KT 9999 FEW023 BKN040 27/20 Q1016=
2025-07-29 17:00:00<>METAR SBSV 291700Z 11008KT 9999 SCT025 27/20 Q1015=
2025-07-29 18:00:00<>METAR SBSV 291800Z 10009KT 050V140 9999 SCT025 27/21 Q1015=
2025-07-29 19:00:00<>METAR SBSV 291900Z 08010KT 9999 FEW025 26/21 Q1014=
2025-07-29 20:00:00<>METAR SBSV 292000Z 07009KT CAVOK 25/21 Q1014=
2025-07-29 21:00:00<>METAR SBSV 292100Z 09006KT CAVOK 25/21 Q1015=
2025-07-29 22:00:00<>METAR SBSV 292200Z 08006KT CAVOK 24/21 Q1015=
2025-07-29 23:00:00<>METAR SBSV 292300Z 06007KT 9999 FEW017 25/21 Q1015=
2025-07-30 00:00:00<>METAR SBSV 300000Z 04004KT 9999 SCT017 24/21 Q1016=
2025-07-30 01:00:00<>METAR SBSV 300100Z 01003KT 9999 SCT017 24/21 Q1016=
2025-07-30 02:00:00<>METAR SBSV 300200Z 01004KT 350V050 9999 SCT017 23/21 Q1016=
2025-07-30 03:00:00<>METAR SBSV 300300Z 36004KT 9999 SCT017 23/22 Q1016=
2025-07-30 04:00:00<>METAR SBSV 300400Z 36004KT 9999 FEW020 22/22 Q1015=
2025-07-30 05:00:00<>METAR SBSV 300500Z 36003KT CAVOK 22/21 Q1015=
2025-07-30 06:00:00<>METAR SBSV 300600Z 01003KT 9999 FEW020 22/21 Q1015=
2025-07-30 07:00:00<>METAR SBSV 300700Z 01004KT 9999 FEW020 22/21 Q1015=
2025-07-30 08:00:00<>METAR SBSV 300800Z 36003KT 9999 FEW020 22/21 Q1015=
2025-07-30 09:00:00<>METAR SBSV 300900Z 35003KT 9999 FEW016 21/21 Q1016=
2025-07-30 10:00:00<>METAR SBSV 301000Z 36003KT 9999 FEW016 23/22 Q1017=
2025-07-30 11:00:00<>METAR SBSV 301100Z 02004KT 9999 FEW020 25/22 Q1018=
2025-07-30 12:00:00<>METAR SBSV 301200Z 07007KT 020V100 9999 SCT021 26/21 Q1018=
2025-07-30 13:00:00<>METAR SBSV 301300Z 08007KT 9999 SCT023 27/21 Q1018=
2025-07-30 14:00:00<>METAR SBSV 301400Z 10007KT 9999 SCT023 27/21 Q1019=
2025-07-30 15:00:00<>METAR SBSV 301500Z 11008KT 9999 SCT023 27/21 Q1018=
2025-07-30 16:00:00<>METAR SBSV 301600Z 10008KT 080V160 9999 SCT023 27/21 Q1017=
2025-07-30 17:00:00<>METAR SBSV 301700Z 10008KT 070V150 9999 SCT023 27/20 Q1017=
2025-07-30 18:00:00<>METAR SBSV 301800Z 12007KT 070V220 9999 FEW025 27/20 Q1016=
2025-07-30 19:00:00<>METAR SBSV 301900Z 10007KT 070V130 9999 FEW022 26/20 Q1017=
2025-07-30 20:00:00<>METAR SBSV 302000Z 11007KT CAVOK 26/20 Q1017=
2025-07-30 21:00:00<>METAR SBSV 302100Z 11006KT 080V220 CAVOK 26/19 Q1018=
2025-07-30 22:00:00<>METAR SBSV 302200Z 11006KT 090V160 CAVOK 25/20 Q1018=
2025-07-30 23:00:00<>METAR SBSV 302300Z 10008KT CAVOK 25/19 Q1019=
2025-07-31 00:00:00<>METAR SBSV 310000Z 10007KT CAVOK 25/19 Q1019=
2025-07-31 01:00:00<>METAR SBSV 310100Z 10007KT CAVOK 25/19 Q1020=
2025-07-31 02:00:00<>METAR SBSV 310200Z 11007KT CAVOK 25/19 Q1020=
2025-07-31 03:00:00<>METAR SBSV 310300Z 11007KT CAVOK 25/19 Q1019=
2025-07-31 04:00:00<>METAR SBSV 310400Z 12005KT CAVOK 25/19 Q1019=
2025-07-31 05:00:00<>METAR SBSV 310500Z 13005KT CAVOK 25/19 Q1019=
2025-07-31 06:00:00<>METAR SBSV 310600Z 14004KT 100V210 CAVOK 25/19 Q1019=
2025-07-31 07:00:00<>METAR SBSV 310700Z 13004KT 110V170 9999 FEW023 SCT030 25/20 Q1019=
2025-07-31 08:00:00<>METAR SBSV 310800Z 11006KT 9999 FEW021 SCT050 25/20 Q1020=
2025-07-31 09:00:00<>METAR SBSV 310900Z 11005KT 9999 FEW021 BKN050 24/20 Q1020=
2025-07-31 10:00:00<>METAR SBSV 311000Z 12005KT 090V150 9999 SCT021 BKN050 25/20 Q1020=
2025-07-31 11:00:00<>METAR SBSV 311100Z 14006KT 110V180 9999 SCT021 BKN050 26/21 Q1021=
2025-07-31 12:00:00<>METAR SBSV 311200Z 14009KT 9999 SCT021 BKN050 26/20 Q1022=
2025-07-31 13:00:00<>METAR SBSV 311300Z 08006KT 9999 VCSH SCT021 FEW023TCU BKN050 25/21 Q1022=
2025-07-31 14:00:00<>METAR SBSV 311400Z 10007KT 070V140 9999 3000N SHRA SCT021 FEW023TCU BKN050 26/21 Q1022=
2025-07-31 15:00:00<>METAR SBSV 311500Z 13003KT 090V200 9999 VCSH SCT021 FEW023TCU BKN050 24/22 Q1022 RESHRA=
2025-07-31 16:00:00<>METAR SBSV 311600Z 16008KT 9999 2500NW SHRA BKN020 FEW023TCU BKN050 24/22 Q1021=
2025-07-31 17:00:00<>METAR SBSV 311700Z 09007KT 9999 VCSH BKN020 FEW023TCU BKN050 25/22 Q1021 RESHRA=
2025-07-31 18:00:00<>METAR COR SBSV 311800Z 10009KT 080V170 9999 VCSH BKN020 FEW023TCU BKN050 26/21 Q1021=
2025-07-31 19:00:00<>METAR SBSV 311900Z 12010KT 9999 SCT020 FEW023TCU SCT050 26/21 Q1021=
2025-07-31 20:00:00<>METAR SBSV 312000Z 11010KT 9999 VCSH SCT020 FEW023TCU SCT050 26/20 Q1021=
2025-07-31 21:00:00<>METAR SBSV 312100Z 11006KT 9999 SCT020 SCT050 25/20 Q1021=
2025-07-31 22:00:00<>METAR SBSV 312200Z 12007KT 9999 SCT020 SCT050 25/20 Q1022=
2025-07-31 23:00:00<>METAR SBSV 312300Z 13008KT 9999 SCT020 SCT050 25/20 Q1023=
2025-08-01 00:00:00<>METAR SBSV 010000Z 13008KT 9999 SCT023 25/21 Q1023=
2025-08-01 01:00:00<>METAR SBSV 010100Z 12009KT 090V150 9999 SCT023 BKN100 25/20 Q1023=
2025-08-01 02:00:00<>METAR SBSV 010200Z 13015KT 9999 FEW016 SCT023 FEW025TCU BKN070 25/21 Q1023=
2025-08-01 03:00:00<>METAR SBSV 010300Z 13010KT 100V160 9999 BKN017 BKN090 24/21 Q1023=
2025-08-01 04:00:00<>METAR SBSV 010400Z 15008KT 9999 BKN016 BKN050 24/21 Q1022=
2025-08-01 05:00:00<>METAR SBSV 010500Z 14010KT 9999 BKN017 BKN060 24/20 Q1022=
2025-08-01 06:00:00<>METAR SBSV 010600Z 15014KT 9999 BKN015 BKN060 24/21 Q1021=
2025-08-01 07:00:00<>METAR COR SBSV 010700Z 13012KT 9000 VCSH BKN015 OVC050 24/20 Q1022=
2025-08-01 08:00:00<>METAR SBSV 010800Z 14014G24KT 9999 BKN015 BKN060 24/20 Q1022=
2025-08-01 09:00:00<>METAR SBSV 010900Z 15016KT 9999 VCSH FEW008 BKN020 BKN090 23/20 Q1022=
2025-08-01 10:00:00<>METAR SBSV 011000Z 15013KT 9999 SCT020 BKN050 24/20 Q1023=
2025-08-01 11:00:00<>METAR SBSV 011100Z 16011KT 9999 VCSH SCT020 BKN050 25/19 Q1023=
2025-08-01 12:00:00<>METAR SBSV 011200Z 15015KT 9999 SCT020 BKN050 26/19 Q1024=
2025-08-01 13:00:00<>METAR SBSV 011300Z 16015KT 9999 SCT020 BKN050 27/19 Q1024=
2025-08-01 14:00:00<>METAR SBSV 011400Z 15016KT 9999 VCSH SCT023 FEW025TCU BKN050 26/19 Q1023=
2025-08-01 15:00:00<>METAR SBSV 011500Z 16017KT 9999 VCSH BKN023 FEW025TCU BKN050 26/19 Q1023=
2025-08-01 16:00:00<>METAR SBSV 011600Z 16014KT 9999 SCT023 BKN050 26/19 Q1022=
2025-08-01 17:00:00<>METAR SBSV 011700Z 16015KT 9999 VCSH SCT023 BKN050 26/19 Q1022=
2025-08-01 18:00:00<>METAR SBSV 011800Z 16013KT 9999 VCSH SCT026 OVC061 26/19 Q1021=
2025-08-01 19:00:00<>METAR SBSV 011900Z 16015KT 9999 VCSH FEW026 OVC062 25/19 Q1022=
2025-08-01 20:00:00<>METAR SBSV 012000Z 16015KT 9999 VCSH SCT028 SCT045 OVC062 25/19 Q1022=
2025-08-01 21:00:00<>METAR SBSV 012100Z 16016KT 9999 FEW028 OVC062 25/18 Q1022=
2025-08-01 22:00:00<>METAR SBSV 012200Z 16014KT 9999 SCT028 SCT045 OVC062 25/18 Q1022=
2025-08-01 23:00:00<>METAR SBSV 012300Z 16015KT 9999 FEW030 BKN053 OVC062 25/18 Q1023=
2025-08-02 00:00:00<>METAR SBSV 020000Z 16013KT 9999 FEW026 BKN060 25/19 Q1023=
2025-08-02 01:00:00<>METAR SBSV 020100Z 15015KT 120V180 9999 VCSH FEW023 FEW025TCU BKN060 25/18 Q1023=
2025-08-02 02:00:00<>METAR SBSV 020200Z 16014KT 9999 FEW023 BKN060 25/18 Q1022=
2025-08-02 03:00:00<>METAR SBSV 020300Z 15014KT 120V180 9999 FEW023 BKN060 24/18 Q1022=
2025-08-02 04:00:00<>METAR SBSV 020400Z 16012KT 9999 FEW023 BKN060 25/18 Q1022=
2025-08-02 05:00:00<>METAR SBSV 020500Z 17012KT 9999 FEW023 BKN060 24/19 Q1021=
2025-08-02 06:00:00<>METAR SBSV 020600Z 16014KT 9999 FEW023 BKN060 24/18 Q1021=
2025-08-02 07:00:00<>METAR SBSV 020700Z 16014KT 9999 FEW025 BKN060 24/18 Q1021=
2025-08-02 08:00:00<>METAR SBSV 020800Z 15012KT 9999 SCT025 BKN060 24/18 Q1021=
2025-08-02 09:00:00<>METAR SBSV 020900Z 16013KT 9999 VCSH SCT025 FEW025TCU BKN060 24/18 Q1021=
2025-08-02 10:00:00<>METAR SBSV 021000Z 14015KT 9999 VCSH SCT024 FEW025TCU OVC060 24/18 Q1022=
2025-08-02 10:42:00<>SPECI COR SBSV 021042Z 16013G23KT 5000 -SHRA SCT024 FEW025TCU OVC060 24/19 Q1022=
2025-08-02 11:00:00<>METAR SBSV 021100Z 15016KT 9000 VCSH FEW015 SCT023 FEW025TCU OVC060 23/18 Q1022=
2025-08-02 12:00:00<>METAR SBSV 021200Z 16013KT 9999 VCSH BKN023 FEW025TCU OVC050 25/18 Q1023=
2025-08-02 13:00:00<>METAR SBSV 021300Z 16013KT 9999 BKN025 BKN070 26/18 Q1023=
2025-08-02 14:00:00<>METAR SBSV 021400Z 16013KT 9999 SCT025 BKN080 26/17 Q1022=
2025-08-02 15:00:00<>METAR SBSV 021500Z 16014KT 9999 FEW020 SCT025 27/18 Q1022=
2025-08-02 16:00:00<>METAR SBSV 021600Z 16013KT 130V190 9999 FEW020 SCT025 27/18 Q1021=
2025-08-02 17:00:00<>METAR SBSV 021700Z 16012KT 120V190 9999 SCT027 27/18 Q1020=
2025-08-02 18:00:00<>METAR SBSV 021800Z 17010KT 130V210 9999 VCSH FEW025TCU BKN062 27/19 Q1020=
2025-08-02 19:00:00<>METAR SBSV 021900Z 15012KT 9999 FEW025TCU SCT031 26/19 Q1020=
2025-08-02 20:00:00<>METAR SBSV 022000Z 15012KT 9999 FEW025 25/19 Q1020=
2025-08-02 21:00:00<>METAR SBSV 022100Z 15011KT 9999 SCT030 25/18 Q1021=
2025-08-02 22:00:00<>METAR SBSV 022200Z 15012KT 9999 SCT030 SCT052 25/18 Q1021=
2025-08-02 23:00:00<>METAR SBSV 022300Z 15011KT 9999 FEW030 25/18 Q1021=
2025-08-03 00:00:00<>METAR SBSV 030000Z 16013KT 9999 BKN026 25/19 Q1022=
2025-08-03 01:00:00<>METAR SBSV 030100Z 16013KT 9999 SCT025 SCT050 24/19 Q1022=
2025-08-03 02:00:00<>METAR SBSV 030200Z 15011KT 9999 SCT025 SCT050 24/18 Q1021=
2025-08-03 03:00:00<>METAR SBSV 030300Z 16013KT 9999 SCT025 SCT060 25/18 Q1021=
2025-08-03 04:00:00<>METAR SBSV 030400Z 16012KT 9999 SCT025 SCT060 24/18 Q1020=
2025-08-03 05:00:00<>METAR SBSV 030500Z 16011KT 9999 SCT025 24/18 Q1020=
2025-08-03 06:00:00<>METAR SBSV 030600Z 15011KT 9999 SCT025 25/16 Q1019=
2025-08-03 07:00:00<>METAR SBSV 030700Z 15004KT 9999 SCT025 BKN050 24/17 Q1019=
2025-08-03 08:00:00<>METAR SBSV 030800Z 14011KT 9999 SCT025 BKN050 24/18 Q1019=
2025-08-03 09:00:00<>METAR SBSV 030900Z 14011KT 9999 SCT025 SCT060 24/17 Q1020=
2025-08-03 10:00:00<>METAR SBSV 031000Z 15010KT 9999 SCT025 SCT060 24/18 Q1020=
2025-08-03 11:00:00<>METAR SBSV 031100Z 14011KT 9999 SCT025 SCT060 25/18 Q1021=
2025-08-03 12:00:00<>METAR SBSV 031200Z 15011KT 110V170 9999 SCT025 26/18 Q1021=
2025-08-03 13:00:00<>METAR SBSV 031300Z 15013KT 9999 VCSH SCT023 FEW025TCU 26/18 Q1021=
2025-08-03 14:00:00<>METAR SBSV 031400Z 15013KT 9999 SCT023 27/19 Q1021=
2025-08-03 15:00:00<>METAR SBSV 031500Z 14012KT 9999 SCT023 26/18 Q1020=
2025-08-03 16:00:00<>METAR SBSV 031600Z 13011KT 080V160 9999 SCT023 27/18 Q1019=
2025-08-03 17:00:00<>METAR SBSV 031700Z 12009KT 090V160 9999 SCT023 27/17 Q1019=
2025-08-03 18:00:00<>METAR SBSV 031800Z 14008KT 120V190 9999 VCSH SCT021 FEW024TCU SCT060 28/19 Q1018=
2025-08-03 19:00:00<>METAR SBSV 031900Z 13009KT 090V180 9999 VCSH SCT023 FEW025TCU BKN050 25/19 Q1018=
2025-08-03 20:00:00<>METAR SBSV 032000Z 12011KT 9999 SCT026 SCT070 25/18 Q1019=
2025-08-03 21:00:00<>METAR SBSV 032100Z 13009KT 100V180 9999 SCT028 25/18 Q1019=
2025-08-03 22:00:00<>METAR SBSV 032200Z 12009KT 9999 FEW027 25/19 Q1019=
2025-08-03 23:00:00<>METAR SBSV 032300Z 11011KT 9999 FEW029 25/18 Q1020=
2025-08-04 00:00:00<>METAR SBSV 040000Z 12011KT 9999 FEW028 25/18 Q1021=
2025-08-04 01:00:00<>METAR SBSV 040100Z 13008KT 9999 SCT028 SCT064 25/19 Q1021=
2025-08-04 02:00:00<>METAR SBSV 040200Z 13010KT 9999 SCT028 25/19 Q1021=
2025-08-04 03:00:00<>METAR SBSV 040300Z 12010KT 9999 SCT028 25/19 Q1020=
2025-08-04 04:00:00<>METAR SBSV 040400Z 13010KT 9999 SCT026 25/18 Q1020=
2025-08-04 05:00:00<>METAR SBSV 040500Z 13010KT 9999 FEW026 25/19 Q1020=
2025-08-04 06:00:00<>METAR SBSV 040600Z 12010KT 9999 FEW026 24/18 Q1019=
2025-08-04 07:00:00<>METAR SBSV 040700Z 13010KT 9999 SCT026 24/18 Q1019=
2025-08-04 08:00:00<>METAR SBSV 040800Z 13011KT 9999 FEW030 25/17 Q1019=
2025-08-04 09:00:00<>METAR SBSV 040900Z 14010KT 9999 FEW020 25/16 Q1019=
2025-08-04 10:00:00<>METAR SBSV 041000Z 13007KT 9999 FEW020 SCT100 25/16 Q1020=
2025-08-04 11:00:00<>METAR SBSV 041100Z 13010KT 9999 FEW020 SCT100 26/16 Q1020=
2025-08-04 12:00:00<>METAR SBSV 041200Z 12012KT 9999 FEW020 SCT100 26/17 Q1021=
2025-08-04 13:00:00<>METAR SBSV 041300Z 12012KT 9999 FEW020 SCT100 27/16 Q1021=
2025-08-04 14:00:00<>METAR SBSV 041400Z 11012KT 9999 FEW020 27/17 Q1021=
2025-08-04 15:00:00<>METAR SBSV 041500Z 13011KT 9999 FEW020 27/17 Q1020=
2025-08-04 16:00:00<>METAR SBSV 041600Z 13010KT 9999 FEW020 28/18 Q1019=
2025-08-04 17:00:00<>METAR SBSV 041700Z 15010KT 9999 SCT021 27/18 Q1019=
2025-08-04 18:00:00<>METAR SBSV 041800Z 14010KT 100V190 9999 SCT021 27/18 Q1019=
2025-08-04 19:00:00<>METAR SBSV 041900Z 15008KT 120V180 9999 SCT023 26/18 Q1019=
2025-08-04 20:00:00<>METAR SBSV 042000Z 14008KT 9999 SCT023 25/18 Q1019=
2025-08-04 21:00:00<>METAR SBSV 042100Z 14006KT 120V200 9999 SCT023 25/18 Q1019=
2025-08-04 22:00:00<>METAR SBSV 042200Z 14006KT 9999 SCT023 25/17 Q1020=
2025-08-04 23:00:00<>METAR SBSV 042300Z 15006KT 9999 SCT023 25/18 Q1020=
2025-08-05 00:00:00<>METAR SBSV 050000Z 15007KT 9999 FEW023 25/18 Q1021=
2025-08-05 01:00:00<>METAR SBSV 050100Z 17007KT 130V200 9999 FEW023 25/18 Q1021=
2025-08-05 02:00:00<>METAR SBSV 050200Z 16007KT 9999 FEW023 BKN060 25/18 Q1021=
2025-08-05 03:00:00<>METAR SBSV 050300Z 12012KT 9999 SCT015 BKN060 24/20 Q1021=
2025-08-05 04:00:00<>METAR SBSV 050400Z 14013KT 9999 SCT020 OVC050 23/19 Q1020=
2025-08-05 05:00:00<>METAR SBSV 050500Z 17005KT 140V210 6000 -RA BKN019 OVC040 22/19 Q1020=
2025-08-05 06:00:00<>METAR SBSV 050600Z 26003KT 9000 VCSH BKN021 BKN040 22/19 Q1019=
2025-08-05 07:00:00<>METAR SBSV 050700Z 16006KT 8000 VCSH BKN019 FEW025TCU BKN050 24/20 Q1019=
2025-08-05 08:00:00<>METAR SBSV 050800Z 18005KT 9999 VCSH BKN017 FEW025TCU BKN060 23/20 Q1019=
2025-08-05 09:00:00<>METAR SBSV 050900Z 19004KT 160V250 9000 VCSH BKN021 FEW025TCU OVC050 24/20 Q1019=
2025-08-05 09:03:00<>SPECI SBSV 050903Z VRB08KT 4000 SHRA BR BKN013 FEW025TCU OVC040 24/20 Q1020=
2025-08-05 10:00:00<>METAR SBSV 051000Z 12003KT 7000 -RA FEW010 BKN020 FEW025TCU OVC040 23/21 Q1020 RESHRA=
2025-08-05 10:05:00<>SPECI SBSV 051005Z 09007KT 5000 1500W RA SCT013 BKN020 FEW025TCU OVC040 22/21 Q1020=
2025-08-05 11:00:00<>METAR SBSV 051100Z 36004KT 9000 -RA SCT017 BKN021 FEW025TCU OVC040 23/22 Q1021 RERA=
2025-08-05 12:00:00<>METAR SBSV 051200Z 18004KT 9999 VCSH SCT020 BKN023 BKN050 24/22 Q1021=
2025-08-05 13:00:00<>METAR SBSV 051300Z 09010KT 9000 3000E -SHRA SCT017 BKN023 OVC050 24/21 Q1021=
2025-08-05 14:00:00<>METAR SBSV 051400Z 15004KT 9000 3000W -SHRA SCT017 BKN023 BKN050 24/21 Q1021=
2025-08-05 15:00:00<>METAR SBSV 051500Z 16008KT 9999 VCSH BKN023 BKN040 25/22 Q1020=
2025-08-05 16:00:00<>METAR SBSV 051600Z 16009KT 9999 VCSH BKN023 BKN040 26/20 Q1019=
2025-08-05 17:00:00<>METAR SBSV 051700Z 17009KT 9999 VCSH SCT023 BKN035 26/20 Q1018=
2025-08-05 18:00:00<>METAR SBSV 051800Z 15008KT 110V240 9000 VCSH SCT023 FEW025TCU BKN030 26/20 Q1018=
2025-08-05 19:00:00<>METAR SBSV 051900Z 14008KT 9999 VCSH SCT023 FEW025TCU BKN030 25/19 Q1018=
2025-08-05 20:00:00<>METAR SBSV 052000Z 13007KT 9999 VCSH SCT023 FEW025TCU BKN040 25/19 Q1019=
2025-08-05 21:00:00<>METAR SBSV 052100Z 14008KT 110V200 9999 SCT023 FEW025TCU BKN040 25/18 Q1019=
2025-08-05 22:00:00<>METAR SBSV 052200Z 13007KT 100V170 9999 SCT023 BKN060 25/19 Q1019=
2025-08-05 23:00:00<>METAR SBSV 052300Z 13008KT 9999 SCT023 BKN060 25/18 Q1019=
2025-08-06 00:00:00<>METAR SBSV 060000Z 11008KT 9999 FEW025 SCT060 25/18 Q1020=
2025-08-06 01:00:00<>METAR SBSV 060100Z 11008KT 9999 FEW025 SCT060 24/19 Q1020=
2025-08-06 02:00:00<>METAR SBSV 060200Z 12008KT 9999 FEW025 SCT060 25/19 Q1019=
2025-08-06 03:00:00<>METAR SBSV 060300Z 12007KT 9999 FEW025 25/18 Q1019=
2025-08-06 04:00:00<>METAR SBSV 060400Z 13006KT 100V160 9999 FEW025 24/18 Q1019=
2025-08-06 05:00:00<>METAR SBSV 060500Z 14005KT 9999 FEW025 24/18 Q1018=
2025-08-06 06:00:00<>METAR SBSV 060600Z 14004KT 110V180 9999 FEW025 24/18 Q1018=
2025-08-06 07:00:00<>METAR SBSV 060700Z 13004KT 9999 FEW025 24/19 Q1018=
2025-08-06 08:00:00<>METAR SBSV 060800Z 15004KT 110V200 9999 FEW025 SCT050 24/19 Q1018=
2025-08-06 09:00:00<>METAR SBSV 060900Z 16005KT 140V200 9999 FEW025 SCT050 24/19 Q1018=
2025-08-06 10:00:00<>METAR SBSV 061000Z 16005KT 9999 VCSH SCT025 SCT050 24/19 Q1019=
2025-08-06 11:00:00<>METAR SBSV 061100Z 15011KT 9999 4000NW SHRA SCT025 SCT050 24/20 Q1020=
2025-08-06 12:00:00<>METAR SBSV 061200Z 11007KT 9999 SCT025 SCT050 26/19 Q1020 RESHRA=
2025-08-06 13:00:00<>METAR SBSV 061300Z 18005KT 9999 VCSH SCT025 BKN040 25/18 Q1020=
2025-08-06 14:00:00<>METAR SBSV 061400Z 14005KT 9999 FEW025 SCT050 26/18 Q1019=
2025-08-06 15:00:00<>METAR SBSV 061500Z 16008KT 9999 SCT025 SCT050 26/19 Q1019=
2025-08-06 16:00:00<>METAR SBSV 061600Z 15007KT 9999 SCT025 SCT050 26/20 Q1018=
2025-08-06 17:00:00<>METAR SBSV 061700Z 17008KT 9999 FEW025 SCT050 26/19 Q1017=
2025-08-06 18:00:00<>METAR SBSV 061800Z 17009KT 110V230 9999 FEW024 27/20 Q1017=
2025-08-06 19:00:00<>METAR SBSV 061900Z 16009KT 9999 FEW022 26/19 Q1017=
2025-08-06 20:00:00<>METAR SBSV 062000Z 16007KT 9999 FEW024 25/19 Q1017=
2025-08-06 21:00:00<>METAR SBSV 062100Z 12006KT 080V190 9999 FEW023 25/20 Q1017=
2025-08-06 22:00:00<>METAR SBSV 062200Z 11005KT 080V140 9999 FEW016 SCT021 24/21 Q1017=
2025-08-06 23:00:00<>METAR SBSV 062300Z 14007KT CAVOK 24/20 Q1018=
2025-08-07 00:00:00<>METAR SBSV 070000Z 15006KT 9999 SCT024 25/19 Q1018=
2025-08-07 01:00:00<>METAR SBSV 070100Z 14008KT 110V170 9999 SCT024 25/19 Q1018=
2025-08-07 02:00:00<>METAR SBSV 070200Z 11008KT 9999 SCT022 25/20 Q1018=
2025-08-07 03:00:00<>METAR SBSV 070300Z 14007KT 110V170 9999 SCT022 24/19 Q1018=
2025-08-07 04:00:00<>METAR SBSV 070400Z 14006KT 110V170 9999 SCT022 24/20 Q1018=
2025-08-07 05:00:00<>METAR SBSV 070500Z 15006KT 120V180 9999 SCT021 24/20 Q1017=
2025-08-07 06:00:00<>METAR SBSV 070600Z 14005KT 9999 SCT021 24/20 Q1017=
2025-08-07 07:00:00<>METAR SBSV 070700Z 15005KT 9999 FEW021 24/19 Q1017=
2025-08-07 08:00:00<>METAR SBSV 070800Z 14006KT 9999 FEW021 24/19 Q1017=
2025-08-07 09:00:00<>METAR SBSV 070900Z 16006KT 120V190 9999 SCT022 24/19 Q1018=
2025-08-07 10:00:00<>METAR SBSV 071000Z 15007KT 9999 SCT022 25/19 Q1018=
2025-08-07 11:00:00<>METAR SBSV 071100Z 15009KT 9999 SCT022 25/19 Q1019=
2025-08-07 12:00:00<>METAR SBSV 071200Z 14009KT 9999 SCT022 26/19 Q1020=
2025-08-07 13:00:00<>METAR SBSV 071300Z 15009KT 9999 SCT022 26/19 Q1019=
2025-08-07 14:00:00<>METAR SBSV 071400Z 14009KT 9999 SCT023 26/19 Q1019=
2025-08-07 15:00:00<>METAR SBSV 071500Z 13008KT 080V180 9999 SCT023 27/19 Q1018=
2025-08-07 16:00:00<>METAR SBSV 071600Z 15007KT 090V200 9999 SCT023 26/18 Q1017=
2025-08-07 17:00:00<>METAR SBSV 071700Z 15008KT 110V210 9999 FEW030 27/19 Q1016=
2025-08-07 18:00:00<>METAR SBSV 071800Z 17008KT 130V240 9999 FEW030 27/18 Q1016=
2025-08-07 19:00:00<>METAR SBSV 071900Z 17008KT 140V240 9999 FEW025 26/18 Q1016=
2025-08-07 20:00:00<>METAR SBSV 072000Z 17007KT CAVOK 26/18 Q1016=
2025-08-07 21:00:00<>METAR SBSV 072100Z 16006KT 120V200 CAVOK 25/18 Q1016=
2025-08-07 22:00:00<>METAR SBSV 072200Z 15005KT CAVOK 25/18 Q1016=
2025-08-07 23:00:00<>METAR SBSV 072300Z 15005KT 120V190 CAVOK 25/18 Q1017=
2025-08-08 00:00:00<>METAR SBSV 080000Z 13006KT 100V160 CAVOK 24/18 Q1017=
2025-08-08 01:00:00<>METAR SBSV 080100Z 13005KT CAVOK 24/19 Q1018=
2025-08-08 02:00:00<>METAR SBSV 080200Z 13007KT 9999 FEW026 24/18 Q1017=
2025-08-08 03:00:00<>METAR SBSV 080300Z 15005KT 9999 FEW026 24/19 Q1017=
2025-08-08 04:00:00<>METAR SBSV 080400Z 14005KT 9999 SCT026 24/18 Q1017=
2025-08-08 05:00:00<>METAR SBSV 080500Z 15005KT 9999 SCT027 24/18 Q1016=
2025-08-08 06:00:00<>METAR SBSV 080600Z 14005KT 9999 SCT028 24/18 Q1016=
2025-08-08 07:00:00<>METAR SBSV 080700Z 16003KT 9999 FEW028 24/18 Q1016=
2025-08-08 08:00:00<>METAR SBSV 080800Z 27002KT 9999 FEW028 21/18 Q1016=
2025-08-08 09:00:00<>METAR SBSV 080900Z VRB01KT 9999 FEW028 21/19 Q1017=
2025-08-08 10:00:00<>METAR SBSV 081000Z 20003KT 9999 FEW023 23/20 Q1017=
2025-08-08 11:00:00<>METAR SBSV 081100Z 17006KT 9999 FEW023 25/18 Q1018=
2025-08-08 12:00:00<>METAR SBSV 081200Z 18006KT 110V230 9999 SCT030 26/19 Q1018=
2025-08-08 13:00:00<>METAR SBSV 081300Z 16006KT 9999 SCT030 26/18 Q1018=
2025-08-08 14:00:00<>METAR SBSV 081400Z 17009KT 9999 SCT030 27/18 Q1017=
2025-08-08 15:00:00<>METAR SBSV 081500Z 19009KT 9999 SCT030 27/19 Q1016=
2025-08-08 16:00:00<>METAR SBSV 081600Z 18009KT 9999 SCT030 27/19 Q1016=
2025-08-08 17:00:00<>METAR SBSV 081700Z 19009KT 9999 SCT030 26/20 Q1015=
2025-08-08 18:00:00<>METAR SBSV 081800Z 19009KT 9999 SCT030 26/19 Q1014=
2025-08-08 19:00:00<>METAR SBSV 081900Z 19010KT 9999 FEW030 26/20 Q1014=
2025-08-08 20:00:00<>METAR SBSV 082000Z 17007KT CAVOK 26/19 Q1015=
2025-08-08 21:00:00<>METAR SBSV 082100Z 16006KT 140V220 CAVOK 25/19 Q1015=
2025-08-08 22:00:00<>METAR SBSV 082200Z 15005KT CAVOK 25/19 Q1015=
2025-08-08 23:00:00<>METAR SBSV 082300Z 15005KT CAVOK 25/19 Q1016=
2025-08-09 00:00:00<>METAR SBSV 090000Z 13005KT 100V170 CAVOK 25/19 Q1016=
2025-08-09 01:00:00<>METAR SBSV 090100Z 12005KT 080V160 9999 FEW049 25/19 Q1016=
2025-08-09 02:00:00<>METAR SBSV 090200Z 12006KT CAVOK 25/20 Q1016=
2025-08-09 03:00:00<>METAR SBSV 090300Z 12003KT CAVOK 24/20 Q1016=
2025-08-09 04:00:00<>METAR SBSV 090400Z 02001KT CAVOK 23/20 Q1016=
2025-08-09 05:00:00<>METAR SBSV 090500Z 34002KT CAVOK 22/20 Q1015=
2025-08-09 06:00:00<>METAR SBSV 090600Z 00000KT CAVOK 21/20 Q1015=
2025-08-09 07:00:00<>METAR SBSV 090700Z 00000KT 9999 FEW018 20/20 Q1015=
2025-08-09 08:00:00<>METAR SBSV 090800Z 27002KT 9999 FEW019 20/19 Q1015=
2025-08-09 09:00:00<>METAR SBSV 090900Z 28002KT 9999 FEW019 20/20 Q1015=
2025-08-09 10:00:00<>METAR SBSV 091000Z VRB01KT 9999 FEW021 22/21 Q1016=
2025-08-09 11:00:00<>METAR SBSV 091100Z 32003KT 280V010 9999 FEW022 25/21 Q1017=
2025-08-09 12:00:00<>METAR SBSV 091200Z 02006KT 340V040 9999 BKN017 26/21 Q1017=
2025-08-09 13:00:00<>METAR SBSV 091300Z 07006KT 030V110 9999 FEW018 BKN022 27/21 Q1017=
2025-08-09 14:00:00<>METAR SBSV 091400Z 07014KT 9999 FEW025 27/21 Q1016=
2025-08-09 15:00:00<>METAR SBSV 091500Z 08013KT 9999 FEW026 28/22 Q1015=
2025-08-09 16:00:00<>METAR SBSV 091600Z 07013KT 9999 FEW025 27/22 Q1014=
2025-08-09 17:00:00<>METAR SBSV 091700Z 07014KT 9999 FEW030 27/22 Q1014=
2025-08-09 18:00:00<>METAR SBSV 091800Z 07015KT 9999 SCT030 26/22 Q1013=
2025-08-09 19:00:00<>METAR SBSV 091900Z 06012KT 9999 FEW030 26/22 Q1013=
2025-08-09 20:00:00<>METAR SBSV 092000Z 06013KT 9999 FEW030 26/21 Q1013=
2025-08-09 21:00:00<>METAR SBSV 092100Z 06011KT 9999 FEW030 25/22 Q1013=
2025-08-09 22:00:00<>METAR SBSV 092200Z 05010KT 9999 SCT020 25/22 Q1014=
2025-08-09 23:00:00<>METAR SBSV 092300Z 05008KT 9999 SCT020 25/22 Q1014=
2025-08-10 00:00:00<>METAR SBSV 100000Z 05007KT 9999 SCT015 BKN019 25/22 Q1015=
2025-08-10 01:00:00<>METAR SBSV 100100Z 05007KT 9999 SCT015 BKN019 25/22 Q1015=
2025-08-10 02:00:00<>METAR SBSV 100200Z 05007KT 9999 FEW016 25/22 Q1015=
2025-08-10 03:00:00<>METAR SBSV 100300Z 01004KT 9999 FEW016 24/22 Q1015=
2025-08-10 04:00:00<>METAR SBSV 100400Z 02004KT 9999 FEW016 23/23 Q1014=
2025-08-10 05:00:00<>METAR SBSV 100500Z 35003KT 9999 SCT016 23/23 Q1014=
2025-08-10 06:00:00<>METAR SBSV 100600Z 36003KT 9999 SCT016 23/23 Q1014=
2025-08-10 07:00:00<>METAR SBSV 100700Z 36003KT 9999 FEW016 23/23 Q1014=
2025-08-10 08:00:00<>METAR SBSV 100800Z 35004KT 9999 FEW016 23/23 Q1014=
2025-08-10 09:00:00<>METAR SBSV 100900Z 33004KT 290V050 9000 FEW016 23/23 Q1015=
2025-08-10 10:00:00<>METAR SBSV 101000Z 34004KT 310V010 6000 SCT017 BKN090 23/23 Q1015=
2025-08-10 11:00:00<>METAR SBSV 101100Z 34006KT 300V020 9999 FEW009 SCT020 BKN100 24/23 Q1016=
2025-08-10 12:00:00<>METAR SBSV 101200Z 01007KT 340V040 9999 FEW012 SCT019 26/22 Q1016=
2025-08-10 13:00:00<>METAR SBSV 101300Z 03009KT 340V050 9999 BKN022 28/21 Q1016=
2025-08-10 14:00:00<>METAR SBSV 101400Z 04009KT 350V070 9999 BKN024 28/22 Q1015=
2025-08-10 15:00:00<>METAR SBSV 101500Z 06012KT 9999 SCT026 28/22 Q1014=
2025-08-10 16:00:00<>METAR SBSV 101600Z 07014KT 9999 SCT026 28/22 Q1014=
2025-08-10 17:00:00<>METAR SBSV 101700Z 07015KT 9999 FEW011 SCT030 28/22 Q1013=
2025-08-10 18:00:00<>METAR SBSV 101800Z 08014KT 9999 FEW032 27/23 Q1013=
2025-08-10 19:00:00<>METAR SBSV 101900Z 08012KT 9999 FEW018 27/22 Q1013=
2025-08-10 20:00:00<>METAR SBSV 102000Z 07012KT 9999 BKN043 26/22 Q1014=
2025-08-10 21:00:00<>METAR SBSV 102100Z 07009KT CAVOK 25/22 Q1014=
2025-08-10 22:00:00<>METAR SBSV 102200Z 07008KT 9999 FEW018 25/22 Q1014=
2025-08-10 23:00:00<>METAR SBSV 102300Z 06009KT 9999 FEW015 25/22 Q1014=
2025-08-11 00:00:00<>METAR SBSV 110000Z 07008KT 9999 FEW016 25/22 Q1015=
2025-08-11 01:00:00<>METAR SBSV 110100Z 07009KT 9999 BKN015 SCT100 25/22 Q1015=
2025-08-11 02:00:00<>METAR SBSV 110200Z 07010KT 9999 SCT015 BKN100 25/22 Q1016=
2025-08-11 03:00:00<>METAR SBSV 110300Z 07010KT 9999 SCT015 BKN100 25/22 Q1015=
2025-08-11 04:00:00<>METAR SBSV 110400Z 08007KT 9999 SCT015 BKN100 25/22 Q1015=
2025-08-11 05:00:00<>METAR SBSV 110500Z 09006KT 9999 SCT016 BKN100 25/21 Q1015=
2025-08-11 06:00:00<>METAR SBSV 110600Z 09006KT 9999 SCT016 BKN100 25/22 Q1014=
2025-08-11 07:00:00<>METAR SBSV 110700Z 09006KT 9999 SCT016 BKN100 25/23 Q1014=
2025-08-11 08:00:00<>METAR SBSV 110800Z 07003KT 9999 FEW016 SCT100 24/21 Q1014=
2025-08-11 09:00:00<>METAR SBSV 110900Z 09004KT 9999 SCT016 SCT100 24/22 Q1015=
2025-08-11 10:00:00<>METAR SBSV 111000Z VRB01KT 9999 SCT016 SCT100 24/22 Q1015=
2025-08-11 11:00:00<>METAR SBSV 111100Z 08008KT 9999 SCT017 26/22 Q1016=
2025-08-11 12:00:00<>METAR SBSV 111200Z 10008KT 9999 SCT017 27/22 Q1016=
2025-08-11 13:00:00<>METAR SBSV 111300Z 10009KT 9999 SCT020 28/22 Q1017=
2025-08-11 14:00:00<>METAR SBSV 111400Z 09009KT 060V130 9999 SCT020 27/22 Q1016=
2025-08-11 15:00:00<>METAR SBSV 111500Z 10011KT CAVOK 28/22 Q1015=
2025-08-11 16:00:00<>METAR SBSV 111600Z 09010KT 070V130 9999 SCT020 28/22 Q1015=
2025-08-11 17:00:00<>METAR SBSV 111700Z 11011KT 9999 SCT020 27/21 Q1014=
2025-08-11 18:00:00<>METAR SBSV 111800Z 10010KT 9999 SCT020 SCT050 27/21 Q1014=
2025-08-11 19:00:00<>METAR SBSV 111900Z 10009KT 9999 FEW020 SCT050 27/21 Q1014=
2025-08-11 20:00:00<>METAR SBSV 112000Z 10008KT 9999 FEW020 SCT050 26/21 Q1014=
2025-08-11 21:00:00<>METAR SBSV 112100Z 10009KT 9999 SCT021 SCT050 26/21 Q1014=
2025-08-11 22:00:00<>METAR SBSV 112200Z 09010KT 9999 SCT020 SCT050 25/21 Q1015=
2025-08-11 23:00:00<>METAR SBSV 112300Z 08010KT 9999 FEW020 SCT050 25/21 Q1015=
2025-08-12 00:00:00<>METAR SBSV 120000Z 09010KT 9999 FEW017 25/21 Q1015=
2025-08-12 01:00:00<>METAR SBSV 120100Z 09008KT 9999 SCT017 25/21 Q1016=
2025-08-12 02:00:00<>METAR SBSV 120200Z 10007KT 9999 BKN018 25/21 Q1016=
2025-08-12 03:00:00<>METAR SBSV 120300Z 10008KT 9999 SCT018 25/21 Q1015=
2025-08-12 04:00:00<>METAR SBSV 120400Z 10006KT 9999 SCT020 25/21 Q1015=
2025-08-12 05:00:00<>METAR SBSV 120500Z 09007KT 9999 FEW020 25/20 Q1015=
2025-08-12 06:00:00<>METAR SBSV 120600Z 09005KT 9999 FEW020 25/21 Q1015=
2025-08-12 07:00:00<>METAR SBSV 120700Z 09004KT 9999 FEW021 24/20 Q1015=
2025-08-12 08:00:00<>METAR SBSV 120800Z 08004KT 9999 FEW021 23/20 Q1015=
2025-08-12 09:00:00<>METAR SBSV 120900Z 06003KT 320V080 9999 FEW021 23/20 Q1015=
2025-08-12 10:00:00<>METAR SBSV 121000Z 27002KT 9999 SCT021 24/21 Q1016=
2025-08-12 11:00:00<>METAR SBSV 121100Z 08006KT 040V130 9999 SCT021 26/21 Q1016=
2025-08-12 12:00:00<>METAR SBSV 121200Z 08006KT 050V130 9999 SCT021 26/21 Q1017=
2025-08-12 13:00:00<>METAR SBSV 121300Z 10008KT 9999 SCT021 27/20 Q1017=
2025-08-12 14:00:00<>METAR SBSV 121400Z 09007KT 9999 SCT021 27/20 Q1017=
2025-08-12 15:00:00<>METAR SBSV 121500Z 10008KT 9999 SCT021 27/21 Q1016=
2025-08-12 16:00:00<>METAR SBSV 121600Z 11008KT 9999 SCT021 27/21 Q1015=
2025-08-12 17:00:00<>METAR SBSV 121700Z 13008KT 090V150 9999 SCT021 27/20 Q1014=
2025-08-12 18:00:00<>METAR SBSV 121800Z 12008KT 090V150 9999 SCT021 27/21 Q1014=
2025-08-12 19:00:00<>METAR SBSV 121900Z 12007KT 9999 SCT021 26/20 Q1014=
2025-08-12 20:00:00<>METAR SBSV 122000Z 12008KT 9999 SCT021 26/20 Q1015=
2025-08-12 21:00:00<>METAR SBSV 122100Z 11007KT 9999 FEW023 26/20 Q1015=
2025-08-12 22:00:00<>METAR SBSV 122200Z 12006KT 9999 FEW023 25/20 Q1016=
2025-08-12 23:00:00<>METAR SBSV 122300Z 11007KT 9999 FEW023 25/20 Q1016=
2025-08-13 00:00:00<>METAR SBSV 130000Z 11007KT 9999 FEW011 SCT023 25/20 Q1017=
2025-08-13 01:00:00<>METAR SBSV 130100Z 12005KT 090V150 9999 SCT022 25/20 Q1017=
2025-08-13 02:00:00<>METAR SBSV 130200Z 12006KT 100V160 9999 SCT023 25/20 Q1017=
2025-08-13 03:00:00<>METAR SBSV 130300Z 11006KT 080V180 9999 SCT021 25/20 Q1017=
2025-08-13 04:00:00<>METAR SBSV 130400Z 11006KT 9999 SCT020 25/20 Q1016=
2025-08-13 05:00:00<>METAR SBSV 130500Z 11007KT 9999 SCT021 25/20 Q1016=
2025-08-13 06:00:00<>METAR SBSV 130600Z 11006KT 9999 SCT019 25/20 Q1016=
2025-08-13 07:00:00<>METAR SBSV 130700Z 12005KT 9999 SCT020 25/20 Q1016=
2025-08-13 08:00:00<>METAR SBSV 130800Z 12004KT 9999 SCT020 SCT030 25/21 Q1016=
2025-08-13 09:00:00<>METAR SBSV 130900Z 17003KT 130V210 9000 -RA SCT019 FEW025TCU BKN100 24/21 Q1017=
2025-08-13 10:00:00<>METAR SBSV 131000Z 13006KT 9999 VCSH SCT020 FEW025TCU SCT050 25/21 Q1017=
2025-08-13 11:00:00<>METAR SBSV 131100Z 13007KT 9999 VCSH SCT020 26/21 Q1018=
2025-08-13 12:00:00<>METAR SBSV 131200Z 11007KT 9999 VCSH BKN020 26/21 Q1019=
2025-08-13 13:00:00<>METAR SBSV 131300Z 12006KT 9999 SCT020 27/22 Q1019=
2025-08-13 14:00:00<>METAR SBSV 131400Z 10010KT 9999 SCT020 27/21 Q1018=
2025-08-13 15:00:00<>METAR SBSV 131500Z 10010KT 9999 SCT020 28/22 Q1018=
2025-08-13 16:00:00<>METAR SBSV 131600Z 10011KT 9999 SCT020 28/22 Q1017=
2025-08-13 17:00:00<>METAR SBSV 131700Z 09010KT 9999 SCT020 27/21 Q1017=
2025-08-13 18:00:00<>METAR SBSV 131800Z 09011KT 9999 SCT021 27/21 Q1016=
2025-08-13 19:00:00<>METAR SBSV 131900Z 10010KT 9999 SCT021 27/20 Q1017=
2025-08-13 20:00:00<>METAR SBSV 132000Z 10008KT 9999 SCT021 26/20 Q1017=
2025-08-13 21:00:00<>METAR SBSV 132100Z 10008KT 9999 SCT021 26/21 Q1017=
2025-08-13 22:00:00<>METAR SBSV 132200Z 10008KT 9999 SCT021 26/20 Q1017=
2025-08-13 23:00:00<>METAR SBSV 132300Z 10009KT 9999 SCT021 25/20 Q1018=
2025-08-14 00:00:00<>METAR SBSV 140000Z 10007KT 9999 SCT021 25/21 Q1018=
2025-08-14 01:00:00<>METAR SBSV 140100Z 10007KT 9999 SCT021 25/20 Q1018=
2025-08-14 02:00:00<>METAR SBSV 140200Z 09007KT 9999 SCT021 25/21 Q1019=
2025-08-14 03:00:00<>METAR SBSV 140300Z 09007KT 9999 SCT021 25/21 Q1018=
2025-08-14 04:00:00<>METAR SBSV 140400Z 10005KT 9999 SCT021 25/21 Q1018=
2025-08-14 05:00:00<>METAR SBSV 140500Z 11005KT 9999 SCT021 25/21 Q1017=
2025-08-14 06:00:00<>METAR SBSV 140600Z 11006KT 9999 SCT021 25/21 Q1017=
2025-08-14 07:00:00<>METAR SBSV 140700Z 07006KT 9999 SCT021 24/21 Q1017=
2025-08-14 08:00:00<>METAR SBSV 140800Z 10008KT 9999 SCT021 25/21 Q1017=
2025-08-14 09:00:00<>METAR SBSV 140900Z 11008KT 9999 SCT020 25/21 Q1018=
2025-08-14 10:00:00<>METAR SBSV 141000Z 11007KT 9999 SCT020 26/20 Q1018=
2025-08-14 11:00:00<>METAR SBSV 141100Z 10007KT 9999 SCT020 26/21 Q1019=
2025-08-14 12:00:00<>METAR SBSV 141200Z 08007KT 050V120 9999 SCT023 27/21 Q1019=
2025-08-14 13:00:00<>METAR SBSV 141300Z 09007KT 9999 SCT023 27/20 Q1019=
2025-08-14 14:00:00<>METAR SBSV 141400Z 11008KT 060V150 9999 SCT025 27/20 Q1019=
2025-08-14 15:00:00<>METAR SBSV 141500Z 10007KT 050V140 9999 SCT025 27/21 Q1018=
2025-08-14 16:00:00<>METAR SBSV 141600Z 12007KT 9999 SCT021 27/21 Q1018=
2025-08-14 17:00:00<>METAR SBSV 141700Z 16008KT 9999 SCT023 27/20 Q1017=
2025-08-14 18:00:00<>METAR SBSV 141800Z 15009KT 130V210 9999 FEW023 27/20 Q1017=
2025-08-14 19:00:00<>METAR SBSV 141900Z 15009KT 9999 FEW023 27/20 Q1018=
2025-08-14 20:00:00<>METAR SBSV 142000Z 10007KT 9999 FEW022 26/21 Q1018=
2025-08-14 21:00:00<>METAR SBSV 142100Z 12006KT 090V160 9999 FEW022 26/20 Q1018=
2025-08-14 22:00:00<>METAR SBSV 142200Z 11007KT 9999 FEW019 26/21 Q1019=
2025-08-14 23:00:00<>METAR SBSV 142300Z 11007KT 9999 FEW019 25/21 Q1019=
2025-08-15 00:00:00<>METAR SBSV 150000Z 11008KT 9999 FEW020 25/21 Q1019=
2025-08-15 01:00:00<>METAR SBSV 150100Z 11007KT 9999 FEW020 25/20 Q1020=
2025-08-15 02:00:00<>METAR SBSV 150200Z 11007KT 9999 FEW020 25/20 Q1020=
2025-08-15 03:00:00<>METAR SBSV 150300Z 12006KT 080V180 9999 SCT020 25/21 Q1020=
2025-08-15 04:00:00<>METAR SBSV 150400Z 11008KT 9999 SCT017 25/21 Q1019=
2025-08-15 05:00:00<>METAR SBSV 150500Z 10007KT 9999 SCT017 SCT030 25/21 Q1019=
2025-08-15 06:00:00<>METAR SBSV 150600Z 11007KT 9999 SCT017 BKN040 25/21 Q1019=
2025-08-15 07:00:00<>METAR SBSV 150700Z 08008KT 9999 BKN018 BKN040 24/21 Q1018=
2025-08-15 08:00:00<>METAR SBSV 150800Z 12007KT 9999 BKN018 BKN090 25/21 Q1019=
2025-08-15 09:00:00<>METAR SBSV 150900Z 13006KT 090V190 9999 SCT020 SCT090 25/20 Q1019=
2025-08-15 10:00:00<>METAR SBSV 151000Z 13007KT 9999 SCT020 25/20 Q1019=
2025-08-15 11:00:00<>METAR SBSV 151100Z 12008KT 090V150 9999 VCSH SCT022 FEW025TCU 26/20 Q1020=
2025-08-15 12:00:00<>METAR SBSV 151200Z 11012KT 9999 4900E -SHRA BKN021 FEW025TCU OVC055 23/21 Q1021=
2025-08-15 13:00:00<>METAR SBSV 151300Z 11004KT 050V160 9999 VCSH SCT023 BKN070 25/22 Q1021=
2025-08-15 14:00:00<>METAR SBSV 151400Z 11011KT 9999 VCSH SCT019 FEW025TCU BKN060 26/20 Q1021=
2025-08-15 15:00:00<>METAR SBSV 151500Z 13010KT 090V170 9999 SCT021 SCT070 27/20 Q1020=
2025-08-15 16:00:00<>METAR SBSV 151600Z 12009KT 9999 SCT022 26/20 Q1019=
2025-08-15 17:00:00<>METAR SBSV 151700Z 14009KT 9999 SCT019 SCT080 26/21 Q1018=
2025-08-15 18:00:00<>METAR SBSV 151800Z 16011KT 130V200 9999 SCT019 SCT080 27/20 Q1018=
2025-08-15 19:00:00<>METAR SBSV 151900Z 16010KT 9999 SCT023 BKN080 26/19 Q1019=
2025-08-15 20:00:00<>METAR SBSV 152000Z 16012KT 120V180 9999 SCT023 BKN080 25/19 Q1019=
2025-08-15 21:00:00<>METAR SBSV 152100Z 18003KT 9999 VCSH SCT023 BKN050 24/20 Q1019=
2025-08-15 22:00:00<>METAR SBSV 152200Z 16011KT 9999 SCT023 BKN050 26/20 Q1019=
2025-08-15 23:00:00<>METAR SBSV 152300Z 13010KT 090V170 9999 SCT023 BKN050 24/21 Q1020=
2025-08-16 00:00:00<>METAR SBSV 160000Z 15006KT 120V190 9999 VCSH SCT023 BKN050 24/21 Q1020=
2025-08-16 01:00:00<>METAR SBSV 160100Z 12007KT 9999 FEW026 BKN050 24/20 Q1020=
2025-08-16 02:00:00<>METAR SBSV 160200Z 15012KT 9999 FEW025 BKN060 25/20 Q1021=
2025-08-16 03:00:00<>METAR SBSV 160300Z 16012KT 9999 FEW025 BKN060 24/19 Q1020=
2025-08-16 04:00:00<>METAR SBSV 160400Z 17013KT 9999 FEW026 BKN051 23/20 Q1020=
2025-08-16 05:00:00<>METAR SBSV 160500Z 18006KT 9000 -RA SCT022 BKN030 22/21 Q1019=
2025-08-16 06:00:00<>METAR SBSV 160600Z 14008KT 9999 FEW030 BKN050 23/19 Q1019=
2025-08-16 07:00:00<>METAR SBSV 160700Z 15010KT 9999 FEW016 BKN050 24/20 Q1019=
2025-08-16 08:00:00<>METAR SBSV 160800Z 14011KT 9999 SCT015 BKN042 BKN050 24/20 Q1019=
2025-08-16 08:40:00<>SPECI SBSV 160840Z 16011KT 2000 -RA BR BKN005 BKN008 OVC024 23/21 Q1019=
2025-08-16 09:00:00<>METAR SBSV 160900Z 15009KT 2500 -RA BR BKN005 BKN008 OVC024 22/22 Q1019=
2025-08-16 09:20:00<>SPECI SBSV 160920Z 14006KT 9000 -RA FEW005 BKN051 OVC081 22/22 Q1019=
2025-08-16 09:45:00<>SPECI SBSV 160945Z 12008KT 090V150 5000 2000NE +RA SCT010 BKN030 OVC080 22/22 Q1020=
2025-08-16 10:00:00<>METAR SBSV 161000Z 11009KT 2000 +RA FEW006 SCT010 BKN030 22/21 Q1020=
2025-08-16 11:00:00<>METAR SBSV 161100Z 17012KT 9999 VCSH SCT011 BKN040 OVC070 23/22 Q1020 RERA=
2025-08-16 12:00:00<>METAR SBSV 161200Z 12011KT 9000 4000NE VCSH SCT009 BKN020 OVC080 23/22 Q1021=
2025-08-16 13:00:00<>METAR SBSV 161300Z 14009KT 8000 VCSH FEW010 SCT030 OVC080 23/21 Q1021=
2025-08-16 14:00:00<>METAR SBSV 161400Z 18006KT 9999 FEW010 SCT025 BKN050 25/20 Q1020=
2025-08-16 15:00:00<>METAR SBSV 161500Z 14009KT 9999 SCT025 BKN050 26/20 Q1019=
2025-08-16 16:00:00<>METAR SBSV 161600Z 13008KT 9999 SCT025 BKN050 27/19 Q1018=
2025-08-16 17:00:00<>METAR SBSV 161700Z 13010KT 100V160 9999 VCSH SCT020 SCT040 26/20 Q1018=
2025-08-16 18:00:00<>METAR SBSV 161800Z 09007KT 060V120 9999 VCSH SCT020 FEW023TCU SCT040 25/21 Q1017=
2025-08-16 19:00:00<>METAR SBSV 161900Z 13009KT 9999 VCSH SCT020 FEW023TCU SCT040 25/20 Q1017=
2025-08-16 20:00:00<>METAR SBSV 162000Z 14006KT 9999 SCT020 SCT050 25/19 Q1017=
2025-08-16 21:00:00<>METAR SBSV 162100Z 11008KT 9999 SCT020 SCT050 24/20 Q1018=
2025-08-16 22:00:00<>METAR SBSV 162200Z 09007KT 9999 FEW020 BKN050 24/20 Q1018=
2025-08-16 23:00:00<>METAR SBSV 162300Z 13009KT 9999 FEW020 BKN050 25/20 Q1019=
2025-08-17 00:00:00<>METAR SBSV 170000Z 12008KT 9999 FEW020 BKN050 25/20 Q1019=
2025-08-17 01:00:00<>METAR SBSV 170100Z 12006KT 9999 SCT022 BKN080 25/20 Q1019=
2025-08-17 02:00:00<>METAR SBSV 170200Z 13007KT 100V160 9999 BKN023 BKN100 25/20 Q1019=
2025-08-17 03:00:00<>METAR SBSV 170300Z 13007KT 9999 BKN023 25/20 Q1018=
2025-08-17 04:00:00<>METAR SBSV 170400Z 10008KT 080V140 9999 VCSH BKN020 BKN050 24/21 Q1018=
2025-08-17 05:00:00<>METAR SBSV 170500Z 09010KT 090V150 5000 SHRA BKN015 FEW024TCU OVC050 23/21 Q1017=
2025-08-17 05:16:00<>SPECI SBSV 170516Z 14005KT 100V230 8000 VCSH BKN017 FEW025TCU BKN080 23/22 Q1017 RESHRA=
2025-08-17 06:00:00<>METAR SBSV 170600Z 17009KT 9999 VCSH SCT012 BKN020 BKN080 24/21 Q1017=
2025-08-17 07:00:00<>METAR SBSV 170700Z 13011KT 100V160 3000 RA SCT006 BKN013 OVC030 22/21 Q1018=
2025-08-17 07:37:00<>SPECI SBSV 170737Z 16003KT 8000 VCSH BKN012 BKN050 22/22 Q1018 RERA=
2025-08-17 08:00:00<>METAR COR SBSV 170800Z 17006KT 3000 -RA BKN008 OVC050 22/22 Q1018 RERA=
2025-08-17 09:00:00<>METAR SBSV 170900Z 17008KT 150V210 2500 -RA BR BKN006 BKN017 OVC030 22/22 Q1018=
2025-08-17 10:00:00<>METAR SBSV 171000Z 18008KT 3000 -RA BR BKN006 BKN015 OVC030 22/22 Q1019=
2025-08-17 11:00:00<>METAR SBSV 171100Z 16012KT 9999 VCSH SCT007 BKN033 BKN050 22/21 Q1020=
2025-08-17 11:30:00<>SPECI SBSV 171130Z 13010KT 2000 +RA BKN004 BKN015 OVC040 22/22 Q1021=
2025-08-17 12:00:00<>METAR SBSV 171200Z 15012KT 9000 4000W VCSH BKN007 BKN020 OVC040 22/22 Q1021 RERA=
2025-08-17 13:00:00<>METAR SBSV 171300Z 15014KT 3000 RA SCT007 BKN023 OVC040 22/22 Q1021=
2025-08-17 14:00:00<>METAR SBSV 171400Z 10004KT 9000 4000W -RA SCT015 BKN023 OVC040 23/21 Q1020 RERA=
2025-08-17 15:00:00<>METAR SBSV 171500Z 15014KT 8000 VCSH SCT018 BKN023 OVC050 24/20 Q1020=
2025-08-17 16:00:00<>METAR SBSV 171600Z 16010KT 9999 VCSH SCT018 BKN033 OVC050 24/19 Q1019=
2025-08-17 16:27:00<>SPECI SBSV 171627Z 15013KT 120V190 3000 -RA BR BKN012 BKN023 OVC050 23/20 Q1018=
2025-08-17 17:00:00<>METAR SBSV 171700Z 13010KT 4000 -RA BR BKN007 BKN021 OVC050 22/22 Q1018=
2025-08-17 18:00:00<>METAR SBSV 171800Z 16009KT 8000 VCSH SCT010 BKN021 OVC050 23/21 Q1018=
2025-08-17 18:33:00<>SPECI SBSV 171833Z 16013KT 3000 -RA BR BKN010 BKN021 OVC050 23/20 Q1018=
2025-08-17 19:00:00<>METAR SBSV 171900Z 15009KT 3000 -RA BR BKN008 BKN020 OVC050 22/21 Q1018=
2025-08-17 20:00:00<>METAR SBSV 172000Z 19004KT 6000 -RA BKN010 BKN020 BKN060 22/21 Q1018=
2025-08-17 20:10:00<>SPECI SBSV 172010Z 17009G20KT 4000 -RA BR BKN010 BKN020 BKN060 23/21 Q1018=
2025-08-17 21:00:00<>METAR SBSV 172100Z 14011KT 8000 VCSH SCT012 BKN017 BKN060 23/20 Q1018=
2025-08-17 22:00:00<>METAR SBSV 172200Z 14007KT 9999 BKN020 BKN030 BKN060 23/20 Q1018=
2025-08-17 23:00:00<>METAR SBSV 172300Z 12008KT 080V160 8000 VCSH BKN020 BKN030 BKN060 23/19 Q1019=
2025-08-18 00:00:00<>METAR SBSV 180000Z 16012KT 9000 VCSH BKN023 BKN030 BKN060 24/19 Q1019=
2025-08-18 01:00:00<>METAR SBSV 180100Z 14012KT 9999 BKN023 FEW023TCU BKN050 23/19 Q1019=
2025-08-18 02:00:00<>METAR SBSV 180200Z 15013KT 9999 BKN023 FEW023TCU BKN050 24/19 Q1019=
2025-08-18 03:00:00<>METAR SBSV 180300Z 16013KT 130V190 9999 BKN023 BKN050 24/19 Q1019=
2025-08-18 04:00:00<>METAR SBSV 180400Z 16014KT 9999 SCT023 BKN050 24/19 Q1018=
2025-08-18 05:00:00<>METAR SBSV 180500Z 16011KT 9999 SCT023 BKN050 24/19 Q1018=
2025-08-18 06:00:00<>METAR SBSV 180600Z 17010KT 9999 SCT023 BKN050 25/18 Q1017=
2025-08-18 07:00:00<>METAR SBSV 180700Z 17011KT 9999 SCT023 BKN050 24/18 Q1017=
2025-08-18 08:00:00<>METAR SBSV 180800Z 16009KT 140V200 9999 FEW023 BKN050 24/18 Q1018=
2025-08-18 09:00:00<>METAR SBSV 180900Z 16009KT 9999 SCT023 BKN050 24/19 Q1018=
2025-08-18 10:00:00<>METAR SBSV 181000Z 17009KT 9999 BKN023 BKN050 24/19 Q1019=
2025-08-18 11:00:00<>METAR SBSV 181100Z 16013KT 9999 BKN023 BKN050 25/18 Q1020=
2025-08-18 12:00:00<>METAR SBSV 181200Z 16013KT 9999 SCT025 SCT050 26/18 Q1021=
2025-08-18 13:00:00<>METAR SBSV 181300Z 16014KT 9999 SCT025 SCT050 26/18 Q1021=
2025-08-18 14:00:00<>METAR SBSV 181400Z 17014KT 9999 SCT025 SCT050 26/18 Q1021=
2025-08-18 15:00:00<>METAR SBSV 181500Z 18015KT 9999 SCT025 26/18 Q1020=
2025-08-18 16:00:00<>METAR SBSV 181600Z 17013KT 9999 SCT025 26/17 Q1019=
2025-08-18 17:00:00<>METAR SBSV 181700Z 16012KT 9999 SCT025 26/17 Q1019=
2025-08-18 18:00:00<>METAR SBSV 181800Z 17011KT 9999 BKN033 25/17 Q1019=
2025-08-18 19:00:00<>METAR SBSV 181900Z 16011KT 9999 FEW033 25/16 Q1019=
2025-08-18 20:00:00<>METAR SBSV 182000Z 16010KT 9999 SCT034 25/16 Q1019=
2025-08-18 21:00:00<>METAR SBSV 182100Z 15009KT 9999 FEW035 25/17 Q1019=
2025-08-18 22:00:00<>METAR SBSV 182200Z 16011KT 9999 FEW033 25/17 Q1020=
2025-08-18 23:00:00<>METAR SBSV 182300Z 16011KT 9999 FEW033 24/17 Q1020=
2025-08-19 00:00:00<>METAR SBSV 190000Z 15011KT 9999 FEW025 SCT041 24/18 Q1021=
2025-08-19 01:00:00<>METAR SBSV 190100Z 16014KT 9999 FEW025 SCT041 24/18 Q1021=
2025-08-19 02:00:00<>METAR SBSV 190200Z 15014KT 9999 FEW025 SCT050 25/17 Q1021=
2025-08-19 03:00:00<>METAR SBSV 190300Z 15014KT 9999 FEW024 SCT046 24/17 Q1021=
2025-08-19 04:00:00<>METAR SBSV 190400Z 14012KT 9999 FEW024 SCT033 24/17 Q1020=
2025-08-19 05:00:00<>METAR SBSV 190500Z 14011KT 9999 SCT023 SCT030 24/17 Q1020=
2025-08-19 06:00:00<>METAR SBSV 190600Z 14013KT 9999 SCT023 SCT030 BKN050 24/17 Q1019=
2025-08-19 07:00:00<>METAR SBSV 190700Z 14012KT 9999 SCT023 SCT030 24/17 Q1019=
2025-08-19 08:00:00<>METAR SBSV 190800Z 15011KT 9999 SCT023 SCT030 24/17 Q1019=
2025-08-19 09:00:00<>METAR SBSV 190900Z 14010KT 9999 SCT025 24/17 Q1020=
2025-08-19 10:00:00<>METAR SBSV 191000Z 14011KT 9999 SCT025 24/16 Q1021=
2025-08-19 11:00:00<>METAR SBSV 191100Z 14011KT 9999 FEW025 25/17 Q1021=
2025-08-19 12:00:00<>METAR SBSV 191200Z 13011KT 100V160 9999 SCT025 26/17 Q1022=
2025-08-19 13:00:00<>METAR SBSV 191300Z 13011KT 100V160 9999 SCT025 26/17 Q1022=
2025-08-19 14:00:00<>METAR SBSV 191400Z 14012KT 9999 SCT025 26/17 Q1022=
2025-08-19 15:00:00<>METAR SBSV 191500Z 14011KT 110V180 9999 SCT025 27/17 Q1021=
2025-08-19 16:00:00<>METAR SBSV 191600Z 13012KT 100V160 9999 SCT025 27/17 Q1020=
2025-08-19 17:00:00<>METAR SBSV 191700Z 14011KT 9999 SCT025 26/17 Q1020=
2025-08-19 18:00:00<>METAR SBSV 191800Z 15011KT 120V190 9999 SCT030 27/17 Q1019=
2025-08-19 19:00:00<>METAR SBSV 191900Z 16011KT 9999 SCT030 26/17 Q1019=
2025-08-19 20:00:00<>METAR SBSV 192000Z 13008KT 090V170 9999 SCT029 25/17 Q1020=
2025-08-19 21:00:00<>METAR SBSV 192100Z 14009KT 9999 BKN030 25/17 Q1020=
2025-08-19 22:00:00<>METAR SBSV 192200Z 14009KT 110V170 9999 SCT030 SCT055 25/17 Q1020=
2025-08-19 23:00:00<>METAR SBSV 192300Z 13008KT 110V170 9999 SCT025 25/17 Q1021=
2025-08-20 00:00:00<>METAR SBSV 200000Z 14008KT 100V160 9999 SCT027 24/18 Q1021=
2025-08-20 01:00:00<>METAR SBSV 200100Z 14009KT 9999 FEW033 24/17 Q1021=
2025-08-20 02:00:00<>METAR SBSV 200200Z 14007KT 9999 FEW033 24/17 Q1021=
2025-08-20 03:00:00<>METAR SBSV 200300Z 15007KT 120V230 9999 FEW030 24/17 Q1020=
2025-08-20 04:00:00<>METAR SBSV 200400Z 16007KT 9999 FEW034 24/16 Q1019=
2025-08-20 05:00:00<>METAR SBSV 200500Z 15007KT 9999 FEW034 24/16 Q1019=
2025-08-20 06:00:00<>METAR SBSV 200600Z 15006KT 9999 FEW036 24/16 Q1019=
2025-08-20 07:00:00<>METAR SBSV 200700Z 14006KT 9999 SCT033 SCT060 24/17 Q1019=
2025-08-20 08:00:00<>METAR SBSV 200800Z 14007KT 9999 FEW034 BKN070 24/16 Q1019=
2025-08-20 09:00:00<>METAR SBSV 200900Z 14006KT 9999 SCT034 BKN060 24/17 Q1020=
2025-08-20 10:00:00<>METAR SBSV 201000Z 15009KT 9999 SCT034 SCT060 24/17 Q1021=
2025-08-20 11:00:00<>METAR SBSV 201100Z 15010KT 9999 FEW025 SCT060 25/17 Q1021=
2025-08-20 12:00:00<>METAR SBSV 201200Z 16010KT 9999 FEW025 SCT060 26/17 Q1022=
2025-08-20 13:00:00<>METAR SBSV 201300Z 15012KT 9999 FEW025 SCT060 26/17 Q1022=
2025-08-20 14:00:00<>METAR SBSV 201400Z 16011KT 9999 FEW025 SCT060 26/17 Q1022=
2025-08-20 15:00:00<>METAR SBSV 201500Z 17010KT 9999 FEW025 SCT060 27/17 Q1021=
2025-08-20 16:00:00<>METAR SBSV 201600Z 16011KT 9999 FEW025 SCT060 26/17 Q1020=
2025-08-20 17:00:00<>METAR SBSV 201700Z 17011KT 140V200 9999 FEW030 SCT060 27/18 Q1019=
2025-08-20 18:00:00<>METAR SBSV 201800Z 17010KT 130V220 9999 SCT030 SCT060 26/18 Q1019=
2025-08-20 19:00:00<>METAR SBSV 201900Z 16011KT 9999 SCT030 SCT060 26/18 Q1019=
2025-08-20 20:00:00<>METAR SBSV 202000Z 15009KT 9999 SCT030 26/18 Q1019=
2025-08-20 21:00:00<>METAR SBSV 202100Z 16009KT 9999 SCT030 25/18 Q1019=
2025-08-20 22:00:00<>METAR SBSV 202200Z 15009KT 9999 SCT030 24/19 Q1019=
2025-08-20 23:00:00<>METAR SBSV 202300Z 13008KT 9999 SCT030 24/18 Q1020=
2025-08-21 00:00:00<>METAR SBSV 210000Z 13006KT 9999 FEW030 24/17 Q1020=
2025-08-21 01:00:00<>METAR SBSV 210100Z 13005KT 9999 FEW030 24/17 Q1020=
2025-08-21 02:00:00<>METAR SBSV 210200Z 13005KT 100V160 9999 FEW028 24/17 Q1020=
2025-08-21 03:00:00<>METAR SBSV 210300Z 14007KT 100V180 9999 BKN028 24/18 Q1020=
2025-08-21 04:00:00<>METAR SBSV 210400Z 13006KT 9999 SCT025 24/18 Q1019=
2025-08-21 05:00:00<>METAR SBSV 210500Z 13006KT 9999 FEW025 24/18 Q1019=
2025-08-21 06:00:00<>METAR SBSV 210600Z 13007KT 100V160 9999 SCT025 24/18 Q1018=
2025-08-21 07:00:00<>METAR SBSV 210700Z 13005KT 9999 SCT026 24/18 Q1018=
2025-08-21 08:00:00<>METAR SBSV 210800Z 13006KT 090V160 9999 SCT023 24/17 Q1018=
2025-08-21 09:00:00<>METAR SBSV 210900Z 12006KT 9999 FEW012 SCT026 24/18 Q1019=
2025-08-21 10:00:00<>METAR SBSV 211000Z 13006KT 9999 FEW030 25/18 Q1019=
2025-08-21 11:00:00<>METAR SBSV 211100Z 12008KT 9999 FEW032 25/18 Q1020=
2025-08-21 12:00:00<>METAR SBSV 211200Z 14009KT 100V170 9999 FEW030 26/18 Q1021=
2025-08-21 13:00:00<>METAR SBSV 211300Z 14008KT 090V190 9999 FEW015 27/18 Q1021=
2025-08-21 14:00:00<>METAR SBSV 211400Z 15008KT 9999 FEW030 26/17 Q1021=
2025-08-21 15:00:00<>METAR SBSV 211500Z 13008KT 070V170 9999 FEW032 27/19 Q1020=
2025-08-21 16:00:00<>METAR SBSV 211600Z 16010KT 100V180 9999 FEW026 27/18 Q1019=
2025-08-21 17:00:00<>METAR SBSV 211700Z 15011KT 9999 FEW027 27/19 Q1018=
2025-08-21 18:00:00<>METAR SBSV 211800Z 16011KT 130V210 9999 SCT027 SCT060 27/19 Q1018=
2025-08-21 19:00:00<>METAR SBSV 211900Z 13008KT 100V170 9999 SCT027 FEW028TCU BKN070 26/18 Q1018=
2025-08-21 20:00:00<>METAR SBSV 212000Z 14009KT 110V170 9999 SCT027 BKN070 26/18 Q1018=
2025-08-21 21:00:00<>METAR SBSV 212100Z 14008KT 9999 FEW028 SCT070 25/18 Q1018=
2025-08-21 22:00:00<>METAR SBSV 212200Z 14008KT 9999 FEW028 SCT070 25/19 Q1019=
2025-08-21 23:00:00<>METAR SBSV 212300Z 13008KT 9999 FEW028 25/18 Q1019=
2025-08-22 00:00:00<>METAR SBSV 220000Z 13009KT 9999 FEW027 25/19 Q1019=
2025-08-22 01:00:00<>METAR SBSV 220100Z 11008KT 9999 FEW027 25/18 Q1019=
2025-08-22 02:00:00<>METAR SBSV 220200Z 11007KT 9999 SCT025 25/19 Q1019=
2025-08-22 03:00:00<>METAR SBSV 220300Z 11005KT 080V150 9999 SCT025 25/19 Q1019=
2025-08-22 04:00:00<>METAR SBSV 220400Z 11007KT 9999 SCT025 25/19 Q1018=
2025-08-22 05:00:00<>METAR SBSV 220500Z 10007KT 9999 SCT025 25/19 Q1018=
2025-08-22 06:00:00<>METAR SBSV 220600Z 11009KT 9999 SCT025 25/19 Q1017=
2025-08-22 07:00:00<>METAR SBSV 220700Z 10007KT 9999 SCT025 25/19 Q1017=
2025-08-22 08:00:00<>METAR SBSV 220800Z 06007KT 9999 SCT025 23/20 Q1017=
2025-08-22 09:00:00<>METAR SBSV 220900Z 11012KT 9999 VCSH SCT023 FEW025TCU 24/19 Q1017=
2025-08-22 10:00:00<>METAR SBSV 221000Z 11011KT 9999 VCSH BKN024 FEW025TCU BKN070 24/19 Q1018=
2025-08-22 11:00:00<>METAR SBSV 221100Z 11012KT 9999 SCT022 SCT060 25/19 Q1019=
2025-08-22 12:00:00<>METAR SBSV 221200Z 11013KT 9999 SCT024 BKN060 26/19 Q1019=
2025-08-22 13:00:00<>METAR SBSV 221300Z 11013KT 080V140 8000 VCSH BKN024 FEW025TCU BKN050 25/18 Q1020=
2025-08-22 14:00:00<>METAR SBSV 221400Z 13014KT 090V150 9999 SCT030 BKN070 27/18 Q1020=
2025-08-22 15:00:00<>METAR SBSV 221500Z 11013KT 9999 FEW030 SCT090 27/17 Q1019=
2025-08-22 16:00:00<>METAR SBSV 221600Z 11012KT 9999 FEW030 SCT090 27/16 Q1018=
2025-08-22 17:00:00<>METAR SBSV 221700Z 12012KT 9999 FEW030 27/16 Q1017=
2025-08-22 18:00:00<>METAR SBSV 221800Z 11008KT 9999 FEW030 27/16 Q1017=
2025-08-22 19:00:00<>METAR SBSV 221900Z 09009KT 9999 FEW030 26/17 Q1017=
2025-08-22 20:00:00<>METAR SBSV 222000Z 12009KT 9999 FEW030 SCT050 26/17 Q1017=
2025-08-22 21:00:00<>METAR SBSV 222100Z 13010KT 9999 FEW030 SCT050 25/19 Q1017=
2025-08-22 22:00:00<>METAR SBSV 222200Z 14010KT 9999 FEW030 SCT050 25/14 Q1018=
2025-08-22 23:00:00<>METAR SBSV 222300Z 14009KT 9999 FEW025 SCT050 25/18 Q1019=
2025-08-23 00:00:00<>METAR SBSV 230000Z 09017KT 9999 SCT023 SCT050 23/19 Q1019=
2025-08-23 01:00:00<>METAR SBSV 230100Z 07003KT 030V110 9999 SCT023 BKN050 23/19 Q1019=
2025-08-23 02:00:00<>METAR SBSV 230200Z VRB02KT 9999 SCT023 BKN050 22/19 Q1019=
2025-08-23 03:00:00<>METAR SBSV 230300Z 35003KT 310V020 9999 SCT023 BKN050 22/19 Q1019=
2025-08-23 04:00:00<>METAR SBSV 230400Z 28002KT 9999 SCT023 SCT050 21/19 Q1018=
2025-08-23 05:00:00<>METAR SBSV 230500Z 32003KT 290V030 9999 SCT020 SCT070 21/20 Q1018=
2025-08-23 06:00:00<>METAR SBSV 230600Z 30003KT 9999 SCT020 BKN050 21/19 Q1017=
2025-08-23 07:00:00<>METAR SBSV 230700Z 20003KT 6000 -SHRA SCT020 BKN050 21/21 Q1017=
2025-08-23 08:00:00<>METAR SBSV 230800Z 29004KT 250V350 9999 SCT021 SCT060 21/21 Q1018=
2025-08-23 09:00:00<>METAR SBSV 230900Z 02002KT 9000 VCSH BKN019 FEW020TCU SCT060 21/21 Q1018=
2025-08-23 09:20:00<>SPECI SBSV 230920Z 33003KT 270V080 5000 SHRA SCT011 BKN019 FEW020TCU 21/21 Q1018=
2025-08-23 10:00:00<>METAR SBSV 231000Z 30004KT 270V330 9000 VCSH BKN015 FEW020TCU BKN060 22/22 Q1019 RESHRA=
2025-08-23 11:00:00<>METAR SBSV 231100Z 11010KT 9999 SCT020 BKN070 25/20 Q1019=
2025-08-23 12:00:00<>METAR SBSV 231200Z 10012KT 9999 SCT019 BKN080 26/20 Q1020=
2025-08-23 13:00:00<>METAR SBSV 231300Z 11011KT 9999 BKN035 27/21 Q1020=
2025-08-23 13:32:00<>SPECI SBSV 231332Z 12010KT 080V150 6000 SHRA SCT012 BKN025 25/21 Q1020=
2025-08-23 14:00:00<>METAR SBSV 231400Z 14006KT 100V180 9000 VCSH FEW015 SCT023 BKN070 25/20 Q1020 RESHRA=
2025-08-23 15:00:00<>METAR SBSV 231500Z 10009KT 060V130 9999 FEW022 27/20 Q1019=
2025-08-23 16:00:00<>METAR SBSV 231600Z 13010KT 100V160 9999 SCT021 27/21 Q1018=
2025-08-23 17:00:00<>METAR SBSV 231700Z 11010KT 080V160 9999 SCT020 27/20 Q1017=
2025-08-23 18:00:00<>METAR SBSV 231800Z 11014KT 090V150 9999 VCSH SCT017 SCT050 26/21 Q1017=
2025-08-23 19:00:00<>METAR SBSV 231900Z 11008KT 9999 SCT017 SCT050 26/18 Q1017=
2025-08-23 19:30:00<>SPECI SBSV 231930Z 14005KT 9999 SCT017 SCT050 24/21 Q1019 RESHRA=
2025-08-23 20:00:00<>METAR SBSV 232000Z 11010KT 9999 SCT020 SCT050 25/19 Q1017=
2025-08-23 21:00:00<>METAR SBSV 232100Z 11009KT 9999 SCT020 SCT050 25/20 Q1018=
2025-08-23 22:00:00<>METAR SBSV 232200Z 13007KT 9999 SCT020 SCT050 25/20 Q1018=
2025-08-23 22:10:00<>SPECI SBSV 232210Z 12010KT 080V150 6000 SHRA FEW008 SCT020 24/20 Q1018=
2025-08-23 22:30:00<>SPECI SBSV 232230Z 14005KT 9999 SCT020 SCT050 24/21 Q1019 RESHRA=
2025-08-23 23:00:00<>METAR SBSV 232300Z 12006KT 9999 SCT020 SCT050 24/21 Q1019 RESHRA=
2025-08-24 00:00:00<>METAR SBSV 240000Z 10010KT 9999 SCT021 SCT050 24/20 Q1019=
2025-08-24 01:00:00<>METAR SBSV 240100Z 10005KT 9999 SCT021 SCT050 25/20 Q1019=
2025-08-24 02:00:00<>METAR SBSV 240200Z 11007KT 9999 SCT021 SCT050 24/20 Q1019=
2025-08-24 03:00:00<>METAR SBSV 240300Z 13005KT 9999 SCT021 SCT050 24/20 Q1019=
2025-08-24 04:00:00<>METAR SBSV 240400Z 10004KT 9999 SCT021 SCT050 24/20 Q1018=
2025-08-24 05:00:00<>METAR SBSV 240500Z 12004KT 9999 SCT021 SCT050 24/21 Q1018=
2025-08-24 06:00:00<>METAR SBSV 240600Z 10006KT 9999 VCSH SCT021 BKN050 23/20 Q1017=
2025-08-24 07:00:00<>METAR SBSV 240700Z 33002KT 9999 SCT021 BKN050 23/20 Q1017=
2025-08-24 08:00:00<>METAR SBSV 240800Z 34004KT 9999 VCSH SCT021 FEW025TCU BKN050 22/22 Q1018=
2025-08-24 09:00:00<>METAR SBSV 240900Z 01003KT 9000 VCSH SCT023 FEW025TCU BKN050 22/22 Q1018=
2025-08-24 10:00:00<>METAR SBSV 241000Z 00000KT 9000 VCSH SCT023 FEW025TCU BKN050 22/22 Q1019=
2025-08-24 11:00:00<>METAR SBSV 241100Z 10003KT 070V150 8000 VCSH FEW019TCU SCT021 BKN040 24/21 Q1020=
2025-08-24 12:00:00<>METAR SBSV 241200Z 16005KT 9000 VCSH SCT021 FEW023TCU BKN050 25/20 Q1020=
2025-08-24 13:00:00<>METAR SBSV 241300Z 09006KT 050V140 9999 VCSH SCT021 FEW023TCU BKN060 26/21 Q1020=
2025-08-24 14:00:00<>METAR SBSV 241400Z 10007KT 8000 SCT021 FEW023TCU BKN060 27/21 Q1020=
2025-08-24 15:00:00<>METAR SBSV 241500Z 13007KT 080V160 9999 VCSH SCT021 FEW023TCU BKN060 26/21 Q1019=
2025-08-24 16:00:00<>METAR SBSV 241600Z 10009KT 9999 SCT023 FEW025TCU SCT070 27/21 Q1018=
2025-08-24 17:00:00<>METAR SBSV 241700Z 09010KT 9999 SCT021 SCT070 27/22 Q1018=
2025-08-24 18:00:00<>METAR SBSV 241800Z 09012KT 9999 SCT021 SCT070 27/21 Q1018=
2025-08-24 19:00:00<>METAR SBSV 241900Z 09013KT 9999 SCT021 SCT070 26/21 Q1018=
2025-08-24 20:00:00<>METAR SBSV 242000Z 09012KT 9999 SCT021 SCT070 26/21 Q1018=
2025-08-24 21:00:00<>METAR SBSV 242100Z 09011KT 9999 SCT020 SCT070 25/21 Q1018=
2025-08-24 22:00:00<>METAR SBSV 242200Z 10011KT 9999 SCT020 SCT070 25/20 Q1018=
2025-08-24 23:00:00<>METAR SBSV 242300Z 09010KT 9999 SCT015 SCT070 25/21 Q1019=
2025-08-25 00:00:00<>METAR SBSV 250000Z 09010KT 9999 SCT020 SCT070 25/20 Q1019=
2025-08-25 01:00:00<>METAR SBSV 250100Z 09010KT 070V130 9999 SCT019 25/20 Q1020=
2025-08-25 02:00:00<>METAR SBSV 250200Z 10009KT 9999 SCT020 SCT080 25/21 Q1020=
2025-08-25 03:00:00<>METAR SBSV 250300Z 10009KT 9999 SCT019 BKN080 25/21 Q1020=
2025-08-25 04:00:00<>METAR SBSV 250400Z 10007KT 9999 SCT017 BKN080 25/21 Q1019=
2025-08-25 05:00:00<>METAR SBSV 250500Z 11009KT 9999 BKN016 BKN080 25/21 Q1019=
2025-08-25 06:00:00<>METAR COR SBSV 250600Z 11008KT 9000 VCSH BKN015 FEW025TCU BKN050 25/21 Q1019=
2025-08-25 07:00:00<>METAR SBSV 250700Z 12010KT 9999 VCSH BKN015 FEW025TCU OVC060 24/21 Q1018=
2025-08-25 08:00:00<>METAR SBSV 250800Z 12007KT 090V160 9999 VCSH BKN017 FEW025TCU BKN070 24/21 Q1018=
2025-08-25 09:00:00<>METAR SBSV 250900Z 14005KT 100V190 9999 SCT022 BKN070 24/20 Q1019=
2025-08-25 10:00:00<>METAR SBSV 251000Z 13007KT 9999 FEW015 BKN090 25/21 Q1019=
2025-08-25 11:00:00<>METAR SBSV 251100Z 13008KT 9999 FEW021 BKN090 25/20 Q1020=
2025-08-25 12:00:00<>METAR SBSV 251200Z 12009KT 9999 FEW011 SCT013 BKN015 26/22 Q1021=
2025-08-25 13:00:00<>METAR SBSV 251300Z 11013KT 9999 FEW021 BKN050 26/21 Q1021=
2025-08-25 14:00:00<>METAR SBSV 251400Z 13010KT 100V170 9000 -RA FEW016 BKN050 25/21 Q1021=
2025-08-25 15:00:00<>METAR SBSV 251500Z 14009KT 9999 FEW030 BKN080 26/21 Q1020=
2025-08-25 16:00:00<>METAR SBSV 251600Z 14010KT 100V170 9999 VCSH FEW033 BKN040 BKN100 26/21 Q1020=
2025-08-25 17:00:00<>METAR SBSV 251700Z 15005KT 090V200 9999 VCSH FEW010 SCT017 FEW025TCU BKN100 25/22 Q1019=
2025-08-25 17:02:00<>SPECI SBSV 251702Z 10014G24KT 2000 R10/1100 R28/1200 SHRA BKN010 BKN015 FEW020TCU BKN100 24/22 Q1019=
2025-08-25 17:25:00<>SPECI SBSV 251725Z 09016KT 4000 -RA BR BKN006 BKN015 FEW020TCU BKN100 23/22 Q1019 RESHRA=
2025-08-25 18:00:00<>METAR SBSV 251800Z 12009KT 090V180 8000 VCSH FEW010 BKN015 FEW020TCU BKN100 23/22 Q1019 RESHRA=
2025-08-25 19:00:00<>METAR SBSV 251900Z 08008KT 9000 VCSH SCT020 FEW022TCU BKN030 BKN100 24/21 Q1019=
2025-08-25 19:15:00<>SPECI SBSV 251915Z 11012KT 3000 -RA BR BKN009 BKN018 FEW022TCU BKN030 24/21 Q1019=
2025-08-25 20:00:00<>METAR SBSV 252000Z 11011KT 4000 -RA BR BKN010 BKN018 FEW022TCU BKN030 23/23 Q1019=
2025-08-25 21:00:00<>METAR SBSV 252100Z 08006KT 4000 -RA BR BKN010 BKN015 FEW022TCU BKN030 23/23 Q1019=
2025-08-25 22:00:00<>METAR SBSV 252200Z 11008KT 8000 VCSH FEW012 BKN020 FEW022TCU BKN030 23/21 Q1020=
2025-08-25 23:00:00<>METAR SBSV 252300Z 09005KT 9999 VCSH FEW012 SCT020 FEW022TCU BKN050 23/22 Q1020=
2025-08-26 00:00:00<>METAR SBSV 260000Z 11004KT 9999 SCT023 BKN060 24/21 Q1020=
2025-08-26 01:00:00<>METAR SBSV 260100Z 10009KT 9999 VCSH SCT023 BKN060 25/21 Q1020=
2025-08-26 02:00:00<>METAR SBSV 260200Z 09008KT 9999 SCT023 BKN060 24/21 Q1020=
2025-08-26 03:00:00<>METAR SBSV 260300Z 10009KT 9999 FEW023 BKN060 24/20 Q1020=
2025-08-26 04:00:00<>METAR SBSV 260400Z 11008KT 9999 FEW023 BKN060 24/20 Q1019=
2025-08-26 05:00:00<>METAR SBSV 260500Z 10007KT 9999 FEW023 BKN060 24/19 Q1019=
2025-08-26 06:00:00<>METAR SBSV 260600Z 11007KT 9999 FEW023 BKN060 24/20 Q1019=
2025-08-26 07:00:00<>METAR SBSV 260700Z 14005KT 110V180 9000 VCSH FEW023 FEW025TCU BKN060 23/19 Q1019=
2025-08-26 08:00:00<>METAR SBSV 260800Z 12006KT 9999 FEW023 24/20 Q1019=
2025-08-26 09:00:00<>METAR SBSV 260900Z 12006KT 9999 FEW023 SCT050 24/20 Q1020=
2025-08-26 10:00:00<>METAR SBSV 261000Z 12008KT 9999 FEW023 SCT050 25/19 Q1020=
2025-08-26 11:00:00<>METAR SBSV 261100Z 14009KT 9999 FEW023 SCT050 26/19 Q1021=
2025-08-26 12:00:00<>METAR SBSV 261200Z 14009KT 9999 FEW023 26/19 Q1022=
2025-08-26 13:00:00<>METAR SBSV 261300Z 13009KT 9999 FEW023 27/18 Q1022=
2025-08-26 14:00:00<>METAR SBSV 261400Z 13009KT 9999 FEW023 28/19 Q1021=
2025-08-26 15:00:00<>METAR SBSV 261500Z 14009KT 9999 FEW023 27/19 Q1021=
2025-08-26 16:00:00<>METAR SBSV 261600Z 14008KT 9999 FEW023 27/19 Q1020=
2025-08-26 17:00:00<>METAR SBSV 261700Z 14009KT 9999 FEW023 27/19 Q1019=
2025-08-26 18:00:00<>METAR SBSV 261800Z 15009KT 9999 SCT023 27/19 Q1019=
2025-08-26 19:00:00<>METAR SBSV 261900Z 14010KT 110V170 9999 SCT023 26/19 Q1019=
2025-08-26 20:00:00<>METAR SBSV 262000Z 15009KT 9999 SCT023 26/19 Q1019=
2025-08-26 21:00:00<>METAR SBSV 262100Z 15007KT 9999 SCT023 25/20 Q1019=
2025-08-26 22:00:00<>METAR SBSV 262200Z 15009KT 9999 SCT023 SCT050 BKN100 25/19 Q1020=
2025-08-26 23:00:00<>METAR SBSV 262300Z 16008KT 9999 SCT021 BKN040 BKN090 24/21 Q1020=
2025-08-27 00:00:00<>METAR SBSV 270000Z 08003KT 9999 SCT020 BKN050 BKN070 23/21 Q1020=
2025-08-27 00:16:00<>SPECI SBSV 270016Z 08007KT 6000 RA BKN018 BKN050 BKN070 23/22 Q1021=
2025-08-27 00:29:00<>SPECI SBSV 270029Z 13003KT 7000 -RA FEW012 BKN017 OVC050 23/22 Q1021 RERA=
2025-08-27 01:00:00<>METAR SBSV 270100Z 11010KT 8000 VCSH FEW011 BKN017 BKN060 24/23 Q1021 RERA=
2025-08-27 02:00:00<>METAR SBSV 270200Z 12010KT 9999 SCT023 BKN060 24/21 Q1021=
2025-08-27 02:27:00<>SPECI SBSV 270227Z 12010G20KT 9000 VCSH SCT011 BKN020 BKN050 24/21 Q1021=
2025-08-27 03:00:00<>METAR SBSV 270300Z 12015KT 9999 VCSH FEW011 BKN019 BKN055 23/21 Q1020=
2025-08-27 04:00:00<>METAR SBSV 270400Z 10011KT 9999 FEW009 BKN020 BKN070 23/20 Q1020=
2025-08-27 05:00:00<>METAR SBSV 270500Z 11011KT 9999 VCSH BKN019 FEW024TCU BKN055 23/20 Q1020=
2025-08-27 06:00:00<>METAR SBSV 270600Z VRB02KT 9999 VCSH BKN020 FEW025TCU OVC050 23/20 Q1019=
2025-08-27 07:00:00<>METAR SBSV 270700Z 09010KT 5000 -SHRA BR SCT008 BKN015 OVC040 22/22 Q1019=
2025-08-27 08:00:00<>METAR SBSV 270800Z 12009KT 5000 -RA BR SCT007 BKN015 OVC040 22/21 Q1019=
2025-08-27 08:23:00<>SPECI SBSV 270823Z 12015KT 3000 -RA BR BKN010 BKN017 OVC040 22/22 Q1020=
2025-08-27 09:00:00<>METAR SBSV 270900Z 13009KT 100V170 2500 -RA BR BKN005 BKN012 OVC030 22/22 Q1020=
2025-08-27 09:18:00<>SPECI SBSV 270918Z 14007KT 5000 -RA BR BKN010 BKN019 OVC040 22/22 Q1020=
2025-08-27 10:00:00<>METAR SBSV 271000Z 17008KT 9000 VCSH FEW006 BKN023 BKN050 22/22 Q1020=
2025-08-27 10:25:00<>SPECI SBSV 271025Z 16009KT 130V190 2000 -DZ BKN006 22/22 Q1021=
2025-08-27 11:00:00<>METAR SBSV 271100Z 15007KT 9000 4000NE SHRA FEW007 BKN023 FEW025TCU 23/22 Q1021=
2025-08-27 12:00:00<>METAR SBSV 271200Z 18008KT 9999 VCSH FEW007 SCT023 BKN050 23/22 Q1022 RESHRA=
2025-08-27 13:00:00<>METAR SBSV 271300Z 19007KT 160V220 6000 SHRA BKN023 FEW025TCU BKN080 25/21 Q1022=
2025-08-27 14:00:00<>METAR SBSV 271400Z 18005KT 9999 SCT023 BKN050 24/19 Q1021 RESHRA=
2025-08-27 15:00:00<>METAR SBSV 271500Z 20008KT 160V230 9999 SCT023 BKN050 25/21 Q1021=
2025-08-27 16:00:00<>METAR SBSV 271600Z 16008KT 110V210 9999 SCT023 BKN050 26/21 Q1020=
2025-08-27 17:00:00<>METAR SBSV 271700Z 13007KT 9999 SCT023 BKN050 26/21 Q1019=
2025-08-27 18:00:00<>METAR SBSV 271800Z 14012KT 9999 SCT023 SCT050 25/20 Q1019=
2025-08-27 19:00:00<>METAR SBSV 271900Z 13009KT 9999 SCT023 SCT050 26/20 Q1019=
2025-08-27 20:00:00<>METAR SBSV 272000Z 13009KT 9999 SCT023 SCT050 25/21 Q1019=
2025-08-27 21:00:00<>METAR SBSV 272100Z 14008KT 9999 SCT023 SCT050 25/20 Q1019=
2025-08-27 22:00:00<>METAR SBSV 272200Z 13008KT 9999 SCT023 SCT050 25/20 Q1020=
2025-08-27 23:00:00<>METAR SBSV 272300Z 14007KT 9999 SCT023 25/20 Q1021=
2025-08-28 00:00:00<>METAR SBSV 280000Z 13007KT 9999 SCT021 25/20 Q1021=
2025-08-28 01:00:00<>METAR SBSV 280100Z 14008KT 9999 SCT023 25/20 Q1021=
2025-08-28 02:00:00<>METAR SBSV 280200Z 13007KT 9999 FEW023 25/20 Q1021=
2025-08-28 03:00:00<>METAR SBSV 280300Z 13007KT 9999 FEW022 25/20 Q1020=
2025-08-28 04:00:00<>METAR SBSV 280400Z 13008KT 9999 FEW022 25/20 Q1020=
2025-08-28 05:00:00<>METAR SBSV 280500Z 14008KT 9999 SCT023 24/20 Q1019=
2025-08-28 06:00:00<>METAR SBSV 280600Z 14007KT 9999 FEW023 24/19 Q1019=
2025-08-28 07:00:00<>METAR SBSV 280700Z 13005KT 9999 FEW021 24/20 Q1019=
2025-08-28 08:00:00<>METAR SBSV 280800Z 14008KT 9999 FEW021 SCT050 24/20 Q1020=
2025-08-28 09:00:00<>METAR SBSV 280900Z 14006KT 110V210 9999 FEW024 24/19 Q1020=
2025-08-28 10:00:00<>METAR SBSV 281000Z 14008KT 110V170 9999 SCT024 25/20 Q1021=
2025-08-28 11:00:00<>METAR SBSV 281100Z 13009KT 100V160 9999 SCT024 26/20 Q1021=
2025-08-28 12:00:00<>METAR SBSV 281200Z 12011KT 9999 SCT023 26/20 Q1022=
2025-08-28 13:00:00<>METAR SBSV 281300Z 14009KT 9999 SCT023 27/21 Q1022=
2025-08-28 14:00:00<>METAR SBSV 281400Z 13010KT 100V160 9999 SCT023 27/20 Q1021=
2025-08-28 15:00:00<>METAR SBSV 281500Z 13009KT 090V170 9999 SCT023 28/21 Q1021=
2025-08-28 16:00:00<>METAR SBSV 281600Z 14010KT 110V190 9999 SCT023 27/21 Q1020=
2025-08-28 17:00:00<>METAR SBSV 281700Z 14011KT 090V170 9999 SCT023 27/20 Q1019=
2025-08-28 18:00:00<>METAR SBSV 281800Z 15009KT 100V220 9999 SCT023 27/20 Q1018=
2025-08-28 19:00:00<>METAR SBSV 281900Z 14009KT 9999 SCT020 26/20 Q1018=
2025-08-28 20:00:00<>METAR SBSV 282000Z 14008KT 9999 SCT020 26/20 Q1018=
2025-08-28 21:00:00<>METAR SBSV 282100Z 14009KT 9999 SCT020 25/20 Q1019=
2025-08-28 22:00:00<>METAR SBSV 282200Z 14009KT 9999 SCT020 25/20 Q1019=
2025-08-28 23:00:00<>METAR SBSV 282300Z 13009KT 9999 SCT020 25/19 Q1019=
2025-08-29 00:00:00<>METAR SBSV 290000Z 12008KT 9999 SCT023 25/20 Q1019=
2025-08-29 01:00:00<>METAR SBSV 290100Z 13011KT 100V160 9999 BKN021 25/21 Q1019=
2025-08-29 02:00:00<>METAR SBSV 290200Z 13008KT 9999 FEW016 SCT021 25/21 Q1019=
2025-08-29 03:00:00<>METAR SBSV 290300Z 13010KT 9999 FEW015 SCT020 25/20 Q1019=
2025-08-29 04:00:00<>METAR SBSV 290400Z 12011KT 9999 SCT019 24/20 Q1018=
2025-08-29 05:00:00<>METAR SBSV 290500Z 13008KT 9999 FEW023 24/20 Q1017=
2025-08-29 06:00:00<>METAR SBSV 290600Z 13006KT 9999 FEW021 24/19 Q1017=
2025-08-29 07:00:00<>METAR SBSV 290700Z 13005KT 9999 FEW016 SCT023 24/19 Q1017=
2025-08-29 08:00:00<>METAR SBSV 290800Z 13011KT 9999 SCT020 BKN070 24/20 Q1017=
2025-08-29 09:00:00<>METAR SBSV 290900Z 12009KT 9999 SCT022 BKN055 24/20 Q1018=
2025-08-29 10:00:00<>METAR SBSV 291000Z 11012KT 9999 SCT022 25/19 Q1018=
2025-08-29 11:00:00<>METAR SBSV 291100Z 11011KT 9999 SCT022 26/19 Q1018=
2025-08-29 12:00:00<>METAR SBSV 291200Z 12011KT 9999 SCT022 26/19 Q1019=
2025-08-29 13:00:00<>METAR SBSV 291300Z 12012KT 9999 SCT022 27/19 Q1019=
2025-08-29 14:00:00<>METAR SBSV 291400Z 11011KT 9999 SCT025 27/19 Q1018=
2025-08-29 15:00:00<>METAR SBSV 291500Z 11011KT 080V140 9999 SCT025 27/19 Q1018=
2025-08-29 16:00:00<>METAR SBSV 291600Z 12009KT 090V150 9999 SCT025 27/20 Q1017=
2025-08-29 17:00:00<>METAR SBSV 291700Z 12010KT 9999 SCT025 27/19 Q1016=
2025-08-29 18:00:00<>METAR COR SBSV 291800Z 12010KT 070V170 9999 SCT025 27/19 Q1016=
2025-08-29 19:00:00<>METAR SBSV 291900Z 12009KT 9999 SCT025 26/19 Q1016=
2025-08-29 20:00:00<>METAR SBSV 292000Z 13007KT 9999 SCT025 26/19 Q1017=
2025-08-29 21:00:00<>METAR SBSV 292100Z 14007KT 110V190 9999 SCT025 SCT040 25/19 Q1017=
2025-08-29 22:00:00<>METAR SBSV 292200Z 12008KT 9999 SCT025 SCT050 25/19 Q1017=
2025-08-29 23:00:00<>METAR SBSV 292300Z 17007KT 9999 BKN025 BKN060 25/20 Q1018=
2025-08-30 00:00:00<>METAR SBSV 300000Z 15008KT 9999 FEW025 25/19 Q1018=
2025-08-30 01:00:00<>METAR SBSV 300100Z 13007KT 9999 FEW024 25/19 Q1019=
2025-08-30 02:00:00<>METAR SBSV 300200Z 13007KT 9999 FEW025 25/19 Q1019=
2025-08-30 03:00:00<>METAR SBSV 300300Z 18006KT 130V210 9999 BKN023 25/20 Q1018=
2025-08-30 04:00:00<>METAR SBSV 300400Z 14006KT 9999 FEW024 24/19 Q1018=
2025-08-30 05:00:00<>METAR SBSV 300500Z 15007KT 9999 FEW024 24/19 Q1017=
2025-08-30 06:00:00<>METAR SBSV 300600Z 15006KT 9999 FEW026 24/19 Q1017=
2025-08-30 07:00:00<>METAR SBSV 300700Z 16006KT 9999 FEW026 24/19 Q1017=
2025-08-30 08:00:00<>METAR SBSV 300800Z 15009KT 9999 FEW023 24/19 Q1017=
2025-08-30 09:00:00<>METAR SBSV 300900Z 15006KT 9999 FEW024 24/19 Q1018=
2025-08-30 10:00:00<>METAR SBSV 301000Z 15008KT 9999 SCT023 FEW025TCU 25/19 Q1018=
2025-08-30 11:00:00<>METAR SBSV 301100Z 15008KT 9999 VCSH SCT023 FEW025TCU 25/19 Q1019=
2025-08-30 12:00:00<>METAR SBSV 301200Z 15005KT 9999 SCT023 SCT060 26/20 Q1019=
2025-08-30 13:00:00<>METAR SBSV 301300Z 15010KT 120V190 9999 SCT023 SCT060 26/20 Q1019=
2025-08-30 14:00:00<>METAR SBSV 301400Z 15010KT 120V190 9999 SCT025 SCT060 27/20 Q1018=
2025-08-30 15:00:00<>METAR SBSV 301500Z 16010KT 9999 SCT025 BKN070 27/20 Q1018=
2025-08-30 16:00:00<>METAR SBSV 301600Z 15010KT 9999 VCSH SCT023 FEW025TCU BKN070 27/19 Q1017=
2025-08-30 17:00:00<>METAR SBSV 301700Z 14010KT 9999 VCSH BKN023 FEW025TCU BKN060 27/20 Q1016=
2025-08-30 18:00:00<>METAR SBSV 301800Z 15010KT 9999 SCT025 BKN080 27/21 Q1016=
2025-08-30 19:00:00<>METAR SBSV 301900Z 16013KT 140V200 9999 VCSH SCT023 FEW025TCU BKN060 25/20 Q1017=
2025-08-30 20:00:00<>METAR SBSV 302000Z 17013KT 140V200 5000 -SHRA FEW012 BKN020 FEW025TCU BKN060 24/20 Q1017=
2025-08-30 21:00:00<>METAR SBSV 302100Z 18006KT 160V230 9999 VCSH SCT020 FEW025TCU OVC050 23/20 Q1018=
2025-08-30 22:00:00<>METAR SBSV 302200Z 15011KT 130V200 9999 VCSH BKN022 FEW025TCU BKN040 24/20 Q1018=
2025-08-30 23:00:00<>METAR SBSV 302300Z 16013KT 9999 FEW012 BKN022 BKN050 24/20 Q1018=
2025-08-31 00:00:00<>METAR SBSV 310000Z 16013KT 9999 BKN015 BKN040 24/20 Q1019=
2025-08-31 00:19:00<>SPECI SBSV 310019Z 17013KT 5000 -RA BR BKN012 OVC030 24/21 Q1019=
2025-08-31 01:00:00<>METAR SBSV 310100Z 16013KT 130V190 5000 -RA BR BKN010 BKN013 OVC030 23/22 Q1019=
2025-08-31 02:00:00<>METAR SBSV 310200Z 17006KT 8000 VCSH SCT010 BKN015 OVC030 23/23 Q1019=
2025-08-31 03:00:00<>METAR SBSV 310300Z 11011KT 9000 VCSH SCT010 BKN015 FEW017TCU BKN040 23/22 Q1018=
2025-08-31 04:00:00<>METAR SBSV 310400Z 13008KT 7000 -RA SCT010 BKN018 FEW021TCU BKN040 23/21 Q1018=
2025-08-31 05:00:00<>METAR SBSV 310500Z 11009KT 080V140 7000 -RA SCT010 BKN018 FEW021TCU BKN040 23/22 Q1017=
2025-08-31 06:00:00<>METAR SBSV 310600Z 09013KT 7000 -RA SCT010 BKN015 FEW020TCU BKN040 23/22 Q1017=
2025-08-31 07:00:00<>METAR SBSV 310700Z 10009KT 6000 SCT010 BKN017 FEW020TCU BKN040 23/22 Q1017=
2025-08-31 08:00:00<>METAR SBSV 310800Z 01004KT 330V070 8000 VCSH SCT020 FEW022TCU BKN040 23/22 Q1018=
2025-08-31 09:00:00<>METAR SBSV 310900Z 10012KT 9999 VCSH SCT020 FEW022TCU BKN050 24/20 Q1018=
2025-08-31 10:00:00<>METAR SBSV 311000Z 09010KT 9999 SCT023 BKN050 25/20 Q1019=
2025-08-31 11:00:00<>METAR SBSV 311100Z 10010KT 9999 FEW023 BKN050 26/20 Q1020=
2025-08-31 12:00:00<>METAR SBSV 311200Z 10010KT 9999 FEW023 SCT050 27/20 Q1021=
2025-08-31 13:00:00<>METAR SBSV 311300Z 12008KT 9000 -SHRA FEW023 SCT050 26/21 Q1021=
2025-08-31 14:00:00<>METAR SBSV 311400Z 08014KT 9999 BKN023 SCT050 25/19 Q1020=
2025-08-31 15:00:00<>METAR SBSV 311500Z 12011KT 9999 SCT023 27/21 Q1020=
2025-08-31 16:00:00<>METAR SBSV 311600Z 11012KT 9999 SCT023 27/20 Q1019=
2025-08-31 17:00:00<>METAR SBSV 311700Z 10011KT 070V130 9999 SCT023 SCT050 27/20 Q1018=
2025-08-31 18:00:00<>METAR SBSV 311800Z 11010KT 080V150 9999 SCT024 BKN090 27/21 Q1018=
2025-08-31 19:00:00<>METAR SBSV 311900Z 13009KT 9999 FEW017 SCT030 BKN090 26/20 Q1019=
2025-08-31 20:00:00<>METAR SBSV 312000Z 13007KT 9999 VCSH SCT024 FEW025TCU BKN090 25/21 Q1019=
2025-08-31 21:00:00<>METAR SBSV 312100Z 13007KT 9999 FEW027 BKN080 25/21 Q1019=
2025-08-31 22:00:00<>METAR SBSV 312200Z 12009KT 9999 BKN020 BKN090 25/20 Q1019=
2025-08-31 23:00:00<>METAR SBSV 312300Z 12010KT 9999 BKN021 BKN090 25/21 Q1020=
2025-09-01 00:00:00<>METAR SBSV 010000Z 13007KT 9999 SCT017 BKN025 25/20 Q1020=
2025-09-01 01:00:00<>METAR SBSV 010100Z 11009G19KT 080V140 9999 SCT013 BKN021 25/22 Q1021=
2025-09-01 01:05:00<>SPECI SBSV 010105Z 12013G23KT 9000 SHRA SCT013 BKN021 23/20 Q1021=
2025-09-01 01:25:00<>SPECI SBSV 010125Z 08008G18KT 9999 SCT013 BKN021 23/20 Q1021 RESHRA=
2025-09-01 02:00:00<>METAR SBSV 010200Z 05004KT 020V080 9999 BKN021 23/21 Q1021 RESHRA=
2025-09-01 03:00:00<>METAR SBSV 010300Z 15005KT 9999 BKN021 BKN060 23/21 Q1020=
2025-09-01 04:00:00<>METAR SBSV 010400Z 12007KT 9999 BKN021 BKN060 24/20 Q1020=
2025-09-01 05:00:00<>METAR SBSV 010500Z 15010KT 9999 BKN021 BKN060 23/21 Q1019=
2025-09-01 06:00:00<>METAR SBSV 010600Z 14009KT 110V190 9999 SCT023 BKN070 24/20 Q1019=
2025-09-01 07:00:00<>METAR SBSV 010700Z 13009KT 100V180 9999 BKN023 24/20 Q1019=
2025-09-01 08:00:00<>METAR SBSV 010800Z 13009KT 110V180 9999 BKN023 24/20 Q1019=
2025-09-01 09:00:00<>METAR SBSV 010900Z 16007KT 130V190 9999 BKN023 24/20 Q1020=
2025-09-01 09:48:00<>SPECI SBSV 010948Z 12014KT 090V160 5000 SHRA BKN019 BKN040 BKN060 23/20 Q1020=
2025-09-01 10:00:00<>METAR SBSV 011000Z 13011KT 100V170 8000 VCSH BKN020 BKN040 BKN060 23/20 Q1020 RESHRA=
2025-09-01 11:00:00<>METAR SBSV 011100Z 13011KT 9999 SCT021 SCT070 25/20 Q1021=
2025-09-01 12:00:00<>METAR SBSV 011200Z 14011KT 9999 SCT023 26/20 Q1022=
2025-09-01 13:00:00<>METAR SBSV 011300Z 14012KT 8000 VCSH SCT023 FEW024TCU 27/20 Q1022=
2025-09-01 14:00:00<>METAR SBSV 011400Z 14011KT 9999 SCT023 FEW024TCU SCT060 27/21 Q1022=
2025-09-01 15:00:00<>METAR SBSV 011500Z 14013KT 100V160 9999 SCT023 FEW024TCU BKN040 26/21 Q1021=
2025-09-01 16:00:00<>METAR SBSV 011600Z 12012KT 090V150 9999 VCSH SCT023 FEW024TCU BKN050 26/20 Q1020=
2025-09-01 17:00:00<>METAR SBSV 011700Z 16014KT 9000 VCSH BKN023 FEW024TCU BKN050 23/21 Q1020=
2025-09-01 18:00:00<>METAR SBSV 011800Z 14010KT 080V190 3000 -SHRA BKN023 FEW024TCU BKN050 23/21 Q1019=
2025-09-01 19:00:00<>METAR SBSV 011900Z 14011KT 9999 VCSH SCT023 FEW024TCU BKN050 25/21 Q1019=
2025-09-01 20:00:00<>METAR SBSV 012000Z 14010KT 9999 SCT023 BKN050 25/20 Q1020=
2025-09-01 21:00:00<>METAR SBSV 012100Z 14010KT 9999 SCT023 BKN070 25/21 Q1020=
2025-09-01 22:00:00<>METAR SBSV 012200Z 12012KT 9999 SCT023 BKN050 24/19 Q1020=
2025-09-01 23:00:00<>METAR SBSV 012300Z 13011KT 9999 SCT023 BKN050 25/20 Q1021=
2025-09-02 00:00:00<>METAR SBSV 020000Z 13010KT 9999 SCT020 25/20 Q1021=
2025-09-02 01:00:00<>METAR SBSV 020100Z 13012KT 110V170 9999 SCT023 25/20 Q1021=
2025-09-02 02:00:00<>METAR SBSV 020200Z 13010KT 090V150 9999 SCT022 25/20 Q1021=
2025-09-02 03:00:00<>METAR SBSV 020300Z 13012KT 9999 SCT021 SCT070 25/19 Q1021=
2025-09-02 04:00:00<>METAR SBSV 020400Z 13011KT 9999 VCSH SCT021 BKN060 25/19 Q1020=
2025-09-02 05:00:00<>METAR SBSV 020500Z 12011KT 100V160 9999 SCT021 BKN060 24/20 Q1020=
2025-09-02 06:00:00<>METAR SBSV 020600Z 11011KT 090V150 9999 VCSH BKN022 BKN060 23/19 Q1019=
2025-09-02 07:00:00<>METAR SBSV 020700Z 14015KT 9999 VCSH BKN022 BKN060 24/20 Q1019=
2025-09-02 08:00:00<>METAR SBSV 020800Z 12015KT 9999 SCT023 BKN050 24/19 Q1019=
2025-09-02 09:00:00<>METAR SBSV 020900Z 11012KT 9999 VCSH SCT020 SCT050 24/20 Q1020=
2025-09-02 10:00:00<>METAR SBSV 021000Z 11013KT 9999 VCSH SCT020 SCT060 24/20 Q1021=
2025-09-02 10:07:00<>SPECI SBSV 021007Z 11016KT 4000 SHRA SCT007 SCT020 BKN060 23/21 Q1021=
2025-09-02 10:32:00<>SPECI SBSV 021032Z 11013KT 5000 2000NW BR SCT007 SCT020 BKN060 22/21 Q1021 RESHRA=
2025-09-02 11:00:00<>METAR SBSV 021100Z 13011KT 100V160 9000 VCSH SCT020 FEW023TCU 23/21 Q1021 RESHRA=
2025-09-02 12:00:00<>METAR SBSV 021200Z 08007KT 9999 BKN020 BKN070 24/21 Q1022=
2025-09-02 13:00:00<>METAR SBSV 021300Z 11016KT 9999 SCT023 SCT070 27/19 Q1022=
2025-09-02 14:00:00<>METAR SBSV 021400Z 10014KT 9999 BKN023 27/20 Q1022=
2025-09-02 15:00:00<>METAR SBSV 021500Z 11015KT 9999 VCSH BKN023 27/20 Q1021=
2025-09-02 16:00:00<>METAR SBSV 021600Z 11015KT 9999 SCT023 27/19 Q1020=
2025-09-02 17:00:00<>METAR SBSV 021700Z 11013KT 070V130 9999 SCT023 27/19 Q1020=
2025-09-02 18:00:00<>METAR SBSV 021800Z 10014KT 9999 SCT023 FEW025TCU 27/19 Q1019=
2025-09-02 19:00:00<>METAR SBSV 021900Z 12014KT 8000 VCSH BKN023 FEW025TCU 25/19 Q1020=
2025-09-02 20:00:00<>METAR SBSV 022000Z 11014G24KT 9000 VCSH BKN023 FEW025TCU SCT030 24/19 Q1020=
2025-09-02 21:00:00<>METAR SBSV 022100Z 13009KT 9999 SCT023 BKN070 24/19 Q1020=
2025-09-02 22:00:00<>METAR SBSV 022200Z 11010KT 9999 SCT023 SCT060 24/20 Q1020=
2025-09-02 23:00:00<>METAR SBSV 022300Z 11011KT 9999 SCT023 25/19 Q1020=
2025-09-03 00:00:00<>METAR SBSV 030000Z 12008KT 9999 SCT023 BKN030 25/19 Q1021=
2025-09-03 01:00:00<>METAR SBSV 030100Z 11009KT 9999 SCT023 BKN030 25/19 Q1021=
2025-09-03 02:00:00<>METAR SBSV 030200Z 13009KT 9999 FEW023 BKN050 24/19 Q1021=
2025-09-03 03:00:00<>METAR SBSV 030300Z 12012KT 9999 FEW023 BKN050 24/19 Q1020=
2025-09-03 04:00:00<>METAR SBSV 030400Z 10011KT 9999 FEW023 BKN050 24/19 Q1019=
2025-09-03 05:00:00<>METAR SBSV 030500Z 11012KT 6000 SHRA SCT023 FEW023TCU BKN050 23/19 Q1018=
2025-09-03 06:00:00<>METAR SBSV 030600Z 11014KT 9999 SCT023 BKN050 24/19 Q1018 RESHRA=
2025-09-03 07:00:00<>METAR SBSV 030700Z 11014KT 9999 SCT023 BKN050 23/20 Q1018=
2025-09-03 08:00:00<>METAR SBSV 030800Z 10013KT 9999 SCT023 BKN050 24/19 Q1019=
2025-09-03 09:00:00<>METAR SBSV 030900Z 11010KT 9999 SCT020 SCT050 24/20 Q1019=
2025-09-03 09:07:00<>SPECI SBSV 030907Z 11013G23KT 4000 -SHRA BKN020 FEW023TCU SCT050 23/19 Q1019=
2025-09-03 10:00:00<>METAR SBSV 031000Z 11013KT 9999 VCSH SCT020 FEW023TCU BKN060 24/20 Q1020=
2025-09-03 11:00:00<>METAR SBSV 031100Z 11015KT 9999 SCT021 FEW023TCU BKN045 25/20 Q1021=
2025-09-03 12:00:00<>METAR SBSV 031200Z 11013KT 9999 VCSH SCT022 FEW024TCU SCT040 26/22 Q1021=
2025-09-03 13:00:00<>METAR COR SBSV 031300Z 09016G28KT 9000 -SHRA FEW022 FEW024TCU BKN060 24/22 Q1022 WS R10=
2025-09-03 14:00:00<>METAR SBSV 031400Z 10014KT 9999 VCSH BKN021 FEW024TCU BKN038 25/20 Q1021=
2025-09-03 15:00:00<>METAR SBSV 031500Z 10013KT 6000 -SHRA FEW011 FEW025TCU BKN030 24/21 Q1020=
2025-09-03 16:00:00<>METAR SBSV 031600Z 13015G26KT 090V160 9999 4000NW -SHRA FEW011 BKN019 FEW025TCU BKN070 23/20 Q1020=
2025-09-03 16:45:00<>SPECI SBSV 031645Z 11015KT 080V150 2500 -SHRA BR BKN012 BKN020 FEW025TCU BKN065 23/21 Q1019=
2025-09-03 17:00:00<>METAR SBSV 031700Z 10017KT 2500 -SHRA BR BKN012 BKN020 FEW025TCU BKN065 23/21 Q1019=
2025-09-03 17:33:00<>SPECI SBSV 031733Z 15011KT 110V180 5000 -RA BKN012 BKN020 FEW025TCU OVC050 24/19 Q1019=
2025-09-03 18:00:00<>METAR SBSV 031800Z 12010G20KT 090V170 5000 -RA SCT013 BKN020 FEW025TCU OVC040 25/20 Q1019=
2025-09-03 19:00:00<>METAR SBSV 031900Z 13015KT 100V160 8000 VCSH SCT012 BKN022 FEW025TCU OVC060 26/20 Q1019=
2025-09-03 20:00:00<>METAR SBSV 032000Z 13015KT 100V170 3000 -SHRA BR BKN010 FEW025TCU OVC050 24/20 Q1019=
2025-09-03 20:12:00<>SPECI SBSV 032012Z 13012KT 090V170 6000 -RA BKN013 BKN020 FEW025TCU OVC055 24/20 Q1019=
2025-09-03 21:00:00<>METAR SBSV 032100Z 14012KT 110V170 6000 -RA BKN013 BKN023 FEW025TCU OVC050 24/21 Q1020=
2025-09-03 21:10:00<>SPECI SBSV 032110Z 15015KT 130V190 5000 -RA BR BKN010 BKN023 FEW025TCU OVC050 24/20 Q1020=
2025-09-03 22:00:00<>METAR SBSV 032200Z 13015G25KT 100V160 7000 -RA BKN015 FEW025TCU OVC040 24/20 Q1020=
2025-09-03 23:00:00<>METAR SBSV 032300Z 15015KT 100V170 7000 -RA SCT012 BKN021 FEW025TCU OVC050 24/20 Q1020=
2025-09-04 00:00:00<>METAR SBSV 040000Z 13015KT 100V160 9000 VCSH SCT013 BKN021 FEW025TCU OVC050 25/19 Q1021=
2025-09-04 01:00:00<>METAR SBSV 040100Z 13011KT 9000 VCSH BKN021 FEW025TCU OVC050 25/18 Q1021=
2025-09-04 02:00:00<>METAR SBSV 040200Z 12013KT 9999 SCT021 FEW025TCU BKN060 25/18 Q1021=
2025-09-04 03:00:00<>METAR SBSV 040300Z 10011KT 8000 VCSH SCT021 FEW025TCU BKN060 24/19 Q1021=
2025-09-04 04:00:00<>METAR SBSV 040400Z 13012KT 9999 SCT021 FEW025TCU BKN050 24/19 Q1020=
2025-09-04 05:00:00<>METAR SBSV 040500Z 17006KT 140V200 9999 SCT021 FEW025TCU BKN050 22/19 Q1019=
2025-09-04 06:00:00<>METAR SBSV 040600Z 11013KT 9999 SCT021 FEW025TCU BKN050 22/18 Q1019=
2025-09-04 07:00:00<>METAR SBSV 040700Z 14005KT 9999 SCT021 FEW025TCU BKN050 24/18 Q1019=
2025-09-04 08:00:00<>METAR SBSV 040800Z 14015KT 6000 -RA BKN022 FEW025TCU BKN050 21/19 Q1019=
2025-09-04 09:00:00<>METAR SBSV 040900Z 12006KT 080V150 9000 VCSH SCT022 FEW025TCU BKN050 23/19 Q1020=
2025-09-04 10:00:00<>METAR SBSV 041000Z 11008KT 080V140 9999 VCSH SCT022 FEW025TCU BKN070 24/21 Q1020=
2025-09-04 10:16:00<>SPECI SBSV 041016Z 13015G25KT 9000 VCSH BKN022 FEW025TCU BKN070 24/19 Q1021=
2025-09-04 11:00:00<>METAR SBSV 041100Z 13012KT 9999 SCT023 BKN080 24/20 Q1021=
2025-09-04 12:00:00<>METAR SBSV 041200Z 12012KT 090V150 9999 SCT023 BKN080 25/19 Q1022=
2025-09-04 13:00:00<>METAR SBSV 041300Z 11014KT 9999 SCT023 BKN080 26/19 Q1022=
2025-09-04 13:39:00<>SPECI SBSV 041339Z 12015G25KT 080V140 8000 VCSH SCT023 FEW025TCU BKN080 25/20 Q1022=
2025-09-04 14:00:00<>METAR SBSV 041400Z 11013KT 090V150 8000 VCSH SCT023 FEW025TCU BKN060 24/19 Q1021=
2025-09-04 14:22:00<>SPECI SBSV 041422Z 10012KT 3000 -SHRA BR BKN020 FEW025TCU BKN060 23/20 Q1021=
2025-09-04 15:00:00<>METAR SBSV 041500Z 11011KT 080V140 9000 VCSH BKN020 BKN060 25/20 Q1021=
2025-09-04 16:00:00<>METAR SBSV 041600Z 13011KT 100V160 9000 VCSH BKN020 FEW023TCU BKN060 25/18 Q1020=
2025-09-04 17:00:00<>METAR SBSV 041700Z 12009KT 9999 SCT020 BKN060 25/18 Q1019=
2025-09-04 18:00:00<>METAR SBSV 041800Z 15012KT 130V190 9999 SCT020 BKN060 25/18 Q1019=
2025-09-04 19:00:00<>METAR SBSV 041900Z 13008KT 090V180 9999 VCSH SCT020 FEW023TCU BKN060 24/19 Q1019=
2025-09-04 20:00:00<>METAR SBSV 042000Z 10007KT 9999 SCT020 FEW023TCU BKN060 24/18 Q1019=
2025-09-04 21:00:00<>METAR SBSV 042100Z 12007KT 9999 SCT020 BKN060 24/18 Q1019=
2025-09-04 22:00:00<>METAR SBSV 042200Z 14008KT 9999 SCT020 BKN070 24/18 Q1019=
2025-09-04 23:00:00<>METAR SBSV 042300Z 13007KT 9999 SCT020 BKN070 23/18 Q1020=
2025-09-05 00:00:00<>METAR SBSV 050000Z 10006KT 9999 SCT020 BKN070 23/19 Q1020=
2025-09-05 01:00:00<>METAR SBSV 050100Z 12007KT 090V150 9999 SCT020 24/18 Q1020=
2025-09-05 02:00:00<>METAR SBSV 050200Z 11006KT 090V160 9999 SCT020 BKN060 24/18 Q1023=
2025-09-05 03:00:00<>METAR SBSV 050300Z 11010KT 090V150 9999 SCT020 BKN060 24/19 Q1020=
2025-09-05 04:00:00<>METAR SBSV 050400Z 14007KT 110V170 9999 SCT020 BKN060 24/18 Q1019=
2025-09-05 05:00:00<>METAR SBSV 050500Z 11010KT 9999 BKN023 23/18 Q1019=
2025-09-05 06:00:00<>METAR SBSV 050600Z 10008KT 9999 SCT023 23/18 Q1019=
2025-09-05 07:00:00<>METAR SBSV 050700Z 11006KT 9999 SCT023 BKN060 23/19 Q1019=
2025-09-05 08:00:00<>METAR SBSV 050800Z 14008KT 9999 SCT023 BKN060 24/17 Q1019=
2025-09-05 09:00:00<>METAR SBSV 050900Z 15008KT 130V200 9999 SCT020 24/17 Q1019=
2025-09-05 10:00:00<>METAR SBSV 051000Z 16009KT 130V190 9999 FEW016 SCT025 24/18 Q1019=
2025-09-05 11:00:00<>METAR SBSV 051100Z 15009KT 120V200 9999 SCT016 SCT025 25/18 Q1020=
2025-09-05 12:00:00<>METAR SBSV 051200Z 15010KT 130V190 9999 SCT019 SCT027 26/18 Q1021=
2025-09-05 13:00:00<>METAR SBSV 051300Z 16010KT 110V190 9999 SCT028 26/18 Q1021=
2025-09-05 14:00:00<>METAR SBSV 051400Z 16011KT 130V200 9999 SCT023 SCT050 26/19 Q1021=
2025-09-05 15:00:00<>METAR SBSV 051500Z 17010KT 130V190 9999 SCT026 26/19 Q1020=
2025-09-05 16:00:00<>METAR SBSV 051600Z 14009KT 120V180 9999 SCT030 26/18 Q1019=
2025-09-05 17:00:00<>METAR SBSV 051700Z 15011KT 9999 SCT025 26/20 Q1018=
2025-09-05 18:00:00<>METAR SBSV 051800Z 16009KT 100V190 9999 FEW025 26/18 Q1017=
2025-09-05 19:00:00<>METAR SBSV 051900Z 16009KT 9999 SCT026 25/19 Q1017=
2025-09-05 20:00:00<>METAR SBSV 052000Z 16009KT 130V190 9999 FEW025 SCT055 25/19 Q1017=
2025-09-05 21:00:00<>METAR SBSV 052100Z 15006KT 110V190 9999 FEW022 25/19 Q1018=
2025-09-05 22:00:00<>METAR SBSV 052200Z 16004KT 120V210 9999 SCT026 24/20 Q1018=
2025-09-05 23:00:00<>METAR SBSV 052300Z 10010KT 080V150 9999 BKN021 24/20 Q1018=
2025-09-06 00:00:00<>METAR SBSV 060000Z 12005KT 080V150 9999 FEW022 24/19 Q1019=
2025-09-06 01:00:00<>METAR SBSV 060100Z 13009KT 100V160 9999 FEW015 BKN020 24/20 Q1019=
2025-09-06 02:00:00<>METAR SBSV 060200Z 16006KT 9999 FEW016 BKN023 24/21 Q1019=
2025-09-06 03:00:00<>METAR SBSV 060300Z 09009KT 6000 -RA BKN015 OVC021 23/21 Q1018=
2025-09-06 04:00:00<>METAR SBSV 060400Z 08006KT 060V170 7000 -RA BKN017 BKN023 OVC060 22/21 Q1018=
2025-09-06 05:00:00<>METAR SBSV 060500Z 10008KT 8000 -RA BKN015 BKN022 OVC050 23/22 Q1017=
2025-09-06 06:00:00<>METAR SBSV 060600Z 11009KT 8000 VCSH SCT016 BKN023 OVC070 24/21 Q1017=
2025-09-06 07:00:00<>METAR SBSV 060700Z 13008KT 100V160 9999 SCT016 BKN023 OVC070 23/21 Q1017=
2025-09-06 08:00:00<>METAR SBSV 060800Z 13006KT 9999 VCSH FEW015 BKN024 OVC070 24/20 Q1017=
2025-09-06 09:00:00<>METAR SBSV 060900Z 09010KT 8000 VCSH BKN023 FEW025TCU BKN060 23/20 Q1018=
2025-09-06 10:00:00<>METAR SBSV 061000Z 08008KT 9999 VCSH FEW016 FEW025TCU BKN043 23/21 Q1018=
2025-09-06 11:00:00<>METAR SBSV 061100Z 04006KT 9999 VCSH FEW015 BKN022 FEW025TCU BKN043 24/21 Q1019=
2025-09-06 12:00:00<>METAR SBSV 061200Z 10011KT 9999 VCSH BKN022 FEW025TCU BKN043 26/21 Q1019=
2025-09-06 12:35:00<>SPECI SBSV 061235Z VRB03KT 4000 -SHRA BKN013 FEW025TCU OVC066 24/22 Q1020=
2025-09-06 13:00:00<>METAR SBSV 061300Z 10009KT 9999 VCSH BKN015 FEW025TCU BKN050 25/21 Q1020=
2025-09-06 14:00:00<>METAR SBSV 061400Z 12011KT 9999 VCSH FEW015 BKN050 26/21 Q1019=
2025-09-06 15:00:00<>METAR SBSV 061500Z 11010KT 080V140 9999 VCSH FEW021 BKN024 27/21 Q1018=
2025-09-06 16:00:00<>METAR SBSV 061600Z 11011KT 080V140 9999 VCSH SCT023 SCT040 27/21 Q1018=
2025-09-06 17:00:00<>METAR SBSV 061700Z 11011KT 090V160 9999 SCT024 SCT050 27/21 Q1017=
2025-09-06 18:00:00<>METAR SBSV 061800Z 12009KT 070V160 9999 SCT024 SCT050 27/21 Q1017=
2025-09-06 19:00:00<>METAR SBSV 061900Z 11011KT 9999 SCT024 SCT060 26/20 Q1017=
2025-09-06 20:00:00<>METAR SBSV 062000Z 12009KT 090V160 9999 SCT024 26/20 Q1017=
2025-09-06 21:00:00<>METAR SBSV 062100Z 12008KT 090V240 9999 SCT024 SCT040 25/20 Q1018=
2025-09-06 22:00:00<>METAR SBSV 062200Z 11008KT 9999 SCT024 25/20 Q1018=
2025-09-06 23:00:00<>METAR SBSV 062300Z 10009KT 9999 SCT022 25/20 Q1019=
2025-09-07 00:00:00<>METAR SBSV 070000Z 09010KT 9999 SCT022 25/20 Q1019=
2025-09-07 01:00:00<>METAR SBSV 070100Z 09009KT 9999 SCT022 25/20 Q1019=
2025-09-07 02:00:00<>METAR SBSV 070200Z 09009KT 9999 SCT022 24/20 Q1019=
2025-09-07 03:00:00<>METAR SBSV 070300Z 10009KT 9999 SCT022 25/20 Q1019=
2025-09-07 04:00:00<>METAR SBSV 070400Z 10008KT 9999 FEW023 24/20 Q1018=
2025-09-07 05:00:00<>METAR SBSV 070500Z 09008KT 9999 FEW023 24/19 Q1018=
2025-09-07 06:00:00<>METAR SBSV 070600Z 10007KT 9999 FEW023 24/20 Q1018=
2025-09-07 07:00:00<>METAR SBSV 070700Z 11003KT 9999 FEW023 24/20 Q1018=
2025-09-07 08:00:00<>METAR SBSV 070800Z 11006KT 9999 FEW023 24/20 Q1018=
2025-09-07 09:00:00<>METAR SBSV 070900Z 11011KT 4000 -SHRA SCT020 FEW023TCU BKN050 24/20 Q1019=
2025-09-07 09:32:00<>SPECI SBSV 070932Z 06003KT 9000 VCSH SCT020 FEW023TCU BKN050 22/22 Q1019=
2025-09-07 10:00:00<>METAR SBSV 071000Z 00000KT 9999 SCT021 BKN060 23/22 Q1019=
2025-09-07 11:00:00<>METAR SBSV 071100Z 11006KT 9999 SCT021 BKN060 25/20 Q1020=
2025-09-07 12:00:00<>METAR SBSV 071200Z 10012KT 9999 SCT020 BKN070 25/21 Q1021=
2025-09-07 13:00:00<>METAR SBSV 071300Z 11008KT 080V150 9999 SCT020 BKN070 26/20 Q1021=
2025-09-07 14:00:00<>METAR SBSV 071400Z 12010KT 070V150 9999 SCT020 BKN070 27/21 Q1021=
2025-09-07 15:00:00<>METAR SBSV 071500Z 10010KT 8000 VCSH BKN020 FEW023TCU BKN070 25/19 Q1021=
2025-09-07 16:00:00<>METAR SBSV 071600Z 11011KT 9000 VCSH SCT020 FEW023TCU BKN070 26/20 Q1020=
2025-09-07 17:00:00<>METAR SBSV 071700Z 12010KT 090V150 9999 SCT022 BKN070 26/20 Q1019=
2025-09-07 18:00:00<>METAR SBSV 071800Z 12010KT 9999 VCSH SCT023 FEW024TCU BKN050 BKN070 26/19 Q1018=
2025-09-07 19:00:00<>METAR SBSV 071900Z 13009KT 100V160 9999 SCT023 BKN050 BKN070 26/19 Q1019=
2025-09-07 20:00:00<>METAR SBSV 072000Z 13009KT 9999 SCT023 BKN050 BKN070 26/19 Q1019=
2025-09-07 21:00:00<>METAR SBSV 072100Z 12010KT 100V180 9999 SCT023 BKN050 BKN060 25/18 Q1019=
2025-09-07 22:00:00<>METAR SBSV 072200Z 12008KT 9999 SCT023 BKN050 BKN060 25/18 Q1019=
2025-09-07 23:00:00<>METAR SBSV 072300Z 13008KT 9999 SCT023 BKN050 BKN060 25/18 Q1020=
2025-09-08 00:00:00<>METAR SBSV 080000Z 13009KT 090V150 9999 SCT023 SCT050 BKN060 25/18 Q1021=
2025-09-08 01:00:00<>METAR SBSV 080100Z 13008KT 100V160 9999 SCT023 SCT050 25/18 Q1021=
2025-09-08 02:00:00<>METAR SBSV 080200Z 13007KT 9999 FEW023 SCT050 25/18 Q1021=
2025-09-08 03:00:00<>METAR SBSV 080300Z 14006KT 120V180 9999 FEW022 SCT040 25/19 Q1020=
2025-09-08 04:00:00<>METAR SBSV 080400Z 12010KT 100V170 9999 FEW022 SCT040 24/17 Q1019=
2025-09-08 05:00:00<>METAR SBSV 080500Z 13006KT 110V170 9999 FEW025 BKN060 24/18 Q1019=
2025-09-08 06:00:00<>METAR SBSV 080600Z 17011KT 9999 FEW023 BKN040 22/18 Q1019=
2025-09-08 07:00:00<>METAR SBSV 080700Z 17010KT 9999 SCT023 BKN050 23/20 Q1019=
2025-09-08 08:00:00<>METAR SBSV 080800Z 15009KT 9999 FEW023 BKN050 23/19 Q1019=
2025-09-08 09:00:00<>METAR SBSV 080900Z 14007KT 120V190 9999 VCSH FEW024 BKN042 24/19 Q1020=
2025-09-08 10:00:00<>METAR SBSV 081000Z 16007KT 120V200 9000 VCSH SCT020 FEW022TCU BKN050 24/20 Q1020=
2025-09-08 11:00:00<>METAR SBSV 081100Z 12005KT 090V160 9999 VCSH SCT023 FEW025TCU BKN060 24/20 Q1021=
2025-09-08 12:00:00<>METAR SBSV 081200Z 13010KT 100V170 9999 SCT023 BKN060 26/17 Q1022=
2025-09-08 13:00:00<>METAR SBSV 081300Z 13012KT 9999 SCT025 BKN060 26/18 Q1022=
2025-09-08 14:00:00<>METAR SBSV 081400Z 14013KT 9999 BKN025 26/18 Q1022=
2025-09-08 15:00:00<>METAR SBSV 081500Z 13013KT 100V170 9999 SCT025 27/18 Q1021=
2025-09-08 16:00:00<>METAR SBSV 081600Z 13013KT 9999 SCT025 SCT060 27/18 Q1020=
2025-09-08 17:00:00<>METAR SBSV 081700Z 13012KT 9999 SCT025 27/18 Q1019=
2025-09-08 18:00:00<>METAR SBSV 081800Z 15011KT 120V190 9999 SCT025 27/18 Q1018=
2025-09-08 19:00:00<>METAR SBSV 081900Z 15011KT 9999 SCT025 26/17 Q1018=
2025-09-08 20:00:00<>METAR SBSV 082000Z 14010KT 9999 SCT025 26/18 Q1019=
2025-09-08 21:00:00<>METAR SBSV 082100Z 14009KT 9999 SCT025 25/18 Q1019=
2025-09-08 22:00:00<>METAR SBSV 082200Z 15009KT 9999 SCT025 25/17 Q1019=
2025-09-08 23:00:00<>METAR SBSV 082300Z 14008KT 9999 SCT025 25/18 Q1020=
2025-09-09 00:00:00<>METAR SBSV 090000Z 14008KT 9999 SCT025 24/18 Q1020=
2025-09-09 01:00:00<>METAR SBSV 090100Z 14008KT 9999 SCT025 SCT050 24/18 Q1020=
2025-09-09 02:00:00<>METAR SBSV 090200Z 13008KT 9999 SCT023 BKN030 25/17 Q1020=
2025-09-09 03:00:00<>METAR SBSV 090300Z 14009KT 9999 FEW023 SCT050 24/18 Q1020=
2025-09-09 04:00:00<>METAR SBSV 090400Z 13008KT 050V200 9999 FEW023 24/17 Q1019=
2025-09-09 05:00:00<>METAR SBSV 090500Z 13007KT 9999 SCT025 24/17 Q1018=
2025-09-09 06:00:00<>METAR SBSV 090600Z 13006KT 9999 SCT025 24/17 Q1018=
2025-09-09 07:00:00<>METAR COR SBSV 090700Z 13005KT 9999 SCT025 24/17 Q1018=
2025-09-09 08:00:00<>METAR SBSV 090800Z 13005KT 110V180 9999 SCT025 24/17 Q1019=
2025-09-09 09:00:00<>METAR SBSV 090900Z 13007KT 9999 SCT025 24/18 Q1019=
2025-09-09 10:00:00<>METAR SBSV 091000Z 14006KT 9999 FEW025 25/18 Q1020=
2025-09-09 11:00:00<>METAR SBSV 091100Z 15007KT 9999 FEW026 26/19 Q1020=
2025-09-09 12:00:00<>METAR SBSV 091200Z 16009KT 9999 FEW026 26/18 Q1021=
2025-09-09 13:00:00<>METAR SBSV 091300Z 14009KT 090V170 9999 SCT031 26/18 Q1021=
2025-09-09 14:00:00<>METAR SBSV 091400Z 15008KT 110V190 9999 FEW031 27/19 Q1020=
2025-09-09 15:00:00<>METAR SBSV 091500Z 16008KT 120V200 9999 SCT032 SCT042 26/19 Q1020=
2025-09-09 16:00:00<>METAR SBSV 091600Z 15010KT 120V180 9999 SCT032 SCT044 27/19 Q1019=
2025-09-09 17:00:00<>METAR SBSV 091700Z 15010KT 9999 SCT032 BKN046 26/18 Q1019=
2025-09-09 18:00:00<>METAR SBSV 091800Z 16008KT 110V210 9999 VCSH FEW022 FEW025TCU BKN055 26/18 Q1018=
2025-09-09 19:00:00<>METAR SBSV 091900Z 14007KT 100V170 9999 FEW025 SCT055 26/18 Q1018=
2025-09-09 20:00:00<>METAR SBSV 092000Z 11006KT 080V150 9999 FEW025 SCT060 26/18 Q1018=
2025-09-09 21:00:00<>METAR SBSV 092100Z 10005KT 070V150 9999 SCT030 BKN060 25/18 Q1018=
2025-09-09 22:00:00<>METAR SBSV 092200Z 10007KT 080V140 9999 FEW030 BKN050 25/18 Q1018=
2025-09-09 23:00:00<>METAR SBSV 092300Z 11006KT 100V160 9999 SCT030 25/18 Q1019=
2025-09-10 00:00:00<>METAR SBSV 100000Z 09006KT CAVOK 24/18 Q1019=
2025-09-10 01:00:00<>METAR SBSV 100100Z 10005KT 9999 FEW020 25/19 Q1019=
2025-09-10 02:00:00<>METAR SBSV 100200Z 10006KT 9999 FEW020 25/19 Q1019=
2025-09-10 03:00:00<>METAR SBSV 100300Z 11005KT 9999 FEW020 25/19 Q1019=
2025-09-10 04:00:00<>METAR SBSV 100400Z 11006KT 9999 FEW020 25/20 Q1018=
2025-09-10 05:00:00<>METAR SBSV 100500Z 08008KT 9999 SCT020 24/20 Q1018=
2025-09-10 06:00:00<>METAR SBSV 100600Z 08007KT CAVOK 24/20 Q1017=
2025-09-10 07:00:00<>METAR SBSV 100700Z 07005KT 9999 SCT019 23/20 Q1019=
2025-09-10 08:00:00<>METAR SBSV 100800Z 00000KT 9999 FEW019 22/20 Q1017=
2025-09-10 09:00:00<>METAR SBSV 100900Z VRB01KT 9999 SCT019 22/21 Q1018=
2025-09-10 10:00:00<>METAR SBSV 101000Z 32003KT 280V040 9999 SCT020 FEW025TCU 24/21 Q1018=
2025-09-10 11:00:00<>METAR SBSV 101100Z 08009KT 9999 SCT020 26/21 Q1018=
2025-09-10 12:00:00<>METAR SBSV 101200Z 08010KT 9999 SCT020 27/22 Q1019=
2025-09-10 13:00:00<>METAR SBSV 101300Z 08012KT 9999 SCT020 27/21 Q1018=
2025-09-10 14:00:00<>METAR SBSV 101400Z 07013KT 9999 SCT020 27/21 Q1018=
2025-09-10 15:00:00<>METAR SBSV 101500Z 08014KT 9999 SCT020 28/22 Q1017=
2025-09-10 16:00:00<>METAR SBSV 101600Z 07015KT 9999 SCT020 28/22 Q1016=
2025-09-10 17:00:00<>METAR SBSV 101700Z 07015KT 9999 SCT020 27/21 Q1015=
2025-09-10 18:00:00<>METAR SBSV 101800Z 08016KT 9999 SCT023 27/21 Q1015=
2025-09-10 19:00:00<>METAR SBSV 101900Z 06015KT 9999 FEW021 26/21 Q1015=
2025-09-10 20:00:00<>METAR SBSV 102000Z 07013KT 9999 SCT020 26/21 Q1015=
2025-09-10 21:00:00<>METAR SBSV 102100Z 07012KT 9999 SCT020 25/21 Q1016=
2025-09-10 22:00:00<>METAR SBSV 102200Z 07012KT 9999 SCT019 25/21 Q1016=
2025-09-10 23:00:00<>METAR SBSV 102300Z 08010KT 9999 SCT018 25/21 Q1017=
2025-09-11 00:00:00<>METAR SBSV 110000Z 09009KT 9999 SCT019 25/21 Q1018=
2025-09-11 01:00:00<>METAR SBSV 110100Z 10008KT 9999 SCT018 25/21 Q1019=
2025-09-11 02:00:00<>METAR SBSV 110200Z 11007KT 090V160 9999 SCT017 25/21 Q1019=
2025-09-11 03:00:00<>METAR SBSV 110300Z VRB05KT 9999 SCT017 25/21 Q1019=
2025-09-11 04:00:00<>METAR SBSV 110400Z 12007KT 9999 SCT016 25/21 Q1018=
2025-09-11 05:00:00<>METAR SBSV 110500Z 13008KT 9999 FEW016 BKN061 25/21 Q1018=
2025-09-11 06:00:00<>METAR SBSV 110600Z 11007KT 060V130 9999 SCT016 BKN061 25/21 Q1018=
2025-09-11 07:00:00<>METAR SBSV 110700Z 12008KT 9999 SCT016 BKN061 25/21 Q1018=
2025-09-11 08:00:00<>METAR SBSV 110800Z 11010KT 9999 FEW017 SCT056 25/21 Q1018=
2025-09-11 09:00:00<>METAR SBSV 110900Z 12008KT 100V160 9999 SCT017 25/21 Q1019=
2025-09-11 10:00:00<>METAR SBSV 111000Z 11009KT 9999 VCSH SCT017 FEW025TCU 26/21 Q1019=
2025-09-11 11:00:00<>METAR SBSV 111100Z 12009KT 090V150 9999 SCT017 FEW025TCU 26/21 Q1020=
2025-09-11 12:00:00<>METAR SBSV 111200Z 11010KT 9999 SCT017 27/21 Q1020=
2025-09-11 13:00:00<>METAR SBSV 111300Z 11010KT 080V150 9999 SCT017 28/21 Q1020=
2025-09-11 14:00:00<>METAR SBSV 111400Z 12010KT 090V160 9999 SCT020 28/22 Q1020=
2025-09-11 15:00:00<>METAR SBSV 111500Z 12010KT 090V160 9999 SCT020 28/21 Q1019=
2025-09-11 16:00:00<>METAR SBSV 111600Z 12010KT 090V160 9999 SCT020 27/21 Q1018=
2025-09-11 17:00:00<>METAR SBSV 111700Z 13008KT 080V170 9999 SCT020 28/20 Q1018=
2025-09-11 18:00:00<>METAR SBSV 111800Z 11010KT 090V160 9999 SCT021 27/21 Q1018=
2025-09-11 19:00:00<>METAR SBSV 111900Z 12010KT 9999 SCT023 27/20 Q1018=
2025-09-11 20:00:00<>METAR SBSV 112000Z 12008KT 9999 SCT023 26/20 Q1018=
2025-09-11 21:00:00<>METAR SBSV 112100Z 12007KT 9999 SCT021 25/20 Q1018=
2025-09-11 22:00:00<>METAR SBSV 112200Z 13006KT 9999 FEW023 25/20 Q1018=
2025-09-11 23:00:00<>METAR SBSV 112300Z 12007KT 9999 SCT021 25/20 Q1018=
2025-09-12 00:00:00<>METAR SBSV 120000Z 12006KT 9999 FEW020 25/21 Q1019=
2025-09-12 01:00:00<>METAR SBSV 120100Z 13007KT 100V160 9999 SCT021 25/20 Q1019=
2025-09-12 02:00:00<>METAR SBSV 120200Z 12006KT 090V150 9999 SCT020 25/20 Q1018=
2025-09-12 03:00:00<>METAR SBSV 120300Z 10006KT 9999 SCT020 24/20 Q1018=
2025-09-12 04:00:00<>METAR SBSV 120400Z 12007KT 090V150 9999 SCT019 24/20 Q1017=
2025-09-12 05:00:00<>METAR SBSV 120500Z 10008KT 9999 FEW018 24/20 Q1016=
2025-09-12 06:00:00<>METAR SBSV 120600Z 09007KT 9999 SCT019 24/20 Q1016=
2025-09-12 07:00:00<>METAR SBSV 120700Z 10007KT 9999 BKN021 24/20 Q1016=
2025-09-12 08:00:00<>METAR SBSV 120800Z 10006KT 9999 SCT021 SCT050 24/20 Q1016=
2025-09-12 09:00:00<>METAR SBSV 120900Z 12007KT 090V150 9999 SCT021 24/20 Q1017=
2025-09-12 10:00:00<>METAR SBSV 121000Z 11006KT 9999 SCT021 25/20 Q1018=
2025-09-12 11:00:00<>METAR SBSV 121100Z 11006KT 070V140 9999 SCT025 26/20 Q1018=
2025-09-12 12:00:00<>METAR SBSV 121200Z 09005KT 070V190 9999 SCT025 BKN050 26/19 Q1019=
2025-09-12 13:00:00<>METAR SBSV 121300Z 15008KT 130V190 9999 SCT025 BKN050 25/21 Q1019=
2025-09-12 14:00:00<>METAR SBSV 121400Z 14006KT 110V190 9999 SCT025 BKN050 27/20 Q1018=
2025-09-12 15:00:00<>METAR SBSV 121500Z 15010KT 9999 SCT025 BKN050 26/20 Q1017=
2025-09-12 16:00:00<>METAR SBSV 121600Z 17008KT 9999 SCT025 BKN050 26/20 Q1017=
2025-09-12 17:00:00<>METAR SBSV 121700Z 17009KT 9999 VCSH SCT023 FEW025TCU BKN050 26/20 Q1016=
2025-09-12 18:00:00<>METAR SBSV 121800Z 17009KT 140V200 8000 VCSH SCT023 FEW025TCU BKN050 25/20 Q1016=
2025-09-12 19:00:00<>METAR SBSV 121900Z 15013KT 8000 VCSH SCT023 FEW025TCU BKN060 24/20 Q1016=
2025-09-12 20:00:00<>METAR SBSV 122000Z 17008KT 9999 SCT023 FEW025TCU BKN060 24/20 Q1016=
2025-09-12 21:00:00<>METAR SBSV 122100Z 18005KT 150V260 9999 SCT023 BKN060 25/20 Q1017=
2025-09-12 22:00:00<>METAR SBSV 122200Z 18006KT 160V250 9999 SCT023 BKN070 25/20 Q1017=
2025-09-12 23:00:00<>METAR SBSV 122300Z 16004KT 9999 SCT023 BKN070 25/21 Q1017=
2025-09-13 00:00:00<>METAR SBSV 130000Z 12007KT 9999 SCT023 BKN060 25/20 Q1018=
2025-09-13 01:00:00<>METAR SBSV 130100Z 11009KT 080V140 9999 SCT023 BKN060 25/20 Q1018=
2025-09-13 02:00:00<>METAR SBSV 130200Z 10008KT 9999 SCT023 BKN060 25/19 Q1018=
2025-09-13 03:00:00<>METAR SBSV 130300Z 10008KT 9999 SCT023 25/19 Q1017=
2025-09-13 04:00:00<>METAR SBSV 130400Z 11008KT 9999 SCT023 25/19 Q1017=
2025-09-13 05:00:00<>METAR SBSV 130500Z 11006KT 9999 SCT023 24/19 Q1016=
2025-09-13 06:00:00<>METAR SBSV 130600Z 10006KT 9999 SCT023 24/19 Q1016=
2025-09-13 07:00:00<>METAR SBSV 130700Z 10005KT 9999 SCT023 24/19 Q1016=
2025-09-13 08:00:00<>METAR SBSV 130800Z 11007KT 9999 SCT023 24/19 Q1017=
2025-09-13 09:00:00<>METAR SBSV 130900Z 12006KT 9999 SCT023 25/19 Q1017=
2025-09-13 10:00:00<>METAR SBSV 131000Z 12007KT 9999 SCT024 26/20 Q1018=
2025-09-13 11:00:00<>METAR SBSV 131100Z 12008KT 9999 FEW026 SCT053 26/20 Q1018=
2025-09-13 12:00:00<>METAR SBSV 131200Z 11010KT 080V140 9999 FEW028 27/20 Q1019=
2025-09-13 13:00:00<>METAR SBSV 131300Z 11010KT 9999 FEW029 27/20 Q1019=
2025-09-13 14:00:00<>METAR SBSV 131400Z 09011KT 9999 SCT027 27/20 Q1019=
2025-09-13 15:00:00<>METAR SBSV 131500Z 12010KT 080V150 9999 SCT025 27/20 Q1018=
2025-09-13 16:00:00<>METAR SBSV 131600Z 11011KT 080V140 9999 SCT025 28/20 Q1017=
2025-09-13 17:00:00<>METAR SBSV 131700Z 11010KT 9999 FEW029 28/19 Q1017=
2025-09-13 18:00:00<>METAR SBSV 131800Z 11011KT 090V150 9999 SCT024 27/20 Q1016=
2025-09-13 19:00:00<>METAR SBSV 131900Z 10010KT 9999 SCT022 26/19 Q1016=
2025-09-13 20:00:00<>METAR SBSV 132000Z 11009KT 9999 SCT026 26/19 Q1016=
2025-09-13 21:00:00<>METAR SBSV 132100Z 10009KT 9999 SCT025 25/19 Q1016=
2025-09-13 22:00:00<>METAR SBSV 132200Z 10008KT CAVOK 25/18 Q1017=
2025-09-13 23:00:00<>METAR SBSV 132300Z 11009KT CAVOK 25/17 Q1017=
2025-09-14 00:00:00<>METAR SBSV 140000Z 11010KT CAVOK 25/17 Q1018=
2025-09-14 01:00:00<>METAR SBSV 140100Z 11010KT CAVOK 25/17 Q1018=
2025-09-14 02:00:00<>METAR SBSV 140200Z 12009KT CAVOK 25/17 Q1018=
2025-09-14 03:00:00<>METAR SBSV 140300Z 12008KT 090V150 CAVOK 25/18 Q1018=
2025-09-14 04:00:00<>METAR SBSV 140400Z 12007KT 9999 SCT025 24/18 Q1017=
2025-09-14 05:00:00<>METAR SBSV 140500Z 12007KT 9999 SCT025 SCT030 25/18 Q1017=
2025-09-14 06:00:00<>METAR SBSV 140600Z 11006KT 9999 SCT025 BKN060 24/19 Q1017=
2025-09-14 07:00:00<>METAR SBSV 140700Z 12007KT 9999 SCT025 SCT060 24/19 Q1017=
2025-09-14 08:00:00<>METAR SBSV 140800Z 13005KT 9999 SCT025 SCT060 24/18 Q1017=
2025-09-14 09:00:00<>METAR SBSV 140900Z 09005KT 9999 SCT025 24/19 Q1018=
2025-09-14 10:00:00<>METAR SBSV 141000Z 11007KT 9999 SCT025 25/19 Q1018=
2025-09-14 11:00:00<>METAR SBSV 141100Z 12007KT 090V150 9999 SCT025 25/17 Q1019=
2025-09-14 12:00:00<>METAR SBSV 141200Z 11010KT 9999 SCT025 27/19 Q1019=
2025-09-14 13:00:00<>METAR SBSV 141300Z 11010KT 080V150 9999 SCT023 28/19 Q1020=
2025-09-14 14:00:00<>METAR SBSV 141400Z 13011KT 100V160 9999 SCT023 28/20 Q1020=
2025-09-14 15:00:00<>METAR SBSV 141500Z 11011KT 090V150 9999 BKN025 28/19 Q1019=
2025-09-14 16:00:00<>METAR SBSV 141600Z 14010KT 090V180 9999 BKN025 28/20 Q1018=
2025-09-14 17:00:00<>METAR SBSV 141700Z 15011KT 110V170 9999 BKN025 27/19 Q1017=
2025-09-14 18:00:00<>METAR SBSV 141800Z 15011KT 110V220 9999 SCT025 27/19 Q1017=
2025-09-14 19:00:00<>METAR SBSV 141900Z 13009KT 110V180 9999 SCT023 FEW025TCU 26/20 Q1017=
2025-09-14 20:00:00<>METAR SBSV 142000Z 13010KT 9999 VCSH SCT023 FEW025TCU 25/20 Q1017=
2025-09-14 21:00:00<>METAR SBSV 142100Z 14010KT 110V170 9999 SCT023 FEW025TCU 25/20 Q1017=
2025-09-14 22:00:00<>METAR SBSV 142200Z 13010KT 9999 SCT023 BKN050 25/19 Q1018=
2025-09-14 23:00:00<>METAR SBSV 142300Z 13011KT 9999 SCT023 BKN050 25/19 Q1018=
2025-09-15 00:00:00<>METAR SBSV 150000Z 12009KT 9999 SCT023 BKN050 25/19 Q1019=
2025-09-15 01:00:00<>METAR SBSV 150100Z 13009KT 9999 SCT023 BKN060 25/19 Q1019=
2025-09-15 02:00:00<>METAR SBSV 150200Z 13009KT 9999 SCT025 BKN060 25/20 Q1019=
2025-09-15 03:00:00<>METAR SBSV 150300Z 13007KT 9999 FEW025 BKN060 25/20 Q1019=
2025-09-15 04:00:00<>METAR SBSV 150400Z 13008KT 9999 FEW025 BKN060 25/19 Q1018=
2025-09-15 05:00:00<>METAR SBSV 150500Z 14008KT 9999 FEW025 BKN060 25/20 Q1017=
2025-09-15 06:00:00<>METAR SBSV 150600Z 16009KT 9999 FEW025 BKN060 25/20 Q1017=
2025-09-15 07:00:00<>METAR SBSV 150700Z 14010KT 9999 SCT023 BKN060 25/20 Q1017=
2025-09-15 08:00:00<>METAR SBSV 150800Z 15008KT 110V180 9999 SCT023 BKN060 24/20 Q1017=
2025-09-15 09:00:00<>METAR SBSV 150900Z 12008KT 100V170 9000 SCT020 FEW023TCU BKN060 24/20 Q1018=
2025-09-15 10:00:00<>METAR SBSV 151000Z 10011KT 5000 BR FEW022 OVC035 22/20 Q1019=
2025-09-15 10:06:00<>SPECI SBSV 151006Z 08009KT 2000 -RA BR BKN007 SCT031 OVC035 22/21 Q1019=
2025-09-15 11:00:00<>METAR SBSV 151100Z 14008KT 110V170 3000 -RA BR BKN007 SCT026 OVC035 23/21 Q1019=
2025-09-15 11:10:00<>SPECI SBSV 151110Z VRB02KT 6000 -RA FEW007 OVC036 23/21 Q1019=
2025-09-15 12:00:00<>METAR SBSV 151200Z 10006KT 070V130 9999 VCSH FEW026 OVC045 26/21 Q1019=
2025-09-15 13:00:00<>METAR SBSV 151300Z 07007KT 030V110 9000 -RA FEW010 BKN035 OVC044 25/21 Q1019=
2025-09-15 14:00:00<>METAR SBSV 151400Z 12006KT 080V160 3000 -RA BR BKN015 BKN040 OVC050 25/21 Q1019=
2025-09-15 14:12:00<>SPECI SBSV 151412Z 11007KT 080V180 6000 -RA BKN015 OVC050 25/22 Q1019=
2025-09-15 15:00:00<>METAR SBSV 151500Z 12011KT 090V150 9999 VCSH BKN022 BKN050 26/22 Q1018=
2025-09-15 16:00:00<>METAR SBSV 151600Z 07009KT 5000 -RA BR FEW011 BKN015 BKN018 24/22 Q1017=
2025-09-15 17:00:00<>METAR SBSV 151700Z 06009KT 9999 VCSH FEW024 BKN060 25/22 Q1016=
2025-09-15 18:00:00<>METAR SBSV 151800Z 11010KT 9000 VCSH SCT019 FEW021TCU BKN025 BKN060 25/21 Q1016=
2025-09-15 19:00:00<>METAR SBSV 151900Z 09012KT 7000 -RA SCT019 FEW021TCU BKN030 BKN070 25/20 Q1016=
2025-09-15 20:00:00<>METAR SBSV 152000Z 10011KT 9000 VCSH SCT020 FEW021TCU BKN050 BKN070 25/21 Q1016=
2025-09-15 21:00:00<>METAR SBSV 152100Z 09011KT 9999 SCT020 FEW021TCU BKN040 BKN070 35/21 Q1017=
2025-09-15 22:00:00<>METAR SBSV 152200Z 09012KT 9999 SCT020 SCT040 BKN060 25/21 Q1017=
2025-09-15 23:00:00<>METAR SBSV 152300Z 06005KT 9999 SCT020 SCT040 BKN050 23/21 Q1018=
2025-09-16 00:00:00<>METAR SBSV 160000Z 09010KT 9999 SCT020 SCT040 BKN050 25/21 Q1018=
2025-09-16 01:00:00<>METAR SBSV 160100Z 10011KT 9999 FEW023 BKN060 25/20 Q1018=
2025-09-16 02:00:00<>METAR SBSV 160200Z 08007KT 9999 SCT023 BKN031 24/20 Q1018=
2025-09-16 03:00:00<>METAR SBSV 160300Z 09011KT 9999 FEW025 BKN080 25/19 Q1018=
2025-09-16 04:00:00<>METAR SBSV 160400Z 05010KT 9999 FEW020 BKN072 24/20 Q1017=
2025-09-16 05:00:00<>METAR SBSV 160500Z 10010KT 9999 SCT021 BKN030 25/20 Q1016=
2025-09-16 06:00:00<>METAR SBSV 160600Z 10011KT 9999 FEW021 BKN050 25/20 Q1016=
2025-09-16 07:00:00<>METAR SBSV 160700Z 10010KT 9999 FEW022 SCT080 25/20 Q1016=
2025-09-16 08:00:00<>METAR SBSV 160800Z 09008KT 9999 FEW022 BKN080 24/20 Q1016=
2025-09-16 09:00:00<>METAR SBSV 160900Z 08008KT 9999 FEW023 SCT060 25/20 Q1017=
2025-09-16 10:00:00<>METAR SBSV 161000Z 09010KT 9999 VCSH SCT023 FEW025TCU BKN060 26/20 Q1017=
2025-09-16 11:00:00<>METAR SBSV 161100Z 09010KT 9999 SCT021 BKN060 27/20 Q1018=
2025-09-16 12:00:00<>METAR SBSV 161200Z 09013KT 9999 SCT021 BKN060 27/20 Q1018=
2025-09-16 13:00:00<>METAR SBSV 161300Z 10012KT 9999 FEW021 BKN070 27/21 Q1018=
2025-09-16 14:00:00<>METAR SBSV 161400Z 09011KT 060V120 9999 VCSH FEW023 FEW025TCU BKN060 27/21 Q1018=
2025-09-16 15:00:00<>METAR SBSV 161500Z 09012KT 9999 FEW023 BKN080 27/20 Q1017=
2025-09-16 16:00:00<>METAR SBSV 161600Z 09013KT 9999 FEW023 BKN080 27/20 Q1016=
2025-09-16 17:00:00<>METAR SBSV 161700Z 09013KT 9999 FEW024 SCT080 28/21 Q1015=
2025-09-16 18:00:00<>METAR SBSV 161800Z 10012KT 9999 SCT023 29/20 Q1015=
2025-09-16 19:00:00<>METAR SBSV 161900Z 09013KT 9999 SCT023 27/20 Q1015=
2025-09-16 20:00:00<>METAR SBSV 162000Z 09012KT 9999 SCT023 26/20 Q1015=
2025-09-16 21:00:00<>METAR SBSV 162100Z 09011KT 9999 FEW023 25/19 Q1016=
2025-09-16 22:00:00<>METAR SBSV 162200Z 08013KT 9999 FEW023 25/20 Q1016=
2025-09-16 23:00:00<>METAR SBSV 162300Z 07013KT 9999 FEW022 25/20 Q1016=
2025-09-17 00:00:00<>METAR SBSV 170000Z 08012KT 9999 SCT022 25/20 Q1017=
2025-09-17 01:00:00<>METAR SBSV 170100Z 08011KT 9999 SCT022 25/20 Q1017=
2025-09-17 02:00:00<>METAR SBSV 170200Z 08010KT 9999 SCT022 25/20 Q1017=
2025-09-17 03:00:00<>METAR SBSV 170300Z 08010KT 9999 SCT022 25/20 Q1016=
2025-09-17 04:00:00<>METAR SBSV 170400Z 07012KT 9999 VCSH SCT022 FEW023TCU 23/20 Q1015=
2025-09-17 05:00:00<>METAR SBSV 170500Z 09009KT 9999 SCT022 FEW023TCU 24/21 Q1015=
2025-09-17 06:00:00<>METAR SBSV 170600Z 08010KT 9999 SCT022 FEW023TCU SCT050 24/20 Q1015=
2025-09-17 07:00:00<>METAR SBSV 170700Z 08010KT 9999 SCT022 24/20 Q1015=
2025-09-17 08:00:00<>METAR SBSV 170800Z 08009KT 9999 SCT022 BKN050 24/20 Q1015=
2025-09-17 09:00:00<>METAR SBSV 170900Z 08009KT 9999 VCSH SCT020 FEW023TCU BKN050 24/20 Q1016=
2025-09-17 10:00:00<>METAR SBSV 171000Z 08011KT 9999 FEW023 SCT032 26/20 Q1017=
2025-09-17 11:00:00<>METAR SBSV 171100Z 08013KT 9999 SCT030 26/20 Q1017=
2025-09-17 12:00:00<>METAR SBSV 171200Z 08012KT 9999 SCT027 27/20 Q1018=
2025-09-17 13:00:00<>METAR SBSV 171300Z 08013KT 9999 SCT027 27/20 Q1018=
2025-09-17 14:00:00<>METAR SBSV 171400Z 09013KT 9999 SCT025 28/20 Q1017=
2025-09-17 15:00:00<>METAR SBSV 171500Z 08014KT 9999 SCT024 28/20 Q1016=
2025-09-17 16:00:00<>METAR SBSV 171600Z 08014KT 9999 SCT024 28/19 Q1015=
2025-09-17 17:00:00<>METAR SBSV 171700Z 07014KT 9999 SCT025 27/19 Q1015=
2025-09-17 18:00:00<>METAR SBSV 171800Z 08012KT 9999 SCT025 27/20 Q1015=
2025-09-17 19:00:00<>METAR SBSV 171900Z 08013KT 9999 SCT025 26/19 Q1015=
2025-09-17 20:00:00<>METAR SBSV 172000Z 08011KT 9999 SCT025 26/20 Q1015=
2025-09-17 21:00:00<>METAR SBSV 172100Z 09010KT 9999 SCT025 25/20 Q1016=
2025-09-17 22:00:00<>METAR SBSV 172200Z 09010KT 9999 SCT025 25/20 Q1016=
2025-09-17 23:00:00<>METAR SBSV 172300Z 08011KT 9999 SCT025 25/19 Q1017=
2025-09-18 00:00:00<>METAR SBSV 180000Z 09011KT 9999 SCT024 25/20 Q1017=
2025-09-18 01:00:00<>METAR SBSV 180100Z 09010KT 9999 SCT024 25/20 Q1018=
2025-09-18 02:00:00<>METAR SBSV 180200Z 08010KT 9999 SCT024 25/20 Q1017=
2025-09-18 03:00:00<>METAR SBSV 180300Z 08010KT 9999 FEW023 25/20 Q1017=
2025-09-18 04:00:00<>METAR SBSV 180400Z 07008KT 9999 FEW023 24/20 Q1016=
2025-09-18 05:00:00<>METAR SBSV 180500Z 07008KT 9999 FEW023 24/20 Q1015=
2025-09-18 06:00:00<>METAR SBSV 180600Z 07008KT 9999 FEW021 24/20 Q1015=
2025-09-18 07:00:00<>METAR SBSV 180700Z 06008KT 9999 FEW021 SCT060 24/20 Q1015=
2025-09-18 08:00:00<>METAR SBSV 180800Z 06008KT 9999 SCT020 29/20 Q1015=
2025-09-18 09:00:00<>METAR SBSV 180900Z 04007KT 340V080 9999 SCT020 24/20 Q1016=
2025-09-18 10:00:00<>METAR SBSV 181000Z 07009KT 9999 SCT024 25/20 Q1016=
2025-09-18 11:00:00<>METAR SBSV 181100Z 06011KT 9999 FEW024 27/21 Q1017=
2025-09-18 12:00:00<>METAR SBSV 181200Z 08013KT 9999 FEW024 27/21 Q1018=
2025-09-18 13:00:00<>METAR SBSV 181300Z 07011KT 9999 SCT025 28/21 Q1018=
2025-09-18 14:00:00<>METAR SBSV 181400Z 08012KT 050V110 9999 FEW025 28/21 Q1018=
2025-09-18 15:00:00<>METAR SBSV 181500Z 09012KT 9999 FEW024 28/21 Q1017=
2025-09-18 16:00:00<>METAR SBSV 181600Z 08012KT 9999 FEW025 27/21 Q1016=
2025-09-18 17:00:00<>METAR SBSV 181700Z 09011KT 9999 FEW025 27/20 Q1016=
2025-09-18 18:00:00<>METAR SBSV 181800Z 07011KT 060V120 9999 SCT025 27/21 Q1015=
2025-09-18 19:00:00<>METAR SBSV 181900Z 09010KT 9999 SCT025 26/20 Q1016=
2025-09-18 20:00:00<>METAR SBSV 182000Z 08009KT 9999 SCT025 26/20 Q1016=
2025-09-18 21:00:00<>METAR SBSV 182100Z 09008KT 9999 SCT025 25/20 Q1017=
2025-09-18 22:00:00<>METAR SBSV 182200Z 09008KT 9999 SCT025 25/20 Q1017=
2025-09-18 23:00:00<>METAR SBSV 182300Z 09009KT 9999 SCT025 25/20 Q1017=
2025-09-19 00:00:00<>METAR SBSV 190000Z 09008KT 9999 FEW020 25/20 Q1018=
2025-09-19 01:00:00<>METAR SBSV 190100Z 09007KT 9999 SCT020 25/20 Q1018=
2025-09-19 02:00:00<>METAR SBSV 190200Z 10009KT 9999 SCT020 SCT025 25/21 Q1018=
2025-09-19 03:00:00<>METAR SBSV 190300Z 08008KT 9999 SCT021 SCT050 25/20 Q1017=
2025-09-19 04:00:00<>METAR SBSV 190400Z 09007KT 9999 SCT021 25/20 Q1017=
2025-09-19 05:00:00<>METAR SBSV 190500Z 08010KT 9999 BKN021 25/21 Q1016=
2025-09-19 06:00:00<>METAR SBSV 190600Z 07010KT 9999 SCT021 SCT028 25/20 Q1016=
2025-09-19 07:00:00<>METAR SBSV 190700Z 07008KT 9999 SCT021 SCT040 24/20 Q1016=
2025-09-19 08:00:00<>METAR SBSV 190800Z 07009KT 9999 SCT021 24/20 Q1017=
2025-09-19 09:00:00<>METAR SBSV 190900Z 07013KT 9999 SCT022 25/20 Q1018=
2025-09-19 10:00:00<>METAR SBSV 191000Z 08013KT 9999 SCT024 26/20 Q1018=
2025-09-19 11:00:00<>METAR SBSV 191100Z 08013KT 9999 BKN025 27/20 Q1019=
2025-09-19 12:00:00<>METAR SBSV 191200Z 07011KT 9999 SCT025 27/20 Q1020=
2025-09-19 13:00:00<>METAR SBSV 191300Z 08010KT 050V110 9999 SCT024 28/21 Q1019=
2025-09-19 14:00:00<>METAR SBSV 191400Z 09011KT 9999 FEW025 27/20 Q1019=
2025-09-19 15:00:00<>METAR SBSV 191500Z 08012KT 050V110 9999 SCT027 28/20 Q1018=
2025-09-19 16:00:00<>METAR SBSV 191600Z 08012KT 9999 SCT027 28/21 Q1018=
2025-09-19 17:00:00<>METAR SBSV 191700Z 09011KT 9999 SCT027 27/21 Q1017=
2025-09-19 18:00:00<>METAR SBSV 191800Z 08015KT 9999 FEW019 27/21 Q1016=
2025-09-19 19:00:00<>METAR SBSV 191900Z 08013KT 9999 FEW020 BKN053 26/21 Q1017=
2025-09-19 20:00:00<>METAR SBSV 192000Z 08009KT 9999 VCSH FEW018 BKN060 25/21 Q1017=
2025-09-19 21:00:00<>METAR SBSV 192100Z 10007KT 9999 FEW025 BKN060 25/21 Q1017=
2025-09-19 22:00:00<>METAR SBSV 192200Z 08007KT 7000 -RA BKN015 BKN018 BKN055 24/22 Q1018=
2025-09-19 23:00:00<>METAR SBSV 192300Z 05005KT 9999 BKN022 BKN076 24/22 Q1018=
2025-09-20 00:00:00<>METAR SBSV 200000Z 08008KT 9999 SCT021 24/22 Q1019=
2025-09-20 01:00:00<>METAR SBSV 200100Z 09009KT 9999 SCT021 BKN060 25/21 Q1019=
2025-09-20 02:00:00<>METAR SBSV 200200Z 09010KT 9999 SCT021 BKN060 25/21 Q1019=
2025-09-20 03:00:00<>METAR SBSV 200300Z 09011KT 9999 FEW023 25/20 Q1018=
2025-09-20 04:00:00<>METAR SBSV 200400Z 08009KT 9999 FEW023 SCT060 25/21 Q1018=
2025-09-20 05:00:00<>METAR SBSV 200500Z 08008KT 9999 FEW023 SCT060 24/20 Q1017=
2025-09-20 06:00:00<>METAR SBSV 200600Z 08007KT 9999 FEW023 SCT060 24/20 Q1017=
2025-09-20 07:00:00<>METAR SBSV 200700Z 06008KT 9999 SCT023 24/20 Q1017=
2025-09-20 08:00:00<>METAR SBSV 200800Z 06004KT 9999 SCT023 23/20 Q1017=
2025-09-20 09:00:00<>METAR SBSV 200900Z VRB02KT 9999 SCT023 BKN090 22/21 Q1018=
2025-09-20 10:00:00<>METAR SBSV 201000Z 29002KT 9999 SCT023 BKN090 24/21 Q1018=
2025-09-20 11:00:00<>METAR SBSV 201100Z 10006KT 9999 SCT023 BKN090 26/21 Q1019=
2025-09-20 12:00:00<>METAR SBSV 201200Z 10006KT 060V140 9999 SCT023 BKN090 27/21 Q1019=
2025-09-20 13:00:00<>METAR SBSV 201300Z 14006KT 100V180 9999 VCSH SCT023 BKN090 27/21 Q1019=
2025-09-20 13:13:00<>SPECI SBSV 201313Z 12012KT 3000 -SHRA BKN020 FEW023TCU BKN050 24/22 Q1019=
2025-09-20 14:00:00<>METAR SBSV 201400Z 30003KT 200V360 4000 -SHRA BKN020 FEW023TCU OVC050 23/20 Q1019=
2025-09-20 15:00:00<>METAR SBSV 201500Z 15004KT 080V200 9000 VCSH SCT010 FEW023TCU OVC050 24/22 Q1018=
2025-09-20 16:00:00<>METAR SBSV 201600Z 08009KT 3000 R28/1300D R10/1500D -SHRA SCT008 FEW023TCU OVC050 24/23 Q1017=
2025-09-20 17:00:00<>METAR SBSV 201700Z 10008KT 9000 -RA BKN005 BKN050 23/23 Q1016=
2025-09-20 17:23:00<>SPECI SBSV 201723Z 09008KT 9999 VCSH FEW011 BKN015 BKN070 24/23 Q1016=
2025-09-20 18:00:00<>METAR SBSV 201800Z 09009KT 9999 VCSH SCT010 BKN015 OVC070 24/23 Q1016=
2025-09-20 18:10:00<>SPECI COR SBSV 201810Z 09009KT 060V120 3000 -SHRA BR BKN011 BKN020 OVC040 24/22 Q1016=
2025-09-20 19:00:00<>METAR SBSV 201900Z 06007KT 9000 VCSH BKN010 BKN022 OVC035 24/22 Q1016=
2025-09-20 20:00:00<>METAR SBSV 202000Z 06012KT 9999 VCSH SCT012 BKN015 OVC060 23/22 Q1016=
2025-09-20 21:00:00<>METAR SBSV 202100Z 03003KT 9999 FEW012 BKN017 OVC070 24/22 Q1016=
2025-09-20 22:00:00<>METAR SBSV 202200Z 05004KT 9999 FEW017 SCT025 24/23 Q1017=
2025-09-20 23:00:00<>METAR SBSV 202300Z 07005KT 360V100 9999 SCT020 BKN055 24/23 Q1017=
2025-09-20 23:07:00<>SPECI SBSV 202307Z 05011G21KT 8000 VCSH SCT011 BKN015 BKN055 24/23 Q1017=
2025-09-20 23:12:00<>SPECI COR SBSV 202312Z 07010G20KT 3000 SHRA BR BKN010 BKN017 OVC050 23/22 Q1017=
2025-09-20 23:30:00<>SPECI SBSV 202330Z 07010KT 5000 -RA BKN011 BKN017 OVC050 23/23 Q1018 RESHRA=
2025-09-21 00:00:00<>METAR SBSV 210000Z 10012KT 8000 VCSH BKN015 BKN060 24/23 Q1017 RESHRA=
2025-09-21 01:00:00<>METAR SBSV 210100Z 09006KT 9999 FEW013 BKN040 24/23 Q1018=
2025-09-21 02:00:00<>METAR SBSV 210200Z 08011KT 9999 FEW019 BKN050 25/21 Q1017=
2025-09-21 03:00:00<>METAR SBSV 210300Z 07008KT 9999 BKN017 BKN050 24/22 Q1017=
2025-09-21 04:00:00<>METAR SBSV 210400Z 08007KT 9999 BKN022 BKN055 24/22 Q1016=
2025-09-21 05:00:00<>METAR SBSV 210500Z 07007KT 9999 FEW022 BKN050 24/22 Q1016=
2025-09-21 06:00:00<>METAR SBSV 210600Z 06005KT 9999 SCT017 BKN042 24/22 Q1016=
2025-09-21 07:00:00<>METAR SBSV 210700Z 01003KT 340V050 9999 FEW015 BKN040 24/22 Q1016=
2025-09-21 08:00:00<>METAR SBSV 210800Z 00000KT 9999 FEW016 BKN052 23/23 Q1016=
2025-09-21 09:00:00<>METAR SBSV 210900Z 00000KT 9999 FEW017 SCT021 BKN042 23/23 Q1017=
2025-09-21 10:00:00<>METAR SBSV 211000Z VRB02KT 9000 VCSH BKN019 FEW022TCU BKN040 24/23 Q1017=
2025-09-21 11:00:00<>METAR SBSV 211100Z 36004KT 330V040 9999 VCSH SCT020 FEW022TCU BKN060 25/23 Q1018=
2025-09-21 12:00:00<>METAR SBSV 211200Z 05009KT 9999 SCT020 FEW022TCU BKN060 27/22 Q1017=
2025-09-21 13:00:00<>METAR SBSV 211300Z 07012KT 9999 SCT022 FEW025TCU BKN060 27/22 Q1018=
2025-09-21 14:00:00<>METAR SBSV 211400Z 07014KT 9999 SCT023 FEW025TCU SCT060 28/21 Q1017=
2025-09-21 15:00:00<>METAR SBSV 211500Z 07014KT 9999 SCT023 SCT070 28/22 Q1016=
2025-09-21 16:00:00<>METAR SBSV 211600Z 07014KT 9999 SCT023 28/22 Q1015=
2025-09-21 17:00:00<>METAR SBSV 211700Z 07015KT 9999 SCT023 28/21 Q1014=
2025-09-21 18:00:00<>METAR SBSV 211800Z 07015KT 9999 SCT023 28/21 Q1013=
2025-09-21 19:00:00<>METAR SBSV 211900Z 07014KT 9999 SCT023 27/21 Q1014=
2025-09-21 20:00:00<>METAR SBSV 212000Z 07013KT 9999 SCT020 26/21 Q1014=
2025-09-21 21:00:00<>METAR SBSV 212100Z 07011KT 9999 SCT020 25/21 Q1014=
2025-09-21 22:00:00<>METAR SBSV 212200Z 07011KT 9999 SCT020 25/21 Q1015=
2025-09-21 23:00:00<>METAR SBSV 212300Z 08010KT 9999 SCT020 25/21 Q1016=
2025-09-22 00:00:00<>METAR SBSV 220000Z 08011KT 9999 FEW020 25/20 Q1016=
2025-09-22 01:00:00<>METAR SBSV 220100Z 08012KT 9999 SCT021 25/21 Q1016=
2025-09-22 02:00:00<>METAR SBSV 220200Z 08011KT 9999 SCT021 25/20 Q1016=
2025-09-22 03:00:00<>METAR SBSV 220300Z 08012KT 9999 SCT021 SCT040 25/21 Q1016=
2025-09-22 04:00:00<>METAR SBSV 220400Z 07011KT 9999 SCT020 25/21 Q1015=
2025-09-22 05:00:00<>METAR SBSV 220500Z 07011KT 9999 SCT020 25/21 Q1015=
2025-09-22 06:00:00<>METAR SBSV 220600Z 07010KT 9999 FEW019 24/21 Q1015=
2025-09-22 07:00:00<>METAR SBSV 220700Z 06010KT 9999 SCT021 FEW025TCU BKN055 25/21 Q1015=
2025-09-22 08:00:00<>METAR SBSV 220800Z 07010KT 9999 SCT021 FEW025TCU BKN050 24/20 Q1015=
2025-09-22 09:00:00<>METAR SBSV 220900Z 07010KT 9999 SCT022 BKN055 25/21 Q1016=
2025-09-22 10:00:00<>METAR SBSV 221000Z 06011KT 9999 SCT022 BKN060 26/21 Q1017=
2025-09-22 11:00:00<>METAR SBSV 221100Z 06012KT 9999 SCT023 SCT060 27/21 Q1017=
2025-09-22 12:00:00<>METAR SBSV 221200Z 05013KT 9999 SCT023 27/21 Q1017=
2025-09-22 13:00:00<>METAR SBSV 221300Z 07015KT 9999 SCT023 27/21 Q1017=
2025-09-22 14:00:00<>METAR SBSV 221400Z 07016KT 9999 SCT023 28/21 Q1017=
2025-09-22 15:00:00<>METAR SBSV 221500Z 07015KT 9999 SCT023 28/21 Q1016=
2025-09-22 16:00:00<>METAR SBSV 221600Z 07017KT 9999 SCT023 28/22 Q1015=
2025-09-22 17:00:00<>METAR SBSV 221700Z 07016KT 9999 SCT023 28/22 Q1014=
2025-09-22 18:00:00<>METAR SBSV 221800Z 06017KT 9999 SCT023 28/22 Q1013=
2025-09-22 19:00:00<>METAR SBSV 221900Z 07016KT 9999 SCT023 27/21 Q1014=
2025-09-22 20:00:00<>METAR SBSV 222000Z 07015KT 9999 SCT023 26/22 Q1014=
2025-09-22 21:00:00<>METAR SBSV 222100Z 07014KT 9999 SCT019 SCT023 26/22 Q1014=
2025-09-22 22:00:00<>METAR SBSV 222200Z 06013KT 9999 SCT020 26/21 Q1015=
2025-09-22 23:00:00<>METAR SBSV 222300Z 08013KT 9999 SCT020 SCT025 26/21 Q1016=
2025-09-23 00:00:00<>METAR SBSV 230000Z 06013KT 9999 SCT020 25/21 Q1016=
2025-09-23 01:00:00<>METAR SBSV 230100Z 06013KT 9999 SCT020 25/21 Q1017=
2025-09-23 02:00:00<>METAR SBSV 230200Z 06011KT 9999 SCT020 25/22 Q1017=
2025-09-23 03:00:00<>METAR SBSV 230300Z 06013KT 9999 SCT020 25/21 Q1016=
2025-09-23 04:00:00<>METAR SBSV 230400Z 06011KT 9999 SCT020 25/21 Q1015=
2025-09-23 05:00:00<>METAR SBSV 230500Z 06011KT 9999 SCT020 25/21 Q1015=
2025-09-23 06:00:00<>METAR SBSV 230600Z 06012KT 9999 SCT020 25/21 Q1015=
2025-09-23 07:00:00<>METAR SBSV 230700Z 06009KT 9999 SCT020 25/21 Q1015=
2025-09-23 08:00:00<>METAR SBSV 230800Z 06007KT 9999 SCT020 25/21 Q1016=
2025-09-23 09:00:00<>METAR SBSV 230900Z 05006KT 9999 SCT020 25/21 Q1017=
2025-09-23 10:00:00<>METAR SBSV 231000Z 05011KT 9999 SCT018 26/22 Q1017=
2025-09-23 11:00:00<>METAR SBSV 231100Z 07014KT 9999 SCT019 27/22 Q1018=
2025-09-23 12:00:00<>METAR SBSV 231200Z 06016KT 9999 SCT017 28/22 Q1018=
2025-09-23 13:00:00<>METAR SBSV 231300Z 07015KT 9999 SCT019 29/23 Q1018=
2025-09-23 14:00:00<>METAR SBSV 231400Z 07015KT 9999 VCSH FEW016 FEW023TCU 29/23 Q1019=
2025-09-23 15:00:00<>METAR SBSV 231500Z 08017KT 9999 FEW019 29/22 Q1018=
2025-09-23 16:00:00<>METAR SBSV 231600Z 07018KT 9999 FEW022 28/22 Q1017=
2025-09-23 17:00:00<>METAR SBSV 231700Z 07017KT 9999 FEW019 29/22 Q1017=
2025-09-23 17:32:00<>SPECI SBSV 231732Z 07015G25KT 9999 SCT020 28/22 Q1016=
2025-09-23 18:00:00<>METAR SBSV 231800Z 07017KT 9999 SCT018 28/22 Q1016=
2025-09-23 19:00:00<>METAR SBSV 231900Z 07016KT 9999 SCT020 27/22 Q1016=
2025-09-23 20:00:00<>METAR SBSV 232000Z 07014KT 9999 SCT017 26/22 Q1016=
2025-09-23 21:00:00<>METAR SBSV 232100Z 06013KT 9999 SCT017 26/22 Q1017=
2025-09-23 22:00:00<>METAR SBSV 232200Z 06015KT 9999 SCT019 FEW023TCU 26/21 Q1017=
2025-09-23 23:00:00<>METAR SBSV 232300Z 07013KT 9999 SCT019 FEW023TCU 26/22 Q1018=
2025-09-24 00:00:00<>METAR SBSV 240000Z 07012KT 9999 SCT019 25/21 Q1019=
2025-09-24 01:00:00<>METAR SBSV 240100Z 07012KT 9999 SCT019 25/21 Q1019=
2025-09-24 02:00:00<>METAR SBSV 240200Z 08012KT 9999 SCT020 SCT026 25/21 Q1019=
2025-09-24 03:00:00<>METAR SBSV 240300Z 07011KT 9999 SCT020 25/22 Q1019=
2025-09-24 04:00:00<>METAR SBSV 240400Z 08011KT 9999 SCT018 25/21 Q1018=
2025-09-24 05:00:00<>METAR SBSV 240500Z 08011KT 9999 SCT018 25/21 Q1018=
2025-09-24 06:00:00<>METAR SBSV 240600Z 09010KT 9999 SCT018 SCT060 25/21 Q1018=
2025-09-24 07:00:00<>METAR SBSV 240700Z 10010KT 9999 SCT020 BKN060 25/21 Q1018=
2025-09-24 08:00:00<>METAR SBSV 240800Z 10011KT 9999 SCT020 SCT030 BKN060 25/21 Q1019=
2025-09-24 09:00:00<>METAR SBSV 240900Z 09012KT 9999 SCT019 SCT030 BKN060 26/21 Q1020=
2025-09-24 10:00:00<>METAR SBSV 241000Z 09013KT 9999 FEW020 SCT030 BKN070 26/21 Q1020=
2025-09-24 11:00:00<>METAR SBSV 241100Z 09012KT 9999 SCT021 27/22 Q1021=
2025-09-24 12:00:00<>METAR SBSV 241200Z 09011KT 9999 SCT020 27/21 Q1021=
2025-09-24 13:00:00<>METAR SBSV 241300Z 09011KT 9999 FEW020 28/22 Q1022=
2025-09-24 14:00:00<>METAR SBSV 241400Z 10010KT 060V130 9999 FEW019 28/22 Q1021=
2025-09-24 15:00:00<>METAR SBSV 241500Z 10010KT 070V130 9999 SCT018 29/23 Q1021=
2025-09-24 16:00:00<>METAR SBSV 241600Z 11011KT 9999 SCT018 BKN070 28/22 Q1020=
2025-09-24 17:00:00<>METAR SBSV 241700Z 11012KT 9999 BKN020 BKN090 28/22 Q1020=
2025-09-24 18:00:00<>METAR SBSV 241800Z 08018KT 1600 R10/0500N R28/0800U RA BKN010 BKN015 OVC081 25/22 Q1020=
2025-09-24 18:22:00<>SPECI SBSV 241822Z 09006KT 070V150 8000 -RA FEW010 BKN015 OVC081 25/21 Q1020 RERA=
2025-09-24 19:00:00<>METAR SBSV 241900Z 12004KT 000V150 9000 -RA SCT017 OVC064 25/21 Q1020=
2025-09-24 20:00:00<>METAR SBSV 242000Z 13003KT 090V170 9000 -SHRA FEW022 FEW025TCU SCT070 BKN082 25/21 Q1020=
2025-09-24 21:00:00<>METAR SBSV 242100Z 10008KT 9999 FEW018 FEW026TCU BKN079 25/22 Q1020=
2025-09-24 22:00:00<>METAR SBSV 242200Z 10012KT 9999 FEW016 BKN020 25/22 Q1020=
2025-09-24 23:00:00<>METAR SBSV 242300Z 10014KT 9999 SCT015 SCT019 BKN080 25/22 Q1021=
2025-09-25 00:00:00<>METAR SBSV 250000Z 10012KT 9999 FEW019 25/21 Q1021=
2025-09-25 01:00:00<>METAR SBSV 250100Z 09013KT 9999 FEW019 25/21 Q1021=
2025-09-25 02:00:00<>METAR SBSV 250200Z 09010KT 9999 FEW019 25/21 Q1021=
2025-09-25 03:00:00<>METAR SBSV 250300Z 09012KT 9999 FEW019 SCT060 25/21 Q1020=
2025-09-25 04:00:00<>METAR SBSV 250400Z 10011KT 9999 FEW019 SCT060 25/21 Q1020=
2025-09-25 05:00:00<>METAR SBSV 250500Z 08012KT 9999 FEW019 SCT060 25/21 Q1019=
2025-09-25 06:00:00<>METAR SBSV 250600Z 09010KT 9999 SCT020 BKN060 25/21 Q1019=
2025-09-25 07:00:00<>METAR SBSV 250700Z 09011KT 9999 SCT020 BKN060 25/21 Q1019=
2025-09-25 08:00:00<>METAR SBSV 250800Z 10011KT 9999 FEW021 BKN060 25/20 Q1019=
2025-09-25 09:00:00<>METAR SBSV 250900Z 10010KT 9999 SCT021 SCT060 25/21 Q1020=
2025-09-25 10:00:00<>METAR SBSV 251000Z 10010KT 9999 SCT021 26/21 Q1020=
2025-09-25 11:00:00<>METAR SBSV 251100Z 09010KT 9999 SCT021 26/21 Q1020=
2025-09-25 12:00:00<>METAR SBSV 251200Z 10011KT 9999 SCT023 27/21 Q1021=
2025-09-25 13:00:00<>METAR SBSV 251300Z 09012KT 9999 SCT023 30/21 Q1020=
2025-09-25 14:00:00<>METAR SBSV 251400Z 11011KT 080V140 9999 SCT023 27/21 Q1020=
2025-09-25 15:00:00<>METAR SBSV 251500Z 11011KT 9999 SCT023 28/21 Q1019=
2025-09-25 16:00:00<>METAR SBSV 251600Z 12011KT 080V150 9999 SCT023 28/21 Q1018=
2025-09-25 17:00:00<>METAR SBSV 251700Z 11010KT 090V150 9999 SCT023 27/20 Q1017=
2025-09-25 18:00:00<>METAR SBSV 251800Z 13010KT 090V160 9999 SCT024 27/20 Q1017=
2025-09-25 19:00:00<>METAR SBSV 251900Z 13010KT 9999 SCT023 SCT045 27/20 Q1017=
2025-09-25 20:00:00<>METAR SBSV 252000Z 12010KT 9999 SCT024 26/20 Q1017=
2025-09-25 21:00:00<>METAR SBSV 252100Z 12009KT 100V160 9999 SCT023 BKN050 26/20 Q1018=
2025-09-25 22:00:00<>METAR SBSV 252200Z 13008KT 110V170 9999 SCT023 BKN070 26/20 Q1018=
2025-09-25 23:00:00<>METAR SBSV 252300Z 12009KT 090V160 9999 SCT024 26/20 Q1019=
2025-09-26 00:00:00<>METAR SBSV 260000Z 13010KT 9999 SCT022 BKN050 25/20 Q1019=
2025-09-26 01:00:00<>METAR SBSV 260100Z 15010KT 9999 SCT023 SCT080 25/20 Q1020=
2025-09-26 02:00:00<>METAR SBSV 260200Z 14007KT 9999 FEW016 SCT080 25/21 Q1020=
2025-09-26 03:00:00<>METAR SBSV 260300Z 15008KT 110V180 9999 FEW021 25/20 Q1019=
2025-09-26 04:00:00<>METAR SBSV 260400Z 15008KT 9999 FEW019 25/21 Q1019=
2025-09-26 05:00:00<>METAR SBSV 260500Z 15008KT 9999 FEW019 25/20 Q1018=
2025-09-26 06:00:00<>METAR SBSV 260600Z 15008KT 9999 SCT020 25/21 Q1018=
2025-09-26 07:00:00<>METAR SBSV 260700Z 13007KT 090V160 9999 FEW017 25/21 Q1018=
2025-09-26 08:00:00<>METAR SBSV 260800Z 13008KT 9999 BKN019 24/21 Q1018=
2025-09-26 09:00:00<>METAR SBSV 260900Z 15005KT 100V190 9999 FEW020 SCT023 24/21 Q1018=
2025-09-26 10:00:00<>METAR SBSV 261000Z 14008KT 9999 SCT021 SCT040 25/21 Q1019=
2025-09-26 11:00:00<>METAR SBSV 261100Z 16008KT 9999 VCSH SCT021 FEW023TCU SCT040 26/20 Q1020=
2025-09-26 12:00:00<>METAR SBSV 261200Z 20011KT 9999 VCSH SCT020 FEW023TCU SCT040 25/20 Q1020=
2025-09-26 13:00:00<>METAR SBSV 261300Z 20013KT 170V230 9999 VCSH SCT020 FEW023TCU BKN030 BKN080 25/21 Q1020=
2025-09-26 14:00:00<>METAR SBSV 261400Z 18011KT 9999 VCSH SCT020 FEW023TCU BKN080 26/20 Q1020=
2025-09-26 15:00:00<>METAR SBSV 261500Z 21012KT 2500 -RA BR BKN013 BKN019 FEW023TCU 24/21 Q1019=
2025-09-26 15:25:00<>SPECI SBSV 261525Z 25006KT 180V280 8000 VCSH SCT012 BKN015 FEW021TCU BKN060 24/22 Q1019=
2025-09-26 16:00:00<>METAR SBSV 261600Z 22013KT 9000 VCSH FEW013 BKN020 FEW022TCU BKN060 24/21 Q1018=
2025-09-26 17:00:00<>METAR SBSV 261700Z 18011KT 9999 FEW013 BKN020 FEW022TCU BKN060 25/21 Q1017=
2025-09-26 18:00:00<>METAR SBSV 261800Z 20011KT 9999 FEW013 BKN020 FEW022TCU BKN060 25/21 Q1017=
2025-09-26 18:02:00<>SPECI SBSV 261802Z 20011KT 3000 SHRA SCT013 BKN023 FEW025TCU BKN080 25/21 Q1017=
2025-09-26 19:00:00<>METAR SBSV 261900Z 17017KT 9000 VCSH SCT013 BKN023 FEW025TCU BKN080 24/21 Q1017 RESHRA=
2025-09-26 20:00:00<>METAR SBSV 262000Z 17017KT 9999 SCT013 BKN023 FEW025TCU BKN080 24/20 Q1018=
2025-09-26 21:00:00<>METAR SBSV 262100Z 17016KT 9999 VCSH SCT017 BKN023 FEW025TCU BKN080 24/20 Q1018=
2025-09-26 22:00:00<>METAR SBSV 262200Z 16016KT 9000 VCSH BKN023 FEW025TCU BKN080 25/19 Q1018=
2025-09-26 22:10:00<>SPECI SBSV 262210Z 17019KT 9000 SHRA BKN023 FEW025TCU BKN080 24/20 Q1018=
2025-09-26 22:35:00<>SPECI SBSV 262235Z 15018KT 4000 -SHRA BKN014 FEW025TCU OVC030 23/20 Q1019 RESHRA=
2025-09-26 23:00:00<>METAR SBSV 262300Z 17016G29KT 150V210 9000 VCSH BKN023 FEW025TCU 23/19 Q1019=
2025-09-27 00:00:00<>METAR SBSV 270000Z 16015KT 120V180 9999 VCSH BKN023 FEW025TCU 24/19 Q1019 WS R10=
2025-09-27 00:34:00<>SPECI SBSV 270034Z 16020G31KT 9999 VCSH BKN020 FEW025TCU OVC050 24/19 Q1019=
2025-09-27 01:00:00<>METAR SBSV 270100Z 16018KT 120V180 9999 VCSH BKN019 FEW025TCU OVC045 24/19 Q1019=
2025-09-27 01:40:00<>SPECI SBSV 270140Z 16016G26KT 130V190 9999 VCSH BKN018 FEW025TCU OVC045 24/19 Q1019=
2025-09-27 02:00:00<>METAR COR SBSV 270200Z 16019G29KT 130V190 9999 VCSH FEW015 BKN020 FEW025TCU OVC045 24/20 Q1020 WS R10=
2025-09-27 03:00:00<>METAR SBSV 270300Z 16021KT 9999 VCSH BKN019 FEW025TCU OVC045 24/18 Q1019=
2025-09-27 04:00:00<>METAR SBSV 270400Z 17017G27KT 9999 BKN020 OVC050 25/18 Q1018=
2025-09-27 05:00:00<>METAR SBSV 270500Z 17014G24KT 150V210 9999 BKN022 OVC055 24/18 Q1018=
2025-09-27 06:00:00<>METAR SBSV 270600Z 17017G27KT 9999 VCSH BKN022 FEW025TCU OVC050 25/18 Q1018=
2025-09-27 07:00:00<>METAR SBSV 270700Z 17018KT 9999 VCSH BKN023 FEW025TCU OVC060 24/17 Q1018=
2025-09-27 08:00:00<>METAR SBSV 270800Z 17016KT 9999 VCSH BKN023 FEW025TCU OVC070 24/17 Q1018=
2025-09-27 09:00:00<>METAR SBSV 270900Z 17016KT 9999 FEW019 BKN027 OVC060 24/16 Q1019=
2025-09-27 10:00:00<>METAR SBSV 271000Z 17017KT 9999 VCSH FEW018 FEW026TCU SCT031 OVC061 25/17 Q1020=
2025-09-27 11:00:00<>METAR SBSV 271100Z 17017KT 9999 FEW018 SCT040 OVC056 25/17 Q1021=
2025-09-27 12:00:00<>METAR SBSV 271200Z 16016KT 9999 FEW021 OVC062 26/18 Q1021=
2025-09-27 13:00:00<>METAR SBSV 271300Z 18017KT 9999 SCT025 OVC062 26/19 Q1021=
2025-09-27 14:00:00<>METAR SBSV 271400Z 17017KT 9999 SCT027 OVC066 26/18 Q1021=
2025-09-27 15:00:00<>METAR SBSV 271500Z 17016KT 130V210 9999 FEW022 OVC070 26/18 Q1021=
2025-09-27 16:00:00<>METAR SBSV 271600Z 17016KT 9999 VCSH FEW023 FEW024TCU OVC036 25/19 Q1020=
2025-09-27 17:00:00<>METAR SBSV 271700Z 16019KT 9999 VCSH FEW024 FEW025TCU BKN043 25/19 Q1019=
2025-09-27 18:00:00<>METAR SBSV 271800Z 16017KT 130V200 8000 VCSH SCT024 FEW025TCU BKN040 24/18 Q1019=
2025-09-27 19:00:00<>METAR SBSV 271900Z 17015KT 9999 SCT024 FEW025TCU BKN040 25/17 Q1019=
2025-09-27 20:00:00<>METAR SBSV 272000Z 16015KT 130V190 9999 SCT024 SCT040 25/17 Q1019=
2025-09-27 21:00:00<>METAR SBSV 272100Z 16013KT 9999 SCT025 SCT040 25/17 Q1019=
2025-09-27 22:00:00<>METAR SBSV 272200Z 16012KT 9999 SCT025 25/17 Q1020=
2025-09-27 23:00:00<>METAR SBSV 272300Z 16013KT 9999 SCT025 BKN040 24/17 Q1020=
2025-09-28 00:00:00<>METAR SBSV 280000Z 18011KT 9999 SCT025 BKN040 24/17 Q1021=
2025-09-28 01:00:00<>METAR SBSV 280100Z 15013KT 9999 SCT025 BKN040 25/17 Q1021=
2025-09-28 02:00:00<>METAR SBSV 280200Z 15014KT 9999 SCT025 BKN050 24/17 Q1021=
2025-09-28 03:00:00<>METAR SBSV 280300Z 17014KT 140V200 9999 SCT025 BKN050 24/18 Q1021=
2025-09-28 04:00:00<>METAR SBSV 280400Z 16012KT 9999 SCT025 BKN050 24/17 Q1020=
2025-09-28 05:00:00<>METAR SBSV 280500Z 16013KT 9999 SCT025 BKN050 24/17 Q1019=
2025-09-28 06:00:00<>METAR SBSV 280600Z 16012KT 9999 SCT025 BKN050 24/17 Q1019=
2025-09-28 07:00:00<>METAR SBSV 280700Z 15014KT 9999 SCT025 BKN050 24/17 Q1019=
2025-09-28 08:00:00<>METAR SBSV 280800Z 16012KT 9999 OVC048 24/17 Q1019=
2025-09-28 09:00:00<>METAR SBSV 280900Z 15014KT 9999 FEW025 OVC050 24/17 Q1020=
2025-09-28 10:00:00<>METAR SBSV 281000Z 16011KT 9999 FEW025 BKN060 25/17 Q1021=
2025-09-28 11:00:00<>METAR SBSV 281100Z 16015KT 9999 VCSH SCT023 FEW025TCU BKN060 25/18 Q1021=
2025-09-28 12:00:00<>METAR SBSV 281200Z 17013KT 9999 VCSH SCT023 FEW025TCU BKN050 25/18 Q1022=
2025-09-28 13:00:00<>METAR SBSV 281300Z 15013KT 110V170 9999 SCT023 BKN050 25/17 Q1022=
2025-09-28 14:00:00<>METAR SBSV 281400Z 16014KT 9999 SCT023 BKN050 26/17 Q1022 WS R10=
2025-09-28 15:00:00<>METAR SBSV 281500Z 15013KT 9999 SCT022 BKN040 26/16 Q1021=
2025-09-28 16:00:00<>METAR SBSV 281600Z 16012KT 130V200 9999 SCT023 BKN060 27/15 Q1020=
2025-09-28 17:00:00<>METAR SBSV 281700Z 16012KT 9999 SCT025 BKN060 26/17 Q1019=
2025-09-28 18:00:00<>METAR SBSV 281800Z 16011KT 130V200 9999 BKN028 OVC050 26/18 Q1019=
2025-09-28 19:00:00<>METAR SBSV 281900Z 16011KT 130V190 9999 BKN030 OVC055 25/17 Q1019=
2025-09-28 20:00:00<>METAR SBSV 282000Z 16012KT 9999 BKN030 BKN055 25/17 Q1019=
2025-09-28 21:00:00<>METAR SBSV 282100Z 15011KT 9999 SCT030 OVC055 25/17 Q1019=
2025-09-28 22:00:00<>METAR SBSV 282200Z 15012KT 9999 SCT028 BKN055 25/18 Q1020=
2025-09-28 23:00:00<>METAR SBSV 282300Z 15012KT 9999 SCT027 BKN060 24/18 Q1021=
2025-09-29 00:00:00<>METAR SBSV 290000Z 15011KT 9999 SCT026 BKN060 24/18 Q1021=
2025-09-29 01:00:00<>METAR SBSV 290100Z 14008KT 9999 SCT026 BKN060 24/18 Q1021=
2025-09-29 02:00:00<>METAR SBSV 290200Z 14009KT 9999 SCT026 BKN060 24/18 Q1021=
2025-09-29 03:00:00<>METAR SBSV 290300Z 13008KT 9999 SCT025 BKN060 24/18 Q1021=
2025-09-29 04:00:00<>METAR SBSV 290400Z 15009KT 9999 SCT025 BKN060 24/18 Q1020=
2025-09-29 05:00:00<>METAR SBSV 290500Z 17009KT 9999 SCT025 SCT030 BKN060 24/18 Q1020=
2025-09-29 06:00:00<>METAR SBSV 290600Z 17010KT 9999 SCT025 SCT030 BKN060 23/18 Q1019=
2025-09-29 07:00:00<>METAR SBSV 290700Z 18007KT 9999 SCT025 SCT030 BKN060 23/18 Q1019=
2025-09-29 08:00:00<>METAR SBSV 290800Z 17010KT 9999 SCT025 SCT030 BKN060 24/18 Q1020=
2025-09-29 09:00:00<>METAR SBSV 290900Z 16009KT 9999 SCT025 SCT040 BKN060 24/17 Q1020=
2025-09-29 10:00:00<>METAR SBSV 291000Z 13008KT 100V160 9999 SCT025 BKN060 24/18 Q1021=
2025-09-29 11:00:00<>METAR SBSV 291100Z 15010KT 9999 VCSH BKN023 FEW025TCU BKN060 24/18 Q1021=
2025-09-29 12:00:00<>METAR SBSV 291200Z 15009KT 120V190 9999 SCT023 BKN060 25/18 Q1022=
2025-09-29 13:00:00<>METAR SBSV 291300Z 14008KT 110V170 9999 BKN023 BKN060 26/18 Q1022=
2025-09-29 14:00:00<>METAR SBSV 291400Z 15009KT 110V180 9999 BKN023 BKN060 26/18 Q1021=
2025-09-29 15:00:00<>METAR SBSV 291500Z 14011KT 100V170 9999 SCT023 BKN060 27/19 Q1020=
2025-09-29 16:00:00<>METAR SBSV 291600Z 13010KT 100V160 9999 SCT025 BKN060 27/18 Q1019=
2025-09-29 17:00:00<>METAR SBSV 291700Z 13010KT 100V160 9999 SCT025 BKN060 27/18 Q1018=
2025-09-29 18:00:00<>METAR SBSV 291800Z 15009KT 120V200 9999 -RA FEW030 BKN040 25/19 Q1018=
2025-09-29 19:00:00<>METAR SBSV 291900Z 13011KT 9999 FEW031 SCT040 BKN050 25/18 Q1018=
2025-09-29 20:00:00<>METAR SBSV 292000Z 13009KT 9999 SCT031 SCT040 BKN050 25/17 Q1018=
2025-09-29 21:00:00<>METAR SBSV 292100Z 13010KT 100V160 9999 SCT032 BKN040 25/18 Q1019=
2025-09-29 22:00:00<>METAR SBSV 292200Z 12010KT 090V150 9999 FEW030 BKN050 25/18 Q1019=
2025-09-29 23:00:00<>METAR SBSV 292300Z 13009KT 9999 FEW030 24/17 Q1020=
2025-09-30 00:00:00<>METAR SBSV 300000Z 12009KT 9999 FEW033 24/17 Q1020=
2025-09-30 01:00:00<>METAR SBSV 300100Z 12010KT 9999 FEW029 24/17 Q1021=
2025-09-30 02:00:00<>METAR SBSV 300200Z 11008KT CAVOK 24/17 Q1020=
2025-09-30 03:00:00<>METAR SBSV 300300Z 11009KT CAVOK 24/17 Q1020=
2025-09-30 04:00:00<>METAR SBSV 300400Z 12007KT 9999 FEW029 24/17 Q1019=
2025-09-30 05:00:00<>METAR SBSV 300500Z 12008KT 100V160 9999 SCT030 24/17 Q1019=
2025-09-30 06:00:00<>METAR SBSV 300600Z 12008KT 090V180 9999 BKN030 24/17 Q1019=
2025-09-30 07:00:00<>METAR SBSV 300700Z 12009KT 100V160 9999 SCT030 24/16 Q1019=
2025-09-30 08:00:00<>METAR SBSV 300800Z 13006KT 9999 FEW019 SCT030 24/15 Q1019=
2025-09-30 09:00:00<>METAR SBSV 300900Z 13008KT 110V170 9999 FEW017 SCT030 24/15 Q1020=
2025-09-30 10:00:00<>METAR SBSV 301000Z 12008KT 090V160 9999 SCT023 BKN050 24/15 Q1020=
2025-09-30 11:00:00<>METAR SBSV 301100Z 16010KT 9999 SCT023 BKN050 25/16 Q1021=
2025-09-30 12:00:00<>METAR SBSV 301200Z 13011KT 080V160 9999 SCT023 BKN060 26/16 Q1022=
2025-09-30 13:00:00<>METAR SBSV 301300Z 14009KT 100V190 9999 SCT023 27/16 Q1021=
2025-09-30 14:00:00<>METAR SBSV 301400Z 14009KT 100V170 9999 SCT023 27/16 Q1021=
2025-09-30 15:00:00<>METAR SBSV 301500Z 15010KT 100V180 9999 SCT023 27/17 Q1020=
2025-09-30 16:00:00<>METAR SBSV 301600Z 16009KT 120V190 9999 SCT023 28/17 Q1019=
2025-09-30 17:00:00<>METAR SBSV 301700Z 13011KT 100V170 9999 SCT023 27/17 Q1018=
2025-09-30 18:00:00<>METAR SBSV 301800Z 15010KT 120V200 9999 SCT023 27/16 Q1017=
2025-09-30 19:00:00<>METAR SBSV 301900Z 13010KT 9999 SCT023 26/18 Q1017=
2025-09-30 20:00:00<>METAR SBSV 302000Z 15009KT 9999 SCT023 25/18 Q1018=
2025-09-30 21:00:00<>METAR SBSV 302100Z 13008KT 9999 SCT023 25/18 Q1018=
2025-09-30 22:00:00<>METAR SBSV 302200Z 14008KT 9999 SCT023 25/19 Q1019=
2025-09-30 23:00:00<>METAR SBSV 302300Z 15009KT 9999 SCT023 SCT030 BKN060 25/19 Q1020=
2025-10-01 00:00:00<>METAR SBSV 010000Z 15009KT 9999 SCT023 BKN060 25/19 Q1021=
2025-10-01 01:00:00<>METAR SBSV 010100Z 11010KT 9999 FEW030 SCT065 25/18 Q1021=
2025-10-01 02:00:00<>METAR SBSV 010200Z 12009KT 9999 FEW029 BKN060 25/18 Q1020=
2025-10-01 03:00:00<>METAR SBSV 010300Z 12011KT 090V170 9999 FEW033 BKN060 25/18 Q1020=
2025-10-01 04:00:00<>METAR SBSV 010400Z 11013KT 9999 FEW031 BKN070 25/18 Q1019=
2025-10-01 05:00:00<>METAR SBSV 010500Z 11009KT 9999 FEW031 BKN070 25/17 Q1018=
2025-10-01 06:00:00<>METAR SBSV 010600Z 12009KT 9999 FEW031 BKN060 25/18 Q1018=
2025-10-01 07:00:00<>METAR SBSV 010700Z 13007KT 9999 FEW031 BKN060 25/17 Q1018=
2025-10-01 08:00:00<>METAR SBSV 010800Z 15010KT 9999 SCT028 BKN074 25/19 Q1019=
2025-10-01 09:00:00<>METAR SBSV 010900Z 15009KT 9999 SCT030 BKN070 25/18 Q1019=
2025-10-01 10:00:00<>METAR SBSV 011000Z 14008KT 9999 SCT030 BKN070 26/18 Q1020=
2025-10-01 11:00:00<>METAR SBSV 011100Z 15008KT 9999 SCT030 BKN070 26/18 Q1021=
2025-10-01 12:00:00<>METAR SBSV 011200Z 16011KT 9999 SCT030 BKN070 27/18 Q1021=
2025-10-01 13:00:00<>METAR SBSV 011300Z 15011KT 9999 SCT030 BKN070 28/19 Q1021=
2025-10-01 14:00:00<>METAR SBSV 011400Z 14012KT 9999 SCT023 BKN050 26/18 Q1021=
2025-10-01 15:00:00<>METAR SBSV 011500Z 17012KT 9999 SCT023 BKN050 27/18 Q1020=
2025-10-01 16:00:00<>METAR SBSV 011600Z 16013KT 9999 VCSH SCT030 BKN050 28/17 Q1019=
2025-10-01 17:00:00<>METAR SBSV 011700Z 15011KT 9999 SCT030 SCT050 27/16 Q1019=
2025-10-01 18:00:00<>METAR SBSV 011800Z 15012KT 9999 SCT030 SCT050 27/17 Q1018=
2025-10-01 19:00:00<>METAR SBSV 011900Z 14012KT 9999 SCT030 SCT050 26/17 Q1018=
2025-10-01 20:00:00<>METAR SBSV 012000Z 13008KT 9999 SCT030 SCT050 26/16 Q1019=
2025-10-01 21:00:00<>METAR SBSV 012100Z 13008KT 110V180 9999 SCT030 25/16 Q1019=
2025-10-01 22:00:00<>METAR SBSV 012200Z 12008KT 9999 SCT030 25/16 Q1020=
2025-10-01 23:00:00<>METAR SBSV 012300Z 12006KT 100V170 9999 SCT030 25/17 Q1020=
2025-10-02 00:00:00<>METAR SBSV 020000Z 11008KT 9999 SCT030 25/18 Q1021=
2025-10-02 01:00:00<>METAR SBSV 020100Z 10010KT 9999 SCT027 BKN050 25/18 Q1021=
2025-10-02 02:00:00<>METAR SBSV 020200Z 11011KT 9999 SCT028 BKN050 25/17 Q1021=
2025-10-02 03:00:00<>METAR SBSV 020300Z 11009KT 9999 FEW025 BKN055 25/17 Q1020=
2025-10-02 04:00:00<>METAR SBSV 020400Z 12008KT 090V150 9999 FEW025 BKN060 25/17 Q1019=
2025-10-02 05:00:00<>METAR SBSV 020500Z 12007KT 9999 FEW025 BKN070 25/17 Q1019=
2025-10-02 06:00:00<>METAR SBSV 020600Z 12007KT 090V160 9999 FEW025 BKN070 25/17 Q1018=
2025-10-02 07:00:00<>METAR SBSV 020700Z 12008KT 9999 FEW025 BKN070 25/18 Q1019=
2025-10-02 08:00:00<>METAR SBSV 020800Z 12007KT 090V160 9999 SCT027 BKN070 24/18 Q1019=
2025-10-02 09:00:00<>METAR SBSV 020900Z 10008KT 070V140 9999 SCT025 SCT050 25/18 Q1019=
2025-10-02 10:00:00<>METAR SBSV 021000Z 11013KT 9000 -SHRA SCT023 FEW025TCU BKN050 24/18 Q1020=
2025-10-02 11:00:00<>METAR SBSV 021100Z 12011KT 090V150 9999 SCT023 FEW025TCU 26/18 Q1020=
2025-10-02 12:00:00<>METAR SBSV 021200Z 13010KT 100V160 9999 VCSH SCT023 SCT050 26/16 Q1020=
2025-10-02 13:00:00<>METAR SBSV 021300Z 13011KT 100V160 9999 SCT023 SCT050 27/18 Q1020=
2025-10-02 14:00:00<>METAR SBSV 021400Z 13011KT 9999 SCT023 SCT056 27/17 Q1020=
2025-10-02 15:00:00<>METAR SBSV 021500Z 11011KT 080V160 9999 FEW020 SCT060 27/17 Q1019=
2025-10-02 16:00:00<>METAR SBSV 021600Z 11011KT 080V150 9999 SCT023 27/17 Q1018=
2025-10-02 17:00:00<>METAR SBSV 021700Z 13010KT 090V160 9999 SCT023 28/17 Q1017=
2025-10-02 18:00:00<>METAR SBSV 021800Z 12010KT 090V180 9999 SCT023 27/18 Q1017=
2025-10-02 19:00:00<>METAR SBSV 021900Z 13010KT 9999 SCT023 26/18 Q1017=
2025-10-02 20:00:00<>METAR SBSV 022000Z VRB01KT 9999 SCT023 BKN070 26/18 Q1018=
2025-10-02 21:00:00<>METAR SBSV 022100Z 11008KT 090V170 9999 SCT023 BKN060 25/17 Q1018=
2025-10-02 22:00:00<>METAR SBSV 022200Z 11008KT 9999 SCT023 SCT040 BKN060 25/18 Q1019=
2025-10-02 23:00:00<>METAR SBSV 022300Z 12014KT 9999 SCT022 SCT030 BKN050 22/19 Q1020=
2025-10-03 00:00:00<>METAR SBSV 030000Z 00000KT 9999 SCT022 BKN070 23/20 Q1020=
2025-10-03 01:00:00<>METAR SBSV 030100Z 18005KT 140V220 9999 SCT022 BKN070 23/20 Q1020=
2025-10-03 02:00:00<>METAR SBSV 030200Z 11011KT 090V150 9999 SCT022 BKN070 24/20 Q1020=
2025-10-03 03:00:00<>METAR SBSV 030300Z 12010KT 090V180 9999 SCT022 BKN070 24/18 Q1019=
2025-10-03 04:00:00<>METAR SBSV 030400Z 12010KT 9999 SCT022 BKN070 24/18 Q1018=
2025-10-03 05:00:00<>METAR SBSV 030500Z 10009KT 9999 SCT022 BKN070 24/19 Q1018=
2025-10-03 06:00:00<>METAR SBSV 030600Z 12009KT 9999 FEW025 BKN080 25/17 Q1018=
2025-10-03 07:00:00<>METAR SBSV 030700Z 11007KT 9999 FEW025 BKN080 24/19 Q1018=
2025-10-03 08:00:00<>METAR SBSV 030800Z 12008KT 9999 SCT025 25/18 Q1018=
2025-10-03 09:00:00<>METAR SBSV 030900Z 12008KT 090V160 9999 SCT025 25/18 Q1018=
2025-10-03 10:00:00<>METAR SBSV 031000Z 13011KT 080V160 9999 FEW029 25/17 Q1019=
2025-10-03 11:00:00<>METAR SBSV 031100Z 12011KT 9999 FEW025 26/17 Q1020=
2025-10-03 12:00:00<>METAR SBSV 031200Z 12011KT 9999 FEW027 27/16 Q1020=
2025-10-03 13:00:00<>METAR SBSV 031300Z 11011KT 090V150 9999 FEW029 28/18 Q1020=
2025-10-03 14:00:00<>METAR SBSV 031400Z 12013KT 9999 FEW029 BKN080 27/17 Q1020=
2025-10-03 15:00:00<>METAR SBSV 031500Z 11011KT 070V150 9999 FEW030 SCT031 BKN080 27/17 Q1019=
2025-10-03 16:00:00<>METAR SBSV 031600Z 13011KT 100V170 9999 FEW031 BKN077 27/17 Q1018=
2025-10-03 17:00:00<>METAR SBSV 031700Z 15013KT 120V180 9999 VCSH SCT026 BKN050 BKN080 25/17 Q1018=
2025-10-03 18:00:00<>METAR SBSV 031800Z 20003KT 9999 SCT030 BKN050 27/17 Q1017=
2025-10-03 19:00:00<>METAR SBSV 031900Z 13010KT 9999 FEW030 SCT050 27/17 Q1017=
2025-10-03 20:00:00<>METAR SBSV 032000Z 13010KT 9999 FEW030 SCT050 26/17 Q1018=
2025-10-03 21:00:00<>METAR SBSV 032100Z 13009KT 9999 FEW025 SCT050 25/18 Q1018=
2025-10-03 22:00:00<>METAR SBSV 032200Z 14009KT 9999 FEW025 SCT080 25/18 Q1018=
2025-10-03 23:00:00<>METAR SBSV 032300Z 11013KT 9999 FEW025 SCT050 24/18 Q1019=
2025-10-04 00:00:00<>METAR SBSV 040000Z 11011KT 9999 SCT021 SCT050 24/18 Q1019=
2025-10-04 01:00:00<>METAR SBSV 040100Z 10015KT 9999 VCSH SCT023 FEW025TCU BKN050 24/19 Q1020=
2025-10-04 02:00:00<>METAR SBSV 040200Z 12015KT 9999 BKN019 BKN055 24/19 Q1019=
2025-10-04 03:00:00<>METAR SBSV 040300Z 08013KT 9999 BKN023 BKN050 24/20 Q1019=
2025-10-04 04:00:00<>METAR SBSV 040400Z 06005KT 9999 FEW024 BKN070 23/19 Q1018=
2025-10-04 05:00:00<>METAR SBSV 040500Z 14011KT 110V170 9999 SCT021 BKN070 24/19 Q1018=
2025-10-04 06:00:00<>METAR SBSV 040600Z 16010KT 130V190 9999 SCT025 BKN080 24/19 Q1017=
2025-10-04 07:00:00<>METAR SBSV 040700Z 13011KT 090V160 9999 SCT021 BKN060 25/19 Q1017=
2025-10-04 08:00:00<>METAR SBSV 040800Z 11015KT 9999 SCT021 SCT050 25/19 Q1018=
2025-10-04 09:00:00<>METAR SBSV 040900Z 11013KT 9999 SCT023 BKN080 25/19 Q1018=
2025-10-04 10:00:00<>METAR SBSV 041000Z 10014KT 9000 VCSH SCT023 FEW025TCU BKN080 25/19 Q1019=
2025-10-04 11:00:00<>METAR SBSV 041100Z 10013KT 9999 VCSH SCT021 FEW025TCU BKN080 27/20 Q1020=
2025-10-04 12:00:00<>METAR SBSV 041200Z 11013KT 9999 VCSH SCT022 FEW025TCU BKN080 27/20 Q1020=
2025-10-04 13:00:00<>METAR SBSV 041300Z 10014KT 9999 VCSH SCT022 FEW025TCU BKN070 27/20 Q1020=
2025-10-04 14:00:00<>METAR SBSV 041400Z 10012KT 9999 SCT022 FEW025TCU BKN070 27/19 Q1019=
2025-10-04 15:00:00<>METAR SBSV 041500Z 09019KT 9999 SCT023 SCT050 BKN070 26/20 Q1019=
2025-10-04 16:00:00<>METAR SBSV 041600Z 11017KT 9999 SCT023 BKN050 BKN070 26/21 Q1018=
2025-10-04 17:00:00<>METAR SBSV 041700Z 14016KT 9999 VCSH SCT023 BKN050 BKN070 25/18 Q1018=
2025-10-04 18:00:00<>METAR SBSV 041800Z 14012KT 9999 FEW028 BKN057 BKN071 25/20 Q1018=
2025-10-04 19:00:00<>METAR SBSV 041900Z 12008KT 090V150 9999 FEW015 BKN040 BKN100 25/21 Q1017=
2025-10-04 19:38:00<>SPECI SBSV 041938Z 09012G22KT 1200 R28/0700D R10/0900N RA BR BKN006 BKN010 BKN100 23/21 Q1018=
2025-10-04 20:00:00<>METAR SBSV 042000Z 08016KT 4000 -RA BR SCT006 BKN010 BKN030 22/21 Q1018 RERA=
2025-10-04 20:23:00<>SPECI SBSV 042023Z 06006KT 5000 -RA FEW010 BKN045 BKN061 23/21 Q1018=
2025-10-04 21:00:00<>METAR SBSV 042100Z 08005KT 9999 SCT045 BKN060 23/21 Q1018=
2025-10-04 22:00:00<>METAR SBSV 042200Z 10007KT 9999 FEW015 SCT035 BKN046 24/21 Q1018=
2025-10-04 23:00:00<>METAR SBSV 042300Z 10014KT 4000 -RA BKN010 BKN030 BKN050 23/21 Q1019=
2025-10-04 23:15:00<>SPECI SBSV 042315Z 11005KT 9999 FEW010 BKN033 BKN080 23/22 Q1019=
2025-10-05 00:00:00<>METAR SBSV 050000Z 02007KT 360V060 9999 VCSH FEW006 SCT008 BKN015 23/22 Q1019=
2025-10-05 01:00:00<>METAR SBSV 050100Z 06002KT 9999 SCT013 BKN050 23/22 Q1020=
2025-10-05 01:30:00<>SPECI SBSV 050130Z 10012G22KT 070V140 8000 SHRA BKN018 FEW023TCU BKN050 23/22 Q1020=
2025-10-05 02:00:00<>METAR SBSV 050200Z 07006KT 9000 -RA SCT011 BKN016 BKN050 23/22 Q1019 RESHRA=
2025-10-05 02:07:00<>SPECI SBSV 050207Z 09015G27KT 9000 -RA SCT011 BKN016 BKN050 23/22 Q1019=
2025-10-05 03:00:00<>METAR SBSV 050300Z 10012KT 9000 BKN020 BKN060 24/22 Q1018=
2025-10-05 03:08:00<>SPECI SBSV 050308Z 09017G27KT 2000 SHRA SCT012 BKN020 BKN060 23/21 Q1018=
2025-10-05 03:33:00<>SPECI SBSV 050333Z 09016KT 9000 -RA SCT008 BKN019 BKN060 22/21 Q1018 RESHRA=
2025-10-05 04:00:00<>METAR SBSV 050400Z 09010KT 9000 BKN019 BKN060 23/21 Q1018 RESHRA=
2025-10-05 05:00:00<>METAR SBSV 050500Z 10017G27KT 9000 BKN019 BKN060 23/21 Q1017=
2025-10-05 06:00:00<>METAR SBSV 050600Z 10013KT 9999 BKN019 BKN060 24/21 Q1017=
2025-10-05 07:00:00<>METAR SBSV 050700Z 10011KT 9000 BKN020 BKN050 23/19 Q1017=
2025-10-05 08:00:00<>METAR SBSV 050800Z 08008KT 9000 BKN020 BKN050 24/20 Q1017=
2025-10-05 09:00:00<>METAR SBSV 050900Z 09016G26KT 3000 SHRA BKN020 FEW023TCU BKN050 23/20 Q1017=
2025-10-05 09:16:00<>SPECI SBSV 050916Z 09012G22KT 5000 BR BKN020 BKN050 24/21 Q1018 RESHRA=
2025-10-05 10:00:00<>METAR SBSV 051000Z 07013KT 9000 VCSH BKN023 BKN050 25/21 Q1018=
2025-10-05 10:20:00<>SPECI SBSV 051020Z 09018KT 4000 RA BKN020 BKN050 24/19 Q1019=
2025-10-05 11:00:00<>METAR SBSV 051100Z 09013KT 9999 SCT021 BKN050 25/21 Q1019 RERA=
2025-10-05 12:00:00<>METAR SBSV 051200Z 08012KT 9999 SCT021 BKN050 25/22 Q1019=
2025-10-05 13:00:00<>METAR SBSV 051300Z 10012KT 9999 SCT021 BKN050 27/22 Q1019=
2025-10-05 14:00:00<>METAR SBSV 051400Z 09014KT 9999 SCT021 BKN050 28/21 Q1019=
2025-10-05 15:00:00<>METAR SBSV 051500Z 09015KT 9999 SCT021 BKN050 26/20 Q1018=
2025-10-05 16:00:00<>METAR SBSV 051600Z 10012KT 8000 -SHRA SCT023 BKN040 25/22 Q1017=
2025-10-05 17:00:00<>METAR SBSV 051700Z 09013KT 9999 SCT021 SCT040 27/20 Q1017=
2025-10-05 18:00:00<>METAR SBSV 051800Z 10012KT 9999 SCT021 BKN050 28/20 Q1016=
2025-10-05 19:00:00<>METAR SBSV 051900Z 11012KT 9999 VCSH SCT020 FEW025TCU BKN050 26/19 Q1016=
2025-10-05 20:00:00<>METAR SBSV 052000Z 11010KT 9999 SCT022 26/19 Q1016=
2025-10-05 21:00:00<>METAR SBSV 052100Z 12010KT 9999 SCT021 25/20 Q1017=
2025-10-05 22:00:00<>METAR SBSV 052200Z 12011KT 9999 BKN021 25/20 Q1017=
2025-10-05 23:00:00<>METAR SBSV 052300Z 11010KT 9999 SCT020 25/20 Q1018=
2025-10-06 00:00:00<>METAR SBSV 060000Z 12011KT 090V150 9999 SCT021 25/20 Q1018=
2025-10-06 01:00:00<>METAR SBSV 060100Z 11008KT 9999 SCT021 25/20 Q1018=
2025-10-06 02:00:00<>METAR SBSV 060200Z 11008KT 9999 FEW020 25/19 Q1018=
2025-10-06 03:00:00<>METAR SBSV 060300Z 10008KT 9999 FEW020 25/20 Q1017=
2025-10-06 04:00:00<>METAR SBSV 060400Z 10008KT 9999 FEW020 24/20 Q1016=
2025-10-06 05:00:00<>METAR SBSV 060500Z 10008KT 9999 FEW020 24/20 Q1016=
2025-10-06 06:00:00<>METAR SBSV 060600Z 10005KT 9999 FEW020 BKN045 24/20 Q1015=
2025-10-06 07:00:00<>METAR SBSV 060700Z 09007KT 9999 FEW020 SCT030 24/19 Q1015=
2025-10-06 08:00:00<>METAR SBSV 060800Z 10007KT 9999 SCT020 SCT040 24/20 Q1015=
2025-10-06 09:00:00<>METAR SBSV 060900Z 09008KT 9999 SCT019 24/20 Q1016=
2025-10-06 10:00:00<>METAR SBSV 061000Z 09008KT 9999 SCT019 26/20 Q1016=
2025-10-06 11:00:00<>METAR SBSV 061100Z 09011KT 9999 VCSH SCT019 25/21 Q1017=
2025-10-06 12:00:00<>METAR SBSV 061200Z 10008KT 9999 -SHRA SCT019 25/21 Q1017=
2025-10-06 13:00:00<>METAR SBSV 061300Z 10010KT 9999 SCT019 27/20 Q1017=
2025-10-06 14:00:00<>METAR SBSV 061400Z 10009KT 9999 SCT021 BKN050 27/20 Q1017=
2025-10-06 15:00:00<>METAR SBSV 061500Z 09012KT 9999 SCT021 SCT050 27/19 Q1016=
2025-10-06 16:00:00<>METAR SBSV 061600Z 10010KT 9999 SCT021 SCT060 27/20 Q1014=
2025-10-06 17:00:00<>METAR SBSV 061700Z 10011KT 9999 SCT021 SCT060 27/19 Q1014=
2025-10-06 18:00:00<>METAR SBSV 061800Z 10013KT 9999 SCT023 SCT070 27/20 Q1013=
2025-10-06 19:00:00<>METAR SBSV 061900Z 07012KT 9999 SCT023 SCT080 26/21 Q1013=
2025-10-06 20:00:00<>METAR SBSV 062000Z 08010KT 9999 SCT023 SCT080 25/20 Q1014=
2025-10-06 21:00:00<>METAR SBSV 062100Z 09009KT 9999 SCT023 SCT080 25/20 Q1015=
2025-10-06 22:00:00<>METAR SBSV 062200Z 09010KT 9999 SCT023 BKN080 25/21 Q1015=
2025-10-06 23:00:00<>METAR SBSV 062300Z 06012KT 9999 BKN018 BKN080 24/21 Q1016=
2025-10-07 00:00:00<>METAR SBSV 070000Z 06006KT 9999 SCT019 BKN080 24/22 Q1016=
2025-10-07 01:00:00<>METAR SBSV 070100Z 06011KT 9999 VCSH BKN019 FEW025TCU BKN050 24/21 Q1016=
2025-10-07 02:00:00<>METAR SBSV 070200Z 06011KT 9999 SCT017 BKN050 24/21 Q1016=
2025-10-07 03:00:00<>METAR SBSV 070300Z 06009KT 9999 FEW016 SCT020 24/19 Q1015=
2025-10-07 04:00:00<>METAR SBSV 070400Z 06008KT 030V090 9999 VCSH BKN022 FEW025TCU OVC050 24/20 Q1015=
2025-10-07 05:00:00<>METAR SBSV 070500Z 06010KT 9999 BKN019 BKN055 25/20 Q1014=
2025-10-07 06:00:00<>METAR SBSV 070600Z 07012KT 9999 -RA BKN020 OVC055 24/20 Q1014=
2025-10-07 07:00:00<>METAR SBSV 070700Z 06010KT 9999 VCSH SCT020 BKN060 25/19 Q1014=
2025-10-07 08:00:00<>METAR SBSV 070800Z 06012KT 9999 BKN023 BKN070 24/20 Q1014=
2025-10-07 09:00:00<>METAR SBSV 070900Z 35005KT 330V040 9999 SCT023 BKN080 23/21 Q1015=
2025-10-07 10:00:00<>METAR SBSV 071000Z 02005KT 340V040 9999 VCSH SCT023 BKN080 24/21 Q1016=
2025-10-07 11:00:00<>METAR SBSV 071100Z 07013KT 9999 SCT023 BKN080 26/20 Q1016=
2025-10-07 12:00:00<>METAR SBSV 071200Z 06012KT 9999 SCT023 27/21 Q1016=
2025-10-07 13:00:00<>METAR SBSV 071300Z 07014KT 9999 SCT030 27/20 Q1016=
2025-10-07 14:00:00<>METAR SBSV 071400Z 07014KT 9999 SCT030 28/20 Q1016=
2025-10-07 15:00:00<>METAR SBSV 071500Z 07015KT 9999 FEW030 28/19 Q1015=
2025-10-07 16:00:00<>METAR SBSV 071600Z 07014KT 9999 FEW030 28/20 Q1014=
2025-10-07 17:00:00<>METAR SBSV 071700Z 08014KT 9999 FEW030 28/20 Q1013=
2025-10-07 18:00:00<>METAR SBSV 071800Z 08013KT 9999 FEW021 27/21 Q1013=
2025-10-07 19:00:00<>METAR SBSV 071900Z 09013KT 9999 FEW021 27/20 Q1013=
2025-10-07 20:00:00<>METAR SBSV 072000Z 08011KT 9999 FEW021 26/19 Q1014=
2025-10-07 21:00:00<>METAR SBSV 072100Z 08010KT 9999 FEW021 25/20 Q1014=
2025-10-07 22:00:00<>METAR SBSV 072200Z 09010KT 9999 SCT021 25/20 Q1014=
2025-10-07 23:00:00<>METAR SBSV 072300Z 08010KT 9999 SCT023 25/19 Q1015=
2025-10-08 00:00:00<>METAR SBSV 080000Z 08008KT 9999 SCT023 25/19 Q1016=
2025-10-08 01:00:00<>METAR SBSV 080100Z 08009KT 9999 SCT023 25/19 Q1016=
2025-10-08 02:00:00<>METAR SBSV 080200Z 08009KT 9999 FEW023 24/18 Q1015=
2025-10-08 03:00:00<>METAR SBSV 080300Z 08010KT 9999 FEW023 25/19 Q1015=
2025-10-08 04:00:00<>METAR SBSV 080400Z 07009KT 9999 FEW023 24/19 Q1014=
2025-10-08 05:00:00<>METAR SBSV 080500Z 07007KT 9999 FEW023 24/19 Q1014=
2025-10-08 06:00:00<>METAR SBSV 080600Z 35002KT 9999 FEW023 23/19 Q1014=
2025-10-08 07:00:00<>METAR SBSV 080700Z 00000KT 9999 FEW023 23/19 Q1014=
2025-10-08 08:00:00<>METAR SBSV 080800Z 02002KT 9999 SCT023 22/19 Q1014=
2025-10-08 09:00:00<>METAR SBSV 080900Z 06008KT 9999 SCT023 24/19 Q1015=
2025-10-08 10:00:00<>METAR SBSV 081000Z 08010KT 9999 FEW023 26/19 Q1016=
2025-10-08 11:00:00<>METAR SBSV 081100Z 08011KT 9999 SCT023 27/19 Q1016=
2025-10-08 12:00:00<>METAR SBSV 081200Z 09009KT 050V120 9999 SCT023 27/19 Q1017=
2025-10-08 13:00:00<>METAR SBSV 081300Z 08010KT 050V110 9999 BKN023 28/20 Q1017=
2025-10-08 14:00:00<>METAR SBSV 081400Z 10011KT 070V130 9999 BKN023 28/19 Q1016=
2025-10-08 15:00:00<>METAR SBSV 081500Z 09012KT 060V120 9999 BKN023 FEW025TCU 27/19 Q1016=
2025-10-08 16:00:00<>METAR SBSV 081600Z 09013KT 9999 BKN023 28/19 Q1015=
2025-10-08 17:00:00<>METAR SBSV 081700Z 10011KT 070V130 9999 SCT023 FEW025TCU 28/19 Q1014=
2025-10-08 18:00:00<>METAR SBSV 081800Z 11011KT 090V200 9999 SCT023 FEW025TCU 27/19 Q1014=
2025-10-08 19:00:00<>METAR SBSV 081900Z 12009KT 9000 VCSH SCT023 FEW025TCU 26/19 Q1014=
2025-10-08 20:00:00<>METAR SBSV 082000Z 14008KT 9000 VCSH SCT023 FEW025TCU BKN060 25/20 Q1014=
2025-10-08 21:00:00<>METAR SBSV 082100Z 11008KT 080V150 9000 VCSH SCT023 FEW025TCU BKN060 25/19 Q1015=
2025-10-08 22:00:00<>METAR SBSV 082200Z 10007KT 080V170 9999 SCT023 BKN060 25/20 Q1015=
2025-10-08 23:00:00<>METAR SBSV 082300Z 11009KT 9999 SCT023 BKN060 25/20 Q1016=
2025-10-09 00:00:00<>METAR SBSV 090000Z 11009KT 9999 SCT023 SCT040 BKN060 25/20 Q1017=
2025-10-09 01:00:00<>METAR SBSV 090100Z 08012KT 040V100 9999 BKN019 BKN055 24/20 Q1016=
2025-10-09 02:00:00<>METAR SBSV 090200Z 03009KT 9999 SCT022 BKN050 23/20 Q1016=
2025-10-09 03:00:00<>METAR SBSV 090300Z 01006KT 340V050 9999 BKN022 FEW025TCU BKN060 23/21 Q1016=
2025-10-09 04:00:00<>METAR SBSV 090400Z 33003KT 9999 -RA BKN020 FEW025TCU BKN060 22/21 Q1015=
2025-10-09 05:00:00<>METAR SBSV 090500Z 22003KT 9999 VCSH BKN023 FEW025TCU BKN070 23/22 Q1015=
2025-10-09 06:00:00<>METAR SBSV 090600Z 03006KT 320V100 9999 VCSH BKN020 FEW025TCU OVC060 23/22 Q1015=
2025-10-09 07:00:00<>METAR SBSV 090700Z 09011KT 9999 BKN020 BKN070 25/21 Q1015=
2025-10-09 08:00:00<>METAR SBSV 090800Z 10010KT 9999 SCT019 SCT070 25/21 Q1016=
2025-10-09 09:00:00<>METAR SBSV 090900Z 11010KT 9999 SCT019 BKN050 25/20 Q1016=
2025-10-09 10:00:00<>METAR SBSV 091000Z 11012KT 9999 SCT019 SCT050 26/20 Q1017=
2025-10-09 11:00:00<>METAR SBSV 091100Z 11012KT 090V150 9999 SCT021 27/20 Q1018=
2025-10-09 12:00:00<>METAR SBSV 091200Z 11012KT 9999 BKN021 27/20 Q1018=
2025-10-09 13:00:00<>METAR SBSV 091300Z 11013KT 9999 BKN021 28/20 Q1018=
2025-10-09 14:00:00<>METAR SBSV 091400Z 11013KT 9999 BKN022 28/19 Q1018=
2025-10-09 15:00:00<>METAR SBSV 091500Z 10013KT 070V130 9000 VCSH BKN023 FEW025TCU 28/20 Q1018=
2025-10-09 16:00:00<>METAR SBSV 091600Z 11012KT 080V140 9999 BKN023 28/18 Q1017=
2025-10-09 17:00:00<>METAR SBSV 091700Z 10011KT 9999 BKN023 28/19 Q1016=
2025-10-09 18:00:00<>METAR SBSV 091800Z 10011KT 070V130 9999 BKN025 27/19 Q1016=
2025-10-09 19:00:00<>METAR SBSV 091900Z 12010KT 9999 SCT024 27/18 Q1016=
2025-10-09 20:00:00<>METAR SBSV 092000Z 11009KT 9999 FEW026 26/19 Q1016=
2025-10-09 21:00:00<>METAR SBSV 092100Z 10007KT 9999 FEW026 25/19 Q1017=
2025-10-09 22:00:00<>METAR SBSV 092200Z 13006KT 090V150 9999 BKN024 25/19 Q1018=
2025-10-09 23:00:00<>METAR SBSV 092300Z 13006KT 100V210 9999 SCT024 BKN030 25/19 Q1018=
2025-10-10 00:00:00<>METAR SBSV 100000Z 12007KT 9999 FEW026 25/19 Q1018=
2025-10-10 01:00:00<>METAR SBSV 100100Z 14006KT 9999 FEW026 25/19 Q1019=
2025-10-10 02:00:00<>METAR SBSV 100200Z 13006KT 100V180 9999 FEW023 25/19 Q1018=
2025-10-10 03:00:00<>METAR SBSV 100300Z 13006KT 060V220 9999 FEW023 25/18 Q1018=
2025-10-10 04:00:00<>METAR SBSV 100400Z 12003KT 060V160 9999 FEW023 23/18 Q1017=
2025-10-10 05:00:00<>METAR SBSV 100500Z 17006KT 9999 FEW023 BKN060 24/18 Q1016=
2025-10-10 06:00:00<>METAR SBSV 100600Z 14008KT 080V240 9999 FEW023 BKN060 24/20 Q1016=
2025-10-10 07:00:00<>METAR SBSV 100700Z 14008KT 9999 FEW023 BKN060 24/21 Q1017=
2025-10-10 08:00:00<>METAR SBSV 100800Z 14005KT 9999 FEW023 BKN060 24/19 Q1017=
2025-10-10 09:00:00<>METAR SBSV 100900Z 13005KT 9999 SCT023 BKN060 24/19 Q1017=
2025-10-10 10:00:00<>METAR SBSV 101000Z 11009KT 9999 SCT021 26/19 Q1018=
2025-10-10 11:00:00<>METAR SBSV 101100Z 11009KT 9999 SCT021 27/19 Q1019=
2025-10-10 12:00:00<>METAR SBSV 101200Z 12009KT 9999 SCT021 27/19 Q1019=
2025-10-10 13:00:00<>METAR SBSV 101300Z 12010KT 9999 SCT021 27/19 Q1019=
2025-10-10 14:00:00<>METAR SBSV 101400Z 12010KT 9999 SCT021 27/20 Q1018=
2025-10-10 15:00:00<>METAR SBSV 101500Z 12011KT 9999 SCT021 28/20 Q1018=
2025-10-10 16:00:00<>METAR SBSV 101600Z 13010KT 9999 SCT021 27/20 Q1017=
2025-10-10 17:00:00<>METAR SBSV 101700Z 11009KT 9999 SCT023 28/19 Q1016=
2025-10-10 18:00:00<>METAR SBSV 101800Z 12010KT 080V180 9999 SCT023 SCT070 28/20 Q1016=
2025-10-10 19:00:00<>METAR SBSV 101900Z 13011KT 090V150 9999 VCSH SCT023 SCT030 27/20 Q1016=
2025-10-10 20:00:00<>METAR SBSV 102000Z 12007KT 9999 SCT023 SCT080 26/19 Q1016=
2025-10-10 21:00:00<>METAR SBSV 102100Z 13006KT 9999 FEW023 SCT080 25/20 Q1016=
2025-10-10 22:00:00<>METAR SBSV 102200Z 12009KT 9999 FEW023 SCT080 25/20 Q1017=
2025-10-10 23:00:00<>METAR SBSV 102300Z 14008KT 9999 BKN018 SCT070 25/21 Q1017=
2025-10-11 00:00:00<>METAR SBSV 110000Z 14009KT 9999 VCSH BKN020 FEW022TCU SCT030 25/21 Q1018=
2025-10-11 01:00:00<>METAR SBSV 110100Z 14009KT 9999 BKN019 FEW022TCU BKN040 25/21 Q1018=
2025-10-11 02:00:00<>METAR SBSV 110200Z 14008KT 9999 FEW010 BKN015 BKN040 25/22 Q1017=
2025-10-11 03:00:00<>METAR SBSV 110300Z 08010KT 9999 BKN020 BKN040 25/21 Q1016=
2025-10-11 04:00:00<>METAR SBSV 110400Z 09012KT 9999 SCT019 BKN050 24/21 Q1016=
2025-10-11 05:00:00<>METAR SBSV 110500Z 08010KT 9999 FEW019 BKN050 BKN060 25/21 Q1015=
2025-10-11 06:00:00<>METAR SBSV 110600Z 08010KT 9999 FEW019 BKN050 BKN060 25/21 Q1015=
2025-10-11 07:00:00<>METAR SBSV 110700Z 09009KT 9999 FEW019 BKN060 25/20 Q1015=
2025-10-11 08:00:00<>METAR SBSV 110800Z 09009KT 9999 FEW019 SCT060 25/20 Q1016=
2025-10-11 09:00:00<>METAR SBSV 110900Z 09009KT 9999 FEW019 SCT061 25/20 Q1016=
2025-10-11 10:00:00<>METAR SBSV 111000Z 09009KT 9999 SCT019 SCT070 26/21 Q1017=
2025-10-11 11:00:00<>METAR SBSV 111100Z 08006KT 040V130 9999 FEW020 27/21 Q1017=
2025-10-11 12:00:00<>METAR SBSV 111200Z 08008KT 030V130 9999 SCT021 27/21 Q1017=
2025-10-11 13:00:00<>METAR SBSV 111300Z 09009KT 040V130 9999 SCT020 28/21 Q1017=
2025-10-11 14:00:00<>METAR SBSV 111400Z 10010KT 060V130 9999 SCT020 28/21 Q1017=
2025-10-11 15:00:00<>METAR SBSV 111500Z 10011KT 9999 SCT020 28/21 Q1016=
2025-10-11 16:00:00<>METAR SBSV 111600Z 10011KT 080V140 9999 SCT020 28/21 Q1015=
2025-10-11 17:00:00<>METAR SBSV 111700Z 11011KT 9999 SCT020 FEW023TCU 28/21 Q1014=
2025-10-11 18:00:00<>METAR SBSV 111800Z 09013KT 9999 -SHRA FEW011 SCT020 FEW023TCU 27/22 Q1014=
2025-10-11 19:00:00<>METAR SBSV 111900Z 09013KT 9999 FEW015 SCT020 BKN050 26/21 Q1014=
2025-10-11 20:00:00<>METAR SBSV 112000Z 10007KT 9999 FEW020 BKN050 26/21 Q1014=
2025-10-11 21:00:00<>METAR SBSV 112100Z 08009KT 9999 FEW020 SCT040 26/21 Q1015=
2025-10-11 22:00:00<>METAR SBSV 112200Z 10008KT 9999 FEW030 SCT040 26/21 Q1015=
2025-10-11 23:00:00<>METAR SBSV 112300Z 09008KT 9999 FEW030 SCT040 26/21 Q1015=
2025-10-12 00:00:00<>METAR SBSV 120000Z 09008KT 9999 SCT020 SCT040 25/22 Q1016=
2025-10-12 01:00:00<>METAR SBSV 120100Z 10008KT 9999 SCT017 BKN050 25/22 Q1015=
2025-10-12 02:00:00<>METAR SBSV 120200Z 09012KT 9999 VCSH BKN019 FEW025TCU BKN050 26/22 Q1015=
2025-10-12 03:00:00<>METAR SBSV 120300Z 09012KT 9999 VCSH BKN020 FEW025TCU BKN050 26/21 Q1015=
2025-10-12 04:00:00<>METAR SBSV 120400Z 08011KT 9999 VCSH BKN017 FEW025TCU BKN050 26/21 Q1014=
2025-10-12 05:00:00<>METAR SBSV 120500Z 09011KT 9999 SCT017 BKN050 25/21 Q1014=
2025-10-12 06:00:00<>METAR SBSV 120600Z 08010KT 9999 SCT020 BKN060 25/21 Q1014=
2025-10-12 07:00:00<>METAR SBSV 120700Z 09010KT 9999 SCT017 BKN055 25/21 Q1015=
2025-10-12 08:00:00<>METAR SBSV 120800Z 09011KT 9999 BKN018 BKN060 25/21 Q1015=
2025-10-12 09:00:00<>METAR SBSV 120900Z 08010KT 9999 SCT022 25/21 Q1015=
2025-10-12 10:00:00<>METAR SBSV 121000Z 09010KT 9999 SCT017 BKN023 27/21 Q1016=
2025-10-12 11:00:00<>METAR SBSV 121100Z 08010KT 9999 BKN020 27/21 Q1016=
2025-10-12 12:00:00<>METAR SBSV 121200Z 08009KT 9999 BKN020 27/21 Q1016=
2025-10-12 13:00:00<>METAR SBSV 121300Z 09010KT 050V120 9999 BKN020 28/21 Q1016=
2025-10-12 14:00:00<>METAR SBSV 121400Z 10011KT 080V140 9999 BKN020 28/22 Q1015=
2025-10-12 15:00:00<>METAR SBSV 121500Z 10011KT 9999 BKN021 28/21 Q1014=
2025-10-12 16:00:00<>METAR SBSV 121600Z 10013KT 9999 SCT021 BKN050 28/22 Q1014=
2025-10-12 17:00:00<>METAR SBSV 121700Z 10012KT 070V130 9000 VCSH SCT021 FEW023TCU BKN050 27/21 Q1013=
2025-10-12 18:00:00<>METAR SBSV 121800Z 10012KT 9999 SCT021 FEW023TCU BKN050 27/21 Q1013=
2025-10-12 19:00:00<>METAR SBSV 121900Z 09011KT 9999 SCT021 FEW023TCU BKN050 26/21 Q1013=
2025-10-12 20:00:00<>METAR SBSV 122000Z 11010KT 9999 VCSH SCT021 FEW023TCU BKN050 27/21 Q1013=
2025-10-12 21:00:00<>METAR SBSV 122100Z 07008KT 9999 FEW013 SCT030 25/21 Q1013=
2025-10-12 21:10:00<>SPECI SBSV 122110Z 07012KT 9000 4000N SHRA FEW011 SCT025 24/22 Q1014=
2025-10-12 21:45:00<>SPECI SBSV 122145Z 06009KT 9999 FEW011 SCT025 24/23 Q1014 RESHRA=
2025-10-12 22:00:00<>METAR SBSV 122200Z 06010KT 9999 FEW011 SCT025 24/23 Q1014 RESHRA=
2025-10-12 23:00:00<>METAR SBSV 122300Z 02004KT 9999 SCT025 SCT040 25/21 Q1014=
2025-10-13 00:00:00<>METAR SBSV 130000Z 01002KT 9999 SCT025 SCT040 25/21 Q1015=
2025-10-13 01:00:00<>METAR SBSV 130100Z VRB02KT 9999 SCT020 BKN060 24/22 Q1015=
2025-10-13 02:00:00<>METAR SBSV 130200Z 10005KT 9999 SCT018 BKN060 25/22 Q1015=
2025-10-13 03:00:00<>METAR SBSV 130300Z 08006KT 9999 SCT018 BKN060 25/22 Q1015=
2025-10-13 04:00:00<>METAR SBSV 130400Z 08008KT 9999 SCT018 BKN060 25/22 Q1014=
2025-10-13 05:00:00<>METAR SBSV 130500Z 08006KT 9999 SCT019 BKN060 25/22 Q1014=
2025-10-13 06:00:00<>METAR SBSV 130600Z 07008KT 9999 SCT019 SCT025 24/21 Q1014=
2025-10-13 07:00:00<>METAR SBSV 130700Z 07005KT 9999 SCT019 BKN025 25/21 Q1014=
2025-10-13 08:00:00<>METAR SBSV 130800Z 07007KT 9999 SCT019 BKN025 24/22 Q1015=
2025-10-13 09:00:00<>METAR SBSV 130900Z 08008KT 9999 SCT017 25/22 Q1015=
2025-10-13 10:00:00<>METAR SBSV 131000Z 09010KT 9999 VCSH FEW016 SCT019 FEW030TCU BKN032 26/22 Q1015=
2025-10-13 11:00:00<>METAR SBSV 131100Z 07013KT 9999 FEW018 BKN064 27/22 Q1016=
2025-10-13 12:00:00<>METAR SBSV 131200Z 08014KT 9999 FEW019 SCT030 BKN061 27/22 Q1016=
2025-10-13 13:00:00<>METAR SBSV 131300Z 08012KT 9999 VCSH SCT017 FEW025TCU BKN045 BKN054 27/23 Q1016=
2025-10-13 14:00:00<>METAR SBSV 131400Z 08013KT 9999 FEW017 BKN060 28/22 Q1016=
2025-10-13 15:00:00<>METAR SBSV 131500Z 08014KT 9999 FEW023 28/21 Q1015=
2025-10-13 16:00:00<>METAR SBSV 131600Z 07013KT 9999 FEW017 SCT020 28/21 Q1014=
2025-10-13 17:00:00<>METAR SBSV 131700Z 07015KT 9999 FEW018 28/22 Q1013=
2025-10-13 18:00:00<>METAR SBSV 131800Z 07017KT 9999 FEW018 28/21 Q1013=
2025-10-13 19:00:00<>METAR SBSV 131900Z 07014KT 9999 FEW018 27/22 Q1013=
2025-10-13 20:00:00<>METAR SBSV 132000Z 07015KT 9999 FEW018 26/22 Q1013=
2025-10-13 21:00:00<>METAR SBSV 132100Z 06012KT 9999 FEW018 26/21 Q1013=
2025-10-13 22:00:00<>METAR SBSV 132200Z 06014KT 9999 FEW018 26/21 Q1013=
2025-10-13 23:00:00<>METAR SBSV 132300Z 06013KT 9999 FEW018 26/21 Q1014=
2025-10-14 00:00:00<>METAR SBSV 140000Z 06014KT 9999 FEW018 26/21 Q1015=
2025-10-14 01:00:00<>METAR SBSV 140100Z 06013KT 9999 SCT019 26/21 Q1015=
2025-10-14 02:00:00<>METAR SBSV 140200Z 06011KT 9999 SCT019 25/21 Q1015=
2025-10-14 03:00:00<>METAR SBSV 140300Z 07013KT 9999 SCT019 25/21 Q1014=
2025-10-14 04:00:00<>METAR SBSV 140400Z 07012KT 9999 BKN019 25/21 Q1014=
2025-10-14 05:00:00<>METAR SBSV 140500Z 06011KT 9999 SCT019 25/21 Q1014=
2025-10-14 06:00:00<>METAR SBSV 140600Z 06012KT 9999 BKN020 BKN028 25/20 Q1014=
2025-10-14 07:00:00<>METAR SBSV 140700Z 06009KT 9999 SCT020 25/20 Q1014=
2025-10-14 08:00:00<>METAR SBSV 140800Z 07011KT 9999 BKN020 25/21 Q1015=
2025-10-14 09:00:00<>METAR SBSV 140900Z 06011KT 9999 BKN020 25/20 Q1016=
2025-10-14 10:00:00<>METAR SBSV 141000Z 06012KT 9999 BKN021 26/20 Q1016=
2025-10-14 11:00:00<>METAR SBSV 141100Z 07014KT 9999 SCT021 28/21 Q1016=
2025-10-14 12:00:00<>METAR SBSV 141200Z 07014KT 9999 SCT023 28/21 Q1017=
2025-10-14 13:00:00<>METAR SBSV 141300Z 07015KT 9999 SCT023 28/20 Q1016=
2025-10-14 14:00:00<>METAR SBSV 141400Z 08014KT 9999 SCT023 29/21 Q1016=
2025-10-14 15:00:00<>METAR SBSV 141500Z 07016KT 9999 SCT023 28/20 Q1015=
2025-10-14 16:00:00<>METAR SBSV 141600Z 07017KT 9999 FEW023 28/21 Q1014=
2025-10-14 17:00:00<>METAR SBSV 141700Z 06016KT 9999 FEW023 28/21 Q1014=
2025-10-14 18:00:00<>METAR SBSV 141800Z 07018KT 9999 FEW022 28/21 Q1013=
2025-10-14 19:00:00<>METAR SBSV 141900Z 07016KT 9999 FEW019 27/21 Q1014=
2025-10-14 20:00:00<>METAR SBSV 142000Z 07015KT 9999 FEW019 26/21 Q1014=
2025-10-14 21:00:00<>METAR SBSV 142100Z 07013KT CAVOK 26/21 Q1014=
2025-10-14 22:00:00<>METAR SBSV 142200Z 07015KT 9999 FEW019 25/21 Q1015=
2025-10-14 23:00:00<>METAR SBSV 142300Z 07014KT 9999 FEW019 25/21 Q1016=
2025-10-15 00:00:00<>METAR SBSV 150000Z 07014KT 9999 FEW020 25/21 Q1016=
2025-10-15 01:00:00<>METAR SBSV 150100Z 08014KT 9999 FEW020 25/21 Q1016=
2025-10-15 02:00:00<>METAR SBSV 150200Z 07012KT 9999 FEW020 25/21 Q1016=
2025-10-15 03:00:00<>METAR SBSV 150300Z 08012KT 9999 FEW020 25/21 Q1016=
2025-10-15 04:00:00<>METAR SBSV 150400Z 07009KT 9999 FEW020 25/20 Q1015=
2025-10-15 05:00:00<>METAR SBSV 150500Z 07010KT 9999 FEW020 25/20 Q1015=
2025-10-15 06:00:00<>METAR SBSV 150600Z 06008KT 9999 FEW020 24/21 Q1015=
2025-10-15 07:00:00<>METAR SBSV 150700Z 07007KT 9999 FEW020 24/20 Q1015=
2025-10-15 08:00:00<>METAR SBSV 150800Z 06007KT 9999 SCT020 24/21 Q1015=
2025-10-15 09:00:00<>METAR SBSV 150900Z 09007KT 9999 SCT020 25/21 Q1016=
2025-10-15 10:00:00<>METAR SBSV 151000Z 08007KT 8000 VCSH BKN020 FEW022TCU BKN040 26/21 Q1016=
2025-10-15 11:00:00<>METAR SBSV 151100Z 08013KT 9999 VCSH SCT020 FEW022TCU BKN060 27/21 Q1017=
2025-10-15 12:00:00<>METAR SBSV 151200Z 09014KT 9999 SCT020 FEW022TCU SCT060 28/21 Q1017=
2025-10-15 13:00:00<>METAR SBSV 151300Z 09013KT 9999 SCT020 FEW022TCU SCT070 29/21 Q1017=
2025-10-15 14:00:00<>METAR SBSV 151400Z 09014KT 9999 SCT020 FEW022TCU SCT070 28/21 Q1017=
2025-10-15 15:00:00<>METAR SBSV 151500Z 09014KT 9999 SCT020 SCT070 28/21 Q1016=
2025-10-15 16:00:00<>METAR SBSV 151600Z 09014KT 9999 SCT020 SCT070 28/21 Q1015=
2025-10-15 17:00:00<>METAR SBSV 151700Z 10014KT 9999 SCT020 28/21 Q1015=
2025-10-15 18:00:00<>METAR SBSV 151800Z 09013KT 9999 SCT022 28/21 Q1014=
2025-10-15 19:00:00<>METAR SBSV 151900Z 09014KT 9999 SCT022 27/20 Q1014=
2025-10-15 20:00:00<>METAR SBSV 152000Z 09012KT 9999 SCT021 26/20 Q1014=
2025-10-15 21:00:00<>METAR SBSV 152100Z 09011KT 9999 SCT022 26/20 Q1015=
2025-10-15 22:00:00<>METAR SBSV 152200Z 10011KT 9999 SCT023 26/20 Q1016=
2025-10-15 23:00:00<>METAR SBSV 152300Z 10010KT 9999 BKN021 26/20 Q1016=
2025-10-16 00:00:00<>METAR SBSV 160000Z 10011KT 9999 BKN020 26/20 Q1017=
2025-10-16 01:00:00<>METAR SBSV 160100Z 09010KT 9999 SCT022 25/20 Q1017=
2025-10-16 02:00:00<>METAR SBSV 160200Z 08011KT 9999 FEW023 25/19 Q1016=
2025-10-16 03:00:00<>METAR SBSV 160300Z 09010KT 9999 FEW023 25/20 Q1016=
2025-10-16 04:00:00<>METAR SBSV 160400Z 09010KT 9999 FEW024 25/19 Q1016=
2025-10-16 05:00:00<>METAR SBSV 160500Z 09010KT 9999 SCT025 25/19 Q1015=
2025-10-16 06:00:00<>METAR SBSV 160600Z 09009KT 9999 FEW025 25/18 Q1015=
2025-10-16 07:00:00<>METAR SBSV 160700Z 08008KT 9999 FEW025 25/19 Q1015=
2025-10-16 08:00:00<>METAR SBSV 160800Z 08006KT 9999 FEW022 24/19 Q1016=
2025-10-16 09:00:00<>METAR SBSV 160900Z 09007KT 9999 FEW022 25/20 Q1016=
2025-10-16 10:00:00<>METAR SBSV 161000Z 09009KT 9999 SCT021 26/20 Q1017=
2025-10-16 11:00:00<>METAR SBSV 161100Z 10009KT 9999 SCT021 27/19 Q1017=
2025-10-16 12:00:00<>METAR SBSV 161200Z 10008KT 9999 SCT023 27/20 Q1017=
2025-10-16 13:00:00<>METAR SBSV 161300Z 09009KT 9999 SCT023 27/20 Q1017=
2025-10-16 14:00:00<>METAR SBSV 161400Z 10009KT 9999 SCT025 27/20 Q1017=
2025-10-16 15:00:00<>METAR SBSV 161500Z 11008KT 9999 SCT025 SCT050 28/21 Q1016=
2025-10-16 16:00:00<>METAR SBSV 161600Z 11008KT 9999 SCT025 SCT050 27/20 Q1015=
2025-10-16 17:00:00<>METAR SBSV 161700Z 15009KT 9999 VCSH SCT023 FEW025TCU SCT050 27/20 Q1015=
2025-10-16 17:09:00<>SPECI SBSV 161709Z 08014KT 3000 -SHRA BKN017 FEW023TCU BKN060 25/20 Q1015=
2025-10-16 18:00:00<>METAR SBSV 161800Z 13003KT 050V210 9999 VCSH SCT017 FEW023TCU BKN060 25/21 Q1014=
2025-10-16 19:00:00<>METAR SBSV 161900Z 11009KT 080V160 9999 SCT017 BKN060 26/21 Q1014=
2025-10-16 20:00:00<>METAR SBSV 162000Z 09010KT 9999 SCT017 BKN060 26/21 Q1014=
2025-10-16 21:00:00<>METAR SBSV 162100Z 11009KT 090V170 9999 SCT020 BKN060 25/20 Q1014=
2025-10-16 22:00:00<>METAR SBSV 162200Z 10006KT 9999 SCT020 BKN060 25/20 Q1014=
2025-10-16 23:00:00<>METAR SBSV 162300Z 09007KT 9999 SCT020 BKN060 25/20 Q1015=
2025-10-17 00:00:00<>METAR SBSV 170000Z 09009KT 9999 SCT020 25/20 Q1015=
2025-10-17 01:00:00<>METAR SBSV 170100Z 10008KT 9999 SCT018 25/21 Q1015=
2025-10-17 02:00:00<>METAR SBSV 170200Z 10009KT 9999 SCT021 25/20 Q1015=
2025-10-17 03:00:00<>METAR SBSV 170300Z 10007KT 070V150 9999 SCT021 25/20 Q1015=
2025-10-17 04:00:00<>METAR SBSV 170400Z 10008KT 9999 SCT024 25/19 Q1015=
2025-10-17 05:00:00<>METAR SBSV 170500Z 10007KT 9999 FEW016 SCT023 25/19 Q1014=
2025-10-17 06:00:00<>METAR SBSV 170600Z 09007KT 9999 SCT021 25/19 Q1014=
2025-10-17 07:00:00<>METAR SBSV 170700Z 08006KT 9999 FEW022 24/19 Q1014=
2025-10-17 08:00:00<>METAR SBSV 170800Z 09007KT 9999 SCT023 FEW025TCU 24/19 Q1015=
2025-10-17 09:00:00<>METAR SBSV 170900Z 08007KT 9999 SCT024 25/20 Q1015=
2025-10-17 10:00:00<>METAR SBSV 171000Z 07008KT 9999 SCT021 26/20 Q1016=
2025-10-17 11:00:00<>METAR SBSV 171100Z 07010KT 9999 SCT021 27/20 Q1017=
2025-10-17 12:00:00<>METAR SBSV 171200Z 08010KT 9999 SCT023 27/20 Q1017=
2025-10-17 13:00:00<>METAR SBSV 171300Z 10010KT 9999 SCT023 28/20 Q1017=
2025-10-17 14:00:00<>METAR SBSV 171400Z 10012KT 9999 SCT023 28/20 Q1016=
2025-10-17 15:00:00<>METAR SBSV 171500Z 08012KT 9999 SCT025 28/21 Q1015=
2025-10-17 16:00:00<>METAR SBSV 171600Z 10012KT 9999 SCT025 28/20 Q1014=
2025-10-17 17:00:00<>METAR SBSV 171700Z 09011KT 9999 FEW025 28/21 Q1013=
2025-10-17 18:00:00<>METAR SBSV 171800Z 11012KT 9999 SCT020 27/21 Q1013=
2025-10-17 19:00:00<>METAR SBSV 171900Z 10011KT 9999 SCT018 27/20 Q1013=
2025-10-17 20:00:00<>METAR SBSV 172000Z 10009KT 9999 SCT018 26/20 Q1013=
2025-10-17 21:00:00<>METAR SBSV 172100Z 09009KT 9999 SCT020 26/20 Q1014=
2025-10-17 22:00:00<>METAR SBSV 172200Z 10008KT 9999 SCT020 25/21 Q1014=
2025-10-17 23:00:00<>METAR SBSV 172300Z 10009KT 9999 FEW022 25/21 Q1015=
2025-10-18 00:00:00<>METAR SBSV 180000Z 08009KT 9999 FEW022 25/20 Q1015=
2025-10-18 01:00:00<>METAR SBSV 180100Z 08011KT 9999 FEW020 25/20 Q1015=
2025-10-18 02:00:00<>METAR SBSV 180200Z 08010KT 9999 SCT020 25/20 Q1014=
2025-10-18 03:00:00<>METAR SBSV 180300Z 07009KT 9999 SCT020 25/20 Q1014=
2025-10-18 04:00:00<>METAR SBSV 180400Z 08010KT 9999 SCT020 25/20 Q1014=
2025-10-18 05:00:00<>METAR SBSV 180500Z 08007KT 9999 SCT020 25/20 Q1014=
2025-10-18 06:00:00<>METAR SBSV 180600Z 07006KT 9999 SCT020 24/19 Q1014=
2025-10-18 07:00:00<>METAR SBSV 180700Z 08008KT 9999 SCT020 24/20 Q1013=
2025-10-18 08:00:00<>METAR SBSV 180800Z 08009KT 9999 SCT020 24/20 Q1014=
2025-10-18 09:00:00<>METAR SBSV 180900Z 08010KT 9999 SCT020 25/20 Q1014=
2025-10-18 10:00:00<>METAR SBSV 181000Z 08012KT 9999 SCT023 26/20 Q1015=
2025-10-18 11:00:00<>METAR SBSV 181100Z 06011KT 9999 SCT023 SCT038 27/20 Q1016=
2025-10-18 12:00:00<>METAR SBSV 181200Z 06013KT 040V100 9999 FEW022 28/21 Q1016=
2025-10-18 13:00:00<>METAR SBSV 181300Z 08014KT 9999 FEW025 28/20 Q1016=
2025-10-18 14:00:00<>METAR SBSV 181400Z 07016KT 9999 FEW025 29/20 Q1015=
2025-10-18 15:00:00<>METAR SBSV 181500Z 07016KT 9999 FEW026 28/20 Q1014=
2025-10-18 16:00:00<>METAR SBSV 181600Z 07015KT 9999 FEW030 28/20 Q1013=
2025-10-18 17:00:00<>METAR SBSV 181700Z 08014KT 9999 FEW030 28/20 Q1013=
2025-10-18 18:00:00<>METAR SBSV 181800Z 08015KT 9999 FEW030 28/20 Q1012=
2025-10-18 19:00:00<>METAR SBSV 181900Z 06015KT 9999 FEW023 27/20 Q1012=
2025-10-18 20:00:00<>METAR SBSV 182000Z 06012KT 9999 FEW023 26/20 Q1012=
2025-10-18 21:00:00<>METAR SBSV 182100Z 06010KT 9999 FEW023 26/20 Q1013=
2025-10-18 22:00:00<>METAR SBSV 182200Z 06012KT 9999 FEW023 26/21 Q1013=
2025-10-18 23:00:00<>METAR SBSV 182300Z 06012KT 9999 FEW018 25/21 Q1013=
2025-10-19 00:00:00<>METAR SBSV 190000Z 05012KT 9999 FEW018 26/21 Q1014=
2025-10-19 01:00:00<>METAR SBSV 190100Z 05012KT 9999 FEW017 25/21 Q1014=
2025-10-19 02:00:00<>METAR SBSV 190200Z 05010KT 9999 FEW017 25/21 Q1013=
2025-10-19 03:00:00<>METAR SBSV 190300Z 05010KT 9999 SCT017 25/21 Q1013=
2025-10-19 04:00:00<>METAR SBSV 190400Z 08008KT 9999 SCT017 25/21 Q1012=
2025-10-19 05:00:00<>METAR SBSV 190500Z 35004KT 9999 SCT019 24/21 Q1012=
2025-10-19 06:00:00<>METAR SBSV 190600Z 01003KT 9999 SCT020 24/21 Q1011=
2025-10-19 07:00:00<>METAR SBSV 190700Z 36004KT 9999 SCT020 24/21 Q1011=
2025-10-19 08:00:00<>METAR SBSV 190800Z 36004KT 9999 FEW020 23/21 Q1012=
2025-10-19 09:00:00<>METAR SBSV 190900Z 35004KT 9999 SCT020 24/22 Q1013=
2025-10-19 10:00:00<>METAR SBSV 191000Z 01008KT 340V040 9999 FEW020 SCT060 25/21 Q1013=
2025-10-19 11:00:00<>METAR SBSV 191100Z 02010KT 350V060 9999 FEW018 BKN035 27/21 Q1013=
2025-10-19 12:00:00<>METAR SBSV 191200Z 02009KT 340V070 9999 BKN030 29/21 Q1013=
2025-10-19 13:00:00<>METAR SBSV 191300Z 06013KT 020V090 9999 FEW025 BKN040 28/21 Q1013=
2025-10-19 14:00:00<>METAR SBSV 191400Z 07016KT 9999 FEW025TCU BKN035 28/22 Q1012=
2025-10-19 15:00:00<>METAR SBSV 191500Z 06017KT 9999 FEW026 BKN040 29/22 Q1011=
2025-10-19 16:00:00<>METAR SBSV 191600Z 06019KT 9999 SCT045 29/21 Q1010=
2025-10-19 17:00:00<>METAR SBSV 191700Z 06020KT 9999 FEW040 29/21 Q1009=
2025-10-19 18:00:00<>METAR SBSV 191800Z 06020KT CAVOK 28/21 Q1009=
2025-10-19 19:00:00<>METAR SBSV 191900Z 06020KT CAVOK 28/22 Q1009=
2025-10-19 20:00:00<>METAR SBSV 192000Z 06017KT CAVOK 27/22 Q1009=
2025-10-19 21:00:00<>METAR SBSV 192100Z 06017KT 9999 FEW017 26/22 Q1010=
2025-10-19 22:00:00<>METAR SBSV 192200Z 06015KT 9999 SCT017 26/22 Q1010=
2025-10-19 23:00:00<>METAR SBSV 192300Z 05015KT 9999 SCT016 26/22 Q1011=
2025-10-20 00:00:00<>METAR SBSV 200000Z 05017KT 9999 BKN016 26/22 Q1011=
2025-10-20 01:00:00<>METAR SBSV 200100Z 05016KT 9999 BKN017 26/22 Q1011=
2025-10-20 02:00:00<>METAR SBSV 200200Z 05013KT 9999 BKN017 26/22 Q1011=
2025-10-20 03:00:00<>METAR SBSV 200300Z 06014KT 9999 SCT020 BKN025 26/22 Q1011=
2025-10-20 04:00:00<>METAR SBSV 200400Z 06013KT 9999 FEW020 BKN025 26/22 Q1011=
2025-10-20 05:00:00<>METAR SBSV 200500Z 06010KT 9999 FEW020 BKN025 26/22 Q1011=
2025-10-20 06:00:00<>METAR SBSV 200600Z 05010KT 9999 FEW020 BKN025 26/22 Q1011=
2025-10-20 07:00:00<>METAR SBSV 200700Z 06009KT 9999 FEW020 BKN025 26/22 Q1012=
2025-10-20 08:00:00<>METAR SBSV 200800Z 03004KT 9999 SCT017 BKN050 26/22 Q1013=
2025-10-20 09:00:00<>METAR SBSV 200900Z 02003KT 9999 FEW017 BKN050 26/22 Q1013=
2025-10-20 10:00:00<>METAR SBSV 201000Z 36003KT 9999 VCSH FEW017 SCT040 BKN100 25/22 Q1015=
2025-10-20 11:00:00<>METAR SBSV 201100Z VRB01KT 9999 SCT023 SCT040 BKN080 26/22 Q1015=
2025-10-20 11:35:00<>SPECI SBSV 201135Z 33003KT 4500 RA SCT013 SCT025 BKN080 25/22 Q1016=
2025-10-20 12:00:00<>METAR SBSV 201200Z 30003KT 4000 RA SCT013 SCT025 BKN080 25/23 Q1016=
2025-10-20 13:00:00<>METAR SBSV 201300Z 29008KT 7000 3000E RA SCT017 SCT025 OVC080 24/23 Q1016=
2025-10-20 13:10:00<>SPECI SBSV 201310Z 31006KT 3000 +RA SCT017 SCT025 OVC080 24/23 Q1016 RERA=
2025-10-20 13:25:00<>SPECI SBSV 201325Z 31005KT 280V360 2000 +RA SCT004 SCT017 OVC080 24/23 Q1016=
2025-10-20 14:00:00<>METAR SBSV 201400Z 28004KT 8000 -RA FEW004 SCT017 OVC080 24/23 Q1016 RERA=
2025-10-20 15:00:00<>METAR COR SBSV 201500Z 26006KT 9999 VCSH FEW009 BKN021 OVC080 24/23 Q1016=
2025-10-20 15:30:00<>SPECI SBSV 201530Z 20007KT 9999 VCSH BKN007 SCT021 OVC080 24/23 Q1016=
2025-10-20 16:00:00<>METAR SBSV 201600Z 22009KT 9999 VCSH BKN007 SCT021 OVC080 24/22 Q1015=
2025-10-20 17:00:00<>METAR SBSV 201700Z 19010KT 6000 VCSH BKN007 SCT021 OVC080 24/23 Q1015=
2025-10-20 18:00:00<>METAR SBSV 201800Z 17012KT 130V190 5000 BR VCSH BKN009 BKN019 OVC040 24/23 Q1014=
2025-10-20 19:00:00<>METAR SBSV 201900Z 15014KT 4000 -DZ BR BKN006 OVC017 23/23 Q1015=
2025-10-20 19:13:00<>SPECI SBSV 201913Z 15013KT 2000 RA BR BKN006 OVC017 23/22 Q1015=
2025-10-20 20:00:00<>METAR SBSV 202000Z 18015G28KT 110V220 2000 RA BR BKN005 BKN015 OVC023 22/22 Q1015=
2025-10-20 21:00:00<>METAR SBSV 202100Z 18011KT 160V220 2000 RA BR BKN005 BKN011 OVC019 22/22 Q1016=
2025-10-20 22:00:00<>METAR SBSV 202200Z 17014G24KT 2000 RA BR BKN005 BKN014 OVC022 22/22 Q1017=
2025-10-20 22:35:00<>SPECI SBSV 202235Z 18015KT 6000 RA FEW006 BKN008 OVC030 23/23 Q1017=
2025-10-20 23:00:00<>METAR SBSV 202300Z 18015KT 6000 -RA BKN008 OVC030 23/23 Q1017 RERA=
2025-10-21 00:00:00<>METAR SBSV 210000Z 16018G28KT 130V190 6000 -RA BKN011 OVC040 23/22 Q1018=
2025-10-21 01:00:00<>METAR SBSV 210100Z 17016G26KT 6000 -RA BKN012 OVC016 23/22 Q1018=
2025-10-21 02:00:00<>METAR SBSV 210200Z 16018KT 9999 BKN013 BKN017 BKN040 23/21 Q1018=
2025-10-21 03:00:00<>METAR SBSV 210300Z 16018KT 9999 BKN013 BKN015 BKN020 23/21 Q1017=
2025-10-21 04:00:00<>METAR SBSV 210400Z 17016KT 9999 BKN012 BKN015 BKN020 23/21 Q1017=
2025-10-21 05:00:00<>METAR SBSV 210500Z 17015KT 9999 BKN013 BKN020 24/21 Q1016=
2025-10-21 06:00:00<>METAR SBSV 210600Z 18015KT 9999 FEW011 BKN013 OVC022 23/21 Q1016=
2025-10-21 07:00:00<>METAR SBSV 210700Z 16016KT 9999 SCT010 BKN017 OVC041 23/21 Q1016=
2025-10-21 08:00:00<>METAR SBSV 210800Z 16017KT 3000 -RA BKN008 OVC011 23/22 Q1017=
2025-10-21 09:00:00<>METAR SBSV 210900Z 17017G27KT 3000 -RA BKN009 BKN012 OVC051 23/21 Q1017=
2025-10-21 10:00:00<>METAR SBSV 211000Z 16016KT 5000 -RA BR SCT013 BKN017 OVC040 24/20 Q1018=
2025-10-21 10:03:00<>SPECI SBSV 211003Z 17017G28KT 5000 -RA BR SCT013 BKN017 OVC040 23/20 Q1018=
2025-10-21 11:00:00<>METAR SBSV 211100Z 17016G27KT 3000 -RA BR BKN012 BKN015 OVC040 23/20 Q1019=
2025-10-21 11:38:00<>SPECI SBSV 211138Z 16019KT 5000 -RA BR BKN010 BKN015 OVC050 22/21 Q1019=
2025-10-21 12:00:00<>METAR SBSV 211200Z 16014KT 8000 VCSH BKN010 BKN015 OVC050 24/21 Q1019=
2025-10-21 12:31:00<>SPECI SBSV 211231Z 17016KT 8000 VCSH BKN015 BKN017 OVC050 24/20 Q1019=
2025-10-21 13:00:00<>METAR SBSV 211300Z 17016KT 8000 VCSH BKN015 BKN017 OVC050 24/20 Q1019=
2025-10-21 14:00:00<>METAR SBSV 211400Z 16014KT 5000 -RA BKN015 BKN017 OVC050 24/20 Q1019=
2025-10-21 14:44:00<>SPECI SBSV 211444Z 16014KT 130V190 8000 VCSH BKN012 BKN017 OVC050 24/20 Q1019=
2025-10-21 15:00:00<>METAR SBSV 211500Z 16014KT 8000 VCSH BKN012 BKN017 BKN050 25/20 Q1019 WS R10=
2025-10-21 16:00:00<>METAR SBSV 211600Z 16016G27KT 3000 -RA BR BKN010 BKN015 BKN050 23/20 Q1018 WS R10 WS R28=
2025-10-21 16:30:00<>SPECI COR SBSV 211630Z 16019KT 7000 -RA BKN013 BKN017 BKN050 24/18 Q1018 WS R10 WS R28=
2025-10-21 17:00:00<>METAR SBSV 211700Z 16016KT 8000 VCSH BKN012 BKN017 BKN050 24/19 Q1017 WS R10 WS R28=
2025-10-21 18:00:00<>METAR SBSV 211800Z 14015KT 9000 VCSH SCT023 BKN050 24/19 Q1017=
2025-10-21 19:00:00<>METAR SBSV 211900Z 17013KT 3000 -RA SCT008 BKN015 24/20 Q1017=
2025-10-21 19:18:00<>SPECI SBSV 211918Z 18013KT 2000 R28/1200 R10/1800 -RA BR FEW007 BKN009 OVC050 22/21 Q1017=
2025-10-21 20:00:00<>METAR SBSV 212000Z 17016G26KT 3000 -RA SCT006 BKN012 22/21 Q1018=
2025-10-21 21:00:00<>METAR SBSV 212100Z 17019KT 6000 -RA BKN009 OVC050 22/21 Q1018=
2025-10-21 22:00:00<>METAR SBSV 212200Z 17015KT 4000 -RA BR BKN009 OVC050 22/21 Q1019=
2025-10-21 23:00:00<>METAR SBSV 212300Z 17012KT 4000 R28/1100 R10/P2000 -RA BR BKN007 OVC050 22/21 Q1019=
2025-10-22 00:00:00<>METAR SBSV 220000Z 16015G25KT 130V190 4000 -RA BR BKN015 OVC050 23/20 Q1019=
2025-10-22 00:24:00<>SPECI SBSV 220024Z 17015KT 6000 -RA BKN015 OVC050 23/21 Q1019=
2025-10-22 01:00:00<>METAR SBSV 220100Z 18016KT 3000 -RA BR BKN010 BKN017 OVC030 23/21 Q1019=
2025-10-22 01:15:00<>SPECI SBSV 220115Z 15017G27KT 3000 -RA BR BKN010 OVC025 23/21 Q1019=
2025-10-22 02:00:00<>METAR SBSV 220200Z 15016G29KT 3000 RA BR BKN010 OVC025 23/20 Q1019=
2025-10-22 02:33:00<>SPECI COR SBSV 220233Z 17015G25KT 130V190 5000 -RA BKN013 OVC030 23/20 Q1018 RERA=
2025-10-22 03:00:00<>METAR SBSV 220300Z 17014G24KT 5000 -RA BKN013 OVC040 24/19 Q1018 RERA=
2025-10-22 04:00:00<>METAR SBSV 220400Z 18015G25KT 150V210 5000 -RA BR BKN010 BKN016 OVC040 23/19 Q1017=
2025-10-22 05:00:00<>METAR SBSV 220500Z 17017G29KT 150V210 6000 -RA BKN011 BKN016 OVC040 23/19 Q1016=
2025-10-22 06:00:00<>METAR SBSV 220600Z 18014G24KT 150V220 6000 -RA BKN016 OVC045 24/19 Q1016=
2025-10-22 07:00:00<>METAR SBSV 220700Z 18015KT 8000 VCSH FEW015 BKN020 OVC050 24/19 Q1016=
2025-10-22 07:21:00<>SPECI SBSV 220721Z 18012G22KT 150V210 7000 -RA FEW015 BKN020 OVC050 24/19 Q1016=
2025-10-22 08:00:00<>METAR SBSV 220800Z 17015G27KT 140V200 5000 -RA BR BKN015 BKN021 OVC040 23/20 Q1016=
2025-10-22 09:00:00<>METAR SBSV 220900Z 18013G23KT 140V220 6000 -RA BKN017 OVC045 24/20 Q1017=
2025-10-22 09:01:00<>SPECI SBSV 220901Z 17017G31KT 140V200 2000 RA BR BKN012 OVC040 24/20 Q1017=
2025-10-22 10:00:00<>METAR SBSV 221000Z 15014G25KT 3000 RA BKN009 BKN017 OVC040 23/21 Q1018=
2025-10-22 10:16:00<>SPECI SBSV 221016Z 17016KT 3000 -RA BR BKN009 BKN017 OVC040 23/20 Q1018 RERA=
2025-10-22 11:00:00<>METAR SBSV 221100Z 16016G27KT 130V190 5000 BR BKN009 BKN017 OVC040 23/21 Q1021 RERA=
2025-10-22 11:13:00<>SPECI SBSV 221113Z 14016G27KT 2000 RA BR BKN005 BKN010 23/21 Q1019=
2025-10-22 12:00:00<>METAR SBSV 221200Z 15017G27KT 2000 RA BKN006 BKN010 23/22 Q1019=
2025-10-22 13:00:00<>METAR SBSV 221300Z 16015KT 2000 RA BKN008 BKN015 23/22 Q1019=
2025-10-22 14:00:00<>METAR SBSV 221400Z 16014KT 3000 -RA BR BKN009 BKN015 23/22 Q1019 RERA=
2025-10-22 15:00:00<>METAR SBSV 221500Z 17012G24KT 1800 R28/1000 R10/2000 -RA BKN008 BKN014 24/23 Q1018=
2025-10-22 15:25:00<>SPECI SBSV 221525Z 15016KT 1400 R28/0700 R10/P2000 RA BR BKN004 BKN011 23/22 Q1018=
2025-10-22 16:00:00<>METAR SBSV 221600Z 14012G22KT 1400 R28/0700 R10/P2000 RA BR BKN006 BKN011 23/22 Q1017=
2025-10-22 17:00:00<>METAR COR SBSV 221700Z 13014G24KT 1200 R28/0500 R10/1400 RA BR BKN004 BKN011 23/22 Q1017 WS R10=
2025-10-22 18:00:00<>METAR SBSV 221800Z 15016KT 1200 R28/0600 R10/1200 +RA BR BKN005 OVC012 22/22 Q1017 RERA WS R10=
2025-10-22 18:04:00<>SPECI SBSV 221804Z 16017G28KT 1200 R28/0600 R10/1200 +RA BKN005 OVC012 22/22 Q1017 WS R10=
2025-10-22 18:35:00<>SPECI SBSV 221835Z 17014G24KT 2000 R28/0700 R10/1800 -RA BR BKN007 OVC015 23/23 Q1017 RERA WS R10=
2025-10-22 19:00:00<>METAR SBSV 221900Z 19014KT 170V240 2500 -RA BR BKN007 OVC013 22/22 Q1016 RERA WS R10=
2025-10-22 19:12:00<>SPECI SBSV 221912Z 17017G27KT 140V200 5000 -RA BR BKN008 BKN015 OVC070 24/23 Q1015 WS R10=
2025-10-22 20:00:00<>METAR SBSV 222000Z 11017KT 1200 R28/0600 R10/1800 RA BR BKN005 BKN014 OVC070 22/22 Q1017=
2025-10-22 21:00:00<>METAR SBSV 222100Z 10011KT 3000 RA BR BKN005 BKN013 OVC070 22/22 Q1018=
2025-10-22 22:00:00<>METAR SBSV 222200Z 16007G17KT 130V230 7000 -RA BKN006 BKN013 OVC070 22/22 Q1018 RERA=
2025-10-22 23:00:00<>METAR SBSV 222300Z 10015KT 6000 -RA BKN005 BKN011 OVC020 22/21 Q1019=
2025-10-23 00:00:00<>METAR SBSV 230000Z 08012KT 5000 -RA BR BKN007 OVC019 21/20 Q1020=
2025-10-23 01:00:00<>METAR SBSV 230100Z 10010KT 9999 -RA BKN007 OVC019 21/21 Q1020=
2025-10-23 02:00:00<>METAR SBSV 230200Z 11008KT 080V140 5000 -RA SCT006 BKN011 OVC050 21/21 Q1020=
2025-10-23 03:00:00<>METAR SBSV 230300Z VRB03KT 4000 R28/1300 R10/P2000 -DZ BKN004 BKN009 OVC050 21/21 Q1019=
2025-10-23 04:00:00<>METAR SBSV 230400Z 09006KT 9000 BKN011 OVC050 22/21 Q1018=
2025-10-23 05:00:00<>METAR SBSV 230500Z 15013KT 9999 FEW013 BKN030 OVC050 22/19 Q1018=
2025-10-23 06:00:00<>METAR SBSV 230600Z 17017KT 9999 BKN011 OVC050 22/20 Q1018=
2025-10-23 07:00:00<>METAR SBSV 230700Z 16017KT 9999 BKN011 OVC050 22/20 Q1018=
2025-10-23 08:00:00<>METAR SBSV 230800Z 16017KT 9999 BKN015 OVC050 23/20 Q1018=
2025-10-23 09:00:00<>METAR SBSV 230900Z 17016KT 9999 BKN015 OVC050 23/20 Q1019=
2025-10-23 10:00:00<>METAR SBSV 231000Z 17015KT 9999 BKN017 BKN050 24/19 Q1019=
2025-10-23 11:00:00<>METAR SBSV 231100Z 16015KT 9999 BKN017 BKN040 25/19 Q1020=
2025-10-23 12:00:00<>METAR SBSV 231200Z 17015KT 9999 BKN018 BKN040 24/18 Q1020=
2025-10-23 13:00:00<>METAR SBSV 231300Z 17014KT 9999 BKN015 BKN040 25/19 Q1021=
2025-10-23 14:00:00<>METAR SBSV 231400Z 18003KT 9999 BKN015 BKN040 24/19 Q1020=
2025-10-23 15:00:00<>METAR SBSV 231500Z 18014KT 9999 BKN013 SCT040 24/20 Q1019=
2025-10-23 16:00:00<>METAR SBSV 231600Z 20012KT 9999 BKN015 SCT040 25/20 Q1019=
2025-10-23 17:00:00<>METAR SBSV 231700Z 17014KT 9999 BKN015 SCT040 26/18 Q1018=
2025-10-23 18:00:00<>METAR SBSV 231800Z 19011KT 160V230 9999 BKN015 25/19 Q1018=
2025-10-23 19:00:00<>METAR SBSV 231900Z 19011KT 160V220 9999 BKN015 25/20 Q1018=
2025-10-23 20:00:00<>METAR SBSV 232000Z 20009KT 9999 BKN015 24/20 Q1018=
2025-10-23 21:00:00<>METAR SBSV 232100Z 20006KT 170V230 9999 SCT011 BKN015 24/20 Q1018=
2025-10-23 22:00:00<>METAR SBSV 232200Z 20006KT 170V230 9999 BKN015 24/21 Q1018=
2025-10-23 23:00:00<>METAR SBSV 232300Z 19003KT 120V230 9999 BKN015 24/21 Q1019=
2025-10-24 00:00:00<>METAR SBSV 240000Z 16004KT 9999 BKN015 24/21 Q1019=
2025-10-24 01:00:00<>METAR SBSV 240100Z 17003KT 9999 SCT015 24/21 Q1020=
2025-10-24 02:00:00<>METAR SBSV 240200Z 15003KT 9999 SCT015 24/21 Q1019=
2025-10-24 03:00:00<>METAR SBSV 240300Z 16004KT 9999 SCT015 BKN030 24/21 Q1018=
2025-10-24 04:00:00<>METAR SBSV 240400Z 18003KT 150V220 9999 SCT017 SCT030 24/21 Q1018=
2025-10-24 05:00:00<>METAR SBSV 240500Z 12012KT 9999 BKN017 BKN030 24/20 Q1018=
2025-10-24 05:05:00<>SPECI SBSV 240505Z 11011KT 080V150 4000 RA BR BKN013 BKN017 BKN030 23/21 Q1018=
2025-10-24 06:00:00<>METAR SBSV 240600Z 20006KT 9000 VCSH BKN017 BKN030 BKN070 22/20 Q1017 RERA=
2025-10-24 07:00:00<>METAR SBSV 240700Z 17006KT 140V210 9999 BKN017 BKN040 BKN070 24/21 Q1017=
2025-10-24 08:00:00<>METAR SBSV 240800Z 17006KT 140V220 9999 SCT017 SCT070 23/20 Q1018=
2025-10-24 09:00:00<>METAR SBSV 240900Z 15006KT 9999 SCT017 SCT070 25/22 Q1018=
2025-10-24 10:00:00<>METAR SBSV 241000Z 13009KT 100V160 9999 VCSH BKN021 FEW025TCU BKN040 25/21 Q1019=
2025-10-24 11:00:00<>METAR SBSV 241100Z 12010KT 9999 SCT021 SCT070 26/20 Q1019=
2025-10-24 12:00:00<>METAR SBSV 241200Z 11010KT 090V150 9999 SCT022 SCT080 27/20 Q1019=
2025-10-24 13:00:00<>METAR SBSV 241300Z 13010KT 100V160 9999 SCT020 SCT055 28/21 Q1020=
2025-10-24 14:00:00<>METAR SBSV 241400Z 11010KT 9999 VCSH SCT021 FEW025TCU 28/21 Q1019=
2025-10-24 15:00:00<>METAR SBSV 241500Z 12010KT 100V160 9999 SCT023 28/20 Q1018=
2025-10-24 16:00:00<>METAR SBSV 241600Z 12010KT 090V160 9999 SCT020 28/21 Q1017=
2025-10-24 17:00:00<>METAR SBSV 241700Z 12010KT 9999 SCT020 28/20 Q1017=
2025-10-24 18:00:00<>METAR SBSV 241800Z 12009KT 090V160 9999 SCT020 28/21 Q1017=
2025-10-24 19:00:00<>METAR SBSV 241900Z 15011KT 9999 SCT020 27/21 Q1017=
2025-10-24 20:00:00<>METAR SBSV 242000Z 15009KT 9999 SCT020 SCT050 26/20 Q1017=
2025-10-24 21:00:00<>METAR SBSV 242100Z 14008KT 110V190 9999 SCT020 SCT050 26/21 Q1017=
2025-10-24 22:00:00<>METAR SBSV 242200Z 13006KT 9999 SCT020 26/21 Q1018=
2025-10-24 23:00:00<>METAR SBSV 242300Z 13006KT 110V180 9999 SCT020 26/21 Q1018=
2025-10-25 00:00:00<>METAR SBSV 250000Z 12007KT 9999 SCT020 26/22 Q1018=
2025-10-25 01:00:00<>METAR SBSV 250100Z 12007KT 9999 BKN017 25/22 Q1018=
2025-10-25 02:00:00<>METAR SBSV 250200Z 13006KT 110V190 9999 BKN017 25/22 Q1018=
2025-10-25 03:00:00<>METAR SBSV 250300Z 14005KT 110V170 9999 BKN020 25/23 Q1017=
2025-10-25 04:00:00<>METAR SBSV 250400Z 10007KT 9999 BKN019 25/22 Q1016=
2025-10-25 05:00:00<>METAR SBSV 250500Z 09008KT 070V130 9999 BKN019 25/21 Q1016=
2025-10-25 06:00:00<>METAR SBSV 250600Z 09007KT 9999 BKN017 25/21 Q1015=
2025-10-25 07:00:00<>METAR SBSV 250700Z 08008KT 9999 SCT017 25/21 Q1016=
2025-10-25 08:00:00<>METAR SBSV 250800Z 08011KT 9999 BKN020 25/21 Q1016=
2025-10-25 09:00:00<>METAR SBSV 250900Z 09010KT 9999 BKN020 25/21 Q1017=
2025-10-25 10:00:00<>METAR SBSV 251000Z 08013KT 9999 SCT019 26/21 Q1017=
2025-10-25 11:00:00<>METAR SBSV 251100Z 08014KT 9999 SCT021 28/21 Q1018=
2025-10-25 12:00:00<>METAR SBSV 251200Z 07014KT 9999 SCT020 27/21 Q1018=
2025-10-25 13:00:00<>METAR SBSV 251300Z 07015KT 9999 SCT020 28/21 Q1018=
2025-10-25 14:00:00<>METAR SBSV 251400Z 07015KT 9999 SCT023 28/21 Q1017=
2025-10-25 15:00:00<>METAR SBSV 251500Z 08015KT 040V110 9999 SCT023 28/21 Q1017=
2025-10-25 16:00:00<>METAR SBSV 251600Z 08014KT 9999 SCT021 28/21 Q1016=
2025-10-25 17:00:00<>METAR SBSV 251700Z 08016KT 050V110 9999 SCT020 28/20 Q1016=
2025-10-25 18:00:00<>METAR SBSV 251800Z 08013KT 9999 SCT020 28/21 Q1016=
2025-10-25 19:00:00<>METAR SBSV 251900Z 08013KT 9999 SCT020 28/21 Q1016=
2025-10-25 20:00:00<>METAR SBSV 252000Z 08012KT 9999 SCT020 26/20 Q1016=
2025-10-25 21:00:00<>METAR SBSV 252100Z 08010KT 9999 SCT020 26/20 Q1017=
2025-10-25 22:00:00<>METAR SBSV 252200Z 08009KT 9999 SCT020 25/21 Q1017=
2025-10-25 23:00:00<>METAR SBSV 252300Z 09009KT 9999 SCT020 25/20 Q1018=
2025-10-26 00:00:00<>METAR SBSV 260000Z 08010KT 9999 SCT020 25/20 Q1018=
2025-10-26 01:00:00<>METAR SBSV 260100Z 07009KT 9999 BKN023 25/21 Q1019=
2025-10-26 02:00:00<>METAR SBSV 260200Z 08009KT 9999 BKN018 25/21 Q1018=
2025-10-26 03:00:00<>METAR SBSV 260300Z 08009KT 9999 BKN017 25/20 Q1017=
2025-10-26 04:00:00<>METAR SBSV 260400Z 10010KT 9999 BKN018 25/20 Q1017=
2025-10-26 05:00:00<>METAR SBSV 260500Z 09011KT 9999 FEW017 SCT025 25/20 Q1016=
2025-10-26 06:00:00<>METAR SBSV 260600Z 09010KT 9999 FEW020 25/20 Q1016=
2025-10-26 07:00:00<>METAR SBSV 260700Z 09008KT 9999 FEW020 25/20 Q1016=
2025-10-26 08:00:00<>METAR SBSV 260800Z 24010KT 9999 FEW021 25/20 Q1016=
2025-10-26 09:00:00<>METAR SBSV 260900Z 07010KT 9999 FEW021 25/20 Q1016=
2025-10-26 10:00:00<>METAR SBSV 261000Z 09013KT 9999 FEW021 26/20 Q1017=
2025-10-26 11:00:00<>METAR SBSV 261100Z 08014KT 9999 FEW021 27/20 Q1017=
2025-10-26 12:00:00<>METAR SBSV 261200Z 08014KT 9999 SCT021 28/20 Q1018=
2025-10-26 13:00:00<>METAR SBSV 261300Z 08013KT 9999 SCT021 28/21 Q1018=
2025-10-26 14:00:00<>METAR SBSV 261400Z 08013KT 9999 FEW023 28/20 Q1017=
2025-10-26 15:00:00<>METAR SBSV 261500Z 08014KT 9999 FEW023 28/20 Q1017=
2025-10-26 16:00:00<>METAR SBSV 261600Z 09013KT 9999 FEW023 28/21 Q1016=
2025-10-26 17:00:00<>METAR SBSV 261700Z 08014KT 9999 FEW021 28/20 Q1015=
2025-10-26 18:00:00<>METAR SBSV 261800Z 08015KT 9999 FEW021 27/20 Q1014=
2025-10-26 19:00:00<>METAR SBSV 261900Z 08014KT 9999 FEW021 27/20 Q1014=
2025-10-26 20:00:00<>METAR SBSV 262000Z 09012KT 9999 FEW021 26/20 Q1015=
2025-10-26 21:00:00<>METAR SBSV 262100Z 08011KT 9999 SCT021 26/20 Q1015=
2025-10-26 22:00:00<>METAR SBSV 262200Z 08010KT 9999 SCT021 26/19 Q1016=
2025-10-26 23:00:00<>METAR SBSV 262300Z 09012KT 9999 SCT025 26/19 Q1016=
2025-10-27 00:00:00<>METAR SBSV 270000Z 09010KT 9999 SCT025 25/19 Q1016=
2025-10-27 01:00:00<>METAR SBSV 270100Z 09011KT 9999 BKN027 26/19 Q1017=
2025-10-27 02:00:00<>METAR SBSV 270200Z 10011KT 070V140 9999 BKN028 25/19 Q1017=
2025-10-27 03:00:00<>METAR SBSV 270300Z 10013KT 9999 BKN024 BKN055 26/20 Q1016=
2025-10-27 04:00:00<>METAR SBSV 270400Z 11013KT 9999 SCT024 BKN050 25/20 Q1015=
2025-10-27 05:00:00<>METAR SBSV 270500Z 10010KT 9999 SCT021 SCT070 25/20 Q1015=
2025-10-27 06:00:00<>METAR SBSV 270600Z 10011KT 9999 SCT019 BKN080 25/20 Q1015=
2025-10-27 07:00:00<>METAR SBSV 270700Z 10010KT 9999 SCT022 25/19 Q1016=
2025-10-27 08:00:00<>METAR COR SBSV 270800Z 05015KT 020V100 6000 -SHRA BKN019 FEW025TCU BKN060 23/19 Q1016=
2025-10-27 09:00:00<>METAR SBSV 270900Z 33001KT 9999 VCSH FEW022 FEW025TCU BKN060 22/20 Q1017=
2025-10-27 10:00:00<>METAR SBSV 271000Z 09007KT 060V120 9999 VCSH FEW022 FEW025TCU BKN060 24/20 Q1017=
2025-10-27 11:00:00<>METAR SBSV 271100Z 12007KT 070V150 9999 FEW022 BKN060 25/21 Q1018=
2025-10-27 11:44:00<>SPECI SBSV 271144Z 08011KT 040V110 8000 3000E SHRA BKN011 FEW020TCU 25/20 Q1018=
2025-10-27 12:00:00<>METAR SBSV 271200Z 06012KT 030V090 3000 SHRA BKN011 FEW020TCU 24/20 Q1018=
2025-10-27 12:23:00<>SPECI SBSV 271223Z 07012KT 8000 VCSH BKN020 FEW023TCU 23/21 Q1018 RESHRA=
2025-10-27 13:00:00<>METAR SBSV 271300Z 08012KT 9000 VCSH SCT020 FEW023TCU BKN060 24/22 Q1018 RESHRA=
2025-10-27 14:00:00<>METAR SBSV 271400Z 07013KT 8000 VCSH SCT020 FEW023TCU BKN060 25/19 Q1018=
2025-10-27 15:00:00<>METAR SBSV 271500Z 08011KT 9999 BKN020 FEW023TCU 27/20 Q1017=
2025-10-27 16:00:00<>METAR SBSV 271600Z 10008KT 9999 VCSH BKN023 FEW025TCU 25/22 Q1017=
2025-10-27 17:00:00<>METAR SBSV 271700Z 12007KT 090V160 9999 VCSH SCT023 FEW025TCU 27/22 Q1016=
2025-10-27 18:00:00<>METAR SBSV 271800Z 09014KT 9999 FEW023 FEW025TCU BKN047 BKN094 28/20 Q1015=
2025-10-27 19:00:00<>METAR SBSV 271900Z 08014KT 9999 FEW017 SCT055 27/21 Q1015=
2025-10-27 20:00:00<>METAR SBSV 272000Z 08014KT 9999 FEW020 26/20 Q1016=
2025-10-27 21:00:00<>METAR SBSV 272100Z 09011KT 9999 BKN019 26/21 Q1016=
2025-10-27 22:00:00<>METAR SBSV 272200Z 10010KT 9999 FEW040 SCT060 BKN070 25/21 Q1016=
2025-10-27 23:00:00<>METAR SBSV 272300Z 10012KT 9999 FEW030 BKN050 25/20 Q1017=
2025-10-28 00:00:00<>METAR SBSV 280000Z 11008KT 9999 FEW030 BKN062 25/20 Q1018=
2025-10-28 01:00:00<>METAR SBSV 280100Z 12007KT 9999 FEW030 BKN062 25/21 Q1018=
2025-10-28 02:00:00<>METAR SBSV 280200Z 08011KT 9999 FEW020 BKN062 25/21 Q1017=
2025-10-28 03:00:00<>METAR SBSV 280300Z 08012KT 9999 SCT020 BKN062 25/21 Q1016=
2025-10-28 04:00:00<>METAR SBSV 280400Z 08012KT 9999 SCT020 25/21 Q1016=
2025-10-28 05:00:00<>METAR SBSV 280500Z 08011KT 9999 SCT020 25/21 Q1015=
2025-10-28 06:00:00<>METAR SBSV 280600Z 09013KT 9999 SCT020 25/21 Q1015=
2025-10-28 07:00:00<>METAR SBSV 280700Z 09013KT 9999 SCT020 25/20 Q1016=
2025-10-28 08:00:00<>METAR SBSV 280800Z 09011KT 9999 SCT020 25/21 Q1016=
2025-10-28 09:00:00<>METAR SBSV 280900Z 08012KT 9999 SCT020 26/21 Q1017=
2025-10-28 10:00:00<>METAR SBSV 281000Z 08011KT 9999 FEW018 26/21 Q1017=
2025-10-28 11:00:00<>METAR SBSV 281100Z 09013KT 9999 BKN020 27/21 Q1018=
2025-10-28 12:00:00<>METAR SBSV 281200Z 09014KT 9999 SCT020 BKN024 28/22 Q1018=
2025-10-28 13:00:00<>METAR SBSV 281300Z 08012KT 9999 FEW019 28/22 Q1018=
2025-10-28 14:00:00<>METAR SBSV 281400Z 08011KT 9999 FEW021 BKN062 28/21 Q1018=
2025-10-28 15:00:00<>METAR SBSV 281500Z 05016KT 2500 SHRA BR BKN005 BKN016 24/21 Q1017=
2025-10-28 16:00:00<>METAR SBSV 281600Z 09012KT 9000 -RA FEW005 BKN015 BKN040 25/22 Q1017 RESHRA=
2025-10-28 17:00:00<>METAR SBSV 281700Z 10013KT 9999 VCSH FEW022 FEW025TCU BKN060 BKN090 27/22 Q1016=
2025-10-28 18:00:00<>METAR SBSV 281800Z 09014KT 9000 SCT022 FEW025TCU BKN090 27/21 Q1016=
2025-10-28 19:00:00<>METAR SBSV 281900Z 09014KT 9999 SCT020 FEW023TCU 27/21 Q1016=
2025-10-28 20:00:00<>METAR SBSV 282000Z 08011KT 9999 VCSH SCT020 FEW023TCU 26/20 Q1017=
2025-10-28 21:00:00<>METAR SBSV 282100Z 09009KT 9999 FEW020 FEW023TCU 26/20 Q1017=
2025-10-28 22:00:00<>METAR SBSV 282200Z 09011KT 9999 FEW020 26/20 Q1018=
2025-10-28 23:00:00<>METAR SBSV 282300Z 09010KT 9999 SCT023 26/20 Q1018=
2025-10-29 00:00:00<>METAR SBSV 290000Z 08011KT 9999 FEW023 25/20 Q1019=
2025-10-29 01:00:00<>METAR SBSV 290100Z 07013KT 9999 SCT023 25/20 Q1018=
2025-10-29 02:00:00<>METAR SBSV 290200Z 08011KT 9999 SCT021 25/20 Q1018=
2025-10-29 03:00:00<>METAR SBSV 290300Z 08011KT 9999 SCT020 25/20 Q1017=
2025-10-29 04:00:00<>METAR SBSV 290400Z 07010KT 9999 FEW020 SCT030 25/20 Q1017=
2025-10-29 05:00:00<>METAR SBSV 290500Z 08010KT 9999 SCT022 24/20 Q1017=
2025-10-29 06:00:00<>METAR SBSV 290600Z 07009KT 9999 SCT023 24/20 Q1016=
2025-10-29 07:00:00<>METAR SBSV 290700Z 08010KT 9999 FEW023 24/20 Q1017=
2025-10-29 08:00:00<>METAR SBSV 290800Z 08008KT 9999 SCT021 24/20 Q1017=
2025-10-29 09:00:00<>METAR SBSV 290900Z 08006KT 9999 SCT023 25/20 Q1018=
2025-10-29 10:00:00<>METAR SBSV 291000Z 07010KT 9999 SCT023 26/20 Q1018=
2025-10-29 11:00:00<>METAR SBSV 291100Z 08008KT 9999 SCT023 27/20 Q1019=
2025-10-29 12:00:00<>METAR SBSV 291200Z 08011KT 9999 SCT023 27/20 Q1019=
2025-10-29 13:00:00<>METAR SBSV 291300Z 08011KT 9999 SCT023 28/20 Q1019=
2025-10-29 14:00:00<>METAR SBSV 291400Z 08013KT 9999 SCT023 28/20 Q1018=
2025-10-29 15:00:00<>METAR SBSV 291500Z 08012KT 9999 FEW023 28/21 Q1017=
2025-10-29 16:00:00<>METAR SBSV 291600Z 08013KT 9999 FEW023 28/20 Q1016=
2025-10-29 17:00:00<>METAR SBSV 291700Z 09013KT 9999 FEW023 28/21 Q1015=
2025-10-29 18:00:00<>METAR SBSV 291800Z 08014KT CAVOK 28/20 Q1015=
2025-10-29 19:00:00<>METAR SBSV 291900Z 08013KT 9999 FEW022 27/20 Q1015=
2025-10-29 20:00:00<>METAR SBSV 292000Z 08011KT 9999 FEW021 26/20 Q1015=
2025-10-29 21:00:00<>METAR SBSV 292100Z 09010KT 9999 FEW020 26/20 Q1015=
2025-10-29 22:00:00<>METAR SBSV 292200Z 08010KT 9999 FEW022 25/20 Q1016=
2025-10-29 23:00:00<>METAR SBSV 292300Z 08009KT 9999 FEW022 25/20 Q1017=
2025-10-30 00:00:00<>METAR SBSV 300000Z 09010KT 9999 BKN022 25/20 Q1017=
2025-10-30 01:00:00<>METAR SBSV 300100Z 08010KT 9999 SCT021 25/20 Q1017=
2025-10-30 02:00:00<>METAR SBSV 300200Z 08010KT 9999 SCT023 25/20 Q1016=
2025-10-30 03:00:00<>METAR SBSV 300300Z 08009KT 9999 SCT023 24/20 Q1016=
2025-10-30 04:00:00<>METAR SBSV 300400Z 07011KT 9999 SCT023 25/20 Q1015=
2025-10-30 05:00:00<>METAR SBSV 300500Z 07009KT 9999 BKN019 25/20 Q1015=
2025-10-30 06:00:00<>METAR SBSV 300600Z 06008KT 9999 SCT019 24/19 Q1015=
2025-10-30 07:00:00<>METAR SBSV 300700Z 05007KT 9999 FEW021 24/20 Q1014=
2025-10-30 08:00:00<>METAR SBSV 300800Z 01004KT 9999 SCT021 23/20 Q1015=
2025-10-30 09:00:00<>METAR SBSV 300900Z 01004KT 9999 FEW021 24/20 Q1015=
2025-10-30 10:00:00<>METAR SBSV 301000Z 03004KT 360V060 9999 FEW021 26/20 Q1016=
2025-10-30 11:00:00<>METAR SBSV 301100Z 05007KT 360V090 9999 FEW021 28/20 Q1016=
2025-10-30 12:00:00<>METAR SBSV 301200Z 07012KT 9999 FEW021 27/20 Q1017=
2025-10-30 13:00:00<>METAR SBSV 301300Z 09012KT 9999 SCT021 28/21 Q1017=
2025-10-30 14:00:00<>METAR SBSV 301400Z 08012KT 050V120 9999 SCT021 28/21 Q1016=
2025-10-30 15:00:00<>METAR SBSV 301500Z 08013KT 9999 SCT020 FEW025TCU 29/21 Q1015=
2025-10-30 16:00:00<>METAR SBSV 301600Z 08013KT 9999 SCT020 28/21 Q1014=
2025-10-30 17:00:00<>METAR SBSV 301700Z 07015KT 9999 SCT020 SCT080 28/22 Q1013=
2025-10-30 18:00:00<>METAR SBSV 301800Z 08015KT 9999 SCT020 SCT080 28/22 Q1013=
2025-10-30 19:00:00<>METAR SBSV 301900Z 08011KT 9999 SCT017 SCT080 27/22 Q1013=
2025-10-30 20:00:00<>METAR SBSV 302000Z 08012KT 9999 SCT020 SCT080 26/21 Q1014=
2025-10-30 21:00:00<>METAR SBSV 302100Z 08010KT 9999 SCT020 26/21 Q1014=
2025-10-30 22:00:00<>METAR SBSV 302200Z 08012KT 9999 SCT020 26/21 Q1014=
2025-10-30 23:00:00<>METAR SBSV 302300Z 07011KT 9999 SCT020 26/21 Q1015=
2025-10-31 00:00:00<>METAR SBSV 310000Z 07010KT 9999 SCT020 25/21 Q1016=
2025-10-31 01:00:00<>METAR SBSV 310100Z 07011KT 9999 SCT017 SCT020 25/22 Q1016=
2025-10-31 02:00:00<>METAR SBSV 310200Z 07011KT 9999 FEW019 25/21 Q1015=
2025-10-31 03:00:00<>METAR SBSV 310300Z 07010KT 9999 FEW019 25/21 Q1015=
2025-10-31 04:00:00<>METAR SBSV 310400Z 06008KT 9999 FEW019 25/21 Q1014=
2025-10-31 05:00:00<>METAR SBSV 310500Z 06008KT 9999 FEW019 25/21 Q1013=
2025-10-31 06:00:00<>METAR SBSV 310600Z 07010KT 9999 FEW015 SCT017 25/21 Q1014=
2025-10-31 07:00:00<>METAR SBSV 310700Z 06010KT 9999 SCT018 25/21 Q1014=
2025-10-31 08:00:00<>METAR SBSV 310800Z 07009KT 9999 FEW018 25/21 Q1014=
2025-10-31 09:00:00<>METAR SBSV 310900Z 07012KT 9999 FEW022 SCT040 25/20 Q1015=
2025-10-31 10:00:00<>METAR SBSV 311000Z 07011KT 9999 SCT023 26/20 Q1016=
2025-10-31 11:00:00<>METAR SBSV 311100Z 07012KT 9999 SCT023 27/21 Q1016=
2025-10-31 12:00:00<>METAR SBSV 311200Z 09013KT 9999 SCT023 28/21 Q1017=
2025-10-31 13:00:00<>METAR SBSV 311300Z 07012KT 9999 SCT023 28/20 Q1016=
2025-10-31 14:00:00<>METAR SBSV 311400Z 09012KT 9999 SCT023 28/20 Q1016=
2025-10-31 15:00:00<>METAR SBSV 311500Z 09014KT 9999 SCT023 28/21 Q1015=
2025-10-31 16:00:00<>METAR SBSV 311600Z 09013KT 9999 SCT023 28/20 Q1015=
2025-10-31 17:00:00<>METAR SBSV 311700Z 09013KT 9999 SCT023 28/20 Q1014=
2025-10-31 18:00:00<>METAR SBSV 311800Z 10013KT 9999 SCT023 28/20 Q1014=
2025-10-31 19:00:00<>METAR SBSV 311900Z 09012KT 9999 SCT023 27/20 Q1013=
2025-10-31 20:00:00<>METAR SBSV 312000Z 08010KT 9999 FEW021 26/20 Q1014=
2025-10-31 21:00:00<>METAR SBSV 312100Z 08009KT 9999 SCT021 26/20 Q1014=
2025-10-31 22:00:00<>METAR SBSV 312200Z 09010KT 9999 SCT021 26/20 Q1015=
2025-10-31 23:00:00<>METAR SBSV 312300Z 08011KT 9999 SCT021 25/20 Q1015=
2025-11-01 00:00:00<>METAR SBSV 010000Z 08012KT 9999 SCT021 25/20 Q1016=
2025-11-01 01:00:00<>METAR SBSV 010100Z 08011KT 9999 FEW022 25/20 Q1016=
2025-11-01 02:00:00<>METAR SBSV 010200Z 08009KT 9999 BKN021 25/20 Q1016=
2025-11-01 03:00:00<>METAR SBSV 010300Z 08011KT 9999 SCT023 25/20 Q1015=
2025-11-01 04:00:00<>METAR SBSV 010400Z 07009KT 9999 FEW023 24/19 Q1015=
2025-11-01 05:00:00<>METAR SBSV 010500Z 06008KT 9999 FEW022 24/19 Q1014=
2025-11-01 06:00:00<>METAR SBSV 010600Z 06007KT 9999 FEW022 24/20 Q1014=
2025-11-01 07:00:00<>METAR SBSV 010700Z 08008KT 9999 FEW022 24/20 Q1014=
2025-11-01 08:00:00<>METAR SBSV 010800Z 07008KT 9999 FEW020 24/19 Q1014=
2025-11-01 09:00:00<>METAR SBSV 010900Z 07009KT 9999 FEW021 25/20 Q1015=
2025-11-01 10:00:00<>METAR SBSV 011000Z 08009KT 9999 SCT021 26/20 Q1016=
2025-11-01 11:00:00<>METAR SBSV 011100Z 09008KT 060V120 9999 BKN021 27/20 Q1017=
2025-11-01 12:00:00<>METAR SBSV 011200Z 09009KT 9999 BKN021 28/20 Q1017=
2025-11-01 13:00:00<>METAR SBSV 011300Z 08010KT 050V110 9999 SCT023 27/20 Q1017=
2025-11-01 14:00:00<>METAR SBSV 011400Z VRB10KT 9999 SCT023 28/20 Q1016=
2025-11-01 15:00:00<>METAR SBSV 011500Z 09011KT 070V130 9999 SCT023 28/20 Q1016=
2025-11-01 16:00:00<>METAR SBSV 011600Z 10011KT 070V130 9999 SCT023 SCT060 28/20 Q1015=
2025-11-01 17:00:00<>METAR SBSV 011700Z 10012KT 9999 SCT023 SCT060 28/20 Q1014=
2025-11-01 18:00:00<>METAR SBSV 011800Z 10011KT 9999 FEW023 28/20 Q1014=
2025-11-01 19:00:00<>METAR SBSV 011900Z 10010KT 9999 FEW025 27/19 Q1014=
2025-11-01 20:00:00<>METAR SBSV 012000Z 10009KT 9999 FEW025 27/20 Q1014=
2025-11-01 21:00:00<>METAR SBSV 012100Z 10010KT CAVOK 26/19 Q1014=
2025-11-01 22:00:00<>METAR SBSV 012200Z 09009KT 9999 FEW024 26/20 Q1015=
2025-11-01 23:00:00<>METAR SBSV 012300Z 09008KT 9999 FEW024 25/19 Q1015=
2025-11-02 00:00:00<>METAR SBSV 020000Z 08007KT 9999 FEW023 25/20 Q1016=
2025-11-02 01:00:00<>METAR SBSV 020100Z 08007KT 9999 FEW023 26/20 Q1016=
2025-11-02 02:00:00<>METAR SBSV 020200Z 08008KT CAVOK 25/20 Q1016=
2025-11-02 03:00:00<>METAR SBSV 020300Z 08007KT 9999 SCT020 25/20 Q1015=
2025-11-02 04:00:00<>METAR SBSV 020400Z 08006KT 9999 SCT020 25/20 Q1014=
2025-11-02 05:00:00<>METAR SBSV 020500Z 08006KT 9999 SCT020 25/20 Q1014=
2025-11-02 06:00:00<>METAR SBSV 020600Z 07008KT 9999 BKN023 25/20 Q1014=
2025-11-02 07:00:00<>METAR SBSV 020700Z 08008KT 9999 BKN023 24/20 Q1014=
2025-11-02 08:00:00<>METAR SBSV 020800Z 09008KT 9999 SCT023 25/19 Q1014=
2025-11-02 09:00:00<>METAR SBSV 020900Z 07010KT 9999 SCT023 25/19 Q1015=
2025-11-02 10:00:00<>METAR SBSV 021000Z 08010KT 9999 SCT023 27/19 Q1016=
2025-11-02 11:00:00<>METAR SBSV 021100Z 07012KT 9999 SCT023 27/19 Q1016=
2025-11-02 12:00:00<>METAR SBSV 021200Z 08010KT 9999 SCT030 28/19 Q1016=
2025-11-02 13:00:00<>METAR SBSV 021300Z 08011KT 9999 SCT030 27/18 Q1016=
2025-11-02 14:00:00<>METAR SBSV 021400Z 09010KT 9999 SCT030 28/18 Q1016=
2025-11-02 15:00:00<>METAR SBSV 021500Z 10010KT 9999 FEW030 SCT100 27/18 Q1015=
2025-11-02 16:00:00<>METAR SBSV 021600Z 10010KT 060V130 9999 FEW025 28/18 Q1014=
2025-11-02 17:00:00<>METAR SBSV 021700Z 10009KT 060V140 9999 SCT030 27/19 Q1014=
2025-11-02 18:00:00<>METAR SBSV 021800Z 10010KT 070V160 9999 SCT028 27/19 Q1013=
2025-11-02 19:00:00<>METAR SBSV 021900Z 11008KT 070V140 9999 FEW030 27/18 Q1013=
2025-11-02 20:00:00<>METAR SBSV 022000Z 09010KT 9999 FEW031 26/17 Q1013=
2025-11-02 21:00:00<>METAR SBSV 022100Z 11008KT 9999 FEW031 26/18 Q1014=
2025-11-02 22:00:00<>METAR SBSV 022200Z 09008KT 9999 FEW030 25/17 Q1014=
2025-11-02 23:00:00<>METAR SBSV 022300Z 09009KT 9999 FEW031 25/18 Q1015=
2025-11-03 00:00:00<>METAR SBSV 030000Z 09009KT 9999 FEW032 25/17 Q1015=
2025-11-03 01:00:00<>METAR SBSV 030100Z 09007KT 9999 FEW030 25/18 Q1015=
2025-11-03 02:00:00<>METAR SBSV 030200Z 08007KT 9999 SCT030 24/18 Q1015=
2025-11-03 03:00:00<>METAR SBSV 030300Z 10006KT 9999 SCT030 25/18 Q1014=
2025-11-03 04:00:00<>METAR SBSV 030400Z 10007KT 9999 SCT030 25/18 Q1013=
2025-11-03 05:00:00<>METAR SBSV 030500Z 05004KT 9999 SCT030 SCT050 24/19 Q1013=
2025-11-03 06:00:00<>METAR SBSV 030600Z 08007KT 9999 FEW030 24/18 Q1013=
2025-11-03 07:00:00<>METAR SBSV 030700Z 35003KT 9999 FEW030 23/18 Q1014=
2025-11-03 08:00:00<>METAR SBSV 030800Z 00000KT 9999 FEW030 22/19 Q1014=
2025-11-03 09:00:00<>METAR SBSV 030900Z 00000KT 9999 FEW030 23/19 Q1015=
2025-11-03 10:00:00<>METAR SBSV 031000Z 03004KT 9999 FEW030 26/16 Q1015=
2025-11-03 11:00:00<>METAR SBSV 031100Z 06009KT 9999 FEW030 28/20 Q1016=
2025-11-03 12:00:00<>METAR SBSV 031200Z 07010KT 9999 SCT030 27/19 Q1016=
2025-11-03 13:00:00<>METAR SBSV 031300Z 08012KT 9999 SCT030 27/19 Q1016=
2025-11-03 14:00:00<>METAR SBSV 031400Z 09013KT 9999 SCT030 28/20 Q1015=
2025-11-03 15:00:00<>METAR SBSV 031500Z 08014KT 9999 SCT030 27/20 Q1014=
2025-11-03 16:00:00<>METAR SBSV 031600Z 07012KT 9999 SCT030 27/20 Q1013=
2025-11-03 17:00:00<>METAR SBSV 031700Z 08013KT 9999 SCT030 28/21 Q1013=
2025-11-03 18:00:00<>METAR SBSV 031800Z 08012KT 9999 SCT025 FEW027TCU BKN055 27/21 Q1012=
2025-11-03 19:00:00<>METAR SBSV 031900Z 08015KT 060V120 9999 SCT023 27/21 Q1012=
2025-11-03 20:00:00<>METAR SBSV 032000Z 08013KT 9999 SCT018 FEW025TCU BKN028 27/22 Q1012=
2025-11-03 21:00:00<>METAR SBSV 032100Z 08011KT 9999 FEW019 BKN031 26/21 Q1013=
2025-11-03 22:00:00<>METAR SBSV 032200Z 07012KT 9999 BKN018 26/22 Q1013=
2025-11-03 23:00:00<>METAR SBSV 032300Z 07013KT 9999 BKN021 26/21 Q1014=
2025-11-04 00:00:00<>METAR SBSV 040000Z 06011KT 9999 SCT018 26/21 Q1014=
2025-11-04 01:00:00<>METAR SBSV 040100Z 07012KT 9999 SCT017 26/22 Q1014=
2025-11-04 02:00:00<>METAR SBSV 040200Z 06010KT 9999 FEW030 25/21 Q1014=
2025-11-04 03:00:00<>METAR SBSV 040300Z 06011KT 9999 FEW017 25/21 Q1013=
2025-11-04 04:00:00<>METAR SBSV 040400Z 05011KT 9999 FEW018 25/21 Q1013=
2025-11-04 05:00:00<>METAR SBSV 040500Z 06008KT 9999 FEW026 25/21 Q1012=
2025-11-04 06:00:00<>METAR SBSV 040600Z 06007KT 9999 BKN016 BKN018 25/22 Q1012=
2025-11-04 07:00:00<>METAR SBSV 040700Z 02004KT 9999 FEW016 SCT020 25/21 Q1012=
2025-11-04 08:00:00<>METAR SBSV 040800Z VRB02KT 9999 FEW020 OVC037 24/22 Q1013=
2025-11-04 09:00:00<>METAR SBSV 040900Z 01005KT 340V040 9999 OVC040 25/22 Q1013=
2025-11-04 10:00:00<>METAR SBSV 041000Z 03006KT 9999 OVC040 26/21 Q1014=
2025-11-04 11:00:00<>METAR SBSV 041100Z 03007KT 9999 FEW023 BKN050 27/21 Q1015=
2025-11-04 12:00:00<>METAR SBSV 041200Z 03008KT 9999 FEW023 BKN050 28/22 Q1015=
2025-11-04 13:00:00<>METAR SBSV 041300Z 04009KT 010V090 9999 SCT023 BKN050 29/22 Q1015=
2025-11-04 14:00:00<>METAR SBSV 041400Z 07014KT 9999 SCT023 BKN050 30/23 Q1015=
2025-11-04 15:00:00<>METAR SBSV 041500Z 07017KT 9999 SCT023 29/22 Q1014=
2025-11-04 16:00:00<>METAR SBSV 041600Z 08018KT 9999 SCT023 28/22 Q1013=
2025-11-04 17:00:00<>METAR SBSV 041700Z 08016KT 9999 SCT023 29/22 Q1012=
2025-11-04 18:00:00<>METAR SBSV 041800Z 07014KT 9999 FEW023 28/22 Q1012=
2025-11-04 19:00:00<>METAR SBSV 041900Z 08014KT 9999 FEW023 27/22 Q1012=
2025-11-04 20:00:00<>METAR SBSV 042000Z 06015KT 9999 FEW023 27/22 Q1012=
2025-11-04 21:00:00<>METAR SBSV 042100Z 06013KT CAVOK 26/22 Q1012=
2025-11-04 22:00:00<>METAR SBSV 042200Z 06012KT 9999 FEW013 26/23 Q1013=
2025-11-04 23:00:00<>METAR SBSV 042300Z 06013KT 9999 SCT013 26/23 Q1013=
2025-11-05 00:00:00<>METAR SBSV 050000Z 05009KT 9999 SCT013 26/23 Q1014=
2025-11-05 01:00:00<>METAR SBSV 050100Z 05010KT 9999 SCT013 FEW023TCU 26/23 Q1014=
2025-11-05 02:00:00<>METAR SBSV 050200Z 05011KT 9999 SCT012 FEW023TCU 26/23 Q1014=
2025-11-05 03:00:00<>METAR SBSV 050300Z 05008KT 9999 SCT013 25/23 Q1014=
2025-11-05 04:00:00<>METAR SBSV 050400Z 04007KT 010V070 9999 SCT012 25/23 Q1013=
2025-11-05 05:00:00<>METAR SBSV 050500Z 02006KT 9999 SCT013 BKN021 25/22 Q1013=
2025-11-05 06:00:00<>METAR SBSV 050600Z 36004KT 9999 SCT015 SCT024 25/22 Q1013=
2025-11-05 07:00:00<>METAR SBSV 050700Z 31002KT 9999 SCT017 BKN030 24/22 Q1014=
2025-11-05 08:00:00<>METAR SBSV 050800Z 36003KT 9999 FEW015 SCT028 24/22 Q1014=
2025-11-05 09:00:00<>METAR SBSV 050900Z 02004KT 9999 SCT015 BKN033 25/23 Q1014=
2025-11-05 10:00:00<>METAR SBSV 051000Z 01004KT 330V050 9999 FEW015 26/23 Q1015=
2025-11-05 11:00:00<>METAR SBSV 051100Z 07012KT 9999 FEW022 SCT028 28/21 Q1015=
2025-11-05 12:00:00<>METAR SBSV 051200Z 07012KT 9999 FEW024 SCT030 BKN043 28/22 Q1016=
2025-11-05 13:00:00<>METAR SBSV 051300Z 07013KT 9999 FEW019 28/22 Q1016=
2025-11-05 14:00:00<>METAR SBSV 051400Z 07015KT 9999 FEW023 28/22 Q1015=
2025-11-05 15:00:00<>METAR SBSV 051500Z 07017KT 9999 FEW024 29/22 Q1014=
2025-11-05 16:00:00<>METAR SBSV 051600Z 07018KT 9999 FEW024 29/21 Q1012=
2025-11-05 17:00:00<>METAR SBSV 051700Z 07018KT 9999 FEW024 28/21 Q1011=
2025-11-05 18:00:00<>METAR SBSV 051800Z 07018KT 9999 FEW024 28/21 Q1011=
2025-11-05 18:21:00<>SPECI SBSV 051821Z 07015G25KT 9999 FEW024 28/22 Q1011=
2025-11-05 19:00:00<>METAR SBSV 051900Z 07017KT CAVOK 27/22 Q1011=
2025-11-05 20:00:00<>METAR SBSV 052000Z 06012KT 020V080 CAVOK 27/21 Q1011=
2025-11-05 21:00:00<>METAR SBSV 052100Z 06014KT CAVOK 26/21 Q1011=
2025-11-05 22:00:00<>METAR SBSV 052200Z 06013KT 9999 FEW015 26/22 Q1012=
2025-11-05 23:00:00<>METAR SBSV 052300Z 06012KT 9999 FEW015 26/22 Q1012=
2025-11-06 00:00:00<>METAR SBSV 060000Z 05012KT 9999 FEW015 26/22 Q1013=
2025-11-06 01:00:00<>METAR SBSV 060100Z 05008KT 9999 SCT015 26/22 Q1013=
2025-11-06 02:00:00<>METAR SBSV 060200Z 04006KT 010V070 9999 SCT015 25/22 Q1012=
2025-11-06 03:00:00<>METAR SBSV 060300Z 02005KT 9999 SCT015 25/22 Q1012=
2025-11-06 04:00:00<>METAR SBSV 060400Z 36003KT 9999 SCT015 25/22 Q1012=
2025-11-06 05:00:00<>METAR SBSV 060500Z 01004KT 9999 FEW015 24/22 Q1011=
2025-11-06 06:00:00<>METAR SBSV 060600Z 36003KT 9999 FEW015 24/22 Q1011=
2025-11-06 07:00:00<>METAR SBSV 060700Z 02003KT 9999 FEW015 24/22 Q1011=
2025-11-06 08:00:00<>METAR SBSV 060800Z 01005KT 9999 FEW015 24/22 Q1012=
2025-11-06 09:00:00<>METAR SBSV 060900Z 01006KT CAVOK 24/22 Q1012=
2025-11-06 10:00:00<>METAR SBSV 061000Z 01008KT 9999 FEW021 26/22 Q1012=
2025-11-06 11:00:00<>METAR SBSV 061100Z 03009KT 9999 SCT020 28/22 Q1013=
2025-11-06 12:00:00<>METAR SBSV 061200Z 02010KT 9999 SCT025 29/20 Q1014=
2025-11-06 13:00:00<>METAR SBSV 061300Z 03009KT 9999 SCT025 30/20 Q1014=
2025-11-06 14:00:00<>METAR SBSV 061400Z 07014KT 9999 SCT025 28/21 Q1013=
2025-11-06 15:00:00<>METAR SBSV 061500Z 06017KT 9999 SCT025 SCT050 30/21 Q1012=
2025-11-06 16:00:00<>METAR SBSV 061600Z 07019KT 9999 SCT025 SCT050 29/21 Q1011=
2025-11-06 17:00:00<>METAR SBSV 061700Z 06019KT 9999 FEW025 30/20 Q1010=
2025-11-06 18:00:00<>METAR SBSV 061800Z 06017KT 9999 FEW025 29/19 Q1009=
2025-11-06 19:00:00<>METAR SBSV 061900Z 06016KT CAVOK 29/20 Q1009=
2025-11-06 20:00:00<>METAR SBSV 062000Z 06015KT CAVOK 27/21 Q1009=
2025-11-06 21:00:00<>METAR SBSV 062100Z 05014KT CAVOK 26/22 Q1009=
2025-11-06 22:00:00<>METAR SBSV 062200Z 06013KT CAVOK 26/22 Q1010=
2025-11-06 23:00:00<>METAR SBSV 062300Z 06012KT CAVOK 26/22 Q1011=
2025-11-07 00:00:00<>METAR SBSV 070000Z 05011KT 9999 FEW023 26/22 Q1011=
2025-11-07 01:00:00<>METAR SBSV 070100Z 05011KT CAVOK 26/22 Q1012=
2025-11-07 02:00:00<>METAR SBSV 070200Z 05009KT 9999 FEW016 26/22 Q1011=
2025-11-07 03:00:00<>METAR SBSV 070300Z 05010KT 9999 FEW019 26/22 Q1011=
2025-11-07 04:00:00<>METAR SBSV 070400Z 04008KT 9999 BKN015 26/22 Q1010=
2025-11-07 05:00:00<>METAR SBSV 070500Z 04007KT 9999 BKN015 25/22 Q1010=
2025-11-07 06:00:00<>METAR SBSV 070600Z 01004KT 9999 BKN015 BKN100 25/22 Q1010=
2025-11-07 07:00:00<>METAR SBSV 070700Z 01003KT 330V030 9999 SCT016 SCT018 BKN022 25/22 Q1010=
2025-11-07 08:00:00<>METAR SBSV 070800Z 34002KT 9999 SCT014 BKN016 BKN023 26/22 Q1011=
2025-11-07 09:00:00<>METAR SBSV 070900Z 01003KT 330V060 9999 FEW016 SCT030 BKN035 26/23 Q1012=
2025-11-07 10:00:00<>METAR SBSV 071000Z 35003KT 9999 FEW016 SCT030 BKN035 26/22 Q1012=
2025-11-07 11:00:00<>METAR SBSV 071100Z 03007KT 9999 BKN017 SCT030 BKN040 27/22 Q1013=
2025-11-07 12:00:00<>METAR SBSV 071200Z 01008KT 9999 SCT020 SCT030 28/22 Q1013=
2025-11-07 13:00:00<>METAR SBSV 071300Z 08011KT 9999 SCT023 SCT035 28/22 Q1013=
2025-11-07 14:00:00<>METAR SBSV 071400Z 08013KT 9999 SCT025 SCT040 29/22 Q1013=
2025-11-07 15:00:00<>METAR SBSV 071500Z 08014KT 9999 SCT025 SCT100 29/22 Q1012=
2025-11-07 16:00:00<>METAR SBSV 071600Z 08014KT 9999 FEW023 FEW025TCU SCT100 29/23 Q1011=
2025-11-07 17:00:00<>METAR SBSV 071700Z 08009KT 9999 FEW023 SCT100 28/21 Q1011=
2025-11-07 18:00:00<>METAR SBSV 071800Z 08011KT 060V120 9999 FEW020 SCT100 28/23 Q1010=
2025-11-07 19:00:00<>METAR SBSV 071900Z 08011KT 9999 FEW016 28/23 Q1010=
2025-11-07 20:00:00<>METAR SBSV 072000Z 10010KT 9999 SCT014 27/23 Q1010=
2025-11-07 21:00:00<>METAR SBSV 072100Z 10007KT 9999 SCT015 FEW025TCU BKN050 27/23 Q1011=
2025-11-07 22:00:00<>METAR SBSV 072200Z 11007KT 9999 BKN022 FEW025TCU 26/23 Q1011=
2025-11-07 23:00:00<>METAR SBSV 072300Z 09008KT 9999 FEW027 SCT055 26/23 Q1012=
2025-11-08 00:00:00<>METAR SBSV 080000Z 08006KT 9999 FEW017 SCT027 26/23 Q1012=
2025-11-08 01:00:00<>METAR SBSV 080100Z 07005KT 9999 FEW020 25/22 Q1013=
2025-11-08 02:00:00<>METAR SBSV 080200Z 06005KT 9999 FEW017 25/23 Q1012=
2025-11-08 03:00:00<>METAR SBSV 080300Z 08005KT 9999 SCT015 26/23 Q1012=
2025-11-08 04:00:00<>METAR SBSV 080400Z 09005KT 9999 SCT015 25/23 Q1011=
2025-11-08 05:00:00<>METAR SBSV 080500Z 07004KT 9999 SCT015 25/23 Q1011=
2025-11-08 06:00:00<>METAR SBSV 080600Z 04007KT 9999 SCT015 25/22 Q1011=
2025-11-08 07:00:00<>METAR SBSV 080700Z VRB02KT 9999 FEW015 25/22 Q1011=
2025-11-08 08:00:00<>METAR SBSV 080800Z 32003KT 9999 FEW015 BKN100 24/22 Q1011=
2025-11-08 09:00:00<>METAR SBSV 080900Z VRB02KT 9999 FEW015 25/23 Q1012=
2025-11-08 10:00:00<>METAR SBSV 081000Z 36007KT 9999 FEW015 27/22 Q1012=
2025-11-08 11:00:00<>METAR SBSV 081100Z 35008KT 320V020 9999 FEW020 SCT032 28/21 Q1013=
2025-11-08 12:00:00<>METAR SBSV 081200Z 02006KT 350V060 9999 FEW025 SCT050 28/21 Q1013=
2025-11-08 13:00:00<>METAR SBSV 081300Z 07011KT 9999 FEW028 SCT050 28/22 Q1013=
2025-11-08 14:00:00<>METAR SBSV 081400Z 08013KT 9999 FEW028 29/22 Q1013=
2025-11-08 15:00:00<>METAR SBSV 081500Z 07014KT 9999 VCSH FEW036 BKN053 28/22 Q1012=
2025-11-08 16:00:00<>METAR SBSV 081600Z 08013KT 9999 FEW036 BKN060 29/22 Q1012=
2025-11-08 17:00:00<>METAR SBSV 081700Z 08013KT 9999 FEW036 29/22 Q1011=
2025-11-08 18:00:00<>METAR SBSV 081800Z 08014KT 9999 FEW036 28/22 Q1011=
2025-11-08 19:00:00<>METAR SBSV 081900Z 07015KT 9999 FEW036 27/22 Q1010=
2025-11-08 20:00:00<>METAR SBSV 082000Z 06013KT 9999 FEW036 27/22 Q1011=
2025-11-08 21:00:00<>METAR SBSV 082100Z 06011KT 9999 FEW036 26/22 Q1011=
2025-11-08 22:00:00<>METAR SBSV 082200Z 06010KT 9999 FEW036 26/22 Q1012=
2025-11-08 23:00:00<>METAR SBSV 082300Z 06007KT 9999 FEW036 26/22 Q1012=
2025-11-09 00:00:00<>METAR SBSV 090000Z 05009KT 9999 FEW036 26/22 Q1013=
2025-11-09 01:00:00<>METAR SBSV 090100Z 05011KT CAVOK 25/22 Q1013=
2025-11-09 02:00:00<>METAR SBSV 090200Z 05010KT 9999 FEW014 25/22 Q1013=
2025-11-09 03:00:00<>METAR SBSV 090300Z 04010KT 9999 FEW015 FEW023TCU 25/22 Q1012=
2025-11-09 04:00:00<>METAR SBSV 090400Z 04007KT 360V060 9999 FEW016 FEW024TCU 25/22 Q1011=
2025-11-09 05:00:00<>METAR SBSV 090500Z 03008KT 360V060 9999 SCT016 FEW025TCU 25/22 Q1011=
2025-11-09 06:00:00<>METAR SBSV 090600Z 02006KT 9999 SCT017 24/22 Q1010=
2025-11-09 07:00:00<>METAR SBSV 090700Z 36007KT CAVOK 24/22 Q1010=
2025-11-09 08:00:00<>METAR SBSV 090800Z 31004KT 9999 FEW019 BKN100 24/22 Q1011=
2025-11-09 09:00:00<>METAR SBSV 090900Z 29005KT 9999 FEW016 SCT100 24/22 Q1012=
2025-11-09 10:00:00<>METAR SBSV 091000Z 34005KT 9999 FEW016 25/22 Q1013=
2025-11-09 11:00:00<>METAR SBSV 091100Z 01008KT 330V080 9999 FEW013 BKN015 27/22 Q1014=
2025-11-09 12:00:00<>METAR SBSV 091200Z 02011KT 340V040 9999 SCT023 28/21 Q1013=
2025-11-09 13:00:00<>METAR SBSV 091300Z 36009KT 330V040 9999 FEW030 29/20 Q1013=
2025-11-09 14:00:00<>METAR SBSV 091400Z 08014KT 9999 FEW030 29/22 Q1013=
2025-11-09 15:00:00<>METAR COR SBSV 091500Z 06018KT CAVOK 28/21 Q1010=
2025-11-09 16:00:00<>METAR SBSV 091600Z 07018KT CAVOK 29/22 Q1012=
2025-11-09 17:00:00<>METAR SBSV 091700Z 06017KT CAVOK 29/21 Q1011=
2025-11-09 18:00:00<>METAR SBSV 091800Z 06018KT CAVOK 28/21 Q1010=
2025-11-09 19:00:00<>METAR SBSV 091900Z 06017KT CAVOK 28/21 Q1010=
2025-11-09 20:00:00<>METAR SBSV 092000Z 06014KT CAVOK 27/22 Q1010=
2025-11-09 21:00:00<>METAR SBSV 092100Z 05011KT CAVOK 26/22 Q1011=
2025-11-09 22:00:00<>METAR SBSV 092200Z 05009KT CAVOK 26/22 Q1011=
2025-11-09 23:00:00<>METAR SBSV 092300Z 05010KT CAVOK 26/22 Q1012=
2025-11-10 00:00:00<>METAR SBSV 100000Z 06010KT CAVOK 26/22 Q1013=
2025-11-10 01:00:00<>METAR SBSV 100100Z 06009KT 9999 FEW015 25/23 Q1014=
2025-11-10 02:00:00<>METAR SBSV 100200Z 06007KT 9999 BKN018 25/23 Q1014=
2025-11-10 03:00:00<>METAR SBSV 100300Z 10006KT 9999 BKN018 26/23 Q1014=
2025-11-10 04:00:00<>METAR SBSV 100400Z 09006KT 9999 BKN018 BKN080 26/22 Q1013=
2025-11-10 05:00:00<>METAR SBSV 100500Z 13005KT 100V180 9999 BKN018 BKN080 26/23 Q1013=
2025-11-10 06:00:00<>METAR SBSV 100600Z 09004KT 9999 BKN018 BKN080 25/23 Q1013=
2025-11-10 07:00:00<>METAR SBSV 100700Z 09005KT 060V120 9999 BKN018 BKN080 25/23 Q1013=
2025-11-10 08:00:00<>METAR SBSV 100800Z 06005KT 9999 SCT015 25/23 Q1014=
2025-11-10 09:00:00<>METAR SBSV 100900Z 09005KT 9999 SCT015 26/23 Q1015=
2025-11-10 10:00:00<>METAR SBSV 101000Z 11007KT 9999 BKN017 27/23 Q1016=
2025-11-10 11:00:00<>METAR SBSV 101100Z 11009KT 9999 VCSH BKN017 FEW020TCU 27/22 Q1016=
2025-11-10 12:00:00<>METAR SBSV 101200Z 10008KT 070V140 9999 VCSH SCT017 FEW020TCU SCT060 28/22 Q1017=
2025-11-10 13:00:00<>METAR SBSV 101300Z 13010KT 9999 VCSH SCT020 FEW023TCU SCT060 28/21 Q1017=
2025-11-10 14:00:00<>METAR SBSV 101400Z 14008KT 090V190 9999 SCT020 SCT060 29/22 Q1016=
2025-11-10 15:00:00<>METAR SBSV 101500Z 13009KT 090V160 9999 VCSH SCT019 FEW023TCU 29/22 Q1016=
2025-11-10 16:00:00<>METAR SBSV 101600Z 09005KT 050V140 9999 VCSH BKN019 FEW023TCU 27/21 Q1015=
2025-11-10 17:00:00<>METAR SBSV 101700Z 15009KT 120V180 9999 VCSH SCT020 FEW023TCU SCT060 29/21 Q1015=
2025-11-10 18:00:00<>METAR SBSV 101800Z 18010KT 9999 VCSH FEW013 BKN025 FEW030TCU BKN100 28/22 Q1014=
2025-11-10 19:00:00<>METAR SBSV 101900Z 18009KT 9999 FEW015 BKN020 FEW029TCU BKN100 28/22 Q1014=
2025-11-10 20:00:00<>METAR SBSV 102000Z 17008KT 130V200 9999 VCSH FEW012 BKN015 FEW025TCU 26/22 Q1014=
2025-11-10 21:00:00<>METAR SBSV 102100Z 17011KT 8000 -RA FEW010 SCT012 BKN017 FEW023TCU 26/24 Q1015=
2025-11-10 22:00:00<>METAR SBSV 102200Z 16009KT 9999 FEW013 SCT018 25/23 Q1015=
2025-11-10 23:00:00<>METAR SBSV 102300Z 18008KT 9999 FEW017 SCT020 BKN052 25/21 Q1016=
2025-11-11 00:00:00<>METAR SBSV 110000Z 19005KT 9999 FEW015 25/23 Q1016=
2025-11-11 01:00:00<>METAR SBSV 110100Z 21004KT 9999 VCSH FEW019 BKN050 25/22 Q1016=
2025-11-11 02:00:00<>METAR SBSV 110200Z 18005KT 9999 FEW017 BKN035 25/22 Q1016=
2025-11-11 03:00:00<>METAR SBSV 110300Z 22003KT 9999 BKN023 24/22 Q1015=
2025-11-11 04:00:00<>METAR SBSV 110400Z 22005KT 9999 SCT014 BKN050 24/22 Q1014=
2025-11-11 05:00:00<>METAR SBSV 110500Z 28003KT 9999 SCT017 23/22 Q1014=
2025-11-11 06:00:00<>METAR SBSV 110600Z 26003KT 9999 SCT017 23/22 Q1014=
2025-11-11 07:00:00<>METAR SBSV 110700Z 31003KT 9999 VCSH BKN020 24/22 Q1014=
2025-11-11 08:00:00<>METAR SBSV 110800Z 25003KT 9000 VCSH SCT018 FEW025TCU BKN090 24/23 Q1015=
2025-11-11 09:00:00<>METAR SBSV 110900Z 24004KT 210V270 8000 VCSH FEW015 SCT020 FEW025TCU OVC055 24/23 Q1015=
2025-11-11 10:00:00<>METAR SBSV 111000Z 18005KT 150V210 9999 VCSH SCT015 BKN020 FEW025TCU 24/22 Q1016=
2025-11-11 11:00:00<>METAR SBSV 111100Z 18006KT 9999 VCSH SCT015 BKN020 FEW025TCU 25/21 Q1016=
2025-11-11 12:00:00<>METAR SBSV 111200Z 16007KT 130V190 9999 VCSH SCT019 FEW023TCU BKN080 25/22 Q1017=
2025-11-11 13:00:00<>METAR SBSV 111300Z 20007KT 160V250 9000 VCSH SCT021 FEW023TCU BKN080 26/21 Q1017=
2025-11-11 14:00:00<>METAR SBSV 111400Z 21008KT 180V240 9999 SCT021 BKN060 25/21 Q1016=
2025-11-11 15:00:00<>METAR SBSV 111500Z 20009KT 9000 VCSH SCT008 BKN021 FEW023TCU 25/21 Q1016=
2025-11-11 16:00:00<>METAR SBSV 111600Z 21007KT 160V240 9000 VCSH SCT020 FEW023TCU BKN060 26/20 Q1015=
2025-11-11 17:00:00<>METAR SBSV 111700Z 19010KT 140V210 9999 SCT020 BKN060 26/20 Q1014=
2025-11-11 18:00:00<>METAR SBSV 111800Z 19009KT 9999 SCT020 BKN060 25/21 Q1014=
2025-11-11 19:00:00<>METAR SBSV 111900Z 20011KT 9999 SCT008 BKN050 25/22 Q1014=
2025-11-11 19:30:00<>SPECI SBSV 111930Z 21012KT 3000 RA BKN006 BKN035 24/22 Q1015=
2025-11-11 20:00:00<>METAR SBSV 112000Z 22008KT 2500 DZRA BKN004 SCT008 BKN035 24/22 Q1015 RERA=
2025-11-11 21:00:00<>METAR SBSV 112100Z 19008KT 3000 DZRA BKN004 SCT007 BKN035 24/23 Q1015=
2025-11-11 21:30:00<>SPECI SBSV 112130Z 06006KT 9999 VCSH BKN004 SCT007 BKN035 23/22 Q1015 RERA=
2025-11-11 22:00:00<>METAR SBSV 112200Z 12004KT 9000 SCT005 SCT007 BKN030 23/22 Q1015=
2025-11-11 23:00:00<>METAR SBSV 112300Z 12008KT 9999 BKN009 BKN023 24/22 Q1016=
2025-11-12 00:00:00<>METAR SBSV 120000Z 17012KT 9999 BKN009 BKN050 24/22 Q1017=
2025-11-12 00:40:00<>SPECI SBSV 120040Z 19008KT 9999 FEW009 BKN055 24/21 Q1016=
2025-11-12 01:00:00<>METAR SBSV 120100Z 19006KT 9999 FEW015 BKN050 BKN060 24/21 Q1016=
2025-11-12 02:00:00<>METAR SBSV 120200Z 16016KT 9999 SCT009 BKN015 BKN060 24/22 Q1016=
2025-11-12 02:41:00<>SPECI SBSV 120241Z 15013KT 4000 RA BKN006 BKN040 23/22 Q1016=
2025-11-12 03:00:00<>METAR SBSV 120300Z 14011KT 4000 -RA BKN006 BKN040 23/22 Q1016 RERA=
2025-11-12 04:00:00<>METAR SBSV 120400Z 16015KT 3000 RA BR BKN006 BKN010 BKN030 23/22 Q1015=
2025-11-12 05:00:00<>METAR SBSV 120500Z 08015KT 4000 RA BKN006 BKN015 OVC018 22/21 Q1015=
2025-11-12 06:00:00<>METAR SBSV 120600Z 04004KT 3000 RA BR BKN006 BKN017 OVC032 22/21 Q1014=
2025-11-12 07:00:00<>METAR SBSV 120700Z 08003KT 050V110 3000 -RA BR BKN006 BKN030 OVC040 22/21 Q1015 RERA=
2025-11-12 08:00:00<>METAR SBSV 120800Z 15007KT 3000 -RA BR BKN006 BKN018 OVC020 22/21 Q1015=
2025-11-12 09:00:00<>METAR SBSV 120900Z 10013KT 3000 RA BR FEW004 BKN006 BKN010 23/22 Q1016=
2025-11-12 09:40:00<>SPECI SBSV 120940Z 13015KT 090V160 1500 R28/1100U R10/2000U RADZ BKN004 BKN010 OVC023 23/22 Q1016 RERA=
2025-11-12 10:00:00<>METAR SBSV 121000Z 13013KT 100V160 3000 DZRA BKN004 BKN008 OVC020 23/22 Q1017=
2025-11-12 10:35:00<>SPECI SBSV 121035Z 10011KT 1500 R28/0900D R10/1800D DZRA BKN005 BKN008 OVC020 23/22 Q1017=
2025-11-12 11:00:00<>METAR SBSV 121100Z 08012KT 2000 R28/0900U R10/2000U DZRA BKN004 BKN008 OVC020 23/22 Q1017=
2025-11-12 12:00:00<>METAR SBSV 121200Z 12008KT 1500 R28/0800N R10/1600N RADZ BKN004 BKN008 OVC020 23/22 Q1017=
2025-11-12 13:00:00<>METAR SBSV 121300Z 15011KT 5000 -DZRA BKN004 BKN008 OVC020 23/23 Q1017 RERA=
2025-11-12 14:00:00<>METAR SBSV 121400Z 16011KT 8000 -DZRA BKN005 BKN008 OVC020 24/23 Q1017=
2025-11-12 15:00:00<>METAR SBSV 121500Z 14010KT 9000 -RA SCT007 OVC050 24/23 Q1017=
2025-11-12 16:00:00<>METAR SBSV 121600Z 11009KT 4000 RA SCT005 SCT007 OVC050 23/22 Q1016=
2025-11-12 17:00:00<>METAR SBSV 121700Z 12006KT 090V150 4000 RA SCT007 BKN025 OVC050 22/19 Q1016=
2025-11-12 18:00:00<>METAR SBSV 121800Z VRB01KT 2000 -RA SCT004 BKN014 OVC050 22/20 Q1016 RERA=
2025-11-12 19:00:00<>METAR SBSV 121900Z VRB01KT 9000 BKN011 OVC050 22/21 Q1016=
2025-11-12 20:00:00<>METAR SBSV 122000Z 16003KT 130V190 9999 FEW007 BKN050 23/22 Q1016=
2025-11-12 21:00:00<>METAR SBSV 122100Z 20003KT 160V240 9999 FEW010 BKN050 23/21 Q1015=
2025-11-12 22:00:00<>METAR SBSV 122200Z 00000KT 9999 FEW010 BKN050 23/22 Q1016=
2025-11-12 23:00:00<>METAR SBSV 122300Z 13004KT 100V220 9999 FEW013 BKN050 24/21 Q1016=
2025-11-13 00:00:00<>METAR SBSV 130000Z 12006KT 9999 SCT020 24/21 Q1016=
2025-11-13 01:00:00<>METAR SBSV 130100Z 12006KT 9999 SCT016 24/21 Q1016=
2025-11-13 02:00:00<>METAR SBSV 130200Z 11005KT 9999 FEW017 BKN050 24/21 Q1016=
2025-11-13 03:00:00<>METAR SBSV 130300Z 11008KT 090V150 9999 FEW017 BKN054 25/21 Q1015=
2025-11-13 04:00:00<>METAR SBSV 130400Z 10007KT 070V130 9999 SCT017 SCT055 25/21 Q1015=
2025-11-13 05:00:00<>METAR SBSV 130500Z 10006KT 9999 SCT018 24/21 Q1014=
2025-11-13 06:00:00<>METAR SBSV 130600Z 08007KT 9999 SCT018 BKN060 24/21 Q1014=
2025-11-13 07:00:00<>METAR SBSV 130700Z 09006KT 9999 SCT020 SCT060 24/21 Q1014=
2025-11-13 08:00:00<>METAR SBSV 130800Z 09005KT 060V120 9999 FEW012 SCT020 23/20 Q1015=
2025-11-13 09:00:00<>METAR SBSV 130900Z 09002KT 9999 FEW017 24/22 Q1016=
2025-11-13 10:00:00<>METAR SBSV 131000Z 10006KT 9999 FEW020 26/20 Q1016=
2025-11-13 11:00:00<>METAR SBSV 131100Z 11004KT 070V150 9999 VCSH FEW021 FEW023TCU BKN062 26/20 Q1017=
2025-11-13 12:00:00<>METAR SBSV 131200Z 10003KT 030V150 9999 VCSH SCT021 FEW025TCU BKN050 26/21 Q1018=
2025-11-13 13:00:00<>METAR SBSV 131300Z 10009KT 060V120 9999 FEW024 SCT036 27/21 Q1017=
2025-11-13 14:00:00<>METAR SBSV 131400Z 07010KT 050V110 9999 FEW026 27/21 Q1017=
2025-11-13 15:00:00<>METAR SBSV 131500Z 08011KT 9999 FEW026 27/21 Q1016=
2025-11-13 16:00:00<>METAR SBSV 131600Z 08011KT 9999 FEW030 28/20 Q1016=
2025-11-13 17:00:00<>METAR SBSV 131700Z 08011KT 9999 FEW025 28/20 Q1015=
2025-11-13 18:00:00<>METAR SBSV 131800Z 09010KT 9999 FEW025 28/20 Q1015=
2025-11-13 19:00:00<>METAR SBSV 131900Z 10010KT 9999 FEW025 27/19 Q1015=
2025-11-13 20:00:00<>METAR SBSV 132000Z 11009KT 9999 FEW025 27/19 Q1015=
2025-11-13 21:00:00<>METAR SBSV 132100Z 10007KT CAVOK 26/19 Q1016=
2025-11-13 22:00:00<>METAR SBSV 132200Z 09009KT 9999 FEW023 26/20 Q1016=
2025-11-13 23:00:00<>METAR SBSV 132300Z 09008KT 9999 FEW023 26/20 Q1017=
2025-11-14 00:00:00<>METAR SBSV 140000Z 09008KT 9999 FEW023 26/20 Q1017=
2025-11-14 01:00:00<>METAR SBSV 140100Z 09007KT 9999 FEW023 25/20 Q1017=
2025-11-14 02:00:00<>METAR SBSV 140200Z 08007KT 9999 FEW023 25/20 Q1017=
2025-11-14 03:00:00<>METAR SBSV 140300Z 08007KT 9999 FEW023 25/20 Q1017=
2025-11-14 04:00:00<>METAR SBSV 140400Z 08007KT 9999 FEW023 25/20 Q1016=
2025-11-14 05:00:00<>METAR SBSV 140500Z 08005KT 9999 FEW023 24/20 Q1016=
2025-11-14 06:00:00<>METAR SBSV 140600Z 07003KT 9999 SCT023 24/20 Q1015=
2025-11-14 07:00:00<>METAR SBSV 140700Z 04003KT 9999 SCT023 24/21 Q1016=
2025-11-14 08:00:00<>METAR SBSV 140800Z 07003KT 9999 SCT023 24/20 Q1016=
2025-11-14 09:00:00<>METAR SBSV 140900Z VRB02KT 9999 SCT023 24/21 Q1016=
2025-11-14 10:00:00<>METAR SBSV 141000Z 07010KT 9999 SCT021 27/20 Q1017=
2025-11-14 11:00:00<>METAR SBSV 141100Z 07010KT 9999 BKN023 27/21 Q1017=
2025-11-14 12:00:00<>METAR SBSV 141200Z 09009KT 050V120 9999 SCT022 28/21 Q1018=
2025-11-14 13:00:00<>METAR SBSV 141300Z 08010KT 040V110 9999 SCT024 28/21 Q1018=
2025-11-14 14:00:00<>METAR SBSV 141400Z 08009KT 040V110 9999 SCT026 28/21 Q1017=
2025-11-14 15:00:00<>METAR SBSV 141500Z 09012KT 060V150 9999 FEW025 28/20 Q1016=
2025-11-14 16:00:00<>METAR SBSV 141600Z 09011KT 9999 FEW025 28/21 Q1016=
2025-11-14 17:00:00<>METAR SBSV 141700Z 10011KT 9999 FEW025 28/20 Q1015=
2025-11-14 18:00:00<>METAR SBSV 141800Z 11010KT 9999 FEW018 27/21 Q1014=
2025-11-14 19:00:00<>METAR SBSV 141900Z 12009KT 9999 FEW018 27/21 Q1015=
2025-11-14 20:00:00<>METAR SBSV 142000Z 11009KT 9999 FEW018 27/21 Q1015=
2025-11-14 21:00:00<>METAR SBSV 142100Z 10008KT 9999 FEW018 26/21 Q1015=
2025-11-14 22:00:00<>METAR SBSV 142200Z 10012KT 9999 SCT023 26/20 Q1016=
2025-11-14 23:00:00<>METAR SBSV 142300Z 09010KT 9999 SCT021 26/20 Q1017=
2025-11-15 00:00:00<>METAR SBSV 150000Z 10009KT 9999 SCT023 26/20 Q1017=
2025-11-15 01:00:00<>METAR SBSV 150100Z 09009KT 9999 FEW023 26/20 Q1017=
2025-11-15 02:00:00<>METAR SBSV 150200Z 09010KT CAVOK 26/20 Q1017=
2025-11-15 03:00:00<>METAR SBSV 150300Z 08010KT 9999 FEW023 25/20 Q1016=
2025-11-15 04:00:00<>METAR SBSV 150400Z 06007KT CAVOK 25/20 Q1015=
2025-11-15 05:00:00<>METAR SBSV 150500Z 04005KT CAVOK 24/20 Q1015=
2025-11-15 06:00:00<>METAR SBSV 150600Z 34002KT 9999 SCT023 23/20 Q1015=
2025-11-15 07:00:00<>METAR SBSV 150700Z VRB02KT CAVOK 23/20 Q1015=
2025-11-15 08:00:00<>METAR SBSV 150800Z 26002KT 9999 SCT023 22/20 Q1015=
2025-11-15 09:00:00<>METAR SBSV 150900Z VRB02KT 9999 FEW023 23/21 Q1016=
2025-11-15 10:00:00<>METAR SBSV 151000Z 33002KT 9999 FEW023 26/21 Q1016=
2025-11-15 11:00:00<>METAR SBSV 151100Z 10004KT 9999 SCT023 28/20 Q1017=
2025-11-15 12:00:00<>METAR SBSV 151200Z 09008KT 9999 SCT023 28/20 Q1017=
2025-11-15 13:00:00<>METAR SBSV 151300Z 09009KT 9999 SCT023 28/19 Q1016=
2025-11-15 14:00:00<>METAR SBSV 151400Z 09009KT 9999 FEW023 29/20 Q1016=
2025-11-15 15:00:00<>METAR SBSV 151500Z 10012KT 9999 FEW023 28/16 Q1015=
2025-11-15 16:00:00<>METAR SBSV 151600Z 08012KT 9999 FEW023 28/20 Q1014=
2025-11-15 17:00:00<>METAR SBSV 151700Z 09012KT 9999 FEW023 28/20 Q1013=
2025-11-15 18:00:00<>METAR SBSV 151800Z 09011KT 9999 FEW022 28/20 Q1012=
2025-11-15 19:00:00<>METAR SBSV 151900Z 08013KT 9999 FEW023 27/20 Q1012=
2025-11-15 20:00:00<>METAR SBSV 152000Z 08012KT 9999 SCT023 27/20 Q1013=
2025-11-15 21:00:00<>METAR SBSV 152100Z 08011KT 9999 SCT021 26/20 Q1013=
2025-11-15 22:00:00<>METAR SBSV 152200Z 08010KT 9999 SCT023 26/21 Q1014=
2025-11-15 23:00:00<>METAR SBSV 152300Z 06011KT 9999 SCT024 26/21 Q1014=
2025-11-16 00:00:00<>METAR SBSV 160000Z 08010KT 9999 BKN023 26/21 Q1015=
2025-11-16 01:00:00<>METAR SBSV 160100Z 07009KT 9999 FEW020 25/22 Q1015=
2025-11-16 02:00:00<>METAR SBSV 160200Z 07009KT 9999 SCT020 25/21 Q1015=
2025-11-16 03:00:00<>METAR SBSV 160300Z 06011KT 9999 SCT020 25/21 Q1014=
2025-11-16 04:00:00<>METAR SBSV 160400Z 06010KT 9999 SCT020 25/20 Q1013=
2025-11-16 05:00:00<>METAR SBSV 160500Z 06007KT 9999 SCT020 25/20 Q1013=
2025-11-16 06:00:00<>METAR SBSV 160600Z 01003KT 9999 SCT020 25/20 Q1013=
2025-11-16 07:00:00<>METAR SBSV 160700Z 36003KT 9999 SCT020 24/21 Q1013=
2025-11-16 08:00:00<>METAR SBSV 160800Z 01003KT 9999 SCT020 23/21 Q1013=
2025-11-16 09:00:00<>METAR SBSV 160900Z 01003KT 330V050 9999 SCT020 25/21 Q1014=
2025-11-16 10:00:00<>METAR SBSV 161000Z VRB06KT 9999 SCT020 27/21 Q1015=
2025-11-16 11:00:00<>METAR SBSV 161100Z 05010KT 9999 FEW020 27/20 Q1015=
2025-11-16 12:00:00<>METAR SBSV 161200Z 06010KT 020V080 9999 SCT020 28/20 Q1015=
2025-11-16 13:00:00<>METAR SBSV 161300Z 08011KT 9999 SCT020 28/20 Q1015=
2025-11-16 14:00:00<>METAR SBSV 161400Z 08012KT 050V110 9999 SCT020 28/21 Q1015=
2025-11-16 15:00:00<>METAR SBSV 161500Z 09013KT 060V120 9999 SCT020 28/20 Q1014=
2025-11-16 16:00:00<>METAR SBSV 161600Z 08013KT 9999 FEW023 28/21 Q1013=
2025-11-16 17:00:00<>METAR SBSV 161700Z 09013KT 060V130 9999 FEW023 28/21 Q1013=
2025-11-16 18:00:00<>METAR SBSV 161800Z 08012KT 9999 FEW023 28/22 Q1012=
2025-11-16 19:00:00<>METAR SBSV 161900Z 09010KT 9999 FEW023 28/21 Q1012=
2025-11-16 20:00:00<>METAR SBSV 162000Z 09011KT 9999 FEW023 27/21 Q1012=
2025-11-16 21:00:00<>METAR SBSV 162100Z 09010KT 9999 FEW020 26/21 Q1013=
2025-11-16 22:00:00<>METAR SBSV 162200Z 09010KT 9999 FEW020 26/21 Q1014=
2025-11-16 23:00:00<>METAR SBSV 162300Z 08010KT 9999 FEW020 26/20 Q1014=
2025-11-17 00:00:00<>METAR SBSV 170000Z 08010KT 9999 FEW021 26/21 Q1015=
2025-11-17 01:00:00<>METAR SBSV 170100Z 08011KT 9999 FEW017 SCT023 26/21 Q1015=
2025-11-17 02:00:00<>METAR SBSV 170200Z 07007KT 9999 FEW019 SCT070 25/21 Q1015=
2025-11-17 03:00:00<>METAR SBSV 170300Z 07009KT 9999 SCT020 25/21 Q1014=
2025-11-17 04:00:00<>METAR SBSV 170400Z 08010KT 9999 SCT018 25/20 Q1013=
2025-11-17 05:00:00<>METAR SBSV 170500Z 07009KT 9999 FEW022 25/20 Q1013=
2025-11-17 06:00:00<>METAR SBSV 170600Z 06009KT 9999 SCT021 25/20 Q1013=
2025-11-17 07:00:00<>METAR SBSV 170700Z 06007KT 9999 FEW017 25/20 Q1013=
2025-11-17 08:00:00<>METAR SBSV 170800Z 07008KT 9999 FEW016 24/20 Q1013=
2025-11-17 09:00:00<>METAR SBSV 170900Z 08008KT 9999 FEW017 26/21 Q1014=
2025-11-17 10:00:00<>METAR SBSV 171000Z 07010KT 9999 FEW030 27/21 Q1014=
2025-11-17 11:00:00<>METAR SBSV 171100Z 07011KT 9999 FEW030 28/21 Q1015=
2025-11-17 12:00:00<>METAR SBSV 171200Z 07010KT 9999 FEW023 28/22 Q1015=
2025-11-17 13:00:00<>METAR SBSV 171300Z 10011KT 9999 FEW023 28/21 Q1015=
2025-11-17 14:00:00<>METAR SBSV 171400Z 10013KT 9999 SCT023 28/22 Q1014=
2025-11-17 15:00:00<>METAR SBSV 171500Z 08013KT 9999 SCT023 28/21 Q1014=
2025-11-17 16:00:00<>METAR SBSV 171600Z 09014KT 9999 SCT023 28/21 Q1013=
2025-11-17 17:00:00<>METAR SBSV 171700Z 09013KT 9999 FEW023 29/21 Q1012=
2025-11-17 18:00:00<>METAR SBSV 171800Z 09012KT 060V120 9999 FEW023 28/20 Q1011=
2025-11-17 19:00:00<>METAR SBSV 171900Z 08012KT CAVOK 27/20 Q1012=
2025-11-17 20:00:00<>METAR SBSV 172000Z 07013KT CAVOK 27/20 Q1012=
2025-11-17 21:00:00<>METAR SBSV 172100Z 08011KT CAVOK 26/21 Q1012=
2025-11-17 22:00:00<>METAR SBSV 172200Z 08011KT CAVOK 26/21 Q1013=
2025-11-17 23:00:00<>METAR SBSV 172300Z 07012KT CAVOK 25/21 Q1013=
2025-11-18 00:00:00<>METAR SBSV 180000Z 07011KT CAVOK 26/21 Q1014=
2025-11-18 01:00:00<>METAR SBSV 180100Z 06008KT 9999 SCT020 25/21 Q1014=
2025-11-18 02:00:00<>METAR SBSV 180200Z 05007KT 9999 SCT020 25/21 Q1014=
2025-11-18 03:00:00<>METAR SBSV 180300Z 03003KT 9999 SCT020 25/21 Q1013=
2025-11-18 04:00:00<>METAR SBSV 180400Z VRB02KT 9999 FEW020 24/21 Q1012=
2025-11-18 05:00:00<>METAR SBSV 180500Z 04003KT 360V070 9999 FEW020 24/21 Q1012=
2025-11-18 06:00:00<>METAR SBSV 180600Z 02003KT 9999 FEW016 24/21 Q1012=
2025-11-18 07:00:00<>METAR SBSV 180700Z 36003KT 9999 FEW016 23/21 Q1012=
2025-11-18 08:00:00<>METAR SBSV 180800Z 33002KT 9999 FEW016 23/21 Q1013=
2025-11-18 09:00:00<>METAR SBSV 180900Z 35003KT 9999 FEW016 24/21 Q1013=
2025-11-18 10:00:00<>METAR SBSV 181000Z 02007KT 9999 FEW018 26/21 Q1014=
2025-11-18 11:00:00<>METAR SBSV 181100Z 03009KT 9999 SCT023 27/20 Q1014=
2025-11-18 12:00:00<>METAR SBSV 181200Z 05008KT 9999 SCT023 27/20 Q1014=
2025-11-18 13:00:00<>METAR SBSV 181300Z 07014KT 9999 SCT025 28/20 Q1014=
2025-11-18 14:00:00<>METAR SBSV 181400Z 07014KT 9999 SCT025 28/20 Q1013=
2025-11-18 15:00:00<>METAR SBSV 181500Z 08013KT 9999 SCT025 29/22 Q1012=
2025-11-18 16:00:00<>METAR SBSV 181600Z 07018KT 9999 SCT025 28/22 Q1011=
2025-11-18 17:00:00<>METAR SBSV 181700Z 07016KT 9999 SCT025 28/21 Q1010=
2025-11-18 18:00:00<>METAR SBSV 181800Z 07014KT 9999 SCT025 SCT040 28/22 Q1010=
2025-11-18 19:00:00<>METAR SBSV 181900Z 07015KT 9999 SCT025 BKN040 27/22 Q1009=
2025-11-18 20:00:00<>METAR SBSV 182000Z 07014KT 9999 SCT025 BKN040 27/22 Q1010=
2025-11-18 21:00:00<>METAR SBSV 182100Z 07011KT 9999 SCT025 BKN040 26/22 Q1010=
2025-11-18 22:00:00<>METAR SBSV 182200Z 06010KT 9999 SCT020 SCT040 26/22 Q1010=
2025-11-18 23:00:00<>METAR SBSV 182300Z 06011KT 9999 SCT020 BKN040 26/22 Q1011=
2025-11-19 00:00:00<>METAR SBSV 190000Z 06011KT 9999 SCT018 SCT040 26/22 Q1011=
2025-11-19 01:00:00<>METAR SBSV 190100Z 06013KT 9999 SCT018 26/23 Q1011=
2025-11-19 02:00:00<>METAR SBSV 190200Z 05010KT 9999 BKN017 26/22 Q1010=
2025-11-19 03:00:00<>METAR SBSV 190300Z 05010KT 9999 BKN015 26/22 Q1010=
2025-11-19 04:00:00<>METAR SBSV 190400Z 06010KT 9999 BKN015 26/23 Q1009=
2025-11-19 05:00:00<>METAR SBSV 190500Z 04008KT 9999 BKN015 26/23 Q1008=
2025-11-19 06:00:00<>METAR SBSV 190600Z 01005KT 9999 BKN015 25/23 Q1009=
2025-11-19 07:00:00<>METAR SBSV 190700Z 35004KT 320V020 9999 BKN015 25/23 Q1009=
2025-11-19 08:00:00<>METAR SBSV 190800Z 34004KT 9000 BKN020 25/23 Q1010=
2025-11-19 09:00:00<>METAR SBSV 190900Z 01007KT CAVOK 25/23 Q1010=
2025-11-19 10:00:00<>METAR SBSV 191000Z 02010KT 9999 SCT015 27/22 Q1010=
2025-11-19 11:00:00<>METAR SBSV 191100Z 02010KT 9999 SCT020 28/22 Q1010=
2025-11-19 12:00:00<>METAR SBSV 191200Z 36008KT 9999 SCT020 BKN050 28/21 Q1011=
2025-11-19 13:00:00<>METAR SBSV 191300Z 06011KT 9999 BKN025 BKN050 28/23 Q1011=
2025-11-19 14:00:00<>METAR SBSV 191400Z 05009KT 9999 BKN025 BKN050 28/23 Q1010=
2025-11-19 15:00:00<>METAR SBSV 191500Z 05007KT 9999 BKN025 BKN050 28/23 Q1009=
2025-11-19 16:00:00<>METAR SBSV 191600Z 07011KT 9999 BKN025 OVC050 28/23 Q1009=
2025-11-19 17:00:00<>METAR SBSV 191700Z 07011KT 9999 BKN025 OVC050 27/22 Q1008=
2025-11-19 18:00:00<>METAR SBSV 191800Z 08011KT 9999 VCSH FEW020 FEW025TCU OVC050 27/23 Q1008=
2025-11-19 19:00:00<>METAR SBSV 191900Z 08010KT 9999 FEW022 OVC060 27/23 Q1008=
2025-11-19 20:00:00<>METAR SBSV 192000Z 07012KT 9999 SCT025 BKN060 27/23 Q1008=
2025-11-19 21:00:00<>METAR SBSV 192100Z 06010KT 9999 FEW015 SCT025 BKN060 26/23 Q1008=
2025-11-19 22:00:00<>METAR SBSV 192200Z 04010KT 010V070 9999 FEW015 SCT020 BKN050 26/23 Q1009=
2025-11-19 23:00:00<>METAR SBSV 192300Z 03008KT 9999 SCT017 FEW025TCU OVC050 27/23 Q1010=
2025-11-20 00:00:00<>METAR SBSV 200000Z 02009KT 9999 SCT019 FEW025TCU OVC040 26/22 Q1010=
2025-11-20 01:00:00<>METAR SBSV 200100Z 02008KT 340V050 9999 VCSH SCT019 FEW025TCU BKN070 26/23 Q1011=
2025-11-20 02:00:00<>METAR SBSV 200200Z 04008KT 9999 SCT019 FEW025TCU BKN070 26/22 Q1010=
2025-11-20 03:00:00<>METAR SBSV 200300Z 02006KT 9999 SCT019 FEW025TCU BKN090 25/22 Q1010=
2025-11-20 04:00:00<>METAR SBSV 200400Z 06004KT 9999 VCTS SCT019 FEW025CB BKN090 25/22 Q1009=
2025-11-20 05:00:00<>METAR SBSV 200500Z 05005KT 7000 -RA SCT019 FEW025TCU BKN090 25/23 Q1008=
2025-11-20 06:00:00<>METAR SBSV 200600Z 04004KT 9999 SCT019 FEW025TCU BKN090 25/23 Q1008=
2025-11-20 07:00:00<>METAR SBSV 200700Z 02003KT 9999 SCT019 FEW025TCU BKN090 25/22 Q1008=
2025-11-20 08:00:00<>METAR SBSV 200800Z 04003KT 9999 SCT019 FEW025TCU BKN090 25/22 Q1009=
2025-11-20 09:00:00<>METAR SBSV 200900Z 36003KT 330V040 9999 SCT019 FEW025TCU BKN090 25/23 Q1009=
2025-11-20 10:00:00<>METAR SBSV 201000Z 01006KT 9000 VCSH SCT019 FEW025TCU BKN090 25/23 Q1010=
2025-11-20 11:00:00<>METAR SBSV 201100Z 35007KT 310V020 9999 VCSH SCT019 FEW025TCU BKN090 25/22 Q1010=
2025-11-20 12:00:00<>METAR SBSV 201200Z 33006KT 9999 SCT019 FEW025TCU BKN090 25/22 Q1011=
2025-11-20 13:00:00<>METAR SBSV 201300Z 36008KT 9999 SCT019 BKN090 26/22 Q1011=
2025-11-20 14:00:00<>METAR SBSV 201400Z 33005KT 9999 SCT019 BKN090 28/22 Q1010=
2025-11-20 15:00:00<>METAR SBSV 201500Z 33005KT 9999 SCT019 BKN090 29/22 Q1009=
2025-11-20 16:00:00<>METAR SBSV 201600Z 35003KT 9999 SCT019 BKN090 29/21 Q1009=
2025-11-20 17:00:00<>METAR SBSV 201700Z 09011KT 9999 SCT019 BKN090 27/23 Q1009=
2025-11-20 18:00:00<>METAR SBSV 201800Z 11007KT 9999 FEW011 SCT025 BKN080 26/22 Q1009=
2025-11-20 19:00:00<>METAR SBSV 201900Z 12006KT 9999 VCSH FEW011 SCT025 BKN080 26/22 Q1009=
2025-11-20 20:00:00<>METAR SBSV 202000Z 21007KT 180V240 9999 4000W RA SCT009 BKN023 FEW025TCU BKN080 26/23 Q1010=
2025-11-20 20:05:00<>SPECI SBSV 202005Z 21010KT 160V230 9000 4000W TSRA SCT007 BKN023 FEW025CB BKN080 25/22 Q1010=
2025-11-20 20:20:00<>SPECI SBSV 202020Z 19016KT 2500 +TSRA SCT007 SCT023 FEW025CB BKN050 24/22 Q1010 RERA=
2025-11-20 21:00:00<>METAR SBSV 202100Z 17013KT 4000 TSRA SCT008 SCT023 FEW025CB BKN070 25/23 Q1011 RERA=
2025-11-20 21:30:00<>SPECI SBSV 202130Z 17014KT 6000 -RA SCT008 SCT023 FEW025TCU BKN050 25/23 Q1011 RETSRA=
2025-11-20 22:00:00<>METAR SBSV 202200Z 17013KT 6000 -RA SCT011 SCT023 FEW025TCU BKN050 25/23 Q1011 RETSRA=
2025-11-20 23:00:00<>METAR SBSV 202300Z 17014KT 8000 -RA SCT011 SCT023 FEW025TCU BKN050 25/23 Q1012=
2025-11-21 00:00:00<>METAR SBSV 210000Z 17013KT 9999 VCSH SCT013 SCT025 BKN060 25/23 Q1013=
2025-11-21 01:00:00<>METAR SBSV 210100Z 16014KT 9999 -RA FEW014 FEW025TCU BKN030 OVC050 25/22 Q1013=
2025-11-21 02:00:00<>METAR SBSV 210200Z 17013KT 9999 VCSH FEW014 BKN023 FEW025TCU OVC040 25/22 Q1012=
2025-11-21 02:02:00<>SPECI SBSV 210202Z 17013G23KT 4000 RA BR BKN010 FEW025TCU OVC040 25/22 Q1012=
2025-11-21 02:26:00<>SPECI SBSV 210226Z 16013KT 6000 -RA BKN011 FEW025TCU OVC040 25/23 Q1012 RERA=
2025-11-21 03:00:00<>METAR SBSV 210300Z 17011KT 4000 -RA BR BKN011 FEW025TCU OVC040 25/23 Q1012 RERA=
2025-11-21 04:00:00<>METAR SBSV 210400Z 15010KT 6000 -RA BKN013 FEW025TCU OVC035 25/22 Q1011=
2025-11-21 05:00:00<>METAR SBSV 210500Z 19008KT 160V220 4000 -RA BKN012 FEW025TCU OVC035 25/22 Q1011=
2025-11-21 06:00:00<>METAR SBSV 210600Z 18010KT 150V210 4000 -RA BKN011 FEW025TCU OVC030 24/23 Q1011=
2025-11-21 07:00:00<>METAR SBSV 210700Z 17008KT 8000 VCSH SCT012 BKN024 OVC050 24/22 Q1011=
2025-11-21 08:00:00<>METAR SBSV 210800Z 18008KT 9999 VCSH FEW012 BKN023 OVC040 24/22 Q1012=
2025-11-21 09:00:00<>METAR SBSV 210900Z 17007KT 9999 VCSH FEW020 BKN035 OVC060 25/22 Q1013=
2025-11-21 10:00:00<>METAR SBSV 211000Z 19007KT 9999 VCSH BKN020 FEW023TCU BKN060 25/22 Q1013=
2025-11-21 11:00:00<>METAR SBSV 211100Z 16009KT 9000 VCSH BKN015 BKN020 FEW023TCU 25/22 Q1014=
2025-11-21 12:00:00<>METAR SBSV 211200Z 17007KT 9000 VCSH SCT015 BKN020 FEW023TCU 25/23 Q1015=
2025-11-21 13:00:00<>METAR SBSV 211300Z 17009KT 9000 VCSH SCT015 BKN020 FEW023TCU 26/23 Q1015=
2025-11-21 14:00:00<>METAR SBSV 211400Z 20009KT 160V240 9000 VCSH SCT021 FEW023TCU BKN050 26/22 Q1014=
2025-11-21 15:00:00<>METAR SBSV 211500Z 22009KT 9000 VCSH BKN010 BKN020 FEW023TCU 25/23 Q1014=
2025-11-21 15:26:00<>SPECI SBSV 211526Z 22009KT 170V250 5000 RA BKN006 BKN018 FEW020TCU 25/23 Q1014=
2025-11-21 16:00:00<>METAR SBSV 211600Z 21008KT 5000 RA BKN005 BKN015 FEW020TCU 25/23 Q1014=
2025-11-21 16:18:00<>SPECI SBSV 211618Z 19007KT 150V230 2000 +RA BKN004 BKN015 FEW020TCU 25/23 Q1013 RERA=
2025-11-21 17:00:00<>METAR SBSV 211700Z 20007KT 170V230 2000 +RA BKN006 BKN013 FEW019TCU 24/23 Q1013 RERA=
2025-11-21 17:20:00<>SPECI SBSV 211720Z 18008KT 2500 -RA BR BKN006 BKN010 BKN014 FEW019TCU 24/23 Q1013 RERA=
2025-11-21 18:00:00<>METAR SBSV 211800Z 18007KT 150V240 2500 -RA BR BKN006 BKN009 BKN015 FEW019TCU 24/23 Q1013 RERA=
2025-11-21 18:15:00<>SPECI SBSV 211815Z 16009KT 2000 RA BR BKN006 BKN009 BKN015 FEW019TCU 24/23 Q1013=
2025-11-21 18:25:00<>SPECI SBSV 211825Z 17009KT 1800 R28/1400 R10/1600 +RA BKN006 BKN009 BKN015 FEW019TCU 24/23 Q1013 RERA=
2025-11-21 19:00:00<>METAR SBSV 211900Z 13010KT 2000 RA BR BKN006 BKN010 BKN014 FEW019TCU 24/23 Q1013 RERA=
2025-11-21 19:09:00<>SPECI SBSV 211909Z 16010KT 2000 +RA BKN005 BKN010 BKN014 FEW019TCU 24/23 Q1013 RERA=
2025-11-21 19:35:00<>SPECI SBSV 211935Z 17010KT 4000 -RA BR BKN005 BKN010 BKN014 FEW019TCU 24/23 Q1013 RERA=
2025-11-21 20:00:00<>METAR SBSV 212000Z 18009KT 4000 -RA BR BKN007 BKN012 BKN016 FEW019TCU 24/23 Q1013 RERA=
2025-11-21 21:00:00<>METAR SBSV 212100Z 17010KT 6000 -RA SCT006 BKN010 BKN017 FEW020TCU 24/23 Q1014=
2025-11-21 22:00:00<>METAR SBSV 212200Z 18008KT 9999 SCT012 BKN019 FEW022TCU BKN050 24/23 Q1014=
2025-11-21 23:00:00<>METAR SBSV 212300Z 18005KT 7000 -RA BKN019 FEW022TCU BKN050 BKN090 24/22 Q1015=
2025-11-22 00:00:00<>METAR SBSV 220000Z 26003KT 6000 -RA BKN020 FEW022TCU SCT060 BKN090 23/22 Q1015=
2025-11-22 01:00:00<>METAR SBSV 220100Z 20005KT 9999 VCSH SCT020 BKN080 23/22 Q1015=
2025-11-22 02:00:00<>METAR SBSV 220200Z VRB02KT 9999 SCT023 OVC050 24/23 Q1015=
2025-11-22 03:00:00<>METAR SBSV 220300Z VRB02KT 9999 SCT023 OVC050 24/23 Q1013=
2025-11-22 04:00:00<>METAR SBSV 220400Z 29002KT 9999 SCT023 OVC050 23/23 Q1013=
2025-11-22 05:00:00<>METAR SBSV 220500Z 35001KT 9999 VCSH SCT023 OVC050 24/23 Q1012=
2025-11-22 06:00:00<>METAR SBSV 220600Z 31002KT 9999 SCT023 OVC050 24/21 Q1012=
2025-11-22 07:00:00<>METAR SBSV 220700Z 00000KT 9999 SCT023 OVC050 24/23 Q1012=
2025-11-22 08:00:00<>METAR SBSV 220800Z 28002KT 9000 BKN025 OVC050 24/23 Q1013=
2025-11-22 09:00:00<>METAR SBSV 220900Z 28003KT 230V340 9999 SCT025 BKN050 24/23 Q1013=
2025-11-22 10:00:00<>METAR SBSV 221000Z 27003KT 9999 VCSH SCT006 SCT030 OVC070 24/24 Q1014=
2025-11-22 11:00:00<>METAR SBSV 221100Z 18003KT 100V200 9999 SCT007 BKN030 OVC060 25/24 Q1014=
2025-11-22 12:00:00<>METAR SBSV 221200Z 19004KT 9999 SCT009 BKN015 OVC055 26/23 Q1014=
2025-11-22 13:00:00<>METAR SBSV 221300Z 29005KT 9999 FEW012 BKN018 BKN050 27/23 Q1014=
2025-11-22 14:00:00<>METAR SBSV 221400Z 22007KT 180V250 9000 -RA BKN021 FEW025TCU BKN050 26/23 Q1014=
2025-11-22 15:00:00<>METAR SBSV 221500Z 18008KT 9999 VCSH SCT021 FEW025TCU BKN030 BKN055 27/23 Q1013=
2025-11-22 16:00:00<>METAR SBSV 221600Z 15009KT 9000 VCSH FEW015 FEW025TCU BKN028 BKN055 26/22 Q1013=
2025-11-22 17:00:00<>METAR SBSV 221700Z 18007KT 140V230 7000 -SHRA FEW015 FEW025TCU BKN030 BKN050 26/23 Q1012=
2025-11-22 18:00:00<>METAR SBSV 221800Z 11007KT 080V150 9999 VCSH SCT017 FEW025TCU BKN030 BKN070 27/23 Q1012=
2025-11-22 19:00:00<>METAR SBSV 221900Z 08013KT 9000 VCSH BKN015 FEW020TCU BKN030 BKN070 25/23 Q1012=
2025-11-22 20:00:00<>METAR SBSV 222000Z 09009KT 9999 SCT017 FEW020TCU BKN030 BKN060 25/22 Q1012=
2025-11-22 21:00:00<>METAR SBSV 222100Z 09007KT 9999 SCT017 FEW020TCU SCT030 BKN060 25/22 Q1013=
2025-11-22 22:00:00<>METAR SBSV 222200Z 09009KT 9999 SCT017 FEW020TCU BKN040 BKN070 25/22 Q1013=
2025-11-22 23:00:00<>METAR SBSV 222300Z 07007KT 9999 FEW020 SCT040 25/24 Q1013=
2025-11-23 00:00:00<>METAR SBSV 230000Z 07007KT 9999 FEW020 SCT080 25/23 Q1013=
2025-11-23 01:00:00<>METAR SBSV 230100Z 07006KT 9999 FEW020 SCT080 25/23 Q1013=
2025-11-23 02:00:00<>METAR SBSV 230200Z 05008KT 9999 FEW019 SCT070 25/23 Q1013=
2025-11-23 03:00:00<>METAR SBSV 230300Z 07006KT 9999 FEW015 SCT019 25/23 Q1013=
2025-11-23 04:00:00<>METAR SBSV 230400Z 06006KT 9999 SCT015 SCT019 25/23 Q1012=
2025-11-23 05:00:00<>METAR SBSV 230500Z 05005KT 9999 BKN015 BKN020 25/23 Q1012=
2025-11-23 06:00:00<>METAR SBSV 230600Z 05004KT 9999 SCT015 BKN020 25/22 Q1012=
2025-11-23 07:00:00<>METAR SBSV 230700Z VRB02KT 9999 SCT017 BKN060 24/23 Q1012=
2025-11-23 08:00:00<>METAR SBSV 230800Z 01002KT 9999 BKN017 BKN060 24/23 Q1013=
2025-11-23 09:00:00<>METAR SBSV 230900Z 03002KT 9999 SCT017 BKN060 25/23 Q1013=
2025-11-23 10:00:00<>METAR SBSV 231000Z 01004KT 9999 SCT017 BKN060 25/23 Q1014=
2025-11-23 11:00:00<>METAR SBSV 231100Z 03007KT 9999 SCT017 BKN060 27/22 Q1014=
2025-11-23 12:00:00<>METAR SBSV 231200Z 06010KT 9000 VCSH BKN023 FEW025TCU BKN060 25/22 Q1014=
2025-11-23 13:00:00<>METAR SBSV 231300Z 01009KT 330V050 9999 SCT023 BKN060 27/23 Q1014=
2025-11-23 14:00:00<>METAR SBSV 231400Z 05011KT 9999 SCT023 BKN060 28/22 Q1014=
2025-11-23 15:00:00<>METAR SBSV 231500Z 06013KT 9999 SCT023 BKN060 28/23 Q1013=
2025-11-23 16:00:00<>METAR SBSV 231600Z 07014KT 9999 SCT023 BKN060 29/24 Q1012=
2025-11-23 17:00:00<>METAR SBSV 231700Z 06015KT 9999 SCT023 BKN060 28/23 Q1011=
2025-11-23 18:00:00<>METAR SBSV 231800Z 07013G23KT 9999 FEW015 SCT025 28/22 Q1011=
2025-11-23 19:00:00<>METAR SBSV 231900Z 05015KT 9999 FEW015 SCT022 28/22 Q1010=
2025-11-23 20:00:00<>METAR SBSV 232000Z 06013KT 9999 FEW019 BKN070 27/22 Q1011=
2025-11-23 21:00:00<>METAR SBSV 232100Z 06009KT 9999 FEW017 BKN080 26/22 Q1011=
2025-11-23 22:00:00<>METAR SBSV 232200Z 06012KT 9999 FEW015 BKN070 26/22 Q1011=
2025-11-23 23:00:00<>METAR SBSV 232300Z 06007KT 9999 FEW015 SCT020 26/22 Q1012=
2025-11-24 00:00:00<>METAR SBSV 240000Z 06010KT 9999 FEW015 SCT020 26/22 Q1012=
2025-11-24 01:00:00<>METAR SBSV 240100Z 06008KT 9999 FEW015 SCT020 26/22 Q1012=
2025-11-24 02:00:00<>METAR SBSV 240200Z 06009KT 9999 FEW015 SCT020 BKN100 26/23 Q1012=
2025-11-24 03:00:00<>METAR SBSV 240300Z 06010KT 9999 FEW015 SCT020 26/22 Q1011=
2025-11-24 04:00:00<>METAR SBSV 240400Z 05006KT 9999 SCT015 BKN020 25/22 Q1011=
2025-11-24 05:00:00<>METAR SBSV 240500Z 04005KT 350V060 9999 SCT017 SCT020 25/22 Q1011=
2025-11-24 06:00:00<>METAR SBSV 240600Z 01003KT 330V050 9999 SCT018 25/22 Q1011=
2025-11-24 07:00:00<>METAR SBSV 240700Z 32003KT 9999 SCT017 24/22 Q1011=
2025-11-24 08:00:00<>METAR COR SBSV 240800Z 35003KT 9999 SCT016 SCT023 24/22 Q1011=
2025-11-24 09:00:00<>METAR SBSV 240900Z 35003KT 320V040 9999 SCT016 SCT070 24/23 Q1012=
2025-11-24 10:00:00<>METAR SBSV 241000Z 02005KT 9999 SCT017 SCT070 26/22 Q1012=
2025-11-24 11:00:00<>METAR SBSV 241100Z 05009KT 9999 BKN020 SCT070 27/22 Q1013=
2025-11-24 12:00:00<>METAR SBSV 241200Z 07013KT 9999 SCT020 SCT100 28/22 Q1013=
2025-11-24 13:00:00<>METAR SBSV 241300Z 07014KT 9999 SCT020 SCT100 28/22 Q1013=
2025-11-24 14:00:00<>METAR SBSV 241400Z 07016KT 9999 SCT020 SCT100 28/23 Q1012=
2025-11-24 15:00:00<>METAR SBSV 241500Z 07016KT 9999 SCT020 SCT100 29/23 Q1012=
2025-11-24 16:00:00<>METAR SBSV 241600Z 07017KT 9999 FEW023 SCT100 29/22 Q1011=
2025-11-24 17:00:00<>METAR SBSV 241700Z 06016KT 9999 FEW023 SCT100 29/22 Q1010=
2025-11-24 18:00:00<>METAR SBSV 241800Z 06017KT 9999 FEW023 SCT100 28/22 Q1009=
2025-11-24 19:00:00<>METAR SBSV 241900Z 06017KT 9999 FEW023 SCT100 27/21 Q1009=
2025-11-24 20:00:00<>METAR SBSV 242000Z 06015KT 9999 FEW023 27/21 Q1009=
2025-11-24 21:00:00<>METAR SBSV 242100Z 05011KT 020V080 9999 FEW023 26/22 Q1010=
2025-11-24 22:00:00<>METAR SBSV 242200Z 06013KT 9999 FEW023 26/22 Q1010=
2025-11-24 23:00:00<>METAR SBSV 242300Z 06012KT 9999 FEW016 26/22 Q1011=
2025-11-25 00:00:00<>METAR SBSV 250000Z 05012KT 9999 FEW016 26/22 Q1012=
2025-11-25 01:00:00<>METAR SBSV 250100Z 05009KT 9999 FEW019 26/22 Q1012=
2025-11-25 02:00:00<>METAR SBSV 250200Z 05009KT 9999 SCT019 26/22 Q1012=
2025-11-25 03:00:00<>METAR SBSV 250300Z 05009KT 9999 BKN019 26/22 Q1011=
2025-11-25 04:00:00<>METAR SBSV 250400Z 06009KT 9999 SCT017 26/22 Q1011=
2025-11-25 05:00:00<>METAR SBSV 250500Z 04008KT 9999 BKN017 25/22 Q1011=
2025-11-25 06:00:00<>METAR SBSV 250600Z 04008KT 9999 BKN017 26/22 Q1011=
2025-11-25 07:00:00<>METAR SBSV 250700Z 03005KT 360V060 9999 SCT017 25/21 Q1011=
2025-11-25 08:00:00<>METAR SBSV 250800Z 02005KT 9999 SCT017 24/22 Q1011=
2025-11-25 09:00:00<>METAR SBSV 250900Z 36003KT 320V040 9999 FEW020 24/22 Q1012=
2025-11-25 10:00:00<>METAR SBSV 251000Z 03007KT 350V050 9999 FEW020 26/22 Q1012=
2025-11-25 11:00:00<>METAR SBSV 251100Z 02010KT 9999 FEW020 28/22 Q1012=
2025-11-25 12:00:00<>METAR SBSV 251200Z 07012KT 9999 SCT020 SCT050 29/23 Q1013=
2025-11-25 13:00:00<>METAR SBSV 251300Z 07016KT 9999 SCT020 FEW025TCU SCT050 28/22 Q1012=
2025-11-25 14:00:00<>METAR SBSV 251400Z 06019KT 9999 SCT023 FEW025TCU 29/22 Q1012=
2025-11-25 15:00:00<>METAR SBSV 251500Z 06018KT 9999 SCT023 29/22 Q1012=
2025-11-25 16:00:00<>METAR SBSV 251600Z 06018KT 9999 SCT023 29/22 Q1011=
2025-11-25 17:00:00<>METAR SBSV 251700Z 06018KT 9999 SCT023 29/23 Q1010=
2025-11-25 18:00:00<>METAR SBSV 251800Z 06018KT 9999 FEW023 28/23 Q1010=
2025-11-25 19:00:00<>METAR SBSV 251900Z 06017KT 9999 FEW023 28/23 Q1010=
2025-11-25 20:00:00<>METAR SBSV 252000Z 06015KT 9999 FEW023 27/23 Q1010=
2025-11-25 21:00:00<>METAR SBSV 252100Z 05014KT 9999 BKN013 27/23 Q1011=
2025-11-25 22:00:00<>METAR SBSV 252200Z 05010KT 9999 SCT013 26/23 Q1012=
2025-11-25 23:00:00<>METAR SBSV 252300Z 05009KT 9999 SCT013 26/23 Q1012=
2025-11-26 00:00:00<>METAR SBSV 260000Z 05011KT 9999 SCT013 26/23 Q1013=
2025-11-26 01:00:00<>METAR SBSV 260100Z 05011KT 9999 BKN015 26/23 Q1012=
2025-11-26 02:00:00<>METAR SBSV 260200Z 05011KT 9999 SCT015 26/23 Q1012=
2025-11-26 03:00:00<>METAR SBSV 260300Z 05009KT 9999 SCT015 26/23 Q1011=
2025-11-26 04:00:00<>METAR SBSV 260400Z 03008KT 9999 BKN015 SCT021 26/22 Q1011=
2025-11-26 05:00:00<>METAR SBSV 260500Z 03007KT 9999 SCT015 SCT021 25/22 Q1010=
2025-11-26 06:00:00<>METAR SBSV 260600Z 02006KT 9999 SCT015 SCT021 25/22 Q1011=
2025-11-26 07:00:00<>METAR SBSV 260700Z 02005KT 9999 SCT017 25/22 Q1011=
2025-11-26 08:00:00<>METAR SBSV 260800Z 01004KT 340V040 9999 SCT017 24/23 Q1011=
2025-11-26 09:00:00<>METAR SBSV 260900Z 36003KT 320V050 9999 SCT017 25/23 Q1012=
2025-11-26 10:00:00<>METAR SBSV 261000Z 01007KT 9999 FEW013 BKN025 26/23 Q1013=
2025-11-26 11:00:00<>METAR SBSV 261100Z 04007KT 9999 FEW017 SCT025 27/22 Q1013=
2025-11-26 12:00:00<>METAR SBSV 261200Z 07012KT 9999 FEW017 SCT025 28/22 Q1013=
2025-11-26 13:00:00<>METAR SBSV 261300Z 07012KT 9999 FEW023 SCT040 28/22 Q1013=
2025-11-26 14:00:00<>METAR SBSV 261400Z 07017KT 9999 FEW023 SCT033 29/23 Q1012=
2025-11-26 15:00:00<>METAR SBSV 261500Z 07016KT 9999 SCT023 29/23 Q1012=
2025-11-26 16:00:00<>METAR SBSV 261600Z 07018KT 9999 SCT023 29/23 Q1011=
2025-11-26 17:00:00<>METAR SBSV 261700Z 06017KT 9999 FEW023 29/23 Q1010=
2025-11-26 18:00:00<>METAR SBSV 261800Z 07018KT 9999 FEW023 29/23 Q1009=
2025-11-26 19:00:00<>METAR SBSV 261900Z 06019KT 9999 FEW023 27/23 Q1009=
2025-11-26 20:00:00<>METAR SBSV 262000Z 06017KT 9999 FEW023 27/23 Q1010=
2025-11-26 21:00:00<>METAR SBSV 262100Z 06013KT 9999 SCT015 SCT080 26/23 Q1010=
2025-11-26 22:00:00<>METAR SBSV 262200Z 06011KT 9999 SCT015 SCT080 26/23 Q1011=
2025-11-26 23:00:00<>METAR SBSV 262300Z 06011KT 9999 SCT015 SCT080 26/23 Q1012=
2025-11-27 00:00:00<>METAR SBSV 270000Z 07010KT 9999 SCT015 SCT080 26/23 Q1012=
2025-11-27 01:00:00<>METAR SBSV 270100Z 08010KT 9999 SCT023 26/23 Q1013=
2025-11-27 02:00:00<>METAR SBSV 270200Z 07010KT 9999 FEW015 26/23 Q1012=
2025-11-27 03:00:00<>METAR SBSV 270300Z 07010KT 9999 SCT019 26/23 Q1012=
2025-11-27 04:00:00<>METAR SBSV 270400Z 06010KT 9999 FEW019 26/23 Q1011=
2025-11-27 05:00:00<>METAR SBSV 270500Z 07011KT 9999 BKN017 26/23 Q1011=
2025-11-27 06:00:00<>METAR SBSV 270600Z 06010KT 9999 BKN017 26/23 Q1012=
2025-11-27 07:00:00<>METAR SBSV 270700Z 06009KT 9999 BKN017 26/23 Q1012=
2025-11-27 08:00:00<>METAR SBSV 270800Z 00008KT 9999 FEW017 SCT060 25/22 Q1012=
2025-11-27 09:00:00<>METAR SBSV 270900Z 08008KT 9999 SCT017 FEW019TCU 26/23 Q1013=
2025-11-27 10:00:00<>METAR SBSV 271000Z 07011KT 9999 SCT017 27/22 Q1014=
2025-11-27 11:00:00<>METAR SBSV 271100Z 06012KT 9999 SCT017 27/23 Q1014=
2025-11-27 12:00:00<>METAR SBSV 271200Z 07013KT 9999 SCT017 28/22 Q1015=
2025-11-27 13:00:00<>METAR SBSV 271300Z 07013KT 9999 SCT017 28/22 Q1014=
2025-11-27 14:00:00<>METAR SBSV 271400Z 08013KT 9999 SCT017 SCT050 28/22 Q1014=
2025-11-27 15:00:00<>METAR SBSV 271500Z 09013KT 9999 SCT017 SCT050 29/22 Q1014=
2025-11-27 16:00:00<>METAR SBSV 271600Z 10014KT 9999 SCT017 28/22 Q1013=
2025-11-27 17:00:00<>METAR SBSV 271700Z 08013KT 9999 SCT017 SCT080 29/22 Q1013=
2025-11-27 18:00:00<>METAR SBSV 271800Z 10011KT 9999 SCT020 SCT100 28/21 Q1013=
2025-11-27 19:00:00<>METAR SBSV 271900Z 11009KT 9999 SCT020 SCT100 28/22 Q1013=
2025-11-27 20:00:00<>METAR SBSV 272000Z 10009KT 9999 SCT017 SCT100 27/22 Q1013=
2025-11-27 21:00:00<>METAR SBSV 272100Z 10009KT 9999 SCT017 BKN100 27/22 Q1013=
2025-11-27 22:00:00<>METAR SBSV 272200Z 09007KT 9999 SCT017 BKN100 26/22 Q1014=
2025-11-27 23:00:00<>METAR SBSV 272300Z 10010KT 9999 SCT017 BKN050 27/22 Q1014=
2025-11-28 00:00:00<>METAR SBSV 280000Z 08008KT 9999 FEW017 BKN050 27/22 Q1015=
2025-11-28 01:00:00<>METAR SBSV 280100Z 08009KT 9999 FEW017 BKN080 26/22 Q1014=
2025-11-28 02:00:00<>METAR SBSV 280200Z 08008KT 9999 FEW017 BKN100 26/22 Q1014=
2025-11-28 03:00:00<>METAR SBSV 280300Z 08005KT 9999 FEW017 BKN100 26/22 Q1013=
2025-11-28 04:00:00<>METAR SBSV 280400Z 09005KT 9999 FEW017 BKN100 26/22 Q1013=
2025-11-28 05:00:00<>METAR SBSV 280500Z 10004KT 9999 FEW017 BKN100 26/22 Q1013=
2025-11-28 06:00:00<>METAR SBSV 280600Z 09007KT 9999 FEW017 BKN100 26/22 Q1013=
2025-11-28 07:00:00<>METAR SBSV 280700Z 08004KT 9999 FEW017 BKN100 25/22 Q1013=
2025-11-28 08:00:00<>METAR SBSV 280800Z 08006KT 9999 SCT015 BKN100 25/23 Q1013=
2025-11-28 09:00:00<>METAR SBSV 280900Z 08008KT 9999 SCT015 SCT050 BKN100 26/22 Q1013=
2025-11-28 10:00:00<>METAR SBSV 281000Z 08008KT 9999 SCT015 SCT050 27/22 Q1014=
2025-11-28 11:00:00<>METAR SBSV 281100Z 09008KT 9999 SCT017 SCT050 27/22 Q1014=
2025-11-28 12:00:00<>METAR SBSV 281200Z 10011KT 9999 SCT017 28/23 Q1014=
2025-11-28 13:00:00<>METAR SBSV 281300Z 09012KT 9999 SCT017 28/22 Q1014=
2025-11-28 14:00:00<>METAR SBSV 281400Z 09011KT 9999 SCT017 29/23 Q1014=
2025-11-28 15:00:00<>METAR SBSV 281500Z 09014KT 9999 SCT017 29/22 Q1014=
2025-11-28 16:00:00<>METAR SBSV 281600Z 09012KT 9999 SCT017 28/21 Q1013=
2025-11-28 17:00:00<>METAR SBSV 281700Z 09015KT 9999 SCT020 29/22 Q1012=
2025-11-28 18:00:00<>METAR SBSV 281800Z 09014KT 9999 SCT020 29/22 Q1012=
2025-11-28 19:00:00<>METAR SBSV 281900Z 09012KT 9999 SCT020 28/22 Q1012=
2025-11-28 20:00:00<>METAR SBSV 282000Z 10010KT 9999 SCT020 28/21 Q1012=
2025-11-28 21:00:00<>METAR SBSV 282100Z 10008KT 080V140 9999 SCT020 27/21 Q1013=
2025-11-28 22:00:00<>METAR SBSV 282200Z 09008KT 9999 FEW020 27/22 Q1013=
2025-11-28 23:00:00<>METAR SBSV 282300Z 08009KT 9999 FEW020 26/22 Q1013=
2025-11-29 00:00:00<>METAR SBSV 290000Z 08009KT 9999 FEW020 26/22 Q1013=
2025-11-29 01:00:00<>METAR SBSV 290100Z 08011KT 9999 SCT018 26/22 Q1013=
2025-11-29 02:00:00<>METAR SBSV 290200Z 07011KT 9999 FEW017 SCT060 26/22 Q1012=
2025-11-29 03:00:00<>METAR SBSV 290300Z 08010KT 9999 SCT016 26/22 Q1012=
2025-11-29 04:00:00<>METAR SBSV 290400Z 08009KT 9999 SCT018 26/21 Q1011=
2025-11-29 05:00:00<>METAR SBSV 290500Z 06008KT 9999 FEW017 25/21 Q1011=
2025-11-29 06:00:00<>METAR SBSV 290600Z 06008KT 9999 SCT018 25/22 Q1011=
2025-11-29 07:00:00<>METAR SBSV 290700Z 05008KT 9999 SCT020 25/22 Q1011=
2025-11-29 08:00:00<>METAR SBSV 290800Z 04005KT 330V070 9999 SCT020 25/21 Q1012=
2025-11-29 09:00:00<>METAR SBSV 290900Z 02006KT 360V060 9999 SCT020 25/22 Q1012=
2025-11-29 10:00:00<>METAR SBSV 291000Z 36006KT 9999 FEW020 26/21 Q1012=
2025-11-29 11:00:00<>METAR SBSV 291100Z 03008KT 9999 SCT022 SCT027 27/21 Q1013=
2025-11-29 12:00:00<>METAR SBSV 291200Z 07014KT 9999 FEW029 BKN050 28/21 Q1013=
2025-11-29 13:00:00<>METAR SBSV 291300Z 07015KT 9999 FEW040 28/21 Q1012=
2025-11-29 14:00:00<>METAR SBSV 291400Z 07015KT 9999 SCT040 28/22 Q1012=
2025-11-29 15:00:00<>METAR SBSV 291500Z 07014KT 9999 SCT040 29/22 Q1011=
2025-11-29 16:00:00<>METAR SBSV 291600Z 07015KT 9999 FEW031 28/22 Q1011=
2025-11-29 17:00:00<>METAR SBSV 291700Z 08015KT 9999 FEW026 FEW030TCU 28/22 Q1010=
2025-11-29 18:00:00<>METAR SBSV 291800Z 08013KT 9999 FEW026 SCT080 28/22 Q1010=
2025-11-29 19:00:00<>METAR SBSV 291900Z 08014KT 9999 FEW017 SCT080 28/22 Q1010=
2025-11-29 20:00:00<>METAR SBSV 292000Z 07012KT 9999 FEW017 SCT080 27/22 Q1010=
2025-11-29 21:00:00<>METAR SBSV 292100Z 07011KT 9999 FEW017 SCT080 26/22 Q1011=
2025-11-29 22:00:00<>METAR SBSV 292200Z 07010KT 9999 FEW017 SCT080 26/22 Q1011=
2025-11-29 23:00:00<>METAR SBSV 292300Z 06009KT 9999 FEW017 SCT080 26/21 Q1011=
2025-11-30 00:00:00<>METAR SBSV 300000Z 06010KT 9999 FEW017 SCT080 26/21 Q1011=
2025-11-30 01:00:00<>METAR SBSV 300100Z 05007KT 9999 FEW017 26/21 Q1011=
2025-11-30 02:00:00<>METAR SBSV 300200Z 05006KT 9999 FEW017 26/22 Q1011=
2025-11-30 03:00:00<>METAR SBSV 300300Z 03005KT 9999 FEW017 25/22 Q1010=
2025-11-30 04:00:00<>METAR SBSV 300400Z 01003KT 9999 FEW017 25/22 Q1009=
2025-11-30 05:00:00<>METAR SBSV 300500Z 01003KT 9999 FEW017 24/22 Q1009=
2025-11-30 06:00:00<>METAR SBSV 300600Z 36003KT 9999 FEW017 24/22 Q1009=
2025-11-30 07:00:00<>METAR SBSV 300700Z 36002KT 9999 FEW017 24/22 Q1009=
2025-11-30 08:00:00<>METAR SBSV 300800Z 31002KT 9999 SCT017 23/22 Q1010=
2025-11-30 09:00:00<>METAR SBSV 300900Z 33002KT 9999 SCT020 25/23 Q1011=
2025-11-30 10:00:00<>METAR SBSV 301000Z 36004KT 320V040 9999 SCT020 26/22 Q1012=
2025-11-30 11:00:00<>METAR SBSV 301100Z 08004KT 020V110 9999 VCSH SCT013 BKN019 FEW025TCU 26/22 Q1013=
2025-11-30 12:00:00<>METAR SBSV 301200Z 04006KT 360V060 9999 SCT020 BKN060 27/21 Q1012=
2025-11-30 13:00:00<>METAR SBSV 301300Z 08013KT 9999 SCT020 BKN060 28/22 Q1012=
2025-11-30 14:00:00<>METAR SBSV 301400Z 07012KT 9999 SCT020 BKN060 27/21 Q1012=
2025-11-30 15:00:00<>METAR SBSV 301500Z 07015KT 9999 VCSH SCT020 FEW023TCU SCT070 29/22 Q1011=
2025-11-30 16:00:00<>METAR SBSV 301600Z 07014KT 9999 SCT020 SCT070 28/21 Q1010=
2025-11-30 17:00:00<>METAR SBSV 301700Z 08014KT 9999 SCT023 SCT070 28/22 Q1009=
2025-11-30 18:00:00<>METAR SBSV 301800Z 07015KT 9999 FEW023 SCT070 28/22 Q1009=
2025-11-30 19:00:00<>METAR SBSV 301900Z 07013KT 9999 FEW023 SCT070 28/22 Q1008=
2025-11-30 20:00:00<>METAR SBSV 302000Z 06013KT 9999 FEW023 27/22 Q1008=
2025-11-30 21:00:00<>METAR SBSV 302100Z 06010KT 9999 FEW023 26/21 Q1009=
2025-11-30 22:00:00<>METAR SBSV 302200Z 06009KT 9999 FEW023 26/22 Q1009=
2025-11-30 23:00:00<>METAR SBSV 302300Z 06008KT 9999 FEW023 26/21 Q1010=
2025-12-01 00:00:00<>METAR SBSV 010000Z 06009KT 9999 FEW023 26/22 Q1011=
2025-12-01 01:00:00<>METAR SBSV 010100Z 06009KT 9999 FEW023 26/22 Q1011=
2025-12-01 02:00:00<>METAR SBSV 010200Z 05006KT CAVOK 25/22 Q1011=
2025-12-01 03:00:00<>METAR SBSV 010300Z 05006KT CAVOK 25/22 Q1011=
2025-12-01 04:00:00<>METAR SBSV 010400Z 06007KT CAVOK 25/22 Q1010=
2025-12-01 05:00:00<>METAR SBSV 010500Z 06008KT CAVOK 25/22 Q1009=
2025-12-01 06:00:00<>METAR SBSV 010600Z 03005KT 360V070 CAVOK 25/22 Q1010=
2025-12-01 07:00:00<>METAR SBSV 010700Z 35003KT CAVOK 24/22 Q1010=
2025-12-01 08:00:00<>METAR SBSV 010800Z 35002KT 9999 FEW020 24/22 Q1010=
2025-12-01 09:00:00<>METAR SBSV 010900Z 01003KT 330V050 9999 FEW020 24/22 Q1011=
2025-12-01 10:00:00<>METAR SBSV 011000Z 01006KT 340V050 9999 SCT022 SCT050 26/22 Q1011=
2025-12-01 11:00:00<>METAR SBSV 011100Z 04007KT 360V070 9999 BKN019 BKN040 27/23 Q1012=
2025-12-01 12:00:00<>METAR SBSV 011200Z 05010KT 360V080 9999 BKN023 BKN050 28/21 Q1012=
2025-12-01 13:00:00<>METAR SBSV 011300Z 08012KT 9999 SCT024 SCT050 28/21 Q1012=
2025-12-01 14:00:00<>METAR SBSV 011400Z 08014KT 9999 SCT030 29/22 Q1012=
2025-12-01 15:00:00<>METAR SBSV 011500Z 08015KT 9999 SCT030 28/22 Q1012=
2025-12-01 16:00:00<>METAR SBSV 011600Z 08016KT 9999 FEW030 29/22 Q1011=
2025-12-01 17:00:00<>METAR SBSV 011700Z 08015KT 9999 FEW022 28/21 Q1010=
2025-12-01 18:00:00<>METAR SBSV 011800Z 07014KT 9999 FEW022 28/22 Q1010=
2025-12-01 19:00:00<>METAR SBSV 011900Z 08014KT 9999 FEW022 28/22 Q1009=
2025-12-01 20:00:00<>METAR SBSV 012000Z 08013KT 9999 FEW023 27/21 Q1009=
2025-12-01 21:00:00<>METAR SBSV 012100Z 07011KT 9999 FEW023 26/21 Q1010=
2025-12-01 22:00:00<>METAR SBSV 012200Z 07011KT 9999 FEW023 26/21 Q1010=
2025-12-01 23:00:00<>METAR SBSV 012300Z 07010KT 9999 FEW023 25/21 Q1011=
2025-12-02 00:00:00<>METAR SBSV 020000Z 07009KT 9999 FEW021 25/21 Q1011=
2025-12-02 01:00:00<>METAR SBSV 020100Z 07007KT 9999 FEW024 25/20 Q1012=
2025-12-02 02:00:00<>METAR SBSV 020200Z 07009KT 9999 FEW023 25/21 Q1011=
2025-12-02 03:00:00<>METAR SBSV 020300Z 07009KT 9999 FEW023 25/20 Q1010=
2025-12-02 04:00:00<>METAR SBSV 020400Z 08008KT 060V130 CAVOK 25/20 Q1010=
2025-12-02 05:00:00<>METAR SBSV 020500Z 07010KT 9999 FEW025 25/20 Q1010=
2025-12-02 06:00:00<>METAR SBSV 020600Z 07007KT 9999 FEW025 24/20 Q1010=
2025-12-02 07:00:00<>METAR SBSV 020700Z 05006KT 9999 FEW026 25/20 Q1010=
2025-12-02 08:00:00<>METAR SBSV 020800Z 35004KT 9999 FEW026 23/20 Q1011=
2025-12-02 09:00:00<>METAR SBSV 020900Z 00000KT 9999 FEW026 24/21 Q1012=
2025-12-02 10:00:00<>METAR SBSV 021000Z 02005KT 9999 SCT024 26/21 Q1013=
2025-12-02 11:00:00<>METAR SBSV 021100Z 06010KT 360V090 9999 SCT023 28/20 Q1013=
2025-12-02 12:00:00<>METAR SBSV 021200Z 07012KT 9999 SCT025 SCT040 28/20 Q1013=
2025-12-02 13:00:00<>METAR SBSV 021300Z 07012KT 9999 SCT030 29/21 Q1013=
2025-12-02 14:00:00<>METAR SBSV 021400Z 08012KT 9999 SCT030 29/20 Q1013=
2025-12-02 15:00:00<>METAR SBSV 021500Z 08015KT 9999 SCT030 SCT100 29/21 Q1012=
2025-12-02 16:00:00<>METAR SBSV 021600Z 08012KT 9999 FEW023 BKN060 28/21 Q1011=
2025-12-02 17:00:00<>METAR SBSV 021700Z 08012KT 9999 FEW024 28/21 Q1011=
2025-12-02 18:00:00<>METAR SBSV 021800Z 08012KT 9999 FEW024 28/21 Q1010=
2025-12-02 19:00:00<>METAR SBSV 021900Z 08013KT CAVOK 27/21 Q1010=
2025-12-02 20:00:00<>METAR SBSV 022000Z 07013KT CAVOK 26/21 Q1010=
2025-12-02 21:00:00<>METAR SBSV 022100Z 06012KT CAVOK 26/21 Q1010=
2025-12-02 22:00:00<>METAR SBSV 022200Z 06010KT 9999 FEW020 26/21 Q1010=
2025-12-02 23:00:00<>METAR SBSV 022300Z 05009KT 9999 SCT020 26/21 Q1011=
2025-12-03 00:00:00<>METAR SBSV 030000Z 05006KT 9999 SCT020 26/21 Q1012=
2025-12-03 01:00:00<>METAR SBSV 030100Z 05006KT 9999 SCT019 25/21 Q1012=
2025-12-03 02:00:00<>METAR SBSV 030200Z 06007KT 9999 SCT022 25/22 Q1011=
2025-12-03 03:00:00<>METAR SBSV 030300Z 05007KT 9999 FEW019 25/22 Q1011=
2025-12-03 04:00:00<>METAR SBSV 030400Z 01005KT 340V040 9999 SCT022 25/21 Q1010=
2025-12-03 05:00:00<>METAR SBSV 030500Z 01005KT 9999 FEW020 24/22 Q1010=
2025-12-03 06:00:00<>METAR SBSV 030600Z 01005KT 340V040 CAVOK 24/22 Q1010=
2025-12-03 07:00:00<>METAR SBSV 030700Z 35004KT 9999 FEW020 24/22 Q1011=
2025-12-03 08:00:00<>METAR SBSV 030800Z 35005KT 9999 FEW019 24/22 Q1011=
2025-12-03 09:00:00<>METAR SBSV 030900Z 34004KT 300V360 9999 SCT020 24/22 Q1012=
2025-12-03 10:00:00<>METAR SBSV 031000Z 03004KT 340V060 9999 SCT020 26/23 Q1013=
2025-12-03 11:00:00<>METAR SBSV 031100Z 03008KT 9999 SCT020 28/23 Q1013=
2025-12-03 12:00:00<>METAR SBSV 031200Z 05012KT 9999 SCT020 29/23 Q1013=
2025-12-03 13:00:00<>METAR SBSV 031300Z 07016KT 9999 SCT020 29/23 Q1013=
2025-12-03 14:00:00<>METAR SBSV 031400Z 07017KT 9999 SCT020 29/23 Q1012=
2025-12-03 15:00:00<>METAR SBSV 031500Z 06019KT 9999 SCT020 29/23 Q1011=
2025-12-03 16:00:00<>METAR SBSV 031600Z 06016KT 9999 SCT020 30/23 Q1011=
2025-12-03 17:00:00<>METAR SBSV 031700Z 07016KT 9999 SCT020 29/23 Q1010=
2025-12-03 18:00:00<>METAR SBSV 031800Z 07014KT 9999 SCT020 29/24 Q1010=
2025-12-03 19:00:00<>METAR SBSV 031900Z 07014KT 9999 SCT020 28/23 Q1009=
2025-12-03 20:00:00<>METAR SBSV 032000Z 07013KT 9999 FEW020 27/23 Q1009=
2025-12-03 21:00:00<>METAR SBSV 032100Z 06011KT 9999 FEW020 26/23 Q1010=
2025-12-03 22:00:00<>METAR SBSV 032200Z 05010KT 9999 FEW020 26/23 Q1010=
2025-12-03 23:00:00<>METAR SBSV 032300Z 06010KT 9999 FEW020 26/23 Q1011=
2025-12-04 00:00:00<>METAR SBSV 040000Z 05010KT 9999 FEW015 SCT020 26/23 Q1011=
2025-12-04 01:00:00<>METAR SBSV 040100Z 06010KT 9999 SCT015 26/23 Q1012=
2025-12-04 02:00:00<>METAR SBSV 040200Z 05009KT 9999 SCT015 26/22 Q1012=
2025-12-04 03:00:00<>METAR SBSV 040300Z 06010KT 9999 SCT019 26/23 Q1011=
2025-12-04 04:00:00<>METAR SBSV 040400Z 05009KT 9999 SCT019 26/23 Q1010=
2025-12-04 05:00:00<>METAR SBSV 040500Z 06010KT 9999 SCT019 26/23 Q1010=
2025-12-04 06:00:00<>METAR SBSV 040600Z 04008KT 9999 SCT019 26/23 Q1010=
2025-12-04 07:00:00<>METAR SBSV 040700Z 05006KT 9999 SCT019 26/23 Q1010=
2025-12-04 08:00:00<>METAR SBSV 040800Z 05006KT 9999 SCT013 SCT020 26/23 Q1010=
2025-12-04 09:00:00<>METAR SBSV 040900Z 01005KT 9999 SCT013 SCT020 26/23 Q1011=
2025-12-04 10:00:00<>METAR SBSV 041000Z 01006KT 330V050 9999 VCSH FEW014 SCT016 FEW023TCU BKN036 26/23 Q1011=
2025-12-04 11:00:00<>METAR SBSV 041100Z 03007KT 9999 BKN018 FEW023TCU BKN034 27/22 Q1011=
2025-12-04 12:00:00<>METAR SBSV 041200Z 07010KT 020V090 9999 SCT019 BKN026 BKN041 28/23 Q1011=
2025-12-04 13:00:00<>METAR SBSV 041300Z 05012KT 9999 FEW023 BKN026 BKN033 28/22 Q1011=
2025-12-04 14:00:00<>METAR SBSV 041400Z 07015KT 9999 FEW030 SCT043 29/23 Q1011=
2025-12-04 15:00:00<>METAR SBSV 041500Z 07016KT 9999 FEW030 SCT043 BKN050 28/23 Q1011=
2025-12-04 16:00:00<>METAR SBSV 041600Z 07016KT 9999 FEW030 30/23 Q1009=
2025-12-04 17:00:00<>METAR SBSV 041700Z 06018KT 9999 FEW032 29/21 Q1008=
2025-12-04 18:00:00<>METAR SBSV 041800Z 06017KT 9999 FEW030 29/22 Q1007=
2025-12-04 19:00:00<>METAR SBSV 041900Z 06016KT 9999 FEW030 28/23 Q1008=
2025-12-04 20:00:00<>METAR SBSV 042000Z 06012KT 9999 FEW030 27/23 Q1008=
2025-12-04 21:00:00<>METAR SBSV 042100Z 05012KT 9999 FEW030 26/22 Q1009=
2025-12-04 22:00:00<>METAR SBSV 042200Z 06010KT 9999 FEW013 26/23 Q1010=
2025-12-04 23:00:00<>METAR SBSV 042300Z 06008KT 9999 FEW013 26/23 Q1011=
2025-12-05 00:00:00<>METAR SBSV 050000Z 06009KT 9999 FEW013 26/23 Q1011=
2025-12-05 01:00:00<>METAR SBSV 050100Z 06009KT 9999 FEW014 26/23 Q1011=
2025-12-05 02:00:00<>METAR SBSV 050200Z 06009KT 9999 FEW014 27/23 Q1011=
2025-12-05 03:00:00<>METAR SBSV 050300Z 06008KT 9999 SCT021 FEW025TCU 26/23 Q1011=
2025-12-05 04:00:00<>METAR SBSV 050400Z 07009KT 9999 SCT020 25/23 Q1010=
2025-12-05 05:00:00<>METAR SBSV 050500Z 05008KT 9999 FEW015 FEW024TCU BKN028 26/23 Q1010=
2025-12-05 06:00:00<>METAR SBSV 050600Z 06007KT 9999 FEW016 FEW025TCU BKN028 26/23 Q1010=
2025-12-05 07:00:00<>METAR SBSV 050700Z 05008KT 020V090 9999 FEW013 BKN022 FEW025TCU 26/23 Q1010=
2025-12-05 08:00:00<>METAR SBSV 050800Z 04005KT 360V060 9999 FEW014 BKN024 FEW025TCU BKN050 26/23 Q1011=
2025-12-05 09:00:00<>METAR SBSV 050900Z 01004KT 9999 VCSH SCT013 BKN020 FEW025TCU BKN050 26/23 Q1012=
2025-12-05 10:00:00<>METAR SBSV 051000Z 03005KT 8000 -RA SCT015 BKN020 FEW025TCU BKN050 27/23 Q1012=
2025-12-05 11:00:00<>METAR SBSV 051100Z 04008KT 9999 VCSH SCT015 FEW025TCU SCT050 27/23 Q1013=
2025-12-05 12:00:00<>METAR SBSV 051200Z 04010KT 9999 SCT023 FEW025TCU SCT050 29/22 Q1013=
2025-12-05 13:00:00<>METAR SBSV 051300Z 07014KT 9000 -SHRA SCT023 FEW025TCU SCT050 27/22 Q1013=
2025-12-05 14:00:00<>METAR SBSV 051400Z 07015KT 9999 SCT023 SCT040 29/24 Q1013=
2025-12-05 15:00:00<>METAR SBSV 051500Z 07014KT 9999 SCT023 SCT040 28/23 Q1012=
2025-12-05 16:00:00<>METAR SBSV 051600Z 07018KT 9999 SCT023 28/22 Q1012=
2025-12-05 17:00:00<>METAR SBSV 051700Z 07014KT 9999 SCT023 28/23 Q1011=
2025-12-05 18:00:00<>METAR SBSV 051800Z 07012KT 9999 FEW017 27/23 Q1011=
2025-12-05 19:00:00<>METAR SBSV 051900Z 08011KT 9999 FEW018 27/23 Q1010=
2025-12-05 20:00:00<>METAR SBSV 052000Z 07010KT 9999 FEW015 27/23 Q1011=
2025-12-05 21:00:00<>METAR SBSV 052100Z 08011KT CAVOK 26/23 Q1011=
2025-12-05 22:00:00<>METAR SBSV 052200Z 07010KT CAVOK 26/23 Q1012=
2025-12-05 23:00:00<>METAR SBSV 052300Z 07007KT CAVOK 26/23 Q1013=
2025-12-06 00:00:00<>METAR SBSV 060000Z 08008KT 9999 FEW018 26/23 Q1013=
2025-12-06 01:00:00<>METAR SBSV 060100Z 08008KT 9999 FEW018 26/24 Q1014=
2025-12-06 02:00:00<>METAR SBSV 060200Z 06007KT 9999 SCT017 26/23 Q1014=
2025-12-06 03:00:00<>METAR SBSV 060300Z 07006KT 9999 SCT017 25/23 Q1013=
2025-12-06 04:00:00<>METAR SBSV 060400Z 06004KT 9999 SCT017 25/24 Q1012=
2025-12-06 05:00:00<>METAR SBSV 060500Z 06006KT 9999 SCT017 25/24 Q1012=
2025-12-06 06:00:00<>METAR SBSV 060600Z 06005KT 9999 SCT017 25/24 Q1012=
2025-12-06 07:00:00<>METAR SBSV 060700Z 06004KT 9999 SCT017 25/23 Q1012=
2025-12-06 08:00:00<>METAR SBSV 060800Z 07005KT 9999 SCT017 26/24 Q1013=
2025-12-06 09:00:00<>METAR SBSV 060900Z 05006KT 9999 SCT017 26/24 Q1014=
2025-12-06 10:00:00<>METAR SBSV 061000Z 07010KT 9999 SCT017 27/22 Q1014=
2025-12-06 11:00:00<>METAR SBSV 061100Z 07011KT 9999 SCT017 28/22 Q1015=
2025-12-06 12:00:00<>METAR SBSV 061200Z 08013KT 9999 SCT017 28/23 Q1015=
2025-12-06 13:00:00<>METAR SBSV 061300Z 07014KT 9999 SCT017 29/23 Q1015=
2025-12-06 14:00:00<>METAR SBSV 061400Z 07011KT 9999 SCT017 28/23 Q1015=
2025-12-06 15:00:00<>METAR SBSV 061500Z 08012KT 9999 FEW017 28/23 Q1014=
2025-12-06 16:00:00<>METAR SBSV 061600Z 09013KT 9999 FEW017 29/22 Q1014=
2025-12-06 17:00:00<>METAR SBSV 061700Z 09012KT 9999 FEW017 29/23 Q1013=
2025-12-06 18:00:00<>METAR COR SBSV 061800Z 09011KT 9999 SCT020 28/22 Q1013=
2025-12-06 19:00:00<>METAR SBSV 061900Z 09011KT 9999 SCT020 27/22 Q1013=
2025-12-06 20:00:00<>METAR SBSV 062000Z 08011KT 9999 SCT020 27/22 Q1013=
2025-12-06 21:00:00<>METAR SBSV 062100Z 08010KT 9999 SCT020 BKN080 26/22 Q1013=
2025-12-06 22:00:00<>METAR SBSV 062200Z 07010KT 9999 SCT020 BKN080 26/22 Q1014=
2025-12-06 23:00:00<>METAR SBSV 062300Z 08010KT 9999 FEW020 26/23 Q1014=
2025-12-07 00:00:00<>METAR SBSV 070000Z 08007KT 9999 FEW020 26/23 Q1015=
2025-12-07 01:00:00<>METAR SBSV 070100Z 08009KT 9999 SCT020 26/22 Q1015=
2025-12-07 02:00:00<>METAR SBSV 070200Z 08008KT 9999 FEW017 26/22 Q1015=
2025-12-07 03:00:00<>METAR SBSV 070300Z 08009KT 9999 FEW021 26/21 Q1014=
2025-12-07 04:00:00<>METAR SBSV 070400Z 08008KT 9999 FEW021 26/22 Q1014=
2025-12-07 05:00:00<>METAR SBSV 070500Z 08009KT 9999 FEW020 26/21 Q1013=
2025-12-07 06:00:00<>METAR SBSV 070600Z 07007KT 9999 FEW022 25/21 Q1013=
2025-12-07 07:00:00<>METAR SBSV 070700Z 08006KT 9999 FEW023 25/21 Q1014=
2025-12-07 08:00:00<>METAR SBSV 070800Z 06005KT 9999 FEW019 24/21 Q1014=
2025-12-07 09:00:00<>METAR SBSV 070900Z 05004KT 9999 FEW019 25/22 Q1015=
2025-12-07 10:00:00<>METAR SBSV 071000Z 06009KT 9999 FEW019 27/19 Q1015=
2025-12-07 11:00:00<>METAR SBSV 071100Z 06010KT 9999 SCT020 28/21 Q1016=
2025-12-07 12:00:00<>METAR SBSV 071200Z 08010KT 9999 SCT020 28/21 Q1016=
2025-12-07 13:00:00<>METAR SBSV 071300Z 07012KT 9999 SCT020 29/21 Q1016=
2025-12-07 14:00:00<>METAR SBSV 071400Z 08012KT 9999 SCT020 29/21 Q1016=
2025-12-07 15:00:00<>METAR SBSV 071500Z 09013KT 9999 SCT020 29/21 Q1015=
2025-12-07 16:00:00<>METAR SBSV 071600Z 09012KT 9999 FEW023 29/21 Q1014=
2025-12-07 17:00:00<>METAR SBSV 071700Z 09011KT 9999 FEW023 29/22 Q1014=
2025-12-07 18:00:00<>METAR SBSV 071800Z 10011KT 9999 FEW023 28/21 Q1013=
2025-12-07 19:00:00<>METAR SBSV 071900Z 09009KT 9999 FEW023 28/21 Q1013=
2025-12-07 20:00:00<>METAR SBSV 072000Z 09009KT 9999 FEW023 27/21 Q1013=
2025-12-07 21:00:00<>METAR SBSV 072100Z 09009KT 9999 SCT023 27/21 Q1013=
2025-12-07 22:00:00<>METAR SBSV 072200Z 09010KT 9999 SCT023 26/21 Q1013=
2025-12-07 23:00:00<>METAR SBSV 072300Z 08009KT 9999 SCT023 26/21 Q1014=
2025-12-08 00:00:00<>METAR SBSV 080000Z 08009KT 9999 SCT023 26/22 Q1014=
2025-12-08 01:00:00<>METAR SBSV 080100Z 07009KT 9999 SCT019 26/21 Q1015=
2025-12-08 02:00:00<>METAR SBSV 080200Z 07009KT 050V110 9999 SCT020 26/22 Q1015=
2025-12-08 03:00:00<>METAR SBSV 080300Z 07009KT 9999 SCT020 25/21 Q1014=
2025-12-08 04:00:00<>METAR SBSV 080400Z 06009KT 9999 SCT019 26/21 Q1014=
2025-12-08 05:00:00<>METAR SBSV 080500Z 06006KT 9999 SCT019 25/21 Q1013=
2025-12-08 06:00:00<>METAR SBSV 080600Z 06007KT 9999 SCT021 25/22 Q1013=
2025-12-08 07:00:00<>METAR SBSV 080700Z 06007KT CAVOK 25/21 Q1014=
2025-12-08 08:00:00<>METAR SBSV 080800Z 06006KT 9999 SCT020 25/21 Q1014=
2025-12-08 09:00:00<>METAR SBSV 080900Z 06009KT 9999 FEW020 26/21 Q1015=
2025-12-08 10:00:00<>METAR SBSV 081000Z 07008KT 9999 FEW021 27/21 Q1015=
2025-12-08 11:00:00<>METAR SBSV 081100Z 07008KT 9999 FEW021 27/21 Q1015=
2025-12-08 12:00:00<>METAR SBSV 081200Z 09009KT 9999 FEW021 29/21 Q1016=
2025-12-08 13:00:00<>METAR SBSV 081300Z 08009KT 9999 FEW021 27/21 Q1015=
2025-12-08 14:00:00<>METAR SBSV 081400Z 10010KT 9999 FEW021 28/22 Q1015=
2025-12-08 15:00:00<>METAR SBSV 081500Z 08010KT 9999 FEW021 28/21 Q1014=
2025-12-08 16:00:00<>METAR SBSV 081600Z 07010KT 9999 FEW021 29/21 Q1014=
2025-12-08 17:00:00<>METAR SBSV 081700Z 09010KT 9999 FEW023 28/21 Q1014=
2025-12-08 18:00:00<>METAR SBSV 081800Z 08012KT 9999 FEW023 28/22 Q1013=
2025-12-08 19:00:00<>METAR SBSV 081900Z 08012KT 9999 FEW023 27/21 Q1012=
2025-12-08 20:00:00<>METAR SBSV 082000Z 08012KT 9999 FEW023 27/21 Q1013=
2025-12-08 21:00:00<>METAR SBSV 082100Z 07011KT 9999 FEW023 26/21 Q1013=
2025-12-08 22:00:00<>METAR SBSV 082200Z 08011KT 9999 FEW023 26/21 Q1013=
2025-12-08 23:00:00<>METAR SBSV 082300Z 08013KT 9999 FEW023 26/21 Q1013=
2025-12-09 00:00:00<>METAR SBSV 090000Z 08012KT 9999 SCT023 26/21 Q1014=
2025-12-09 01:00:00<>METAR SBSV 090100Z 08011KT 9999 FEW019 26/22 Q1014=
2025-12-09 02:00:00<>METAR SBSV 090200Z 07009KT 9999 FEW019 26/21 Q1014=
2025-12-09 03:00:00<>METAR SBSV 090300Z 06009KT 9999 FEW019 26/21 Q1014=
2025-12-09 04:00:00<>METAR SBSV 090400Z 05007KT 9999 BKN019 26/21 Q1014=
2025-12-09 05:00:00<>METAR SBSV 090500Z 05007KT 9999 FEW019 25/21 Q1013=
2025-12-09 06:00:00<>METAR SBSV 090600Z 05006KT 9999 FEW020 SCT040 25/21 Q1013=
2025-12-09 07:00:00<>METAR SBSV 090700Z 01003KT 9999 FEW021 24/21 Q1013=
2025-12-09 08:00:00<>METAR SBSV 090800Z 31001KT 9999 FEW021 23/21 Q1014=
2025-12-09 09:00:00<>METAR SBSV 090900Z VRB02KT 9999 FEW022 25/22 Q1014=
2025-12-09 10:00:00<>METAR SBSV 091000Z 08008KT 9999 FEW022 27/20 Q1015=
2025-12-09 11:00:00<>METAR SBSV 091100Z 07011KT 9999 FEW022 28/21 Q1015=
2025-12-09 12:00:00<>METAR SBSV 091200Z 07009KT 9999 SCT023 28/21 Q1015=
2025-12-09 13:00:00<>METAR SBSV 091300Z 09009KT 9999 SCT023 29/20 Q1015=
2025-12-09 14:00:00<>METAR SBSV 091400Z 10011KT 9999 SCT023 29/20 Q1015=
2025-12-09 15:00:00<>METAR SBSV 091500Z 09011KT 9999 FEW025 29/21 Q1014=
2025-12-09 16:00:00<>METAR SBSV 091600Z 09013KT 9999 FEW025 29/20 Q1013=
2025-12-09 17:00:00<>METAR SBSV 091700Z 10013KT 9999 FEW025 29/20 Q1013=
2025-12-09 18:00:00<>METAR SBSV 091800Z 08013KT 9999 FEW025 29/21 Q1012=
2025-12-09 19:00:00<>METAR SBSV 091900Z 09013KT CAVOK 28/20 Q1012=
2025-12-09 20:00:00<>METAR SBSV 092000Z 09012KT 9999 FEW021 28/21 Q1012=
2025-12-09 21:00:00<>METAR SBSV 092100Z 07010KT 9999 FEW021 26/20 Q1012=
2025-12-09 22:00:00<>METAR SBSV 092200Z 07011KT 9999 FEW021 26/21 Q1013=
2025-12-09 23:00:00<>METAR SBSV 092300Z 06011KT 9999 FEW021 26/20 Q1013=
2025-12-10 00:00:00<>METAR SBSV 100000Z 06009KT 9999 FEW021 26/20 Q1014=
2025-12-10 01:00:00<>METAR SBSV 100100Z 05007KT 9999 FEW021 25/20 Q1014=
2025-12-10 02:00:00<>METAR SBSV 100200Z 05006KT 9999 FEW021 25/20 Q1014=
2025-12-10 03:00:00<>METAR SBSV 100300Z 06007KT 9999 FEW021 25/20 Q1013=
2025-12-10 04:00:00<>METAR SBSV 100400Z 07008KT CAVOK 25/21 Q1012=
2025-12-10 05:00:00<>METAR SBSV 100500Z 06008KT CAVOK 25/21 Q1012=
2025-12-10 06:00:00<>METAR SBSV 100600Z 07008KT 9999 SCT020 25/21 Q1012=
2025-12-10 07:00:00<>METAR SBSV 100700Z 06009KT 9999 SCT023 25/21 Q1012=
2025-12-10 08:00:00<>METAR SBSV 100800Z 05006KT 9999 SCT023 25/20 Q1013=
2025-12-10 09:00:00<>METAR SBSV 100900Z 01003KT 9999 SCT023 25/20 Q1014=
2025-12-10 10:00:00<>METAR SBSV 101000Z 02005KT 340V060 9999 SCT023 27/21 Q1014=
2025-12-10 11:00:00<>METAR SBSV 101100Z 06011KT 9999 SCT023 28/20 Q1015=
2025-12-10 12:00:00<>METAR SBSV 101200Z 07012KT 040V100 9999 SCT023 28/20 Q1015=
2025-12-10 13:00:00<>METAR SBSV 101300Z 09013KT 9999 SCT020 28/20 Q1015=
2025-12-10 14:00:00<>METAR SBSV 101400Z 08014KT 9999 FEW020 SCT060 29/21 Q1014=
2025-12-10 15:00:00<>METAR SBSV 101500Z 07015KT 040V100 9999 FEW020 SCT060 29/22 Q1014=
2025-12-10 16:00:00<>METAR SBSV 101600Z 08015KT 9999 FEW020 SCT060 29/21 Q1013=
2025-12-10 17:00:00<>METAR SBSV 101700Z 08016KT 9999 FEW020 SCT060 28/21 Q1012=
2025-12-10 18:00:00<>METAR SBSV 101800Z 08017KT 9999 SCT020 28/23 Q1011=
2025-12-10 19:00:00<>METAR SBSV 101900Z 07015KT 9999 SCT020 28/22 Q1011=
2025-12-10 20:00:00<>METAR SBSV 102000Z 06013KT 9999 SCT020 27/22 Q1011=
2025-12-10 21:00:00<>METAR SBSV 102100Z 06012KT 9999 SCT018 27/22 Q1011=
2025-12-10 22:00:00<>METAR SBSV 102200Z 06010KT 9999 SCT018 26/22 Q1012=
2025-12-10 23:00:00<>METAR SBSV 102300Z 06010KT 9999 SCT018 26/22 Q1013=
2025-12-11 00:00:00<>METAR SBSV 110000Z 06010KT 9999 SCT020 26/22 Q1013=
2025-12-11 01:00:00<>METAR SBSV 110100Z 06010KT 9999 FEW017 26/22 Q1013=
2025-12-11 02:00:00<>METAR SBSV 110200Z 05008KT 9999 SCT018 26/22 Q1013=
2025-12-11 03:00:00<>METAR SBSV 110300Z 08008KT 9999 BKN015 26/22 Q1012=
2025-12-11 04:00:00<>METAR SBSV 110400Z 04008KT 9999 BKN017 26/22 Q1011=
2025-12-11 05:00:00<>METAR SBSV 110500Z 03005KT 9999 BKN020 25/22 Q1011=
2025-12-11 06:00:00<>METAR SBSV 110600Z 03006KT 360V070 9999 SCT016 25/22 Q1010=
2025-12-11 07:00:00<>METAR SBSV 110700Z 36003KT 9999 SCT018 24/22 Q1011=
2025-12-11 08:00:00<>METAR SBSV 110800Z 01004KT 350V050 9999 FEW020 24/22 Q1011=
2025-12-11 09:00:00<>METAR SBSV 110900Z 01005KT 330V050 9999 FEW020 24/22 Q1012=
2025-12-11 10:00:00<>METAR SBSV 111000Z 02008KT 9999 FEW020 26/22 Q1012=
2025-12-11 11:00:00<>METAR SBSV 111100Z 04012KT 9999 FEW020 27/21 Q1012=
2025-12-11 12:00:00<>METAR SBSV 111200Z 04010KT 010V070 9999 SCT023 29/21 Q1012=
2025-12-11 13:00:00<>METAR SBSV 111300Z 07015KT 9999 SCT025 29/22 Q1012=
2025-12-11 14:00:00<>METAR SBSV 111400Z 07017KT 9999 SCT025 29/22 Q1012=
2025-12-11 15:00:00<>METAR SBSV 111500Z 07019KT 9999 SCT025 29/22 Q1011=
2025-12-11 16:00:00<>METAR SBSV 111600Z 07018KT 9999 SCT025 29/21 Q1010=
2025-12-11 17:00:00<>METAR SBSV 111700Z 06017KT 9999 FEW025 29/21 Q1010=
2025-12-11 18:00:00<>METAR SBSV 111800Z 06017KT 9999 FEW025 29/22 Q1009=
2025-12-11 19:00:00<>METAR SBSV 111900Z 07016KT CAVOK 28/22 Q1009=
2025-12-11 20:00:00<>METAR SBSV 112000Z 06012KT CAVOK 27/22 Q1009=
2025-12-11 21:00:00<>METAR SBSV 112100Z 06011KT CAVOK 26/22 Q1010=
2025-12-11 22:00:00<>METAR SBSV 112200Z 06011KT CAVOK 26/22 Q1010=
2025-12-11 23:00:00<>METAR SBSV 112300Z 05010KT CAVOK 26/22 Q1011=
2025-12-12 00:00:00<>METAR SBSV 120000Z 05008KT CAVOK 26/23 Q1011=
2025-12-12 01:00:00<>METAR SBSV 120100Z 05009KT 020V080 CAVOK 26/23 Q1011=
2025-12-12 02:00:00<>METAR SBSV 120200Z 05009KT 9999 FEW015 26/22 Q1011=
2025-12-12 03:00:00<>METAR SBSV 120300Z 05008KT 9999 SCT015 26/23 Q1011=
2025-12-12 04:00:00<>METAR SBSV 120400Z 05008KT 9999 BKN017 26/23 Q1010=
2025-12-12 05:00:00<>METAR SBSV 120500Z 04007KT 9999 BKN015 26/22 Q1010=
2025-12-12 06:00:00<>METAR SBSV 120600Z 01004KT 9999 BKN015 25/22 Q1010=
2025-12-12 07:00:00<>METAR SBSV 120700Z 01003KT 9999 BKN015 25/22 Q1011=
2025-12-12 08:00:00<>METAR SBSV 120800Z 01003KT 9999 SCT015 24/22 Q1011=
2025-12-12 09:00:00<>METAR SBSV 120900Z 02005KT 9999 FEW018 25/23 Q1012=
2025-12-12 10:00:00<>METAR SBSV 121000Z 01006KT 330V050 9999 FEW011 BKN015 BKN026 26/23 Q1012=
2025-12-12 11:00:00<>METAR SBSV 121100Z 03011KT 9999 FEW016 BKN023 28/22 Q1012=
2025-12-12 12:00:00<>METAR SBSV 121200Z 05009KT 9999 FEW022 BKN026 28/21 Q1012=
2025-12-12 13:00:00<>METAR SBSV 121300Z 07016KT 9999 FEW022 30/22 Q1011=
2025-12-12 14:00:00<>METAR SBSV 121400Z 07017KT 9999 FEW022 29/21 Q1011=
2025-12-12 15:00:00<>METAR SBSV 121500Z 07018KT 9999 FEW030 30/23 Q1010=
2025-12-12 16:00:00<>METAR SBSV 121600Z 07018KT 9999 FEW030 29/22 Q1010=
2025-12-12 17:00:00<>METAR SBSV 121700Z 07019KT CAVOK 29/22 Q1009=
2025-12-12 18:00:00<>METAR SBSV 121800Z 06018KT CAVOK 29/22 Q1008=
2025-12-12 19:00:00<>METAR SBSV 121900Z 07019KT CAVOK 28/22 Q1008=
2025-12-12 20:00:00<>METAR SBSV 122000Z 06016KT CAVOK 27/23 Q1008=
2025-12-12 21:00:00<>METAR SBSV 122100Z 06013KT CAVOK 26/22 Q1009=
2025-12-12 22:00:00<>METAR SBSV 122200Z 05011KT CAVOK 26/22 Q1009=
2025-12-12 23:00:00<>METAR SBSV 122300Z 05010KT 9999 FEW018 26/23 Q1010=
2025-12-13 00:00:00<>METAR SBSV 130000Z 06010KT CAVOK 26/23 Q1011=
2025-12-13 01:00:00<>METAR SBSV 130100Z 06008KT CAVOK 26/22 Q1011=
2025-12-13 02:00:00<>METAR SBSV 130200Z 05008KT CAVOK 25/22 Q1011=
2025-12-13 03:00:00<>METAR SBSV 130300Z 06007KT CAVOK 25/23 Q1011=
2025-12-13 04:00:00<>METAR SBSV 130400Z 08007KT CAVOK 25/23 Q1010=
2025-12-13 05:00:00<>METAR SBSV 130500Z 06008KT CAVOK 25/22 Q1010=
2025-12-13 06:00:00<>METAR SBSV 130600Z 06007KT CAVOK 25/22 Q1010=
2025-12-13 07:00:00<>METAR SBSV 130700Z 04006KT 360V060 9999 SCT016 25/22 Q1010=
2025-12-13 08:00:00<>METAR SBSV 130800Z 03003KT 360V080 9999 FEW019 25/22 Q1010=
2025-12-13 09:00:00<>METAR SBSV 130900Z 05004KT CAVOK 25/23 Q1011=
2025-12-13 10:00:00<>METAR SBSV 131000Z 06010KT 9999 FEW016 27/22 Q1012=
2025-12-13 11:00:00<>METAR SBSV 131100Z 07011KT 9999 FEW021 28/22 Q1013=
2025-12-13 12:00:00<>METAR SBSV 131200Z 07011KT 040V100 9999 FEW025 29/22 Q1013=
2025-12-13 13:00:00<>METAR SBSV 131300Z 07012KT 9999 FEW026 29/23 Q1013=
2025-12-13 14:00:00<>METAR SBSV 131400Z 07014KT 9999 FEW026 30/22 Q1012=
2025-12-13 15:00:00<>METAR SBSV 131500Z 07015KT 9999 FEW030 30/22 Q1012=
2025-12-13 16:00:00<>METAR SBSV 131600Z 07016KT CAVOK 30/22 Q1011=
2025-12-13 17:00:00<>METAR SBSV 131700Z 07016KT CAVOK 29/22 Q1010=
2025-12-13 18:00:00<>METAR SBSV 131800Z 07015KT CAVOK 29/22 Q1010=
2025-12-13 19:00:00<>METAR SBSV 131900Z 07013KT CAVOK 28/22 Q1010=
2025-12-13 20:00:00<>METAR SBSV 132000Z 07013KT CAVOK 27/22 Q1010=
2025-12-13 21:00:00<>METAR SBSV 132100Z 06009KT CAVOK 26/23 Q1010=
2025-12-13 22:00:00<>METAR SBSV 132200Z 06009KT 9999 FEW015 26/22 Q1011=
2025-12-13 23:00:00<>METAR SBSV 132300Z 05008KT 9999 FEW015 26/22 Q1011=
2025-12-14 00:00:00<>METAR SBSV 140000Z 05007KT 9999 FEW011 26/23 Q1012=
2025-12-14 01:00:00<>METAR SBSV 140100Z 06008KT 9999 FEW015 25/23 Q1012=
2025-12-14 02:00:00<>METAR SBSV 140200Z 05007KT 9999 FEW015 25/23 Q1012=
2025-12-14 03:00:00<>METAR SBSV 140300Z 06008KT 9999 FEW015 25/22 Q1011=
2025-12-14 04:00:00<>METAR SBSV 140400Z 06007KT CAVOK 25/22 Q1011=
2025-12-14 05:00:00<>METAR SBSV 140500Z 05006KT CAVOK 25/22 Q1011=
2025-12-14 06:00:00<>METAR SBSV 140600Z 06004KT 9999 SCT020 25/22 Q1011=
2025-12-14 07:00:00<>METAR SBSV 140700Z 06006KT 9999 SCT020 25/22 Q1011=
2025-12-14 08:00:00<>METAR COR SBSV 140800Z 02003KT 9999 SCT020 25/22 Q1011=
2025-12-14 09:00:00<>METAR SBSV 140900Z 01003KT 330V050 9999 SCT020 25/23 Q1012=
2025-12-14 10:00:00<>METAR SBSV 141000Z 03004KT 9999 SCT020 26/22 Q1013=
2025-12-14 11:00:00<>METAR SBSV 141100Z 06009KT 360V090 9999 SCT020 28/21 Q1013=
2025-12-14 12:00:00<>METAR SBSV 141200Z 07012KT 9999 SCT020 29/21 Q1013=
2025-12-14 13:00:00<>METAR SBSV 141300Z 08013KT 9999 SCT020 28/22 Q1013=
2025-12-14 14:00:00<>METAR SBSV 141400Z 07013KT 9999 SCT023 29/22 Q1013=
2025-12-14 15:00:00<>METAR SBSV 141500Z 08013KT 9999 SCT023 29/23 Q1012=
2025-12-14 16:00:00<>METAR SBSV 141600Z 08014KT 9999 FEW023 SCT070 29/23 Q1012=
2025-12-14 17:00:00<>METAR SBSV 141700Z 08013KT 9999 FEW023 29/22 Q1011=
2025-12-14 18:00:00<>METAR SBSV 141800Z 08012KT 9999 FEW023 29/23 Q1011=
2025-12-14 19:00:00<>METAR SBSV 141900Z 08013KT 9999 FEW023 28/22 Q1010=
2025-12-14 20:00:00<>METAR SBSV 142000Z 07013KT 9999 FEW023 27/22 Q1010=
2025-12-14 21:00:00<>METAR SBSV 142100Z 06011KT 9999 SCT015 26/22 Q1011=
2025-12-14 22:00:00<>METAR SBSV 142200Z 07010KT 9999 SCT015 26/22 Q1011=
2025-12-14 23:00:00<>METAR SBSV 142300Z 07009KT 9999 SCT015 26/22 Q1012=
2025-12-15 00:00:00<>METAR SBSV 150000Z 05009KT CAVOK 26/22 Q1012=
2025-12-15 01:00:00<>METAR SBSV 150100Z 05008KT 9999 SCT016 26/22 Q1012=
2025-12-15 02:00:00<>METAR SBSV 150200Z 05007KT CAVOK 26/22 Q1012=
2025-12-15 03:00:00<>METAR SBSV 150300Z 03006KT 9999 FEW015 25/22 Q1012=
2025-12-15 04:00:00<>METAR SBSV 150400Z 03007KT CAVOK 25/22 Q1011=
2025-12-15 05:00:00<>METAR SBSV 150500Z 01004KT 340V040 CAVOK 24/22 Q1011=
2025-12-15 06:00:00<>METAR SBSV 150600Z 01003KT CAVOK 24/22 Q1011=
2025-12-15 07:00:00<>METAR SBSV 150700Z VRB02KT CAVOK 23/21 Q1011=
2025-12-15 08:00:00<>METAR SBSV 150800Z 27001KT 9999 SCT018 23/22 Q1012=
2025-12-15 09:00:00<>METAR SBSV 150900Z VRB01KT 9999 SCT018 23/22 Q1012=
2025-12-15 10:00:00<>METAR SBSV 151000Z 36003KT CAVOK 25/23 Q1013=
2025-12-15 11:00:00<>METAR SBSV 151100Z 05008KT 350V070 9999 SCT017 27/22 Q1013=
2025-12-15 12:00:00<>METAR SBSV 151200Z 08014KT 9999 SCT017 29/22 Q1013=
2025-12-15 13:00:00<>METAR SBSV 151300Z 07014KT 9999 SCT017 29/23 Q1013=
2025-12-15 14:00:00<>METAR SBSV 151400Z 07015KT 9999 SCT017 30/22 Q1012=
2025-12-15 15:00:00<>METAR SBSV 151500Z 06015KT 9999 SCT017 29/22 Q1012=
2025-12-15 16:00:00<>METAR SBSV 151600Z 07014KT 9999 SCT017 29/22 Q1011=
2025-12-15 17:00:00<>METAR SBSV 151700Z 07013KT 9999 SCT017 28/22 Q1010=
2025-12-15 18:00:00<>METAR SBSV 151800Z 07013KT 9999 FEW017 27/22 Q1010=
2025-12-15 19:00:00<>METAR SBSV 151900Z 07014KT 9999 FEW017 28/22 Q1010=
2025-12-15 20:00:00<>METAR SBSV 152000Z 06013KT 9999 FEW017 27/21 Q1010=
2025-12-15 21:00:00<>METAR SBSV 152100Z 06013KT 9999 FEW017 26/21 Q1010=
2025-12-15 22:00:00<>METAR SBSV 152200Z 06010KT 9999 FEW020 26/21 Q1011=
2025-12-15 23:00:00<>METAR SBSV 152300Z 06009KT 9999 FEW020 26/21 Q1012=
2025-12-16 00:00:00<>METAR SBSV 160000Z 06009KT 9999 FEW020 26/22 Q1012=
2025-12-16 01:00:00<>METAR SBSV 160100Z 07010KT CAVOK 26/21 Q1012=
2025-12-16 02:00:00<>METAR SBSV 160200Z 07011KT 9999 FEW025 26/21 Q1013=
2025-12-16 03:00:00<>METAR SBSV 160300Z 06010KT 9999 FEW025 25/20 Q1012=
2025-12-16 04:00:00<>METAR SBSV 160400Z 06009KT 9999 FEW025 25/20 Q1012=
2025-12-16 05:00:00<>METAR SBSV 160500Z 06008KT CAVOK 25/20 Q1011=
2025-12-16 06:00:00<>METAR SBSV 160600Z 06007KT 9999 FEW025 25/21 Q1011=
2025-12-16 07:00:00<>METAR SBSV 160700Z 07006KT 9999 FEW025 24/20 Q1011=
2025-12-16 08:00:00<>METAR SBSV 160800Z 07005KT 9999 SCT025 24/21 Q1012=
2025-12-16 09:00:00<>METAR SBSV 160900Z 36003KT 330V040 9999 FEW025 25/21 Q1012=
2025-12-16 10:00:00<>METAR SBSV 161000Z 04005KT 340V080 9999 FEW025 27/21 Q1013=
2025-12-16 11:00:00<>METAR SBSV 161100Z 06011KT 9999 SCT025 28/20 Q1013=
2025-12-16 12:00:00<>METAR SBSV 161200Z 08012KT 9999 SCT025 28/20 Q1013=
2025-12-16 13:00:00<>METAR SBSV 161300Z 08011KT 040V110 9999 SCT025 29/21 Q1013=
2025-12-16 14:00:00<>METAR SBSV 161400Z 08012KT 9999 SCT025 29/21 Q1013=
2025-12-16 15:00:00<>METAR SBSV 161500Z 08013KT 9999 SCT025 28/22 Q1012=
2025-12-16 16:00:00<>METAR SBSV 161600Z 08013KT 9999 SCT025 29/21 Q1011=
2025-12-16 17:00:00<>METAR SBSV 161700Z 09012KT 9999 SCT025 29/20 Q1011=
2025-12-16 18:00:00<>METAR SBSV 161800Z 09012KT 9999 SCT025 28/21 Q1010=
2025-12-16 19:00:00<>METAR SBSV 161900Z 08013KT 9999 FEW025 28/21 Q1009=
2025-12-16 20:00:00<>METAR SBSV 162000Z 07012KT 9999 FEW025 27/20 Q1009=
2025-12-16 21:00:00<>METAR SBSV 162100Z 07010KT 9999 FEW025 26/21 Q1010=
2025-12-16 22:00:00<>METAR SBSV 162200Z 07011KT 9999 FEW023 26/21 Q1010=
2025-12-16 23:00:00<>METAR SBSV 162300Z 07011KT 9999 FEW023 26/20 Q1011=
2025-12-17 00:00:00<>METAR SBSV 170000Z 06009KT 9999 FEW023 26/21 Q1012=
2025-12-17 01:00:00<>METAR SBSV 170100Z 06010KT 9999 FEW023 26/20 Q1012=
2025-12-17 02:00:00<>METAR SBSV 170200Z 06009KT 9999 FEW023 25/21 Q1012=
2025-12-17 03:00:00<>METAR SBSV 170300Z 06010KT 9999 FEW023 25/20 Q1011=
2025-12-17 04:00:00<>METAR SBSV 170400Z 05007KT 9999 FEW023 25/20 Q1011=
2025-12-17 05:00:00<>METAR SBSV 170500Z 05006KT 9999 FEW023 25/20 Q1010=
2025-12-17 06:00:00<>METAR SBSV 170600Z VRB02KT 9999 FEW023 24/20 Q1010=
2025-12-17 07:00:00<>METAR SBSV 170700Z 33003KT 9999 SCT023 24/20 Q1010=
2025-12-17 08:00:00<>METAR SBSV 170800Z 36002KT 9999 SCT023 24/20 Q1011=
2025-12-17 09:00:00<>METAR SBSV 170900Z VRB02KT 9999 SCT023 SCT050 24/21 Q1012=
2025-12-17 10:00:00<>METAR SBSV 171000Z 35004KT 310V020 8000 VCSH SCT023 FEW025TCU BKN030 25/22 Q1012=
2025-12-17 11:00:00<>METAR SBSV 171100Z 04005KT 9999 VCSH SCT023 FEW025TCU BKN030 BKN050 26/21 Q1013=
2025-12-17 12:00:00<>METAR SBSV 171200Z 05010KT 9999 SCT023 FEW025TCU BKN030 BKN050 27/19 Q1013=
2025-12-17 13:00:00<>METAR SBSV 171300Z 07012KT 9999 SCT023 SCT070 29/21 Q1013=
2025-12-17 14:00:00<>METAR SBSV 171400Z 08011KT 9999 FEW023 SCT070 29/20 Q1012=
2025-12-17 15:00:00<>METAR SBSV 171500Z 07011KT 9999 FEW023 SCT070 29/19 Q1012=
2025-12-17 16:00:00<>METAR SBSV 171600Z 09013KT 9999 FEW023 SCT070 29/19 Q1011=
2025-12-17 17:00:00<>METAR SBSV 171700Z 08012KT 9999 FEW023 SCT070 28/19 Q1010=
2025-12-17 18:00:00<>METAR SBSV 171800Z 08012KT 9999 FEW023 28/20 Q1010=
2025-12-17 19:00:00<>METAR SBSV 171900Z 08011KT CAVOK 28/19 Q1009=
2025-12-17 20:00:00<>METAR SBSV 172000Z 08011KT CAVOK 27/19 Q1009=
2025-12-17 21:00:00<>METAR SBSV 172100Z 07011KT CAVOK 26/20 Q1009=
2025-12-17 22:00:00<>METAR SBSV 172200Z 08009KT CAVOK 25/20 Q1010=
2025-12-17 23:00:00<>METAR SBSV 172300Z 07010KT 9999 FEW021 25/20 Q1011=
2025-12-18 00:00:00<>METAR SBSV 180000Z 07009KT CAVOK 25/20 Q1012=
2025-12-18 01:00:00<>METAR SBSV 180100Z 06008KT CAVOK 25/20 Q1012=
2025-12-18 02:00:00<>METAR SBSV 180200Z 07009KT CAVOK 25/20 Q1011=
2025-12-18 03:00:00<>METAR SBSV 180300Z 07008KT CAVOK 25/20 Q1011=
2025-12-18 04:00:00<>METAR SBSV 180400Z 06007KT 9999 FEW023 25/20 Q1010=
2025-12-18 05:00:00<>METAR SBSV 180500Z 08007KT 9999 FEW023 25/20 Q1010=
2025-12-18 06:00:00<>METAR SBSV 180600Z 07005KT CAVOK 24/19 Q1010=
2025-12-18 07:00:00<>METAR SBSV 180700Z 08005KT CAVOK 24/19 Q1010=
2025-12-18 08:00:00<>METAR SBSV 180800Z 01001KT 9999 FEW023 23/19 Q1011=
2025-12-18 09:00:00<>METAR SBSV 180900Z 00000KT 9999 FEW023 23/20 Q1011=
2025-12-18 10:00:00<>METAR SBSV 181000Z 07006KT 9999 FEW023 27/20 Q1012=
2025-12-18 11:00:00<>METAR SBSV 181100Z 08008KT 9999 FEW023 27/20 Q1012=
2025-12-18 12:00:00<>METAR SBSV 181200Z 09010KT 9999 FEW023 28/21 Q1013=
2025-12-18 13:00:00<>METAR SBSV 181300Z 09010KT 9999 SCT023 29/21 Q1013=
2025-12-18 14:00:00<>METAR SBSV 181400Z 09012KT 9999 SCT023 29/21 Q1013=
2025-12-18 15:00:00<>METAR SBSV 181500Z 10012KT 9999 FEW023 SCT100 30/21 Q1012=
2025-12-18 16:00:00<>METAR SBSV 181600Z 09018KT 9999 FEW023 SCT100 28/20 Q1012=
2025-12-18 17:00:00<>METAR SBSV 181700Z 08014KT 9999 FEW023 SCT070 28/20 Q1011=
2025-12-18 18:00:00<>METAR SBSV 181800Z 08015KT 9999 FEW023 BKN070 29/20 Q1011=
2025-12-18 19:00:00<>METAR SBSV 181900Z 10011KT 9999 FEW023 BKN070 28/20 Q1010=
2025-12-18 20:00:00<>METAR SBSV 182000Z 10009KT 9999 FEW023 BKN070 27/20 Q1011=
2025-12-18 21:00:00<>METAR SBSV 182100Z 10008KT 9999 FEW023 BKN070 27/21 Q1011=
2025-12-18 22:00:00<>METAR SBSV 182200Z 09008KT 9999 FEW023 BKN080 26/21 Q1012=
2025-12-18 23:00:00<>METAR SBSV 182300Z 09009KT 9999 SCT021 BKN080 26/22 Q1013=
2025-12-19 00:00:00<>METAR SBSV 190000Z 05009KT 9999 FEW021 SCT080 25/22 Q1013=
2025-12-19 01:00:00<>METAR SBSV 190100Z 05007KT 9999 FEW021 25/21 Q1014=
2025-12-19 02:00:00<>METAR SBSV 190200Z 06008KT 9999 FEW020 25/22 Q1014=
2025-12-19 03:00:00<>METAR SBSV 190300Z 06006KT CAVOK 24/20 Q1013=
2025-12-19 04:00:00<>METAR SBSV 190400Z 09002KT 9999 FEW040 BKN055 25/21 Q1013=
2025-12-19 05:00:00<>METAR SBSV 190500Z 13003KT 9999 FEW041 BKN055 25/20 Q1012=
2025-12-19 06:00:00<>METAR SBSV 190600Z VRB06KT 9999 FEW041 BKN055 25/20 Q1012=
2025-12-19 07:00:00<>METAR SBSV 190700Z 14005KT CAVOK 25/20 Q1012=
2025-12-19 08:00:00<>METAR SBSV 190800Z 11010KT 9999 FEW015 BKN080 25/21 Q1012=
2025-12-19 09:00:00<>METAR SBSV 190900Z 13009KT 9999 FEW015 BKN090 25/22 Q1013=
2025-12-19 10:00:00<>METAR SBSV 191000Z 13009KT 9999 FEW015 BKN090 26/21 Q1013=
2025-12-19 11:00:00<>METAR SBSV 191100Z 09010KT 9999 FEW013 SCT090 27/21 Q1013=
2025-12-19 12:00:00<>METAR SBSV 191200Z 11010KT 9999 FEW013 SCT090 27/22 Q1014=
2025-12-19 13:00:00<>METAR SBSV 191300Z 12011KT 9999 FEW013 SCT090 28/21 Q1014=
2025-12-19 14:00:00<>METAR SBSV 191400Z 12011KT 9999 FEW015 SCT050 29/22 Q1013=
2025-12-19 15:00:00<>METAR SBSV 191500Z 12011KT 9999 FEW017 SCT050 29/21 Q1012=
2025-12-19 16:00:00<>METAR SBSV 191600Z 12012KT 9999 FEW017 SCT050 29/21 Q1012=
2025-12-19 17:00:00<>METAR SBSV 191700Z 11012KT 9999 FEW015 29/21 Q1011=
2025-12-19 18:00:00<>METAR SBSV 191800Z 09012KT 9999 SCT015 29/22 Q1010=
2025-12-19 19:00:00<>METAR SBSV 191900Z 11011KT 070V160 9999 SCT015 29/21 Q1010=
2025-12-19 20:00:00<>METAR SBSV 192000Z 10011KT 9999 SCT015 28/21 Q1010=
2025-12-19 21:00:00<>METAR SBSV 192100Z 10011KT 9999 SCT015 27/21 Q1011=
2025-12-19 22:00:00<>METAR SBSV 192200Z 10010KT 9999 SCT015 26/22 Q1012=
2025-12-19 23:00:00<>METAR SBSV 192300Z 09008KT 9999 SCT015 SCT100 26/22 Q1013=
2025-12-20 00:00:00<>METAR SBSV 200000Z 09009KT 9999 SCT017 SCT080 26/22 Q1013=
2025-12-20 01:00:00<>METAR SBSV 200100Z 09010KT 9999 SCT017 26/21 Q1013=
2025-12-20 02:00:00<>METAR SBSV 200200Z 09008KT 9999 FEW017 26/22 Q1013=
2025-12-20 03:00:00<>METAR SBSV 200300Z 07007KT 9999 FEW017 26/22 Q1013=
2025-12-20 04:00:00<>METAR SBSV 200400Z 09004KT 070V160 9999 FEW017 BKN100 27/22 Q1012=
2025-12-20 05:00:00<>METAR SBSV 200500Z 06005KT 9999 FEW017 BKN100 26/22 Q1012=
2025-12-20 06:00:00<>METAR SBSV 200600Z 33002KT 9999 FEW017 BKN100 25/22 Q1012=
2025-12-20 07:00:00<>METAR SBSV 200700Z VRB02KT 9999 SCT020 25/22 Q1012=
2025-12-20 08:00:00<>METAR SBSV 200800Z VRB02KT 9999 SCT020 24/22 Q1012=
2025-12-20 09:00:00<>METAR COR SBSV 200900Z VRB02KT 9999 FEW020 SCT060 25/22 Q1013=
2025-12-20 10:00:00<>METAR SBSV 201000Z 01004KT 320V050 9999 FEW020 BKN050 27/22 Q1013=
2025-12-20 11:00:00<>METAR SBSV 201100Z 06004KT 360V100 9999 SCT022 BKN050 28/21 Q1013=
2025-12-20 12:00:00<>METAR SBSV 201200Z 09009KT 050V120 9999 SCT024 SCT050 29/21 Q1014=
2025-12-20 13:00:00<>METAR SBSV 201300Z 09011KT 9999 FEW024 29/21 Q1014=
2025-12-20 14:00:00<>METAR SBSV 201400Z 08010KT 9999 FEW024 29/21 Q1013=
2025-12-20 15:00:00<>METAR SBSV 201500Z 10012KT 9999 FEW026 29/22 Q1013=
2025-12-20 16:00:00<>METAR SBSV 201600Z 10012KT 9999 FEW020 29/22 Q1012=
2025-12-20 17:00:00<>METAR SBSV 201700Z 09012KT 9999 FEW030 29/22 Q1011=
2025-12-20 18:00:00<>METAR SBSV 201800Z 08013KT 9999 SCT016 29/22 Q1011=
2025-12-20 19:00:00<>METAR SBSV 201900Z 08013KT 9999 SCT016 28/22 Q1011=
2025-12-20 20:00:00<>METAR SBSV 202000Z 08014KT 9999 SCT016 28/22 Q1011=
2025-12-20 21:00:00<>METAR SBSV 202100Z 06012KT 9999 FEW020 27/21 Q1011=
2025-12-20 22:00:00<>METAR SBSV 202200Z 08011KT 9999 FEW020 26/22 Q1012=
2025-12-20 23:00:00<>METAR SBSV 202300Z 07011KT 9999 FEW020 26/22 Q1012=
2025-12-21 00:00:00<>METAR SBSV 210000Z 07010KT 9999 SCT016 27/22 Q1013=
2025-12-21 01:00:00<>METAR SBSV 210100Z 08009KT 9999 SCT019 SCT100 26/22 Q1013=
2025-12-21 02:00:00<>METAR SBSV 210200Z 08010KT 9999 FEW019 SCT100 26/22 Q1012=
2025-12-21 03:00:00<>METAR SBSV 210300Z 06008KT 9999 FEW019 SCT100 26/22 Q1012=
2025-12-21 04:00:00<>METAR SBSV 210400Z 06008KT 9999 FEW019 SCT100 26/22 Q1012=
2025-12-21 05:00:00<>METAR SBSV 210500Z 06009KT 9999 FEW019 BKN100 26/22 Q1011=
2025-12-21 06:00:00<>METAR SBSV 210600Z 05007KT 9999 FEW019 BKN100 26/22 Q1011=
2025-12-21 07:00:00<>METAR SBSV 210700Z 05007KT 9999 FEW019 SCT100 26/22 Q1011=
2025-12-21 08:00:00<>METAR SBSV 210800Z 34003KT 9999 FEW019 SCT100 25/22 Q1011=
2025-12-21 09:00:00<>METAR SBSV 210900Z 02003KT 340V050 9999 SCT018 BKN030 BKN100 25/22 Q1012=
2025-12-21 10:00:00<>METAR SBSV 211000Z 01006KT 330V050 9999 SCT018 SCT040 BKN100 27/22 Q1012=
2025-12-21 11:00:00<>METAR SBSV 211100Z 02008KT 350V050 9999 VCSH BKN021 FEW023TCU BKN070 27/22 Q1012=
2025-12-21 12:00:00<>METAR SBSV 211200Z 06009G20KT 020V090 9000 VCSH BKN021 FEW023TCU BKN060 27/21 Q1013=
2025-12-21 13:00:00<>METAR SBSV 211300Z 06013KT 020V100 9000 VCSH BKN021 FEW023TCU BKN060 26/20 Q1014=
2025-12-21 14:00:00<>METAR SBSV 211400Z 08012KT 9000 VCSH BKN021 FEW023TCU BKN060 27/21 Q1014=
2025-12-21 15:00:00<>METAR SBSV 211500Z 11011KT 9999 VCSH BKN019 FEW023TCU BKN070 27/22 Q1014=
2025-12-21 16:00:00<>METAR SBSV 211600Z 09012KT 9999 SCT019 FEW023TCU BKN060 27/22 Q1013=
2025-12-21 17:00:00<>METAR SBSV 211700Z 09011KT 9999 SCT023 FEW025TCU BKN050 28/22 Q1013=
2025-12-21 18:00:00<>METAR SBSV 211800Z 11013KT 9999 VCSH FEW022 FEW026TCU BKN056 28/21 Q1012=
2025-12-21 19:00:00<>METAR SBSV 211900Z 12011KT 9999 VCSH FEW022 FEW026TCU BKN070 27/21 Q1012=
2025-12-21 20:00:00<>METAR SBSV 212000Z 13010KT 100V160 9999 FEW025 FEW027TCU 27/21 Q1013=
2025-12-21 21:00:00<>METAR SBSV 212100Z 13010KT 100V170 9999 FEW023 27/21 Q1013=
2025-12-21 22:00:00<>METAR SBSV 212200Z 12008KT CAVOK 26/21 Q1013=
2025-12-21 23:00:00<>METAR SBSV 212300Z 09009KT CAVOK 26/20 Q1013=
2025-12-22 00:00:00<>METAR SBSV 220000Z 08009KT CAVOK 25/21 Q1013=
2025-12-22 01:00:00<>METAR SBSV 220100Z 06009KT CAVOK 25/20 Q1012=
2025-12-22 02:00:00<>METAR SBSV 220200Z 07009KT 9999 FEW025 25/20 Q1013=
2025-12-22 03:00:00<>METAR SBSV 220300Z 08008KT 9999 SCT023 26/21 Q1012=
2025-12-22 04:00:00<>METAR SBSV 220400Z 09007KT 9999 SCT023 26/20 Q1012=
2025-12-22 05:00:00<>METAR SBSV 220500Z 10007KT 9999 SCT023 26/21 Q1012=
2025-12-22 06:00:00<>METAR SBSV 220600Z 11005KT 9999 SCT023 25/21 Q1012=
2025-12-22 07:00:00<>METAR SBSV 220700Z 10004KT 9999 VCSH SCT023 FEW025TCU BKN050 24/20 Q1012=
2025-12-22 08:00:00<>METAR SBSV 220800Z 09005KT 9999 VCSH SCT023 FEW025TCU BKN050 24/21 Q1013=
2025-12-22 09:00:00<>METAR SBSV 220900Z 08008KT 9999 FEW015 BKN060 25/21 Q1013=
2025-12-22 10:00:00<>METAR SBSV 221000Z 06009KT 9999 VCSH SCT017 FEW020TCU SCT060 BKN070 26/21 Q1014=
2025-12-22 11:00:00<>METAR SBSV 221100Z 09010KT 9999 SCT017 FEW020TCU SCT050 BKN070 28/21 Q1014=
2025-12-22 12:00:00<>METAR SBSV 221200Z 09009KT 9999 SCT017 FEW020TCU SCT060 BKN070 28/22 Q1015=
2025-12-22 13:00:00<>METAR SBSV 221300Z 07011KT 9999 VCSH SCT018 FEW021TCU SCT030 BKN070 29/21 Q1014=
2025-12-22 14:00:00<>METAR SBSV 221400Z 08010KT 9999 SCT018 SCT080 28/21 Q1014=
2025-12-22 15:00:00<>METAR SBSV 221500Z 11008KT 050V170 9999 SCT018 SCT070 29/21 Q1013=
2025-12-22 16:00:00<>METAR SBSV 221600Z 09010KT 9999 SCT018 SCT070 28/20 Q1013=
2025-12-22 17:00:00<>METAR SBSV 221700Z 10010KT 9999 SCT020 SCT070 29/20 Q1012=
2025-12-22 18:00:00<>METAR SBSV 221800Z 10010KT 9999 SCT023 28/20 Q1012=
2025-12-22 19:00:00<>METAR SBSV 221900Z 09009KT 9999 FEW023 28/19 Q1011=
2025-12-22 20:00:00<>METAR SBSV 222000Z 09010KT 9999 SCT023 27/20 Q1012=
2025-12-22 21:00:00<>METAR SBSV 222100Z 09007KT 9999 FEW023 27/20 Q1012=
2025-12-22 22:00:00<>METAR SBSV 222200Z 06006KT 9999 FEW025 26/20 Q1013=
2025-12-22 23:00:00<>METAR SBSV 222300Z 06006KT 9999 FEW025 26/20 Q1013=
2025-12-23 00:00:00<>METAR SBSV 230000Z 09006KT 9999 FEW025 SCT070 26/20 Q1014=
2025-12-23 01:00:00<>METAR SBSV 230100Z 08005KT 9999 FEW025 25/20 Q1014=
2025-12-23 02:00:00<>METAR SBSV 230200Z 08005KT 9999 SCT030 BKN065 25/21 Q1014=
2025-12-23 03:00:00<>METAR SBSV 230300Z 35003KT 320V040 9999 FEW018 24/21 Q1013=
2025-12-23 04:00:00<>METAR SBSV 230400Z 07002KT 9999 FEW018 24/21 Q1013=
2025-12-23 05:00:00<>METAR SBSV 230500Z 08003KT 9999 FEW018 24/21 Q1013=
2025-12-23 06:00:00<>METAR SBSV 230600Z 08006KT 9999 FEW025 24/20 Q1013=
2025-12-23 07:00:00<>METAR SBSV 230700Z 05003KT 310V080 9999 FEW026 24/20 Q1013=
2025-12-23 08:00:00<>METAR SBSV 230800Z VRB02KT 9999 SCT027 23/21 Q1014=
2025-12-23 09:00:00<>METAR SBSV 230900Z 27002KT 9999 FEW027 23/21 Q1014=
2025-12-23 10:00:00<>METAR SBSV 231000Z 04003KT 9999 FEW027 27/21 Q1015=
2025-12-23 11:00:00<>METAR SBSV 231100Z 10005KT 020V150 9999 SCT023 28/20 Q1015=
2025-12-23 12:00:00<>METAR SBSV 231200Z 13006KT 9999 SCT023 28/20 Q1015=
2025-12-23 13:00:00<>METAR SBSV 231300Z 12007KT 070V170 9999 SCT023 29/20 Q1015=
2025-12-23 14:00:00<>METAR SBSV 231400Z 14014KT 9999 SCT023 FEW025TCU 27/20 Q1016=
2025-12-23 15:00:00<>METAR SBSV 231500Z 14012KT 9999 VCSH SCT023 FEW025TCU BKN050 26/21 Q1015=
2025-12-23 16:00:00<>METAR SBSV 231600Z 13013KT 9999 SCT023 FEW025TCU BKN050 27/21 Q1015=
2025-12-23 17:00:00<>METAR SBSV 231700Z 11012KT 080V140 9999 SCT023 FEW025TCU BKN050 26/20 Q1014=
2025-12-23 18:00:00<>METAR SBSV 231800Z VRB03KT 9999 SCT023 BKN060 28/20 Q1013=
2025-12-23 19:00:00<>METAR SBSV 231900Z 12006KT 9999 SCT023 BKN060 27/19 Q1013=
2025-12-23 20:00:00<>METAR SBSV 232000Z 14008KT 9999 SCT023 BKN070 26/19 Q1014=
2025-12-23 21:00:00<>METAR SBSV 232100Z 15007KT 9999 SCT023 SCT070 26/19 Q1013=
2025-12-23 22:00:00<>METAR SBSV 232200Z 12007KT 9999 FEW025 SCT080 26/20 Q1014=
2025-12-23 23:00:00<>METAR SBSV 232300Z 13006KT 100V170 9999 FEW025 SCT080 26/20 Q1014=
2025-12-24 00:00:00<>METAR SBSV 240000Z 12006KT 9999 FEW025 26/21 Q1014=
2025-12-24 01:00:00<>METAR SBSV 240100Z 11005KT CAVOK 26/21 Q1014=
2025-12-24 02:00:00<>METAR SBSV 240200Z 12006KT 100V170 CAVOK 26/20 Q1014=
2025-12-24 03:00:00<>METAR SBSV 240300Z 10006KT 060V140 CAVOK 25/21 Q1013=
2025-12-24 04:00:00<>METAR SBSV 240400Z 09004KT CAVOK 25/21 Q1013=
2025-12-24 05:00:00<>METAR SBSV 240500Z 09008KT 9999 FEW020 BKN060 25/22 Q1012=
2025-12-24 06:00:00<>METAR SBSV 240600Z 06004KT 9999 FEW020 BKN060 24/21 Q1012=
2025-12-24 07:00:00<>METAR SBSV 240700Z 10006KT 9999 SCT017 BKN060 24/22 Q1012=
2025-12-24 08:00:00<>METAR SBSV 240800Z 05003KT 9999 SCT017 BKN060 24/21 Q1012=
2025-12-24 09:00:00<>METAR SBSV 240900Z 00000KT 9999 SCT017 BKN060 24/22 Q1012=
2025-12-24 10:00:00<>METAR COR SBSV 241000Z 12005KT 9999 4000N RA SCT017 BKN050 25/22 Q1013=
2025-12-24 11:00:00<>METAR SBSV 241100Z 07010KT 9999 VCSH SCT021 BKN050 25/22 Q1013 RERA=
2025-12-24 12:00:00<>METAR SBSV 241200Z 07009KT 9999 SCT021 SCT040 27/22 Q1014=
2025-12-24 12:45:00<>SPECI SBSV 241245Z 09010G23KT 6000 2000N +SHRA SCT021 FEW025TCU SCT040 27/20 Q1014=
2025-12-24 13:00:00<>METAR SBSV 241300Z 10016KT 9999 VCSH SCT021 FEW025TCU SCT040 25/22 Q1014 RESHRA=
2025-12-24 14:00:00<>METAR SBSV 241400Z 11008KT 9999 FEW021 FEW025TCU BKN040 27/20 Q1013=
2025-12-24 15:00:00<>METAR SBSV 241500Z 08008KT 9999 FEW021 BKN040 28/21 Q1013=
2025-12-24 16:00:00<>METAR SBSV 241600Z 09009KT 9999 FEW021 BKN050 29/22 Q1013=
2025-12-24 17:00:00<>METAR SBSV 241700Z 08011KT 9999 FEW020 SCT050 29/22 Q1012=
2025-12-24 18:00:00<>METAR SBSV 241800Z 08010KT 9999 FEW020 28/21 Q1012=
2025-12-24 19:00:00<>METAR SBSV 241900Z 09009KT 9999 FEW020 28/21 Q1012=
2025-12-24 20:00:00<>METAR SBSV 242000Z 09011KT 9999 SCT023 28/20 Q1012=
2025-12-24 21:00:00<>METAR SBSV 242100Z 10008KT 9999 SCT023 27/20 Q1012=
2025-12-24 22:00:00<>METAR SBSV 242200Z 10009KT 9999 SCT023 27/19 Q1012=
2025-12-24 23:00:00<>METAR SBSV 242300Z 10008KT 9999 SCT023 26/20 Q1013=
2025-12-25 00:00:00<>METAR SBSV 250000Z 11008KT 9999 FEW023 26/20 Q1013=
2025-12-25 01:00:00<>METAR SBSV 250100Z 10010KT 9999 FEW023 26/20 Q1013=
2025-12-25 02:00:00<>METAR SBSV 250200Z 11007KT 9999 FEW023 26/21 Q1013=
2025-12-25 03:00:00<>METAR SBSV 250300Z 11008KT 9999 FEW023 26/20 Q1012=
2025-12-25 04:00:00<>METAR SBSV 250400Z 11007KT 9999 FEW023 BKN060 26/20 Q1012=
2025-12-25 05:00:00<>METAR SBSV 250500Z 11007KT 9999 FEW023 SCT060 26/19 Q1012=
2025-12-25 06:00:00<>METAR SBSV 250600Z 11006KT 9999 FEW023 24/20 Q1012=
2025-12-25 07:00:00<>METAR SBSV 250700Z 11005KT 9999 FEW023 25/20 Q1012=
2025-12-25 08:00:00<>METAR COR SBSV 250800Z 09004KT 9999 SCT023 BKN040 BKN060 26/19 Q1012=
2025-12-25 09:00:00<>METAR SBSV 250900Z 13004KT 9999 SCT023 BKN040 BKN060 26/20 Q1013=
2025-12-25 10:00:00<>METAR SBSV 251000Z 11005KT 9999 SCT030 BKN040 BKN060 26/20 Q1013=
2025-12-25 11:00:00<>METAR SBSV 251100Z 09010KT 9999 4000NE SHRA BKN023 BKN060 24/21 Q1014=
2025-12-25 12:00:00<>METAR SBSV 251200Z 36003KT 9999 SCT023 BKN060 27/22 Q1014 RESHRA=
2025-12-25 13:00:00<>METAR SBSV 251300Z 07009KT 9999 SCT023 BKN060 28/21 Q1014=
2025-12-25 14:00:00<>METAR SBSV 251400Z 08008KT 9999 SCT023 BKN060 29/20 Q1014=
2025-12-25 15:00:00<>METAR SBSV 251500Z 09009KT 9999 SCT023 BKN060 29/21 Q1014=
2025-12-25 16:00:00<>METAR SBSV 251600Z 09012KT 9999 SCT023 BKN060 28/21 Q1013=
2025-12-25 17:00:00<>METAR SBSV 251700Z 10013KT 9999 SCT023 BKN050 30/19 Q1013=
2025-12-25 18:00:00<>METAR SBSV 251800Z 12011KT 080V140 CAVOK 29/21 Q1012=
2025-12-25 19:00:00<>METAR SBSV 251900Z 11010KT CAVOK 28/20 Q1012=
2025-12-25 20:00:00<>METAR SBSV 252000Z 11010KT CAVOK 28/20 Q1012=
2025-12-25 21:00:00<>METAR SBSV 252100Z 10008KT CAVOK 27/21 Q1013=
2025-12-25 22:00:00<>METAR SBSV 252200Z 10009KT CAVOK 26/21 Q1013=
2025-12-25 23:00:00<>METAR SBSV 252300Z 10007KT CAVOK 26/21 Q1013=
2025-12-26 00:00:00<>METAR SBSV 260000Z 09007KT CAVOK 26/21 Q1014=
2025-12-26 01:00:00<>METAR SBSV 260100Z 09007KT 9999 FEW020 26/21 Q1014=
2025-12-26 02:00:00<>METAR SBSV 260200Z 10007KT 9999 FEW020 26/21 Q1014=
2025-12-26 03:00:00<>METAR SBSV 260300Z 10007KT 9999 SCT020 26/21 Q1013=
2025-12-26 04:00:00<>METAR SBSV 260400Z 08007KT 9999 SCT020 25/21 Q1013=
2025-12-26 05:00:00<>METAR SBSV 260500Z 07005KT CAVOK 25/21 Q1013=
2025-12-26 06:00:00<>METAR SBSV 260600Z 08005KT 9999 FEW020 24/21 Q1013=
2025-12-26 07:00:00<>METAR SBSV 260700Z 36001KT CAVOK 24/21 Q1013=
2025-12-26 08:00:00<>METAR SBSV 260800Z 03002KT 9999 FEW020 24/21 Q1013=
2025-12-26 09:00:00<>METAR SBSV 260900Z VRB02KT 9999 FEW020 25/22 Q1014=
2025-12-26 10:00:00<>METAR SBSV 261000Z 09006KT 9999 SCT020 FEW023TCU 27/21 Q1015=
2025-12-26 11:00:00<>METAR SBSV 261100Z 10007KT 9000 VCSH SCT020 FEW023TCU SCT060 27/21 Q1015=
2025-12-26 12:00:00<>METAR SBSV 261200Z 09007KT 360V130 9000 VCSH SCT020 FEW023TCU BKN060 29/21 Q1015=
2025-12-26 13:00:00<>METAR SBSV 261300Z 10007KT 050V140 9999 SCT020 FEW023TCU BKN060 28/20 Q1015=
2025-12-26 14:00:00<>METAR SBSV 261400Z 08010KT 9999 SCT020 SCT070 29/21 Q1015=
2025-12-26 15:00:00<>METAR SBSV 261500Z 08009KT 9999 SCT020 29/22 Q1015=
2025-12-26 16:00:00<>METAR SBSV 261600Z 10011KT 9999 SCT020 29/21 Q1014=
2025-12-26 17:00:00<>METAR SBSV 261700Z 10011KT 070V150 9999 SCT023 29/21 Q1013=
2025-12-26 18:00:00<>METAR SBSV 261800Z 10011KT 9999 FEW023 29/21 Q1013=
2025-12-26 19:00:00<>METAR SBSV 261900Z 08011KT 9999 FEW023 29/21 Q1013=
2025-12-26 20:00:00<>METAR SBSV 262000Z 07010KT CAVOK 27/21 Q1012=
2025-12-26 21:00:00<>METAR SBSV 262100Z 08009KT CAVOK 27/20 Q1013=
2025-12-26 22:00:00<>METAR SBSV 262200Z 07009KT CAVOK 26/21 Q1013=
2025-12-26 23:00:00<>METAR SBSV 262300Z 07010KT CAVOK 26/21 Q1013=
2025-12-27 00:00:00<>METAR SBSV 270000Z 08010KT CAVOK 26/21 Q1014=
2025-12-27 01:00:00<>METAR SBSV 270100Z 07010KT 9999 FEW018 26/21 Q1014=
2025-12-27 02:00:00<>METAR SBSV 270200Z 07011KT CAVOK 26/21 Q1014=
2025-12-27 03:00:00<>METAR SBSV 270300Z 06009KT 9999 SCT020 26/21 Q1013=
2025-12-27 04:00:00<>METAR SBSV 270400Z 07011KT 9999 SCT020 25/21 Q1013=
2025-12-27 05:00:00<>METAR SBSV 270500Z 06009KT 9999 FEW022 25/21 Q1012=
2025-12-27 06:00:00<>METAR SBSV 270600Z 06007KT 9999 FEW022 25/21 Q1012=
2025-12-27 07:00:00<>METAR SBSV 270700Z 35002KT 9999 FEW020 24/20 Q1013=
2025-12-27 08:00:00<>METAR SBSV 270800Z VRB02KT 9999 FEW020 SCT025 24/21 Q1013=
2025-12-27 09:00:00<>METAR SBSV 270900Z VRB01KT 9999 FEW021 SCT026 BKN040 24/21 Q1014=
2025-12-27 10:00:00<>METAR SBSV 271000Z 36003KT 9999 SCT021 26/21 Q1014=
2025-12-27 11:00:00<>METAR SBSV 271100Z 05006KT 9999 SCT021 28/21 Q1015=
2025-12-27 12:00:00<>METAR SBSV 271200Z 08010KT 9999 SCT021 28/21 Q1015=
2025-12-27 13:00:00<>METAR SBSV 271300Z 08011KT 9999 SCT021 29/21 Q1014=
2025-12-27 14:00:00<>METAR SBSV 271400Z 09012KT 9999 SCT021 29/20 Q1014=
2025-12-27 15:00:00<>METAR SBSV 271500Z 09013KT 9999 FEW021 29/21 Q1013=
2025-12-27 16:00:00<>METAR SBSV 271600Z 09012KT 9999 FEW021 30/22 Q1013=
2025-12-27 17:00:00<>METAR SBSV 271700Z 10012KT 9999 FEW021 29/21 Q1012=
2025-12-27 18:00:00<>METAR SBSV 271800Z 10011KT 9999 FEW021 29/22 Q1012=
2025-12-27 19:00:00<>METAR SBSV 271900Z 11011KT 9999 FEW021 29/21 Q1012=
2025-12-27 20:00:00<>METAR SBSV 272000Z 10010KT 9999 FEW025 28/21 Q1012=
2025-12-27 21:00:00<>METAR SBSV 272100Z 10009KT 9999 FEW025 27/20 Q1012=
2025-12-27 22:00:00<>METAR SBSV 272200Z 09009KT 9999 SCT022 27/21 Q1013=
2025-12-27 23:00:00<>METAR SBSV 272300Z 08009KT 9999 SCT022 26/21 Q1013=
2025-12-28 00:00:00<>METAR SBSV 280000Z 08010KT 9999 SCT022 26/21 Q1014=
2025-12-28 01:00:00<>METAR SBSV 280100Z 08010KT 9999 SCT020 26/21 Q1014=
2025-12-28 02:00:00<>METAR SBSV 280200Z 07010KT 9999 SCT020 26/21 Q1014=
2025-12-28 03:00:00<>METAR SBSV 280300Z 07008KT 9999 SCT020 25/21 Q1013=
2025-12-28 04:00:00<>METAR SBSV 280400Z 05007KT 9999 FEW019 25/21 Q1012=
2025-12-28 05:00:00<>METAR SBSV 280500Z 05005KT 9999 FEW019 25/21 Q1012=
2025-12-28 06:00:00<>METAR SBSV 280600Z 01003KT 350V050 9999 FEW019 25/21 Q1011=
2025-12-28 07:00:00<>METAR SBSV 280700Z 35002KT 9999 FEW017 24/21 Q1011=
2025-12-28 08:00:00<>METAR SBSV 280800Z 32002KT 9999 FEW017 23/20 Q1012=
2025-12-28 09:00:00<>METAR SBSV 280900Z VRB02KT 9999 SCT019 FEW021TCU 24/22 Q1013=
2025-12-28 10:00:00<>METAR SBSV 281000Z 01004KT 9999 FEW021 SCT070 27/22 Q1013=
2025-12-28 11:00:00<>METAR SBSV 281100Z 05007KT 9999 FEW021 SCT070 27/21 Q1013=
2025-12-28 12:00:00<>METAR SBSV 281200Z 06008KT 9999 SCT021 28/21 Q1013=
2025-12-28 13:00:00<>METAR SBSV 281300Z 09010KT 9999 SCT021 29/22 Q1013=
2025-12-28 14:00:00<>METAR SBSV 281400Z 09012KT 9999 SCT021 29/23 Q1012=
2025-12-28 15:00:00<>METAR SBSV 281500Z 09012KT 9999 SCT021 29/22 Q1012=
2025-12-28 16:00:00<>METAR SBSV 281600Z 11012KT 9999 SCT021 29/22 Q1011=
2025-12-28 17:00:00<>METAR SBSV 281700Z 10011KT 9999 SCT021 29/23 Q1011=
2025-12-28 18:00:00<>METAR SBSV 281800Z 11010KT 9999 SCT020 29/22 Q1010=
2025-12-28 19:00:00<>METAR SBSV 281900Z 10011KT 9999 SCT020 29/22 Q1010=
2025-12-28 20:00:00<>METAR SBSV 282000Z 08011KT 9999 FEW020 28/22 Q1010=
2025-12-28 21:00:00<>METAR SBSV 282100Z 08010KT 9999 FEW020 27/23 Q1010=
2025-12-28 22:00:00<>METAR SBSV 282200Z 07012KT 9999 FEW015 27/23 Q1011=
2025-12-28 23:00:00<>METAR SBSV 282300Z 07010KT CAVOK 27/22 Q1011=
2025-12-29 00:00:00<>METAR SBSV 290000Z 06011KT 9999 FEW015 26/22 Q1011=
2025-12-29 01:00:00<>METAR SBSV 290100Z 06010KT 9999 FEW015 26/23 Q1011=
2025-12-29 02:00:00<>METAR SBSV 290200Z 06012KT 9999 SCT015 26/22 Q1011=
2025-12-29 03:00:00<>METAR SBSV 290300Z 06012KT 9999 BKN015 26/22 Q1011=
2025-12-29 04:00:00<>METAR SBSV 290400Z 05010KT 9999 SCT015 26/22 Q1010=
2025-12-29 05:00:00<>METAR SBSV 290500Z 04009KT 9999 SCT015 BKN040 26/22 Q1011=
2025-12-29 06:00:00<>METAR COR SBSV 290600Z 36003KT 320V050 9999 BKN015 BKN040 26/23 Q1010=
2025-12-29 07:00:00<>METAR SBSV 290700Z 35002KT 9999 BKN015 BKN040 25/23 Q1011=
2025-12-29 08:00:00<>METAR SBSV 290800Z 02003KT 9999 SCT015 SCT040 25/23 Q1011=
2025-12-29 09:00:00<>METAR SBSV 290900Z 04007KT 010V070 9999 SCT017 26/23 Q1011=
2025-12-29 10:00:00<>METAR SBSV 291000Z 36004KT 330V030 9999 SCT017 27/23 Q1012=
2025-12-29 11:00:00<>METAR SBSV 291100Z VRB02KT 9999 VCSH BKN020 FEW023TCU 26/23 Q1013=
2025-12-29 12:00:00<>METAR SBSV 291200Z 07011KT 9000 VCSH BKN020 FEW023TCU 28/25 Q1013=
2025-12-29 12:18:00<>SPECI SBSV 291218Z 07012KT 8000 SHRA BKN020 FEW023TCU 27/23 Q1013=
2025-12-29 12:34:00<>SPECI SBSV 291234Z 08013KT 9999 VCSH BKN020 FEW023TCU 27/23 Q1013 RESHRA=
2025-12-29 13:00:00<>METAR SBSV 291300Z 07011KT 9999 VCSH BKN021 FEW023TCU 27/24 Q1013 RESHRA=
2025-12-29 14:00:00<>METAR SBSV 291400Z 07013KT 9000 VCSH SCT019 FEW023TCU SCT060 28/23 Q1012=
2025-12-29 15:00:00<>METAR SBSV 291500Z 08013KT 9999 VCSH SCT020 FEW023TCU SCT070 29/23 Q1012=
2025-12-29 16:00:00<>METAR SBSV 291600Z 07013KT 9999 SCT022 FEW025TCU 29/24 Q1011=
2025-12-29 17:00:00<>METAR SBSV 291700Z 08013KT 9999 SCT022 FEW025TCU 29/24 Q1011=
2025-12-29 18:00:00<>METAR SBSV 291800Z 08014KT 9999 FEW016TCU 29/24 Q1010=
2025-12-29 19:00:00<>METAR SBSV 291900Z 07014KT 9999 FEW015 29/24 Q1010=
2025-12-29 20:00:00<>METAR SBSV 292000Z 06014KT 9999 FEW015 28/23 Q1010=
2025-12-29 21:00:00<>METAR SBSV 292100Z 06014KT 9999 FEW015 27/24 Q1010=
2025-12-29 22:00:00<>METAR SBSV 292200Z 06011KT 9999 FEW014 27/24 Q1011=
2025-12-29 23:00:00<>METAR SBSV 292300Z 08012KT 9999 FEW014 27/24 Q1011=
2025-12-30 00:00:00<>METAR SBSV 300000Z 05011KT 9999 SCT012 BKN015 27/24 Q1011=
2025-12-30 01:00:00<>METAR SBSV 300100Z 05011KT 9999 BKN014 27/24 Q1011=
2025-12-30 02:00:00<>METAR SBSV 300200Z 06012KT 9999 BKN014 27/23 Q1011=
2025-12-30 03:00:00<>METAR SBSV 300300Z 05010KT 9999 SCT013 26/23 Q1011=
2025-12-30 04:00:00<>METAR SBSV 300400Z 05011KT 9999 SCT013 26/23 Q1010=
2025-12-30 05:00:00<>METAR SBSV 300500Z 03007KT 9999 SCT013 26/23 Q1010=
2025-12-30 06:00:00<>METAR SBSV 300600Z 01003KT 9999 SCT013 26/23 Q1011=
2025-12-30 07:00:00<>METAR SBSV 300700Z 03005KT 9999 SCT013 26/23 Q1011=
2025-12-30 08:00:00<>METAR SBSV 300800Z 05005KT 9999 SCT013 26/23 Q1011=
2025-12-30 09:00:00<>METAR SBSV 300900Z 01003KT 9999 BKN016 26/23 Q1013=
2025-12-30 10:00:00<>METAR SBSV 301000Z 36005KT 9999 SCT020 SCT080 27/23 Q1013=
2025-12-30 11:00:00<>METAR SBSV 301100Z 01008KT 9999 SCT020 SCT080 28/23 Q1014=
2025-12-30 12:00:00<>METAR SBSV 301200Z 01006KT 9999 SCT023 SCT050 28/23 Q1014=
2025-12-30 13:00:00<>METAR SBSV 301300Z 07012KT 9999 SCT023 SCT050 30/23 Q1014=
2025-12-30 14:00:00<>METAR SBSV 301400Z 07013KT 9999 SCT023 30/24 Q1013=
2025-12-30 15:00:00<>METAR SBSV 301500Z 08015KT 9999 SCT023 30/24 Q1013=
2025-12-30 16:00:00<>METAR SBSV 301600Z 08014KT 9999 SCT023 30/24 Q1012=
2025-12-30 17:00:00<>METAR SBSV 301700Z 07015KT 9999 SCT023 30/24 Q1012=
2025-12-30 18:00:00<>METAR SBSV 301800Z 07015KT 9999 FEW023 30/24 Q1012=
2025-12-30 19:00:00<>METAR SBSV 301900Z 07014KT 9999 FEW023 29/24 Q1011=
2025-12-30 20:00:00<>METAR SBSV 302000Z 07014KT 9999 FEW023 28/24 Q1011=
2025-12-30 21:00:00<>METAR SBSV 302100Z 08014KT 9999 SCT020 27/24 Q1012=
2025-12-30 22:00:00<>METAR SBSV 302200Z 06012KT 9999 SCT020 27/24 Q1012=
2025-12-30 23:00:00<>METAR SBSV 302300Z 05011KT 9999 SCT020 27/23 Q1012=
2025-12-31 00:00:00<>METAR SBSV 310000Z 05011KT 9999 SCT013 BKN019 27/24 Q1013=
2025-12-31 01:00:00<>METAR SBSV 310100Z 05011KT 020V080 9999 FEW013 27/24 Q1013=
2025-12-31 02:00:00<>METAR SBSV 310200Z 06011KT 9999 FEW013 27/23 Q1013=
2025-12-31 03:00:00<>METAR SBSV 310300Z 08009KT 9999 FEW013 26/24 Q1013=
2025-12-31 04:00:00<>METAR SBSV 310400Z 06012KT 9999 FEW020 26/23 Q1012=
2025-12-31 05:00:00<>METAR SBSV 310500Z 05009KT 9999 FEW015 26/23 Q1012=
2025-12-31 06:00:00<>METAR SBSV 310600Z 05006KT 9999 FEW017 26/23 Q1012=
2025-12-31 07:00:00<>METAR SBSV 310700Z 04003KT 9999 FEW017 BKN018 26/23 Q1013=
2025-12-31 08:00:00<>METAR SBSV 310800Z 35003KT 330V050 9999 FEW017 25/23 Q1013=
2025-12-31 09:00:00<>METAR SBSV 310900Z VRB02KT 9999 FEW019 SCT031 25/23 Q1014=
2025-12-31 10:00:00<>METAR SBSV 311000Z 35002KT 9999 SCT020 27/24 Q1015=
2025-12-31 11:00:00<>METAR SBSV 311100Z 02006KT 9999 SCT017 27/22 Q1015=
2025-12-31 12:00:00<>METAR SBSV 311200Z 02006KT 9999 SCT021 29/22 Q1015=
2025-12-31 13:00:00<>METAR SBSV 311300Z 08012KT 9999 SCT021 30/22 Q1015=
2025-12-31 14:00:00<>METAR SBSV 311400Z 08014KT 9999 SCT021 29/22 Q1015=
2025-12-31 15:00:00<>METAR SBSV 311500Z 08014KT 9999 SCT021 SCT060 30/23 Q1014=
2025-12-31 16:00:00<>METAR SBSV 311600Z 08014KT 9999 SCT021 SCT060 29/23 Q1014=
2025-12-31 17:00:00<>METAR SBSV 311700Z 08013KT 9999 SCT021 BKN080 30/23 Q1014=
2025-12-31 18:00:00<>METAR SBSV 311800Z 08013KT 9999 SCT021 BKN080 29/23 Q1013=
2025-12-31 19:00:00<>METAR SBSV 311900Z 08014KT 9999 SCT021 SCT080 29/23 Q1013=
2025-12-31 20:00:00<>METAR SBSV 312000Z 07012KT 9999 SCT021 SCT080 28/23 Q1013=
2025-12-31 21:00:00<>METAR SBSV 312100Z 07011KT 9999 SCT021 SCT080 27/23 Q1014=
2025-12-31 22:00:00<>METAR SBSV 312200Z 06012KT 9999 FEW020 27/23 Q1014=
2025-12-31 23:00:00<>METAR SBSV 312300Z 06012KT 9999 FEW020 27/23 Q1014=